{
"type": "FeatureCollection",
"name": "LM_02_GCG_20250724_CS_3484_3454_navigable_path",
"crs": { "type": "name", "properties": { "name": "urn:ogc:def:crs:OGC:1.3:CRS84" } },
"features": [
{ "type": "Feature", "properties": { "survey_id": "LM_02_GCG_20250724_CS_3484_3454", "method": "lines", "connected": "no", "through_width_ft": 1438.1, "gage": "Greenville", "anchor_stage_ft": 7 }, "geometry": { "type": "LineString", "coordinates": [ [ -91.473024873802956, 31.362780410742278 ], [ -91.470348918625476, 31.365303142026299 ], [ -91.468132545201698, 31.368190274279268 ], [ -91.466637672239472, 31.371696867833105 ], [ -91.464927590451239, 31.37472887344245 ], [ -91.462923871362364, 31.377420240943223 ], [ -91.462119442374217, 31.380724783634893 ], [ -91.462870370654628, 31.38405276648443 ], [ -91.464283422353475, 31.387017821635744 ], [ -91.465757023685185, 31.389586947231916 ], [ -91.467609822238543, 31.39197613765862 ] ] } }
]
}
