{
"type": "FeatureCollection",
"name": "LM_05_VGG_20240813_CS_4112_4076_navigable_path",
"crs": { "type": "name", "properties": { "name": "urn:ogc:def:crs:OGC:1.3:CRS84" } },
"features": [
{ "type": "Feature", "properties": { "survey_id": "LM_05_VGG_20240813_CS_4112_4076", "method": "lines", "connected": "yes", "through_width_ft": 1229.4, "gage": "Greenville", "anchor_stage_ft": 7 }, "geometry": { "type": "LineString", "coordinates": [ [ -91.06303047762718, 32.032848293145051 ], [ -91.061405525851626, 32.035627605767097 ], [ -91.059139972855959, 32.038242862867115 ], [ -91.058031719581905, 32.041123021927064 ], [ -91.057271444631382, 32.043891205281064 ], [ -91.056703662436064, 32.047893667532165 ], [ -91.055482928987061, 32.051886321973768 ], [ -91.05583414925367, 32.056145687363724 ], [ -91.055404821624336, 32.060823654967081 ], [ -91.057148370435314, 32.065726994552641 ], [ -91.058429931717626, 32.070040838580105 ], [ -91.061783002530404, 32.074319985807925 ], [ -91.06396690054757, 32.077700097609224 ], [ -91.067599999730291, 32.079837641643032 ], [ -91.072239745743204, 32.080852528875319 ], [ -91.076951955419133, 32.081876881404249 ], [ -91.081662583227128, 32.082698345833741 ], [ -91.084622988739497, 32.084414133805979 ], [ -91.087017473929535, 32.086447620281497 ] ] } }
]
}
