{
"type": "FeatureCollection",
"name": "LM_09_LPM_20250609_CS_5140_5116_navigable_path",
"crs": { "type": "name", "properties": { "name": "urn:ogc:def:crs:OGC:1.3:CRS84" } },
"features": [
{ "type": "Feature", "properties": { "survey_id": "LM_09_LPM_20250609_CS_5140_5116", "method": "lines", "connected": "yes", "through_width_ft": 1174.7, "gage": "Greenville", "anchor_stage_ft": 7 }, "geometry": { "type": "LineString", "coordinates": [ [ -91.16527231646802, 33.068128421448414 ], [ -91.165858853314106, 33.07103820640264 ], [ -91.167712467795965, 33.073520039618323 ], [ -91.169198791163126, 33.076251022443444 ], [ -91.170833352926323, 33.078789515467662 ], [ -91.171771037693972, 33.08187595635836 ], [ -91.171920684183817, 33.08350966553779 ], [ -91.172039130154005, 33.085143886025868 ], [ -91.1723695950554, 33.086857203764339 ], [ -91.17255165479159, 33.088790449119521 ], [ -91.171513327036209, 33.090172049238681 ], [ -91.171242953084032, 33.091898805991633 ], [ -91.169527014579046, 33.095128553220206 ], [ -91.167643193066851, 33.097864652565256 ], [ -91.165645586028589, 33.100565397498244 ], [ -91.164360016691347, 33.103479414472403 ] ] } }
]
}
