{
"type": "FeatureCollection",
"name": "LM_03_KGC_20230824_CS_3794_3756_navigable_path",
"crs": { "type": "name", "properties": { "name": "urn:ogc:def:crs:OGC:1.3:CRS84" } },
"features": [
{ "type": "Feature", "properties": { "survey_id": "LM_03_KGC_20230824_CS_3794_3756", "method": "lines", "connected": "yes", "through_width_ft": 1192.3, "gage": "Greenville", "anchor_stage_ft": 7 }, "geometry": { "type": "LineString", "coordinates": [ [ -91.378459295900228, 31.726601201378951 ], [ -91.377819159138241, 31.729730629270371 ], [ -91.375393947541909, 31.731928577774863 ], [ -91.373474352561516, 31.734327773810509 ], [ -91.371822835046487, 31.736783965360182 ], [ -91.369763366748472, 31.739368800519348 ], [ -91.368082624888757, 31.742129172777165 ], [ -91.366929317772772, 31.745164193471719 ], [ -91.365576894066066, 31.748058291425782 ], [ -91.364370857558768, 31.750868506438614 ], [ -91.363537993934273, 31.753894387754741 ], [ -91.362496040455937, 31.756860103527124 ], [ -91.361622284036002, 31.7597909450575 ], [ -91.360025474082647, 31.762621973481465 ], [ -91.3586755461629, 31.765573481937508 ], [ -91.358340160069986, 31.76843594523001 ], [ -91.360667299836152, 31.771543673366462 ], [ -91.360903786940412, 31.774502956833093 ], [ -91.360769269198428, 31.77744983780817 ], [ -91.36319979737759, 31.780671082604638 ] ] } }
]
}
