{
"type": "FeatureCollection",
"name": "LM_02_GCG_20240815_CS_3660_3624_navigable_path",
"crs": { "type": "name", "properties": { "name": "urn:ogc:def:crs:OGC:1.3:CRS84" } },
"features": [
{ "type": "Feature", "properties": { "survey_id": "LM_02_GCG_20240815_CS_3660_3624", "method": "lines", "connected": "yes", "through_width_ft": 1860.6, "gage": "Greenville", "anchor_stage_ft": 7 }, "geometry": { "type": "LineString", "coordinates": [ [ -91.429447335303948, 31.549121112268327 ], [ -91.426903662256805, 31.551096864641035 ], [ -91.424742401248707, 31.553161664909442 ], [ -91.421821436533207, 31.555257200431281 ], [ -91.41978412004886, 31.557480956691194 ], [ -91.416602842143021, 31.558920729300553 ], [ -91.413189251234968, 31.560172826463969 ], [ -91.410049053832921, 31.561852039486958 ], [ -91.407930255960778, 31.564582774152878 ], [ -91.405504449146804, 31.567191032124448 ], [ -91.403900797835902, 31.569980053187443 ], [ -91.405615486767687, 31.574006224769573 ], [ -91.405172132941615, 31.576923649232224 ], [ -91.406865484103108, 31.579976470046258 ], [ -91.407776077269887, 31.582824544749403 ], [ -91.407209311012821, 31.585564828978601 ], [ -91.406942047309215, 31.588401883107402 ], [ -91.406688973838698, 31.591256600984813 ], [ -91.406412549674371, 31.594184934995763 ] ] } }
]
}
