{
"type": "FeatureCollection",
"name": "LM_04_GGK_20210717_CS_4030_3978_navigable_path",
"crs": { "type": "name", "properties": { "name": "urn:ogc:def:crs:OGC:1.3:CRS84" } },
"features": [
{ "type": "Feature", "properties": { "survey_id": "LM_04_GGK_20210717_CS_4030_3978", "method": "lines", "connected": "yes", "through_width_ft": 1474.3, "gage": "Greenville", "anchor_stage_ft": 7 }, "geometry": { "type": "LineString", "coordinates": [ [ -91.112559464016527, 31.982120918784609 ], [ -91.115878737089389, 31.981284573443638 ], [ -91.119520983307282, 31.981199500221212 ], [ -91.122981189141669, 31.980920979175515 ], [ -91.126505351949405, 31.98051062713439 ], [ -91.12993952534471, 31.980946158219826 ], [ -91.133279295262028, 31.981392086859127 ], [ -91.13680044759603, 31.980865634523973 ], [ -91.140173904403653, 31.981465209478575 ], [ -91.143569546281526, 31.981032001544175 ], [ -91.146882861988004, 31.981915483109837 ], [ -91.15012576730588, 31.979733235320694 ], [ -91.153260172062318, 31.978854004593966 ], [ -91.156808557790995, 31.980018364354741 ], [ -91.160323418678814, 31.980951670656477 ], [ -91.163607397009955, 31.980745126337844 ], [ -91.167859161489787, 31.982999379401576 ], [ -91.171631693073522, 31.982598044139987 ], [ -91.174921009402581, 31.980966429247399 ], [ -91.177722290052088, 31.978821815429956 ], [ -91.179981063350368, 31.97617567333215 ], [ -91.181982597369412, 31.973756885231921 ], [ -91.184101273668773, 31.971320430957977 ], [ -91.185477808142323, 31.968542223377398 ], [ -91.188158950566375, 31.966231941832358 ], [ -91.189315856059324, 31.96344860144935 ], [ -91.190425717030834, 31.960495172073148 ] ] } }
]
}
