{
"type": "FeatureCollection",
"name": "LM_08_MVF_20250609_CS_4958_4938_navigable_path",
"crs": { "type": "name", "properties": { "name": "urn:ogc:def:crs:OGC:1.3:CRS84" } },
"features": [
{ "type": "Feature", "properties": { "survey_id": "LM_08_MVF_20250609_CS_4958_4938", "method": "lines", "connected": "yes", "through_width_ft": 1392.0, "gage": "Greenville", "anchor_stage_ft": 7 }, "geometry": { "type": "LineString", "coordinates": [ [ -91.065576865718612, 32.893303068958936 ], [ -91.066242455675095, 32.890116072652475 ], [ -91.068064563556788, 32.887344986541102 ], [ -91.070109325098827, 32.884923754764472 ], [ -91.073463346395243, 32.883162144658172 ], [ -91.074960325085357, 32.88059164789842 ], [ -91.078542395974353, 32.879310786212912 ], [ -91.081471182937037, 32.877362954952993 ], [ -91.084456801805814, 32.875885818858478 ], [ -91.087108947974414, 32.874113437121977 ], [ -91.089340567152064, 32.871766732761323 ] ] } }
]
}
