{
"type": "FeatureCollection",
"name": "LM_03_KGC_20240812_CS_3768_3708_navigable_path",
"crs": { "type": "name", "properties": { "name": "urn:ogc:def:crs:OGC:1.3:CRS84" } },
"features": [
{ "type": "Feature", "properties": { "survey_id": "LM_03_KGC_20240812_CS_3768_3708", "method": "lines", "connected": "yes", "through_width_ft": 1229.9, "gage": "Greenville", "anchor_stage_ft": 7 }, "geometry": { "type": "LineString", "coordinates": [ [ -91.40032322261456, 31.663007836357707 ], [ -91.400223135587268, 31.666004475871148 ], [ -91.401102149909633, 31.6688277199266 ], [ -91.401320569092192, 31.671829333537456 ], [ -91.40180041661911, 31.67463688841794 ], [ -91.402427812365403, 31.677529571815956 ], [ -91.402405500204296, 31.680533196077931 ], [ -91.402157624737782, 31.683730438546164 ], [ -91.403200379522886, 31.68628199506016 ], [ -91.403142044539834, 31.68916370464451 ], [ -91.403324676692009, 31.691987839248462 ], [ -91.403342097616161, 31.694864485490303 ], [ -91.403584151667985, 31.698205443088945 ], [ -91.403480793689951, 31.701280904548828 ], [ -91.402552919228484, 31.704432963377247 ], [ -91.401563255488398, 31.707540643588491 ], [ -91.400504630501089, 31.71047511437741 ], [ -91.3984083535275, 31.713093312916236 ], [ -91.396298946764944, 31.715447454572679 ], [ -91.394267757961188, 31.717820317596864 ], [ -91.392479375968918, 31.720254134782518 ], [ -91.387873307610903, 31.721182053886139 ], [ -91.383443756165477, 31.722357698817341 ], [ -91.382026584517064, 31.72506893838116 ], [ -91.379707002074738, 31.727251447230127 ], [ -91.378287299675833, 31.729956674617661 ], [ -91.375414621543143, 31.731913647476762 ], [ -91.373612519951209, 31.73437620649629 ], [ -91.371739206588501, 31.736671313945266 ], [ -91.36979487085614, 31.739370110777866 ], [ -91.368009034197868, 31.742060198192437 ] ] } }
]
}
