{
"type": "FeatureCollection",
"name": "LM_08_MVF_20250611_CS_4894_4862_navigable_path",
"crs": { "type": "name", "properties": { "name": "urn:ogc:def:crs:OGC:1.3:CRS84" } },
"features": [
{ "type": "Feature", "properties": { "survey_id": "LM_08_MVF_20250611_CS_4894_4862", "method": "lines", "connected": "yes", "through_width_ft": 1170.6, "gage": "Greenville", "anchor_stage_ft": 7 }, "geometry": { "type": "LineString", "coordinates": [ [ -91.147261062353934, 32.829393467917129 ], [ -91.148598669740906, 32.826518551627267 ], [ -91.149460884981124, 32.823480084022606 ], [ -91.151025077111044, 32.820864322267909 ], [ -91.151706031842792, 32.81780162579345 ], [ -91.152203708748587, 32.814828897779904 ], [ -91.15289511631056, 32.811836098944113 ], [ -91.154004681845379, 32.80908321380975 ], [ -91.154277102864896, 32.806096861578048 ], [ -91.154594820144212, 32.803218058812256 ], [ -91.155084029714743, 32.800294594209497 ], [ -91.154062848067198, 32.79717072440296 ], [ -91.156418438578982, 32.794418326921104 ], [ -91.153640717023237, 32.791205416732822 ], [ -91.153323564143889, 32.788394256014563 ], [ -91.153712406640693, 32.785549282474278 ], [ -91.153706306016517, 32.782580548357039 ] ] } }
]
}
