{
"type": "FeatureCollection",
"name": "LM_06_MBV_20240726_CS_4516_4478_navigable_path",
"crs": { "type": "name", "properties": { "name": "urn:ogc:def:crs:OGC:1.3:CRS84" } },
"features": [
{ "type": "Feature", "properties": { "survey_id": "LM_06_MBV_20240726_CS_4516_4478", "method": "lines", "connected": "yes", "through_width_ft": 1874.6, "gage": "Greenville", "anchor_stage_ft": 7 }, "geometry": { "type": "LineString", "coordinates": [ [ -90.996721775905556, 32.417694724770222 ], [ -90.999385506489972, 32.420012995048211 ], [ -91.002496261769963, 32.421633786521213 ], [ -91.004817188016617, 32.42408236680938 ], [ -91.007197686388423, 32.426227189571513 ], [ -91.011957796765273, 32.425766090898769 ], [ -91.016404963412057, 32.425210473279883 ], [ -91.019999230986613, 32.424691590986946 ], [ -91.02234058531505, 32.426945678126366 ], [ -91.025516309638149, 32.427581341947629 ], [ -91.028393906072765, 32.429208072152299 ], [ -91.031507561516648, 32.430353244442557 ], [ -91.035078871146951, 32.430462612984215 ], [ -91.038541812590381, 32.430613880173496 ], [ -91.041821298891605, 32.43131272978048 ], [ -91.045376713498513, 32.431727759942575 ], [ -91.048560239259459, 32.432723577969497 ], [ -91.051982751382226, 32.433652561246355 ], [ -91.055133497981174, 32.435015915269389 ], [ -91.058386229904045, 32.435705797162726 ] ] } }
]
}
