{
"type": "FeatureCollection",
"name": "LM_05_VGG_20250717_CS_4373_4252_navigable_path",
"crs": { "type": "name", "properties": { "name": "urn:ogc:def:crs:OGC:1.3:CRS84" } },
"features": [
{ "type": "Feature", "properties": { "survey_id": "LM_05_VGG_20250717_CS_4373_4252", "method": "lines", "connected": "no", "through_width_ft": 1472.5, "gage": "Greenville", "anchor_stage_ft": 7 }, "geometry": { "type": "LineString", "coordinates": [ [ -90.993291986214558, 32.188018604923563 ], [ -90.992597172653262, 32.190817495047774 ], [ -90.991170594652999, 32.193529425316058 ], [ -90.990753050908637, 32.196362017302476 ], [ -90.98955211425249, 32.199056895521693 ], [ -90.98864566844577, 32.201862905469511 ], [ -90.986677109112804, 32.20429573759025 ], [ -90.986835139775579, 32.207534099656534 ], [ -90.985258973429936, 32.210175129867011 ], [ -90.98532927005779, 32.213212352989586 ], [ -90.986638869379973, 32.21621747537796 ], [ -90.985808634859183, 32.218985930929527 ], [ -90.986084717129813, 32.221784212304279 ], [ -90.986584800163101, 32.224608272142007 ], [ -90.986244398111538, 32.227575455851458 ], [ -90.986514575892102, 32.230595502701476 ], [ -90.986519602906753, 32.23359003434588 ] ] } }
]
}
