{
"type": "FeatureCollection",
"crs": { "type": "name", "properties": { "name": "urn:ogc:def:crs:OGC:1.3:CRS84" } },
"features": [
{ "type": "Feature", "properties": { "survey_id": "LM_07_FMB_20260511_CS_4562_4530", "method": "lines", "connected": "yes", "through_width_ft": 1256.6, "gage": "Greenville", "anchor_stage_ft": 7 }, "geometry": { "type": "LineString", "coordinates": [ [ -91.080782808442009, 32.444616350640025 ], [ -91.083469495815251, 32.446373689865595 ], [ -91.086406483989194, 32.448238097220177 ], [ -91.089004498044105, 32.450220074736194 ], [ -91.091965560418018, 32.452031212349368 ], [ -91.094606761323476, 32.454152384483351 ], [ -91.096942200540994, 32.456486473726144 ], [ -91.099066264387432, 32.458641193240247 ], [ -91.100090550504405, 32.462058543512413 ], [ -91.102726723675644, 32.46397735564495 ], [ -91.104516886013954, 32.466663091982021 ], [ -91.107877175005981, 32.468129418331287 ], [ -91.109894501121389, 32.470474639688241 ], [ -91.11153569469684, 32.473179330920871 ], [ -91.113356310979, 32.475652143246663 ], [ -91.115748851746574, 32.478048839502549 ], [ -91.117229727365029, 32.48077701255648 ] ] } }
]
}
