{
"type": "FeatureCollection",
"name": "LM_07_FMB_20210620_CS_4754_4724_navigable_path",
"crs": { "type": "name", "properties": { "name": "urn:ogc:def:crs:OGC:1.3:CRS84" } },
"features": [
{ "type": "Feature", "properties": { "survey_id": "LM_07_FMB_20210620_CS_4754_4724", "method": "lines", "connected": "yes", "through_width_ft": 1368.0, "gage": "Greenville", "anchor_stage_ft": 7 }, "geometry": { "type": "LineString", "coordinates": [ [ -91.06002226434245, 32.699821315778848 ], [ -91.061723602556469, 32.697331673027747 ], [ -91.063088375024549, 32.69461985360806 ], [ -91.064685306535992, 32.692127699901832 ], [ -91.065824300540555, 32.689036196961204 ], [ -91.067538854386243, 32.686473836995141 ], [ -91.069890176227617, 32.684088072841966 ], [ -91.072370290527701, 32.681989164632611 ], [ -91.075381818053842, 32.6801389100035 ], [ -91.078209597126531, 32.678209364149012 ], [ -91.08172240365478, 32.677141172910765 ], [ -91.085179656765931, 32.675999886650963 ], [ -91.088138604651149, 32.674653443074895 ], [ -91.09126290551751, 32.673261075554187 ], [ -91.094465244929424, 32.672092737478827 ], [ -91.097703653408274, 32.671499056935197 ] ] } }
]
}
