{
"type": "FeatureCollection",
"name": "LM_05_VGG_20220714_CS_4354_4088_navigable_path",
"crs": { "type": "name", "properties": { "name": "urn:ogc:def:crs:OGC:1.3:CRS84" } },
"features": [
{ "type": "Feature", "properties": { "survey_id": "LM_05_VGG_20220714_CS_4354_4088", "method": "lines", "connected": "yes", "through_width_ft": 1020.8, "gage": "Greenville", "anchor_stage_ft": 7 }, "geometry": { "type": "LineString", "coordinates": [ [ -90.90765765305575, 32.309633682046943 ], [ -90.91009376657999, 32.30766412728439 ], [ -90.912449210445715, 32.305372692670701 ], [ -90.913882376116376, 32.302496303356662 ], [ -90.91597249846096, 32.300148107922368 ], [ -90.918271668875647, 32.297784450749091 ], [ -90.920260738357726, 32.295331679698961 ], [ -90.922916956718197, 32.293410852868092 ], [ -90.925241545143891, 32.291277566366588 ], [ -90.928130390071232, 32.28954880041772 ], [ -90.930917538925698, 32.287808300924723 ], [ -90.9334839528603, 32.285791171141497 ], [ -90.935895665688847, 32.283771427973726 ], [ -90.938721867824469, 32.282147968297508 ], [ -90.941889342548436, 32.280807840896074 ], [ -90.943432082919585, 32.277859010191293 ], [ -90.946033561103121, 32.276164153835587 ], [ -90.948772898097232, 32.27466527028902 ], [ -90.9513131454773, 32.272838281487111 ], [ -90.954195365948252, 32.271278742515939 ], [ -90.959079209034101, 32.271132185361999 ], [ -90.962730223083312, 32.270177615829915 ], [ -90.965060382571153, 32.267863477214263 ], [ -90.968037142026674, 32.265920449190133 ], [ -90.969895276944925, 32.263454856664076 ], [ -91.088799868947675, 32.088929926696856 ], [ -91.086917535106494, 32.086517126393453 ], [ -91.084392307915593, 32.084545077682293 ], [ -91.081977390032378, 32.082506794503253 ], [ -91.078302030504204, 32.081135554680159 ], [ -91.075476363430028, 32.079122236902649 ], [ -91.072387204669241, 32.077383562283828 ], [ -91.070793539134371, 32.074544363700916 ], [ -91.066661176076039, 32.072330470596128 ], [ -91.0589443725503, 32.069898311467348 ], [ -91.057210421596182, 32.065711714943419 ], [ -91.055511336191884, 32.060819200005092 ], [ -91.05599417725027, 32.056154038648209 ], [ -91.05574893869067, 32.051910782480377 ] ] } }
]
}
