{
"type": "FeatureCollection",
"name": "LM_07_FMB_20220620_CS_4706_4530_navigable_path",
"crs": { "type": "name", "properties": { "name": "urn:ogc:def:crs:OGC:1.3:CRS84" } },
"features": [
{ "type": "Feature", "properties": { "survey_id": "LM_07_FMB_20220620_CS_4706_4530", "method": "lines", "connected": "yes", "through_width_ft": 400.9, "gage": "Greenville", "anchor_stage_ft": 7 }, "geometry": { "type": "LineString", "coordinates": [ [ -91.154839814989316, 32.635824193791009 ], [ -91.154262833266301, 32.639051072077088 ], [ -91.153118889996918, 32.642047149451102 ], [ -91.152125187682074, 32.645357295575309 ], [ -91.150281022492706, 32.648413430837159 ], [ -91.148498620044649, 32.651200637326426 ], [ -91.146742230377697, 32.653955629184303 ], [ -91.144590264909212, 32.656437563258905 ], [ -91.142215467213049, 32.658910013003315 ], [ -91.139770001593831, 32.661288544556292 ], [ -91.137167338183403, 32.663395192898413 ], [ -91.134575853697044, 32.665555530852998 ], [ -91.13184535824486, 32.667777332878757 ] ] } }
]
}
