{
"type": "FeatureCollection",
"name": "LM_07_FMB_20250622_CS_4602_4570_navigable_path",
"crs": { "type": "name", "properties": { "name": "urn:ogc:def:crs:OGC:1.3:CRS84" } },
"features": [
{ "type": "Feature", "properties": { "survey_id": "LM_07_FMB_20250622_CS_4602_4570", "method": "lines", "connected": "yes", "through_width_ft": 1281.2, "gage": "Greenville", "anchor_stage_ft": 7 }, "geometry": { "type": "LineString", "coordinates": [ [ -91.096778313187016, 32.535107508344879 ], [ -91.096376914502414, 32.531999046387831 ], [ -91.09773260911895, 32.529262871120281 ], [ -91.099101382362733, 32.52639882142924 ], [ -91.100560630743331, 32.523761646380677 ], [ -91.101473585023186, 32.520713666843164 ], [ -91.104160699060444, 32.518630146275861 ], [ -91.104913873276061, 32.515494010918708 ], [ -91.106890277506494, 32.513095819933781 ], [ -91.108898570180983, 32.510830816374252 ], [ -91.111559860322416, 32.5086837790139 ], [ -91.112080161921838, 32.50590808397196 ], [ -91.114410417860555, 32.503827736265819 ], [ -91.116017905398579, 32.501254546723217 ], [ -91.116824810168168, 32.498464211799032 ], [ -91.118065405519843, 32.495668720645668 ], [ -91.11868869451844, 32.492679504379161 ] ] } }
]
}
