{
"type": "FeatureCollection",
"name": "LM_07_FMB_20250621_CS_4634_4604_navigable_path",
"crs": { "type": "name", "properties": { "name": "urn:ogc:def:crs:OGC:1.3:CRS84" } },
"features": [
{ "type": "Feature", "properties": { "survey_id": "LM_07_FMB_20250621_CS_4634_4604", "method": "lines", "connected": "yes", "through_width_ft": 1141.6, "gage": "Greenville", "anchor_stage_ft": 7 }, "geometry": { "type": "LineString", "coordinates": [ [ -91.117729553486953, 32.575215062796424 ], [ -91.11541699676286, 32.573184017141799 ], [ -91.113183578507432, 32.571501225419986 ], [ -91.113371401957721, 32.568090116030547 ], [ -91.110223187192744, 32.566666110672472 ], [ -91.107957124573815, 32.564742459059943 ], [ -91.104940254753487, 32.562986942019513 ], [ -91.100094955098797, 32.561451819212998 ], [ -91.097540436773841, 32.559185671809068 ], [ -91.097105074026345, 32.556016441532044 ], [ -91.096189534071854, 32.553126846024234 ], [ -91.095483832142392, 32.550207385477812 ], [ -91.09528839166893, 32.547351617256275 ], [ -91.095392587802493, 32.544266754524983 ], [ -91.095033726251316, 32.541088689055414 ], [ -91.095967120944323, 32.538175721684901 ] ] } }
]
}
