{
"type": "FeatureCollection",
"name": "LM_04_GGK_20250714_CS_4034_4006_navigable_path",
"crs": { "type": "name", "properties": { "name": "urn:ogc:def:crs:OGC:1.3:CRS84" } },
"features": [
{ "type": "Feature", "properties": { "survey_id": "LM_04_GGK_20250714_CS_4034_4006", "method": "lines", "connected": "yes", "through_width_ft": 1581.8, "gage": "Greenville", "anchor_stage_ft": 7 }, "geometry": { "type": "LineString", "coordinates": [ [ -91.15375547047303, 31.983034494846208 ], [ -91.150298270484001, 31.982575816922395 ], [ -91.146909831576522, 31.982285653077099 ], [ -91.143589770437416, 31.981322308966437 ], [ -91.140188040201693, 31.981411161394856 ], [ -91.136770326407316, 31.981287543035663 ], [ -91.129972775679647, 31.980632615967764 ], [ -91.12648765012969, 31.981227016323587 ], [ -91.123045218630367, 31.981336719584458 ], [ -91.119576187416101, 31.981255371146389 ], [ -91.115843397304928, 31.981406975024115 ], [ -91.112552202012921, 31.982219397352317 ], [ -91.109038423351208, 31.982572564391351 ], [ -91.105458211592463, 31.983668954045907 ] ] } }
]
}
