{
"type": "FeatureCollection",
"crs": { "type": "name", "properties": { "name": "urn:ogc:def:crs:OGC:1.3:CRS84" } },
"features": [
{ "type": "Feature", "properties": { "survey_id": "LM_07_FMB_20260510_CS_4622_4564", "method": "lines", "connected": "yes", "through_width_ft": 1272.7, "gage": "Greenville", "anchor_stage_ft": 7 }, "geometry": { "type": "LineString", "coordinates": [ [ -91.118550127082585, 32.483608028528032 ], [ -91.119017514929396, 32.486683208570504 ], [ -91.119291502262755, 32.48959203988516 ], [ -91.118732860046009, 32.492633986586561 ], [ -91.118016899264845, 32.495670150328365 ], [ -91.117353495462666, 32.498511519145872 ], [ -91.11652213791784, 32.501420033401942 ], [ -91.115270771057396, 32.504109479521915 ], [ -91.114403953164555, 32.506932992547007 ], [ -91.112865027554577, 32.509423802056254 ], [ -91.109006982805695, 32.510910790343878 ], [ -91.106922863954694, 32.513120658647097 ], [ -91.104923522001926, 32.515431092952156 ], [ -91.103682858814764, 32.518410824755513 ], [ -91.10136873369953, 32.52066785581129 ], [ -91.10034264132841, 32.523642369578518 ], [ -91.0989441985936, 32.526307673870633 ], [ -91.09743725017664, 32.529138205487861 ], [ -91.096460390315471, 32.532029021925531 ], [ -91.096688179697608, 32.535065783024166 ], [ -91.095807666930952, 32.538178805043692 ], [ -91.094949225048737, 32.541061276269545 ], [ -91.095410294376805, 32.544257769441586 ], [ -91.095510046196139, 32.547280295915648 ], [ -91.095428306409033, 32.55021121275071 ], [ -91.096084444641818, 32.553149086943421 ], [ -91.097066263584452, 32.556016979405854 ], [ -91.09822805197571, 32.558927634031043 ], [ -91.098690959587131, 32.561897998042042 ], [ -91.102995138482825, 32.563714175324122 ] ] } }
]
}
