{
"type": "FeatureCollection",
"name": "LM_18_FRIX_20230813_CS_712_710_SORT_LWRP_navigable_path",
"crs": { "type": "name", "properties": { "name": "urn:ogc:def:crs:OGC:1.3:CRS84" } },
"features": [
{ "type": "Feature", "properties": { "survey_id": "LM_18_FRIX_20230813_CS_712_710_SORT_LWRP", "method": "lines", "connected": "yes", "through_width_ft": 755.5, "gage": "Memphis", "anchor_stage_ft": -10 }, "geometry": { "type": "LineString", "coordinates": [ [ -90.265803623093902, 34.956450737386561 ], [ -90.265497257178851, 34.955748452975456 ], [ -90.265255723191871, 34.955153956342876 ], [ -90.264516431969497, 34.954977119481256 ], [ -90.264130844107456, 34.95453020899317 ], [ -90.263250621999276, 34.95452739932648 ], [ -90.262395067845219, 34.954665808605753 ], [ -90.26202487818891, 34.954057414336724 ], [ -90.261164280016857, 34.954197074936289 ], [ -90.260616814118151, 34.95387205963322 ], [ -90.260047194990065, 34.953541046952473 ], [ -90.25926234027078, 34.95351068837963 ], [ -90.258893138088482, 34.953023745013788 ], [ -90.258148099994941, 34.95311049524058 ], [ -90.257763592886036, 34.952502314256513 ], [ -90.256923450008614, 34.952509156808468 ], [ -90.256705785096983, 34.951781382053184 ], [ -90.255757216669139, 34.951907752518828 ], [ -90.254947691513379, 34.951987256288461 ], [ -90.254473400574895, 34.95166057165212 ], [ -90.253475694259706, 34.951809440904299 ], [ -90.253192859828246, 34.951145575603171 ], [ -90.252371855018183, 34.951219307603992 ], [ -90.252171750722781, 34.950446591204781 ], [ -90.251250042642326, 34.950598260751079 ], [ -90.250443832626203, 34.950698690449137 ], [ -90.250243881835672, 34.949911962612752 ], [ -90.249391294208522, 34.950012433581783 ], [ -90.248617392741039, 34.949895160849408 ], [ -90.247869336931103, 34.949813362105473 ], [ -90.247651190431327, 34.949042702622663 ], [ -90.247475643985297, 34.948215586555172 ], [ -90.246713106056177, 34.948018609974007 ], [ -90.245695393291797, 34.947998543496219 ], [ -90.24463914792284, 34.947843793148756 ], [ -90.244269145321482, 34.947334259082062 ], [ -90.243649586608768, 34.946794056393635 ], [ -90.243202037934211, 34.946239074256496 ], [ -90.24315148499204, 34.945407373958929 ], [ -90.242979118826966, 34.944845453247254 ], [ -90.243095977511601, 34.944255483487552 ], [ -90.242922112537826, 34.943658636701379 ], [ -90.242892336452456, 34.943103250769454 ], [ -90.242940392126428, 34.942515290473281 ], [ -90.242760003012961, 34.942033686827969 ], [ -90.242644703439396, 34.941481579047036 ], [ -90.24257617896734, 34.940917620326736 ], [ -90.242642969074936, 34.940328161986443 ], [ -90.242473521917489, 34.939769054273569 ], [ -90.242400086789814, 34.939341806919181 ] ] } }
]
}
