{
"type": "FeatureCollection",
"crs": { "type": "name", "properties": { "name": "urn:ogc:def:crs:OGC:1.3:CRS84" } },
"features": [
{ "type": "Feature", "properties": { "survey_id": "LM_15_CVB_20210424_CS_6070_6028", "method": "lines", "connected": "no", "through_width_ft": 1430.1, "gage": "Memphis", "anchor_stage_ft": -10 }, "geometry": { "type": "LineString", "coordinates": [ [ -91.048304549307318, 33.983075095401141 ], [ -91.04467492340892, 33.984143509321946 ], [ -91.041673894240049, 33.985034611775731 ], [ -91.038213879567522, 33.986849077778565 ], [ -91.034480405668916, 33.988269962461409 ], [ -91.030739832881196, 33.989099775287038 ], [ -91.026894448491532, 33.99075417325944 ], [ -91.025004443075616, 33.994528965745282 ], [ -91.021956289311007, 33.99641364561684 ], [ -91.018817450895256, 33.99778662346889 ], [ -91.016069527647815, 33.999842302472331 ], [ -91.015005001098245, 34.003782261509478 ], [ -91.013885672057683, 34.007407873147649 ], [ -91.010136679957299, 34.008043986437819 ] ] } }
]
}
