{
"type": "FeatureCollection",
"crs": { "type": "name", "properties": { "name": "urn:ogc:def:crs:OGC:1.3:CRS84" } },
"features": [
{ "type": "Feature", "properties": { "survey_id": "LM_16_OVLX_20210323_CS_610_608_LACONIA_LWRP", "method": "lines", "connected": "no", "through_width_ft": 138.9, "gage": "Memphis", "anchor_stage_ft": -10 }, "geometry": { "type": "LineString", "coordinates": [ [ -90.935646747040181, 34.020826102263911 ], [ -90.936797238799372, 34.020925117932791 ], [ -90.937244131669146, 34.021307209416349 ], [ -90.937913951198681, 34.020906203153054 ], [ -90.93861072199455, 34.02147854042942 ], [ -90.939306624685088, 34.021350045203882 ], [ -90.939894212137574, 34.021647089602034 ], [ -90.940598531747682, 34.021211193930419 ], [ -90.941550846305901, 34.021439587129997 ], [ -90.941851380728949, 34.021254437184702 ], [ -90.942265034009907, 34.021004671043208 ], [ -90.942555332928976, 34.021298101273807 ], [ -90.942922535318175, 34.021632667944047 ], [ -90.943295977018053, 34.021380576270822 ], [ -90.943608759387033, 34.021207444142313 ], [ -90.945160755291667, 34.021122915308531 ], [ -90.944610314540213, 34.020899895714699 ], [ -90.943879526819543, 34.02105202327234 ] ] } }
]
}
