{
"type": "FeatureCollection",
"name": "LM_12_EYB_20220420_CS_5638_5616_navigable_path",
"crs": { "type": "name", "properties": { "name": "urn:ogc:def:crs:OGC:1.3:CRS84" } },
"features": [
{ "type": "Feature", "properties": { "survey_id": "LM_12_EYB_20220420_CS_5638_5616", "method": "lines", "connected": "yes", "through_width_ft": 1336.7, "gage": "Greenville", "anchor_stage_ft": 7 }, "geometry": { "type": "LineString", "coordinates": [ [ -91.128521406795045, 33.607540596292971 ], [ -91.128653197168077, 33.610554696567704 ], [ -91.129587598897942, 33.61348674005464 ], [ -91.130212845211105, 33.616346540864434 ], [ -91.131348324428203, 33.619243002878797 ], [ -91.132090784663049, 33.622181811352533 ], [ -91.133446360918086, 33.625003042753349 ], [ -91.135063761635152, 33.627953670337888 ], [ -91.139302832734472, 33.628901791582102 ], [ -91.14185578385819, 33.630809928745471 ], [ -91.14435639159241, 33.632981894789303 ], [ -91.147344026509202, 33.634373643559705 ] ] } }
]
}
