{
"type": "FeatureCollection",
"name": "LM_18_FRIX_20220929_CS_709_711_SORT_LWRP_INTERP_navigable_path",
"crs": { "type": "name", "properties": { "name": "urn:ogc:def:crs:OGC:1.3:CRS84" } },
"features": [
{ "type": "Feature", "properties": { "survey_id": "LM_18_FRIX_20220929_CS_709_711_SORT_LWRP_INTERP", "method": "blob", "connected": "yes", "through_width_ft": 754.6, "gage": "Memphis", "anchor_stage_ft": -10 }, "geometry": { "type": "LineString", "coordinates": [ [ -90.240953855222585, 34.929762695678043 ], [ -90.241092935877703, 34.930590088969971 ], [ -90.241065341213073, 34.931413694564618 ], [ -90.241204424646085, 34.932241087712299 ], [ -90.241468521017907, 34.933071321259703 ], [ -90.241565939532691, 34.93389776726508 ], [ -90.241580017282558, 34.934722319568657 ], [ -90.24167743773728, 34.935548765429147 ], [ -90.24181653150346, 34.936376157989997 ], [ -90.241872282821319, 34.937201656890778 ], [ -90.242011380213711, 34.938029049250744 ], [ -90.242233826221167, 34.938858334900267 ], [ -90.242372928933989, 34.939685726946195 ], [ -90.242470359846834, 34.940512172217886 ], [ -90.24260946661046, 34.941339564034507 ], [ -90.242790250495418, 34.942167902311233 ], [ -90.242929362157454, 34.942995293841967 ], [ -90.242985124597126, 34.943820792164949 ], [ -90.242999211441585, 34.944645343854027 ], [ -90.243096651131069, 34.945471788592549 ], [ -90.243360800184945, 34.94630201929116 ], [ -90.24387501862806, 34.947137927777455 ], [ -90.244430924971653, 34.947974780631178 ], [ -90.244861807257593, 34.948808793345243 ], [ -90.245292697808637, 34.949642804834184 ], [ -90.24580695501426, 34.950478706610106 ], [ -90.246321222242742, 34.951314606590358 ], [ -90.247627421340525, 34.952168465332086 ], [ -90.249206897198718, 34.953048295697755 ], [ -90.250894305105248, 34.953980117056823 ], [ -90.252792919200104, 34.954869430606252 ], [ -90.25451405180614, 34.955293017766948 ], [ -90.256585140267504, 34.955229951322956 ], [ -90.258452494871761, 34.955272145519515 ], [ -90.260047601644828, 34.955473012243594 ], [ -90.261972521920228, 34.955791196881229 ] ] } }
]
}
