{
"type": "FeatureCollection",
"name": "LM_15_CVB_20240503_CS_6130_6092_navigable_path",
"crs": { "type": "name", "properties": { "name": "urn:ogc:def:crs:OGC:1.3:CRS84" } },
"features": [
{ "type": "Feature", "properties": { "survey_id": "LM_15_CVB_20240503_CS_6130_6092", "method": "lines", "connected": "yes", "through_width_ft": 865.6, "gage": "Memphis", "anchor_stage_ft": -10 }, "geometry": { "type": "LineString", "coordinates": [ [ -90.947949933335821, 34.026144520983699 ], [ -90.944882152592456, 34.024014279215642 ], [ -90.941672317248461, 34.023793959241814 ], [ -90.938299514158643, 34.023454903985005 ], [ -90.934834578415476, 34.02337091380258 ], [ -90.93133404004702, 34.021786071256457 ], [ -90.927697914513487, 34.021150540089927 ], [ -90.924272572916834, 34.020055585435493 ], [ -90.920759803314866, 34.020445942367871 ], [ -90.917185169981195, 34.020448016094221 ], [ -90.913721101237158, 34.02071354161054 ], [ -90.910260605620437, 34.021812900284381 ], [ -90.906768925614742, 34.022023098979417 ], [ -90.90339014084671, 34.023049695336191 ], [ -90.899614369006841, 34.023592465861363 ], [ -90.895825510494092, 34.024370073835783 ], [ -90.891465211777671, 34.026874087541522 ], [ -90.887887900924838, 34.029809995303005 ], [ -90.886516971783109, 34.033502734145124 ], [ -90.884424560014438, 34.036908097343151 ] ] } }
]
}
