{
"type": "FeatureCollection",
"crs": { "type": "name", "properties": { "name": "urn:ogc:def:crs:OGC:1.3:CRS84" } },
"features": [
{ "type": "Feature", "properties": { "survey_id": "LM_18_FRIX_20260728_CS_679_682_SORT_ACTUAL_DEPTH", "method": "lines", "connected": "yes", "through_width_ft": 897.3, "gage": "Memphis", "anchor_stage_ft": -10 }, "geometry": { "type": "LineString", "coordinates": [ [ -90.571443168188267, 34.715941605010251 ], [ -90.570076631598539, 34.716888153435349 ], [ -90.569442465661567, 34.717922452974257 ], [ -90.569910716756368, 34.719088859406654 ], [ -90.570172577126144, 34.720230537281516 ], [ -90.568817359531664, 34.721178449855792 ], [ -90.56875884285752, 34.722278697683429 ], [ -90.568676000504169, 34.723377636453996 ], [ -90.568660829324884, 34.724495400984281 ], [ -90.56882162982744, 34.725642097113521 ], [ -90.568363979938624, 34.726687250009967 ], [ -90.568393414868069, 34.727812390185619 ], [ -90.568400836805239, 34.728963001371724 ], [ -90.568253614608338, 34.730086728524846 ], [ -90.568445183884506, 34.731263604492263 ], [ -90.568307140925185, 34.732530481204272 ], [ -90.567531951089023, 34.733664000593627 ], [ -90.567266359085394, 34.735148230395609 ], [ -90.566376176644752, 34.73633112854305 ], [ -90.56554140394708, 34.737460200343847 ], [ -90.564590596960187, 34.738263065036854 ], [ -90.563943122839916, 34.739973340548026 ], [ -90.562627089331386, 34.741325273165792 ], [ -90.560200113556476, 34.740928511237428 ], [ -90.558467508753509, 34.741848561941261 ], [ -90.556687031027906, 34.742138088343587 ], [ -90.55519218316924, 34.742611681404149 ], [ -90.553860291547949, 34.742601162305156 ], [ -90.552542780678337, 34.743045257929069 ], [ -90.550788144153628, 34.743115450852784 ], [ -90.549490532019846, 34.742523627573838 ], [ -90.548172762803034, 34.742271995074454 ], [ -90.546832447226791, 34.742400292415603 ], [ -90.545335202194764, 34.742532280557967 ], [ -90.543972608903175, 34.742819081834718 ], [ -90.542749154326813, 34.741648496985142 ], [ -90.541515035830045, 34.74059061729988 ], [ -90.540288110949746, 34.739457363136466 ], [ -90.53905980412199, 34.738339263807561 ], [ -90.53813959122354, 34.737490123803184 ] ] } }
]
}
