{
"type": "FeatureCollection",
"name": "LM_12_EYB_20240605_CS_5636_5590_navigable_path",
"crs": { "type": "name", "properties": { "name": "urn:ogc:def:crs:OGC:1.3:CRS84" } },
"features": [
{ "type": "Feature", "properties": { "survey_id": "LM_12_EYB_20240605_CS_5636_5590", "method": "lines", "connected": "yes", "through_width_ft": 1228.4, "gage": "Greenville", "anchor_stage_ft": 7 }, "geometry": { "type": "LineString", "coordinates": [ [ -91.15403505758735, 33.576108864495765 ], [ -91.150806491983801, 33.577505458931242 ], [ -91.148106980169516, 33.579144221178588 ], [ -91.145268964761243, 33.581374041521414 ], [ -91.143296288705812, 33.583641775655828 ], [ -91.140456765127396, 33.585618753684493 ], [ -91.138035388904626, 33.58744268383662 ], [ -91.135931747088335, 33.590141008522338 ], [ -91.133361909717095, 33.592386405130043 ], [ -91.131277565458035, 33.594969408593236 ], [ -91.129881139402826, 33.598099050874062 ], [ -91.128824734477263, 33.601185132563693 ], [ -91.12862129466177, 33.604351519257825 ], [ -91.128789119075307, 33.607538243089557 ], [ -91.128803189128746, 33.610564807352837 ], [ -91.129697016339577, 33.613498731967844 ], [ -91.13043083752288, 33.616313780434126 ], [ -91.131517446492197, 33.61925642188946 ], [ -91.132207767064088, 33.622172206601753 ], [ -91.133334326061245, 33.625068512104576 ], [ -91.135165055973999, 33.627912892568936 ], [ -91.139247467657398, 33.62896409384512 ], [ -91.141999411505182, 33.630673015487893 ] ] } }
]
}
