{
"type": "FeatureCollection",
"crs": { "type": "name", "properties": { "name": "urn:ogc:def:crs:OGC:1.3:CRS84" } },
"features": [
{ "type": "Feature", "properties": { "survey_id": "LM_25_MADX_20211103_CS_902_899_LWRP", "method": "lines", "connected": "no", "through_width_ft": 401.7, "gage": "Memphis", "anchor_stage_ft": -10 }, "geometry": { "type": "LineString", "coordinates": [ [ -89.49698006086787, 36.470047375121645 ], [ -89.496373116503037, 36.468674728583714 ], [ -89.495498094322514, 36.467596131111044 ], [ -89.49486445489994, 36.466068275578962 ], [ -89.494253504066577, 36.465714317870052 ], [ -89.494020744198153, 36.465360141990949 ] ] } }
]
}
