{
"type": "FeatureCollection",
"name": "LM_24_CARX_20220210_CS_864_870_SORT_LWRP_B_INTERP_navigable_path",
"crs": { "type": "name", "properties": { "name": "urn:ogc:def:crs:OGC:1.3:CRS84" } },
"features": [
{ "type": "Feature", "properties": { "survey_id": "LM_24_CARX_20220210_CS_864_870_SORT_LWRP_B_INTERP", "method": "blob", "connected": "yes", "through_width_ft": 1082.7, "gage": "Memphis", "anchor_stage_ft": -10 }, "geometry": { "type": "LineString", "coordinates": [ [ -89.610361773444197, 36.306132380528084 ], [ -89.611088668518221, 36.306976953218033 ], [ -89.611730849861587, 36.307819118094066 ], [ -89.612457774630869, 36.308663683847442 ], [ -89.613354176791432, 36.309513052193431 ], [ -89.614038768186049, 36.310356408288897 ], [ -89.614511541521139, 36.311193755414195 ], [ -89.614899590521219, 36.312028698996144 ], [ -89.615457116885409, 36.312868445349189 ], [ -89.616141758446446, 36.313711791720038 ], [ -89.616741677582169, 36.314552733896562 ], [ -89.617214502536328, 36.315390072676728 ], [ -89.617687337058001, 36.316227410017454 ], [ -89.618287290605053, 36.317068346014239 ], [ -89.618887256586675, 36.317909279572895 ], [ -89.619360122657824, 36.318746611730781 ], [ -89.619790627048062, 36.319582742908295 ], [ -89.620263511785708, 36.320420072329576 ], [ -89.6206516617045, 36.321255001760854 ], [ -89.62095507399124, 36.322087531885913 ], [ -89.621258492098363, 36.322920061482115 ], [ -89.621561916026238, 36.323752590549418 ], [ -89.62186534577522, 36.324585119087743 ], [ -89.622211155859361, 36.325418845959085 ], [ -89.622429847762916, 36.326248975784132 ], [ -89.622436666508989, 36.327073111436754 ], [ -89.622485860571558, 36.327898445837235 ], [ -89.622535054978016, 36.328723780177569 ], [ -89.622414742677819, 36.32954431898181 ], [ -89.622209672780343, 36.330362459479424 ], [ -89.622046975554582, 36.331181798389792 ], [ -89.621757140060382, 36.331997539269565 ], [ -89.62117064853939, 36.332804883377392 ], [ -89.620668902216764, 36.333614623171151 ], [ -89.620379041524544, 36.334430359199416 ], [ -89.620046794405994, 36.335244894221489 ], [ -89.61967215958073, 36.336058227814753 ], [ -89.619000852297532, 36.336863157883414 ], [ -89.617990483056559, 36.337658478260501 ], [ -89.617573432342326, 36.338470602531167 ], [ -89.617749717865436, 36.339299537871618 ], [ -89.617502183633363, 36.340116464404154 ], [ -89.616915582049586, 36.340923781173245 ], [ -89.616371350985688, 36.341732295724242 ], [ -89.615784724665303, 36.342539605499645 ], [ -89.614986166209178, 36.343340902233003 ], [ -89.614229975428984, 36.344143394891056 ], [ -89.613643307675659, 36.344950691749339 ], [ -89.612844701721386, 36.345751971425734 ], [ -89.61170699507359, 36.346543619866708 ], [ -89.610357336214449, 36.347329237950177 ], [ -89.606591639713599, 36.348046176666045 ] ] } }
]
}
