{
"type": "FeatureCollection",
"name": "LM_06_MBV_20170721_CS_MB_43725_43775_depth",
"crs": { "type": "name", "properties": { "name": "urn:ogc:def:crs:EPSG::26915" } },
"features": [
{ "type": "Feature", "properties": { "depth_bin": "35-40" }, "geometry": { "type": "Polygon", "coordinates": [ [ [ 697842.431282855570316, 3579535.02753121452406 ], [ 697834.587650974164717, 3579560.552554482594132 ], [ 697839.004343777894974, 3579587.900140463374555 ], [ 697861.368338366621174, 3579610.567626483272761 ], [ 697889.551497747888789, 3579614.560135769657791 ], [ 697911.593781793606468, 3579602.127267397940159 ], [ 697928.119981592288241, 3579563.824420670978725 ], [ 697957.512099543702789, 3579543.723659957293421 ], [ 697963.522674405830912, 3579512.173560314811766 ], [ 697939.598600484314375, 3579483.021991895046085 ], [ 697884.490427124779671, 3579479.948851365130395 ], [ 697858.288319487008266, 3579495.252312093507499 ], [ 697842.431282855570316, 3579535.02753121452406 ] ] ] } },
{ "type": "Feature", "properties": { "depth_bin": "40-45" }, "geometry": { "type": "MultiPolygon", "coordinates": [ [ [ [ 697350.013817957486026, 3579919.05061351461336 ], [ 697335.235215228633024, 3579940.682478821370751 ], [ 697323.661078017787077, 3579992.368282758165151 ], [ 697328.270369931589812, 3580015.795168437529355 ], [ 697344.691351032466628, 3580032.216149538289756 ], [ 697366.59466464817524, 3580037.015206508338451 ], [ 697388.535830862703733, 3580030.844290009699762 ], [ 697415.221925445599481, 3579999.85236843302846 ], [ 697444.412852418376133, 3579991.071321841329336 ], [ 697460.833833519252948, 3579974.650340740568936 ], [ 697465.926954655442387, 3579902.280578318517655 ], [ 697444.06569194921758, 3579873.245716241188347 ], [ 697404.830280344351195, 3579873.207764539401978 ], [ 697390.427365325274877, 3579886.261805792339146 ], [ 697383.750090101268142, 3579907.183080736082047 ], [ 697350.013817957486026, 3579919.05061351461336 ] ] ], [ [ [ 697826.795107838348486, 3579564.659105651080608 ], [ 697831.348010546760634, 3579589.234074440784752 ], [ 697854.840198514168151, 3579613.044694081414491 ], [ 697881.596090170321986, 3579621.423432682640851 ], [ 697907.683013092377223, 3579614.073223518207669 ], [ 697965.245493298512883, 3579555.74529017880559 ], [ 697974.726546561927535, 3579525.687175774015486 ], [ 697971.874338795430958, 3579506.459152866154909 ], [ 697942.722770375665277, 3579482.535078944638371 ], [ 697857.178801076952368, 3579481.731753315776587 ], [ 697833.969332005130127, 3579504.86532615032047 ], [ 697826.795107838348486, 3579564.659105651080608 ] ] ] ] } },
{ "type": "Feature", "properties": { "depth_bin": "45-50" }, "geometry": { "type": "MultiPolygon", "coordinates": [ [ [ [ 697277.907615216099657, 3579918.893421058077365 ], [ 697260.162993906997144, 3579974.664219212718308 ], [ 697270.421826838166453, 3580010.093274471815675 ], [ 697341.042413910734467, 3580044.093276521191001 ], [ 697371.008482250152156, 3580042.846749607473612 ], [ 697430.555584751185961, 3580009.076696035452187 ], [ 697506.595035184407607, 3579947.277189549058676 ], [ 697523.830123143852688, 3579921.946742014959455 ], [ 697558.937621983583085, 3579907.491269652266055 ], [ 697567.824592915945686, 3579886.036223898641765 ], [ 697562.225619899691083, 3579861.477093502413481 ], [ 697582.593583698035218, 3579824.742541815619916 ], [ 697580.317353782360442, 3579801.631591639947146 ], [ 697547.398763235076331, 3579764.522159554529935 ], [ 697513.235556467436254, 3579762.843828827608377 ], [ 697489.441004380467348, 3579777.343775764573365 ], [ 697478.830609520548023, 3579795.697698313277215 ], [ 697445.880324033321813, 3579804.042669052723795 ], [ 697423.892385458690114, 3579845.647360197268426 ], [ 697402.032614415511489, 3579852.370740778278559 ], [ 697384.608426888007671, 3579873.626438897568733 ], [ 697355.525357089471072, 3579883.22931065922603 ], [ 697340.384393643122166, 3579902.322694506496191 ], [ 697301.573078699875623, 3579899.471677101682872 ], [ 697277.907615216099657, 3579918.893421058077365 ] ] ], [ [ [ 697824.767326469882391, 3579494.41745088249445 ], [ 697816.456333388341591, 3579511.989569368306547 ], [ 697809.409029587637633, 3579588.244991194922477 ], [ 697824.033298221067525, 3579619.165409329347312 ], [ 697845.488343974458985, 3579628.052380261942744 ], [ 697903.036899466300383, 3579624.043736571446061 ], [ 697947.788775867433287, 3579598.529920203145593 ], [ 697969.819383267662488, 3579558.367464657407254 ], [ 697977.773901681066491, 3579525.763072074856609 ], [ 697963.342243980732746, 3579490.921968327369541 ], [ 697932.522149433381855, 3579481.997049243655056 ], [ 697903.948191429721192, 3579496.058005834463984 ], [ 697886.269798716180958, 3579481.693805206101388 ], [ 697857.249369519297034, 3579478.307453555986285 ], [ 697824.767326469882391, 3579494.41745088249445 ] ] ] ] } },
{ "type": "Feature", "properties": { "depth_bin": "50-55" }, "geometry": { "type": "MultiPolygon", "coordinates": [ [ [ [ 697263.088372985250317, 3579901.753415435552597 ], [ 697232.016932597151026, 3579960.918070411775261 ], [ 697243.26140882645268, 3579998.744432812556624 ], [ 697285.197795888059773, 3580021.357627900782973 ], [ 697319.076994160539471, 3580019.533390992786735 ], [ 697344.888918450917117, 3580046.007951505016536 ], [ 697371.807642835658044, 3580047.33038363372907 ], [ 697481.604211108526215, 3579977.698819358833134 ], [ 697498.093929224298336, 3579957.959546215366572 ], [ 697520.379277422092855, 3579951.221403045579791 ], [ 697586.524569969740696, 3579889.667545133735985 ], [ 697607.556553313159384, 3579880.843329581432045 ], [ 697683.848595509422012, 3579817.184821046888828 ], [ 697704.748359932331368, 3579782.828693365678191 ], [ 697706.423836604692042, 3579753.549169707577676 ], [ 697651.49650469457265, 3579686.30990678537637 ], [ 697611.347041416331194, 3579679.53178077749908 ], [ 697572.195666543208063, 3579685.142090851441026 ], [ 697552.437484029913321, 3579696.583207229152322 ], [ 697541.23141748807393, 3579718.809406765736639 ], [ 697496.738493513781577, 3579715.279780469369143 ], [ 697448.770226999069564, 3579749.228287071920931 ], [ 697403.67676565318834, 3579804.093848586082458 ], [ 697368.457159570651129, 3579818.469360768795013 ], [ 697346.893272686400451, 3579869.531931499950588 ], [ 697290.828050851006992, 3579877.749176422599703 ], [ 697263.088372985250317, 3579901.753415435552597 ] ] ], [ [ [ 697799.611757852951996, 3579495.477474668528885 ], [ 697791.19507328630425, 3579523.757042167708278 ], [ 697800.921711935428903, 3579600.391941437963396 ], [ 697812.166211852338165, 3579622.610987524036318 ], [ 697827.779292692313902, 3579634.190437457989901 ], [ 697907.379420828539878, 3579626.262740549631417 ], [ 697943.691869179601781, 3579607.159910361282527 ], [ 697974.200673956889659, 3579566.099697528872639 ], [ 697978.721601411583833, 3579514.07672173390165 ], [ 697954.797527490067296, 3579484.925153314135969 ], [ 697924.182852900936268, 3579484.925153314135969 ], [ 697894.907853281940334, 3579510.269272964913398 ], [ 697884.009963960852474, 3579489.985234204214066 ], [ 697863.529305594041944, 3579479.03809423558414 ], [ 697821.259155254927464, 3579479.422670559957623 ], [ 697799.611757852951996, 3579495.477474668528885 ] ] ] ] } },
{ "type": "Feature", "properties": { "depth_bin": "55-60" }, "geometry": { "type": "Polygon", "coordinates": [ [ [ 697212.240010126144625, 3579892.80467853276059 ], [ 697191.628556288313121, 3579910.277924702968448 ], [ 697180.129419845528901, 3579943.702899992465973 ], [ 697182.943675571121275, 3579964.454593621660024 ], [ 697198.980281519237906, 3579984.752542900852859 ], [ 697282.635574030457065, 3580014.813618647865951 ], [ 697324.06316502939444, 3579991.518504762556404 ], [ 697335.813745115883648, 3579961.022544207051396 ], [ 697353.290768862003461, 3579965.015668100211769 ], [ 697326.443077213596553, 3579990.234853371046484 ], [ 697324.764746487140656, 3580024.398060138802975 ], [ 697347.898309900891036, 3580047.607528845779598 ], [ 697383.585288714617491, 3580045.967153265140951 ], [ 697447.648022616282105, 3580001.954788038041443 ], [ 697485.909565413952805, 3579988.478386661503464 ], [ 697504.644782268092968, 3579960.425223366823047 ], [ 697548.024930299143307, 3579944.919247400946915 ], [ 697572.707528289291076, 3579909.649170301388949 ], [ 697615.023119431803934, 3579887.12778240069747 ], [ 697629.443877376848832, 3579865.352009178604931 ], [ 697706.868616977124475, 3579802.852533816825598 ], [ 697857.629914207966067, 3579640.504213378299028 ], [ 697908.827200377243571, 3579629.34804361127317 ], [ 697946.524511711206287, 3579607.571118228603154 ], [ 697978.532512804726139, 3579564.003321761265397 ], [ 697977.852344120386988, 3579501.576683831401169 ], [ 697957.882830841001123, 3579483.477372003719211 ], [ 697927.268156251870096, 3579483.477372003719211 ], [ 697904.631831790902652, 3579502.666932290419936 ], [ 697885.120237369905226, 3579543.492703306488693 ], [ 697864.605650261160918, 3579495.439526576548815 ], [ 697842.95825285918545, 3579479.384722467977554 ], [ 697799.164329642429948, 3579477.823752801865339 ], [ 697774.802776858326979, 3579493.357780407648534 ], [ 697744.720307061448693, 3579474.55446355137974 ], [ 697701.300293127656914, 3579478.091593327466398 ], [ 697676.992435180931352, 3579502.480340875219554 ], [ 697676.719444232177921, 3579535.591523386072367 ], [ 697622.861473175929859, 3579555.99576771678403 ], [ 697608.129101196303964, 3579573.947214914020151 ], [ 697606.285667836666107, 3579598.785985794384032 ], [ 697584.986565733444877, 3579600.081879187840968 ], [ 697565.677534689079039, 3579612.983761250507087 ], [ 697556.089185419143178, 3579660.1493915989995 ], [ 697511.429505061474629, 3579651.124630426988006 ], [ 697483.036102418322116, 3579660.761394188739359 ], [ 697466.369190166005865, 3579684.852464280556887 ], [ 697435.41166519629769, 3579701.216510731726885 ], [ 697422.547630398883484, 3579740.557782612740993 ], [ 697348.921341141453013, 3579787.565354622434825 ], [ 697313.236758260172792, 3579840.886568145360798 ], [ 697252.637669483432546, 3579880.806621070019901 ], [ 697212.240010126144625, 3579892.80467853276059 ] ], [ [ 697495.022929893806577, 3579851.529225242324173 ], [ 697525.799373244168237, 3579826.008180926088244 ], [ 697530.83112363901455, 3579829.309204765129834 ], [ 697512.194467444787733, 3579850.080068975221366 ], [ 697493.812586473533884, 3579858.212793311104178 ], [ 697495.022929893806577, 3579851.529225242324173 ] ] ] } },
{ "type": "Feature", "properties": { "depth_bin": "60-65" }, "geometry": { "type": "Polygon", "coordinates": [ [ [ 697203.137931028613821, 3579873.95377259561792 ], [ 697157.550535673624836, 3579900.119473235215992 ], [ 697150.155388553044759, 3579938.630262121092528 ], [ 697175.330247234669514, 3579976.160567294806242 ], [ 697213.543010592809878, 3579991.463961063884199 ], [ 697240.538412329158746, 3579992.223594478331506 ], [ 697266.774988166871481, 3579967.423162122257054 ], [ 697294.495858435868286, 3579960.841345090884715 ], [ 697309.062179728527553, 3579943.240982573479414 ], [ 697370.134335676091723, 3579925.242165356874466 ], [ 697398.356447795405984, 3579895.706417412497103 ], [ 697404.662819595308974, 3579867.929921755567193 ], [ 697425.081527504022233, 3579867.227539719082415 ], [ 697444.390558548388071, 3579854.325657656416297 ], [ 697462.25042765669059, 3579812.930664616171271 ], [ 697488.647429083939642, 3579791.393821665551513 ], [ 697502.521892043645494, 3579768.410431363619864 ], [ 697524.240695726010017, 3579759.240102926269174 ], [ 697549.635788859101012, 3579762.278341393452138 ], [ 697580.60766968363896, 3579748.858550927136093 ], [ 697616.352687787613831, 3579747.224191506858915 ], [ 697627.787396316882223, 3579763.42692207172513 ], [ 697546.02551824238617, 3579823.307857239153236 ], [ 697482.287199974060059, 3579881.681821985635906 ], [ 697462.106743731535971, 3579888.933287501800805 ], [ 697335.332673191442154, 3579985.352523980196565 ], [ 697326.215138662257232, 3580012.25192743819207 ], [ 697335.294720527715981, 3580037.627658804878592 ], [ 697358.411525781615637, 3580051.483338654506952 ], [ 697389.679977135499939, 3580046.118963891640306 ], [ 697428.546810891712084, 3580026.68973949784413 ], [ 697454.0299822029192, 3580002.372986839152873 ], [ 697488.843154940055683, 3579993.125312598887831 ], [ 697646.028022942948155, 3579866.555366565939039 ], [ 697861.305129790795036, 3579646.978981063701212 ], [ 697907.189676754409447, 3579633.881126183085144 ], [ 697946.410665577976033, 3579612.142150358762592 ], [ 697981.579868014785461, 3579564.079218642786145 ], [ 697982.461325172684155, 3579500.166850589215755 ], [ 697962.491811893298291, 3579482.067538761533797 ], [ 697935.573087508557364, 3579480.745106632821262 ], [ 697907.679186964640394, 3579502.742828651797026 ], [ 697895.845589074539021, 3579545.31594018265605 ], [ 697847.173070801654831, 3579547.465986340772361 ], [ 697846.78073593613226, 3579509.44210471957922 ], [ 697833.728537437738851, 3579488.732944690622389 ], [ 697817.055653280462138, 3579478.739602508954704 ], [ 697677.493253639782779, 3579472.305899291299284 ], [ 697655.120496688527055, 3579478.73545001167804 ], [ 697619.631357516511343, 3579469.340195713564754 ], [ 697600.775488043436781, 3579474.063345139846206 ], [ 697584.354506942559965, 3579490.484326240606606 ], [ 697576.444833391229622, 3579517.355845590122044 ], [ 697546.420183000504039, 3579544.425946854054928 ], [ 697540.848122304305434, 3579579.04877260979265 ], [ 697506.584696949343197, 3579583.014844574034214 ], [ 697485.273354838951491, 3579611.830011154059321 ], [ 697434.969825548469089, 3579629.964033761993051 ], [ 697416.640987359452993, 3579675.903291096445173 ], [ 697380.347095545497723, 3579732.362977022770792 ], [ 697353.355624263524078, 3579736.234378768131137 ], [ 697325.400220294832252, 3579760.863051614258438 ], [ 697292.63417952763848, 3579774.307091233786196 ], [ 697279.732297464972362, 3579793.616122277919203 ], [ 697279.325322569347918, 3579825.273514810018241 ], [ 697243.873948849388398, 3579836.234310317318887 ], [ 697226.360663087689318, 3579865.091784194111824 ], [ 697203.137931028613821, 3579873.95377259561792 ] ] ] } },
{ "type": "Feature", "properties": { "depth_bin": "65-70" }, "geometry": { "type": "Polygon", "coordinates": [ [ [ 697149.416129294084385, 3579866.565524306148291 ], [ 697133.703037067200057, 3579878.180758886504918 ], [ 697123.108743172022514, 3579899.487550840713084 ], [ 697124.244267687667161, 3579943.629987138323486 ], [ 697140.269745638011955, 3579961.156146141700447 ], [ 697177.355108938878402, 3579977.800946056377143 ], [ 697211.017124489066191, 3579977.876849987078458 ], [ 697234.108082613209262, 3579952.05126626836136 ], [ 697276.818935054121539, 3579936.007083578966558 ], [ 697354.335733224637806, 3579877.926068116910756 ], [ 697377.020443275570869, 3579850.593115000985563 ], [ 697383.424281420768239, 3579820.671231542248279 ], [ 697469.516532232402824, 3579783.219197668135166 ], [ 697479.509874414186925, 3579766.546313510742038 ], [ 697481.444485747953877, 3579736.29319449653849 ], [ 697509.250569144147448, 3579690.752742776181549 ], [ 697552.462495819316246, 3579672.684864194598049 ], [ 697595.220771662192419, 3579671.849884551949799 ], [ 697618.064065835787915, 3579646.860981148201972 ], [ 697628.757612075307406, 3579646.322412607260048 ], [ 697607.224022678681649, 3579671.500550338998437 ], [ 697607.235516883665696, 3579706.07559830090031 ], [ 697623.070899298065342, 3579730.031553229317069 ], [ 697654.61282434896566, 3579747.959845314268023 ], [ 697547.321484734187834, 3579832.487852860242128 ], [ 697498.862343430635519, 3579880.631531253457069 ], [ 697455.746385240461677, 3579899.447292242199183 ], [ 697439.101914653205313, 3579919.863968477584422 ], [ 697406.039949039695784, 3579936.324645244982094 ], [ 697332.424007507273927, 3579994.957682738546282 ], [ 697328.469446865143254, 3580021.617165092378855 ], [ 697342.388025667751208, 3580045.221073093358427 ], [ 697367.363795029348694, 3580059.329415561165661 ], [ 697396.569434009725228, 3580057.204996632877737 ], [ 697490.290923574240878, 3579996.210610911250114 ], [ 697652.08477008563932, 3579868.230845360085368 ], [ 697803.310109971906058, 3579725.974218873307109 ], [ 697862.988530067028478, 3579652.829291181638837 ], [ 697949.344171600881964, 3579616.789180011488497 ], [ 697981.276280025253072, 3579576.268639571499079 ], [ 697985.663333568023518, 3579503.753330893348902 ], [ 697960.319539357791655, 3579480.783054758794606 ], [ 697926.485342946834862, 3579485.801883696112782 ], [ 697905.547276273486204, 3579510.680801301263273 ], [ 697895.731472812825814, 3579550.02475256100297 ], [ 697853.909490948426537, 3579551.783143843058497 ], [ 697812.798328522709198, 3579579.914081061258912 ], [ 697708.455806164536625, 3579689.92715145740658 ], [ 697702.45237080543302, 3579669.426661333534867 ], [ 697720.690429505310021, 3579656.90797930303961 ], [ 697730.714843329507858, 3579631.75543381460011 ], [ 697725.86828914063517, 3579598.493635097052902 ], [ 697750.463180327322334, 3579582.867950802668929 ], [ 697763.617718801135197, 3579561.699936799239367 ], [ 697757.340852599823847, 3579517.162063152994961 ], [ 697739.966483024531044, 3579500.984774298034608 ], [ 697677.716339128441177, 3579471.361070480197668 ], [ 697563.184811966959387, 3579471.360419348813593 ], [ 697519.183708477765322, 3579508.067805536556989 ], [ 697488.871074792230502, 3579509.735899263527244 ], [ 697468.390416425419971, 3579520.683039232157171 ], [ 697447.99764924775809, 3579553.125394200906157 ], [ 697454.17017087538261, 3579583.421343479305506 ], [ 697397.883399334386922, 3579616.427710878662765 ], [ 697389.995424569002353, 3579658.043516753707081 ], [ 697365.039222587249242, 3579681.330266941338778 ], [ 697357.61142068519257, 3579702.298898913431913 ], [ 697315.627232461934909, 3579709.953489711973816 ], [ 697295.836105542024598, 3579743.971499324310571 ], [ 697255.847384790773503, 3579744.822145474143326 ], [ 697238.27526630484499, 3579753.133138556033373 ], [ 697223.843608604511246, 3579780.132871077395976 ], [ 697231.097903781686909, 3579807.227879639714956 ], [ 697203.710565264686011, 3579821.988993925973773 ], [ 697193.983326565590687, 3579848.85061161313206 ], [ 697149.416129294084385, 3579866.565524306148291 ] ] ] } },
{ "type": "Feature", "properties": { "depth_bin": "70-75" }, "geometry": { "type": "MultiPolygon", "coordinates": [ [ [ [ 697113.646018908009864, 3579839.11209452431649 ], [ 697108.583950102562085, 3579876.447054329328239 ], [ 697092.322770773549564, 3579914.948865867219865 ], [ 697099.063986281398684, 3579937.171675188001245 ], [ 697114.952619492891245, 3579951.787338067777455 ], [ 697153.165271901059896, 3579967.09082102868706 ], [ 697172.580271871876903, 3579966.137023241724819 ], [ 697191.889302916242741, 3579953.235141179058701 ], [ 697200.87076655915007, 3579933.351346023380756 ], [ 697222.210716030327603, 3579932.30696019763127 ], [ 697248.324605776462704, 3579917.00195351568982 ], [ 697270.606895280303434, 3579885.158561933785677 ], [ 697324.241711739334278, 3579861.930328599642962 ], [ 697340.758684869739227, 3579840.001120313536376 ], [ 697343.47984119434841, 3579816.330472460016608 ], [ 697363.813682842650451, 3579803.455804179422557 ], [ 697374.5311812562868, 3579783.89192629000172 ], [ 697408.085576040437445, 3579778.486318219453096 ], [ 697433.106342011829838, 3579756.468861675821245 ], [ 697442.32368069794029, 3579725.28424629708752 ], [ 697464.465856186347082, 3579706.407543500419706 ], [ 697474.087529577431269, 3579674.238216240424663 ], [ 697497.108035530778579, 3579663.120725818444043 ], [ 697524.553485454758629, 3579635.252128674183041 ], [ 697547.242566464934498, 3579591.831452341750264 ], [ 697619.293408914585598, 3579533.7754982765764 ], [ 697626.034624422434717, 3579511.55268895579502 ], [ 697619.293408914585598, 3579489.32987963501364 ], [ 697584.771987985121086, 3579469.046238985843956 ], [ 697522.153962186421268, 3579465.387848053593189 ], [ 697459.936162953148596, 3579486.379150679334998 ], [ 697380.606082739890553, 3579546.026704336516559 ], [ 697373.864867232041433, 3579568.249513657297939 ], [ 697379.269798604305834, 3579589.829853453207761 ], [ 697364.87782060506288, 3579607.528847268782556 ], [ 697360.091604638146237, 3579631.072802791837603 ], [ 697334.615945526747964, 3579654.420651074033231 ], [ 697266.265039456775412, 3579669.976171191316098 ], [ 697252.409359607263468, 3579693.092976444866508 ], [ 697257.132467764429748, 3579721.034702862147242 ], [ 697204.632112095365301, 3579746.617270437534899 ], [ 697168.110406969557516, 3579754.434754798188806 ], [ 697153.678749269223772, 3579781.434487319551408 ], [ 697164.280433511128649, 3579814.762652511242777 ], [ 697131.745330735342577, 3579819.142581245396286 ], [ 697113.646018908009864, 3579839.11209452431649 ] ] ], [ [ [ 697351.719822129234672, 3579981.261885808315128 ], [ 697336.845738269505091, 3580017.738943663891405 ], [ 697343.394342844258063, 3580043.882438597735018 ], [ 697372.508287696167827, 3580066.221795526798815 ], [ 697402.975544259417802, 3580063.221032671164721 ], [ 697585.048520864685997, 3579927.546002947725356 ], [ 697720.530751200742088, 3579813.524512278847396 ], [ 697747.368502310593612, 3579782.910425329115242 ], [ 697771.912702736794017, 3579770.59028795035556 ], [ 697868.941625660518184, 3579662.721260293386877 ], [ 697895.11714133946225, 3579644.908517926000059 ], [ 697924.421184776932932, 3579669.179205432534218 ], [ 697959.124206529813819, 3579660.90616152016446 ], [ 697975.225240222527646, 3579635.57831864291802 ], [ 697976.094821404549293, 3579596.254255261737853 ], [ 697994.1101705316687, 3579523.968718114309013 ], [ 697985.7991774501279, 3579490.789373866748065 ], [ 697958.799444928765297, 3579476.35771616641432 ], [ 697924.894046703586355, 3579486.654520490206778 ], [ 697906.992197199258953, 3579511.257874671835452 ], [ 697897.417476008762605, 3579553.470362572930753 ], [ 697859.814554655691609, 3579559.553326260298491 ], [ 697820.302864793688059, 3579584.674855989404023 ], [ 697758.501601509284228, 3579645.229493811260909 ], [ 697748.367283687926829, 3579667.574781662784517 ], [ 697639.325608091545291, 3579766.171158434823155 ], [ 697614.382584311184473, 3579780.455746868625283 ], [ 697587.829819945502095, 3579813.6764578493312 ], [ 697444.178001402295195, 3579925.975078084971756 ], [ 697351.719822129234672, 3579981.261885808315128 ] ] ] ] } },
{ "type": "Feature", "properties": { "depth_bin": "75-80" }, "geometry": { "type": "MultiPolygon", "coordinates": [ [ [ [ 696396.574549590819515, 3579449.861840158700943 ], [ 696389.912102746544406, 3579480.576325161382556 ], [ 696401.435220565996133, 3579504.939910796005279 ], [ 696557.908142662025057, 3579599.033170560374856 ], [ 696581.745107637369074, 3579594.771142910700291 ], [ 696599.539937604102306, 3579580.249944821000099 ], [ 696648.65293592645321, 3579569.699654846452177 ], [ 696698.180177921894938, 3579514.045852438081056 ], [ 696707.067148854257539, 3579492.590806684456766 ], [ 696700.860072116949596, 3579452.734321372117847 ], [ 696671.521973237977363, 3579435.14974162587896 ], [ 696433.68275494419504, 3579426.37234370270744 ], [ 696396.574549590819515, 3579449.861840158700943 ] ] ], [ [ [ 697090.124373731552623, 3579771.971690814010799 ], [ 697078.601255912100896, 3579804.176647674757987 ], [ 697095.533977131708525, 3579839.762992010917515 ], [ 697092.008336637634784, 3579846.072922210674733 ], [ 697066.76646482211072, 3579840.064729735720903 ], [ 697045.31141906871926, 3579848.951700668316334 ], [ 697029.286195642664097, 3579871.232165084220469 ], [ 697029.286195642664097, 3579894.454939264804125 ], [ 697042.188077705330215, 3579913.763970308937132 ], [ 697082.274542651255615, 3579938.841798945330083 ], [ 697121.471818118123338, 3579954.104373665992171 ], [ 697151.590459257713519, 3579951.892567875795066 ], [ 697173.237856659688987, 3579935.837763767223805 ], [ 697189.396988243097439, 3579896.855437139049172 ], [ 697226.931354701169766, 3579889.845320465508848 ], [ 697252.214670223300345, 3579863.072214955929667 ], [ 697286.377535220817663, 3579851.839525373652577 ], [ 697298.96220133989118, 3579826.825704537797719 ], [ 697296.583997082430869, 3579803.499147731345147 ], [ 697333.346408828627318, 3579782.951865704730153 ], [ 697348.864753226400353, 3579759.398128563072532 ], [ 697352.035939197521657, 3579737.011447311379015 ], [ 697398.150805693818256, 3579718.59162640105933 ], [ 697440.541338828508742, 3579671.113323239609599 ], [ 697447.232060530921444, 3579649.918338939547539 ], [ 697495.869235960301012, 3579623.865385550539941 ], [ 697504.948817825759761, 3579598.489654183853418 ], [ 697497.735934328404255, 3579563.032145897392184 ], [ 697527.901829878217541, 3579558.875751074403524 ], [ 697547.414898710558191, 3579542.657653589732945 ], [ 697560.323833786183968, 3579513.841606670524925 ], [ 697553.889073030208237, 3579483.127090816386044 ], [ 697528.433901418698952, 3579466.118488920852542 ], [ 697454.238895753864199, 3579463.986644483171403 ], [ 697405.634222008986399, 3579489.931842417921871 ], [ 697325.283446484594606, 3579505.894897754304111 ], [ 697304.537678090739064, 3579539.728116142563522 ], [ 697315.842828922672197, 3579577.70113613596186 ], [ 697271.462505559204146, 3579592.009326506406069 ], [ 697256.586284502525814, 3579633.987633826676756 ], [ 697225.898165200138465, 3579632.302936197258532 ], [ 697202.983525102608837, 3579641.589282212778926 ], [ 697188.367863566847518, 3579657.477918579243124 ], [ 697182.775683656102046, 3579688.670461344067007 ], [ 697202.104126491583884, 3579716.049499776214361 ], [ 697156.991382614593022, 3579723.72042073821649 ], [ 697135.145816885167733, 3579739.551416973117739 ], [ 697124.178879484185018, 3579758.901905464008451 ], [ 697090.124373731552623, 3579771.971690814010799 ] ] ], [ [ [ 697345.949818874127232, 3580019.490332515444607 ], [ 697357.321122971479781, 3580057.790078434627503 ], [ 697373.994007128756493, 3580067.783420616295189 ], [ 697396.456351667642593, 3580068.813124078325927 ], [ 697430.948961261892691, 3580052.668076913338155 ], [ 697503.703252471750602, 3579994.439246405381709 ], [ 697550.321517955046147, 3579973.311972640454769 ], [ 697733.991163815371692, 3579815.725145351141691 ], [ 697888.687170236487873, 3579655.148479098919779 ], [ 697936.612984544830397, 3579770.237095369491726 ], [ 697968.445471954764798, 3579822.973739116918296 ], [ 697985.118356112041511, 3579832.967081298585981 ], [ 698028.651184445130639, 3579838.533792712260038 ], [ 698066.368146311375313, 3579823.663103116676211 ], [ 698077.94759624521248, 3579808.05002227704972 ], [ 698080.223826160887256, 3579784.939072101376951 ], [ 698044.864853408536874, 3579731.899968726560473 ], [ 698010.259102118900046, 3579638.313361559528857 ], [ 697993.040227996883914, 3579571.752995461691171 ], [ 697999.487740679876879, 3579514.755271761212498 ], [ 697990.40815881441813, 3579489.379540394525975 ], [ 697959.487740679876879, 3579474.755271761212498 ], [ 697926.379776281304657, 3579488.216146310325712 ], [ 697910.278746215277351, 3579513.543991796206683 ], [ 697906.078834045445547, 3579557.291232481598854 ], [ 697864.271739020594396, 3579564.238203822635114 ], [ 697826.359622623887844, 3579586.350328813306987 ], [ 697726.016844530589879, 3579703.757431111298501 ], [ 697693.355476947850548, 3579723.303100890945643 ], [ 697536.220866107032634, 3579861.522856135386974 ], [ 697425.742118855239823, 3579939.232295867055655 ], [ 697414.278857887722552, 3579954.599715777672827 ], [ 697371.426709950785153, 3579977.519545702729374 ], [ 697345.949818874127232, 3580019.490332515444607 ] ] ] ] } },
{ "type": "Feature", "properties": { "depth_bin": "80-85" }, "geometry": { "type": "MultiPolygon", "coordinates": [ [ [ [ 696375.516979491803795, 3579457.806907258927822 ], [ 696383.790025228518061, 3579492.509914722293615 ], [ 696438.449242379632778, 3579527.930952297057956 ], [ 696476.033612177940086, 3579529.51901753153652 ], [ 696501.377406388171948, 3579506.548741396982223 ], [ 696506.088693636818789, 3579465.99293877882883 ], [ 696481.632701246882789, 3579439.087533405981958 ], [ 696443.883390014059842, 3579426.910374206956476 ], [ 696406.944777827244252, 3579426.379108923487365 ], [ 696386.464119460433722, 3579437.326248892117292 ], [ 696375.516979491803795, 3579457.806907258927822 ] ] ], [ [ [ 696548.49265687901061, 3579485.971059738658369 ], [ 696511.931123127578758, 3579524.45574130769819 ], [ 696509.983918318874203, 3579556.748123270925134 ], [ 696518.870889251236804, 3579578.203169024549425 ], [ 696675.044515211484395, 3579678.596477030776441 ], [ 696727.613348059472628, 3579684.007792009040713 ], [ 696756.005395907792263, 3579728.94764052098617 ], [ 696780.607918193680234, 3579744.364936721045524 ], [ 696816.834595863008872, 3579736.129842972382903 ], [ 696828.41404579684604, 3579720.516762132756412 ], [ 696831.0797507930547, 3579700.031439675483853 ], [ 696873.208820267347619, 3579729.041630499530584 ], [ 696908.566684293677099, 3579724.060751111712307 ], [ 696926.151264039799571, 3579694.722652232740074 ], [ 696915.156165304826573, 3579633.46179582644254 ], [ 696940.126517690019682, 3579644.664125769399107 ], [ 696959.541517660836689, 3579643.710327982436866 ], [ 696980.41216568055097, 3579629.322726440150291 ], [ 696990.064442597329617, 3579609.772339199669659 ], [ 697015.389616048196331, 3579599.360112587921321 ], [ 697092.928784684510902, 3579676.618159759789705 ], [ 697057.953944633482024, 3579671.285307302605361 ], [ 697030.337727345060557, 3579691.963154000695795 ], [ 696980.579319370910525, 3579670.494038559496403 ], [ 696953.919837017194368, 3579674.448599202092737 ], [ 696934.498093061032705, 3579698.114062685519457 ], [ 696938.417287056916393, 3579730.1136290342547 ], [ 696914.3100250629941, 3579734.446775804273784 ], [ 696897.889043962117285, 3579750.867756905034184 ], [ 696894.736479782150127, 3579787.429685664828867 ], [ 696907.808843042235821, 3579816.582512407563627 ], [ 696958.296395893092267, 3579860.572657776530832 ], [ 697051.717426796676591, 3579919.719977355096489 ], [ 697102.304694951046258, 3579935.905793901067227 ], [ 697124.527504271827638, 3579929.164578393101692 ], [ 697159.658918798319064, 3579900.595325564965606 ], [ 697173.126358607201837, 3579862.708577395416796 ], [ 697204.959163790103048, 3579841.733641968574375 ], [ 697210.721019847900607, 3579799.492512746248394 ], [ 697232.331644092453644, 3579795.453438766300678 ], [ 697262.737285535782576, 3579771.644714173860848 ], [ 697290.990344755584374, 3579766.42212803568691 ], [ 697310.175813879119232, 3579753.332003894727677 ], [ 697320.169156060903333, 3579736.659119737334549 ], [ 697322.003132686251774, 3579708.949777137953788 ], [ 697341.351709662238136, 3579691.144146309699863 ], [ 697347.640962080913596, 3579664.005337737966329 ], [ 697369.181892118649557, 3579663.060718798078597 ], [ 697402.84296636597719, 3579644.342684879899025 ], [ 697424.987096128053963, 3579602.796256213448942 ], [ 697418.361446963623166, 3579571.010504966136068 ], [ 697466.243638241896406, 3579555.628445364069194 ], [ 697488.713621177012101, 3579528.630751379299909 ], [ 697496.635908322874457, 3579503.756085658445954 ], [ 697484.920179570326582, 3579475.471814410760999 ], [ 697460.556593936053105, 3579463.948696591425687 ], [ 697382.013794612488709, 3579460.372964943293482 ], [ 697334.442814492154866, 3579466.249595318455249 ], [ 697300.310933005530387, 3579494.931774746160954 ], [ 697256.587847735616378, 3579501.950100571382791 ], [ 697235.182022357475944, 3579517.679182511754334 ], [ 697187.685038474621251, 3579469.343931908719242 ], [ 697143.746156247449107, 3579451.484524042345583 ], [ 697065.988563181133941, 3579454.726157745812088 ], [ 697013.398553567240015, 3579446.6185786803253 ], [ 696992.953509761136957, 3579452.294242545496672 ], [ 696974.656416758196428, 3579445.748653258662671 ], [ 696661.506625338224694, 3579434.805340805090964 ], [ 696621.668851241702214, 3579443.337661307770759 ], [ 696571.428802470560186, 3579481.226197150535882 ], [ 696548.49265687901061, 3579485.971059738658369 ] ], [ [ 697100.636723595787771, 3579545.252001673448831 ], [ 697113.134606997715309, 3579532.060139525681734 ], [ 697130.153797443956137, 3579549.717523964587599 ], [ 697159.327079472597688, 3579588.524670117069036 ], [ 697156.309660042403266, 3579612.044195902533829 ], [ 697100.636723595787771, 3579545.252001673448831 ] ], [ [ 696973.310077254893258, 3579762.256101855076849 ], [ 696974.523127557709813, 3579762.829831919632852 ], [ 696976.569392067147419, 3579764.347445110790431 ], [ 696972.335114372544922, 3579761.671731592155993 ], [ 696973.310077254893258, 3579762.256101855076849 ] ] ], [ [ [ 697366.400257695117034, 3579995.689855750650167 ], [ 697349.383374726283364, 3580023.301772279664874 ], [ 697355.356001450214535, 3580053.328194481320679 ], [ 697384.469948982470669, 3580075.667452333495021 ], [ 697418.304145393427461, 3580070.648623396176845 ], [ 697506.290489471633919, 3580005.564705356955528 ], [ 697554.664826523163356, 3579982.567870730068535 ], [ 697604.552769773406908, 3579940.228769457899034 ], [ 697746.294421225786209, 3579811.457623949740082 ], [ 697882.645315371220931, 3579672.11083807470277 ], [ 697936.233480599476025, 3579785.473873848095536 ], [ 697966.774691411061212, 3579832.329532706644386 ], [ 697990.521178742637858, 3579839.108698990661651 ], [ 698021.638057800708339, 3579826.174226791132241 ], [ 698051.881338053848594, 3579830.526219145860523 ], [ 698100.306636419263668, 3579807.73745478503406 ], [ 698113.208518481929787, 3579788.428423740901053 ], [ 698113.208518481929787, 3579765.205649560317397 ], [ 698020.609622624819167, 3579583.058514046482742 ], [ 697993.455514399218373, 3579489.455436571966857 ], [ 697966.45578187785577, 3579475.023778871633112 ], [ 697935.635687099536881, 3579483.872801713645458 ], [ 697914.849779299111106, 3579513.657836352009326 ], [ 697913.700875883107074, 3579564.93183408677578 ], [ 697894.592671271646395, 3579564.054884536657482 ], [ 697852.451974357827567, 3579579.377080053091049 ], [ 697697.093983432278037, 3579740.553669103421271 ], [ 697590.21207186463289, 3579824.408442833926529 ], [ 697550.564710481907241, 3579867.335270314011723 ], [ 697484.422602331731468, 3579916.005809439346194 ], [ 697434.913827997632325, 3579940.093084583058953 ], [ 697366.400257695117034, 3579995.689855750650167 ] ] ] ] } },
{ "type": "Feature", "properties": { "depth_bin": "85-90" }, "geometry": { "type": "MultiPolygon", "coordinates": [ [ [ [ 696374.947114069829695, 3579453.96118571376428 ], [ 696379.96594300691504, 3579487.795382124837488 ], [ 696410.641477796132676, 3579508.64886013045907 ], [ 696442.632397652720101, 3579505.686044658534229 ], [ 696462.054141608881764, 3579482.020581175107509 ], [ 696457.643557547358796, 3579446.944387365598232 ], [ 696433.97809406358283, 3579427.522643409203738 ], [ 696397.917390204500407, 3579428.617391503416002 ], [ 696374.947114069829695, 3579453.96118571376428 ] ] ], [ [ [ 696667.697472074301913, 3579578.76020586444065 ], [ 696646.050074672326446, 3579594.815009973011911 ], [ 696637.636264508706518, 3579626.792175868991762 ], [ 696640.412574358750135, 3579649.067530103027821 ], [ 696656.630663026706316, 3579668.580591949634254 ], [ 696950.791906130732968, 3579855.811898266896605 ], [ 696973.710853604949079, 3579864.039041256066412 ], [ 696991.681296901777387, 3579881.633766312617809 ], [ 697034.915968447457999, 3579886.964134942740202 ], [ 697059.142628698493354, 3579878.736762297805399 ], [ 697107.174166664248332, 3579897.621342231985182 ], [ 697128.629212417639792, 3579888.73437129938975 ], [ 697158.671072348603047, 3579854.606107600964606 ], [ 697160.004379699705169, 3579819.954409571830183 ], [ 697146.505524887121283, 3579783.741121706087142 ], [ 697181.59360113972798, 3579764.455795186571777 ], [ 697235.793080810806714, 3579754.264792111702263 ], [ 697257.11287712235935, 3579741.337957785464823 ], [ 697271.911035355413333, 3579707.908246514387429 ], [ 697257.759441108442843, 3579668.261827340815216 ], [ 697265.173873209045269, 3579633.129325159359723 ], [ 697301.249992824392393, 3579621.99237351026386 ], [ 697316.281328725395724, 3579598.50153743987903 ], [ 697319.435484950081445, 3579576.461320205591619 ], [ 697405.865853652008809, 3579531.255435233470052 ], [ 697420.297511352342553, 3579496.414331485982984 ], [ 697408.774393532890826, 3579472.050745851360261 ], [ 697384.41080789861735, 3579460.52762803202495 ], [ 696956.149366681347601, 3579445.483019870240241 ], [ 696928.485804684576578, 3579458.789205205161124 ], [ 696907.944670701981522, 3579485.340809867251664 ], [ 696879.429842893383466, 3579473.869347698055208 ], [ 696847.191677857539617, 3579480.266160772647709 ], [ 696823.797437938395888, 3579521.513119782786816 ], [ 696799.063157020718791, 3579525.753257081378251 ], [ 696776.067301186965778, 3579546.054406411014497 ], [ 696759.533014781191014, 3579587.802003974094987 ], [ 696697.056382917100564, 3579573.000972143374383 ], [ 696667.697472074301913, 3579578.76020586444065 ] ] ], [ [ [ 697383.471967729041353, 3579996.170110284350812 ], [ 697360.649827146553434, 3580022.120454522781074 ], [ 697360.611874225432985, 3580054.258801490068436 ], [ 697383.745437682373449, 3580077.468270821031183 ], [ 697415.883784673409536, 3580077.506223763339221 ], [ 697502.866910174954683, 3580014.695200751535594 ], [ 697554.550970134907402, 3579987.138891732320189 ], [ 697629.273122656275518, 3579927.122928212862462 ], [ 697766.405907484004274, 3579799.761578854639083 ], [ 697879.850616304553114, 3579681.380702603142709 ], [ 697954.953825041651726, 3579827.417933980934322 ], [ 697981.953557563014328, 3579841.849591681268066 ], [ 698011.182359270052984, 3579833.853210709989071 ], [ 698025.91473124967888, 3579815.90176351275295 ], [ 698027.23716337850783, 3579788.983039127662778 ], [ 697935.351476881769486, 3579593.252904198598117 ], [ 697903.953392497962341, 3579569.997797547373921 ], [ 697863.185332550900057, 3579578.752135637681931 ], [ 697682.903863001614809, 3579762.913320123218 ], [ 697553.180836289073341, 3579878.879947881214321 ], [ 697383.471967729041353, 3579996.170110284350812 ] ] ], [ [ [ 697924.865310946945101, 3579505.541825326159596 ], [ 697921.24873259360902, 3579543.928321766667068 ], [ 697946.423909241566435, 3579611.462863392196596 ], [ 698038.776565160602331, 3579792.869229646399617 ], [ 698067.165242747287266, 3579814.524769047740847 ], [ 698109.494947611819953, 3579804.284710080362856 ], [ 698125.549751720274799, 3579782.637312678620219 ], [ 698125.587702242541127, 3579757.89085956197232 ], [ 698044.369240962201729, 3579596.791672992054373 ], [ 698000.402862327755429, 3579491.198525039944798 ], [ 697982.451415130170062, 3579476.466153060086071 ], [ 697956.293109282385558, 3579474.11402699071914 ], [ 697935.812450915575027, 3579485.061166959349066 ], [ 697924.865310946945101, 3579505.541825326159596 ] ] ] ] } },
{ "type": "Feature", "properties": { "depth_bin": "90-95" }, "geometry": { "type": "MultiPolygon", "coordinates": [ [ [ [ 696821.475691357860342, 3579616.607694661710411 ], [ 696794.862315546837635, 3579628.926702343393117 ], [ 696783.193506852490827, 3579651.656405331101269 ], [ 696782.618157451157458, 3579690.08143270527944 ], [ 696792.788069133181125, 3579723.452421935740858 ], [ 696824.144234093953855, 3579744.403941529802978 ], [ 696858.218829258694313, 3579732.537052953615785 ], [ 696873.995672550634481, 3579761.133494646754116 ], [ 696868.676115726470016, 3579785.226447289809585 ], [ 696877.563086658832617, 3579806.681493043433875 ], [ 696920.184835010324605, 3579835.704401674214751 ], [ 696944.819453259115107, 3579838.018582166172564 ], [ 696967.936258513014764, 3579824.162902316544205 ], [ 696976.918744767433964, 3579796.810744383838028 ], [ 697014.831719708512537, 3579809.942815405316651 ], [ 697049.525696947355755, 3579792.653571606613696 ], [ 697057.836690028896555, 3579759.474227359052747 ], [ 697034.515442422474734, 3579725.486686720512807 ], [ 697061.330808044061996, 3579703.661439074203372 ], [ 697074.653381493175402, 3579718.632117718923837 ], [ 697115.544903790694661, 3579736.41565418895334 ], [ 697138.321458876947872, 3579731.885115695651621 ], [ 697154.742439977824688, 3579715.46413459489122 ], [ 697164.56513121118769, 3579671.692974654957652 ], [ 697161.75087281386368, 3579650.941281869076192 ], [ 697147.250828552525491, 3579627.146859230473638 ], [ 697076.549644830403849, 3579570.009221903048456 ], [ 697090.763363166479394, 3579553.942475483287126 ], [ 697111.370198389515281, 3579584.644954485353082 ], [ 697165.278227728325874, 3579611.206027281936258 ], [ 697184.134097201400436, 3579606.482877855654806 ], [ 697205.568360873614438, 3579587.667327331379056 ], [ 697213.879353955155239, 3579554.487983083818108 ], [ 697174.63383776450064, 3579493.456086483318359 ], [ 697141.002252403297462, 3579470.75556901562959 ], [ 697105.315375727950595, 3579472.395951878279448 ], [ 697080.426028613117523, 3579502.271320610307157 ], [ 697046.306958078406751, 3579477.544814154040068 ], [ 697004.911880713538267, 3579474.813206835649908 ], [ 696984.431222346727736, 3579485.760346804279834 ], [ 696973.48408237809781, 3579506.241005171090364 ], [ 696987.778194797574542, 3579557.34399030264467 ], [ 696978.649213957600296, 3579584.584060651250184 ], [ 696942.456685534212738, 3579598.986233628820628 ], [ 696934.398731256951578, 3579639.876442313659936 ], [ 696902.922906678984873, 3579655.936997581273317 ], [ 696894.197138978517614, 3579686.320158476009965 ], [ 696881.63051702955272, 3579689.53656417131424 ], [ 696880.966325407032855, 3579656.758699421305209 ], [ 696866.515829561045393, 3579635.400965755805373 ], [ 696844.58664153306745, 3579618.883924577385187 ], [ 696821.475691357860342, 3579616.607694661710411 ] ] ], [ [ [ 697266.438577248598449, 3579477.624639494810253 ], [ 697260.428002691827714, 3579509.174733253195882 ], [ 697278.92232830519788, 3579536.191524275578558 ], [ 697313.481817420455627, 3579543.801666180603206 ], [ 697338.936989031964913, 3579526.793064285069704 ], [ 697346.585078745498322, 3579490.709903437644243 ], [ 697329.57647685019765, 3579465.254731826484203 ], [ 697294.979039822937921, 3579459.168261662125587 ], [ 697266.438577248598449, 3579477.624639494810253 ] ] ], [ [ [ 697408.204641806194559, 3579987.575584642123431 ], [ 697373.81584854691755, 3580012.304724159184843 ], [ 697362.292730727465823, 3580036.668309793807566 ], [ 697371.141748708439991, 3580067.48839919641614 ], [ 697399.627200693124905, 3580083.481682293582708 ], [ 697445.882161885499954, 3580065.237087916582823 ], [ 697608.858129652566276, 3579951.008343787863851 ], [ 697758.408021588693373, 3579814.808682171627879 ], [ 697876.708209510543384, 3579690.326643434353173 ], [ 697950.009533032891341, 3579828.61304194945842 ], [ 697977.344572899048217, 3579843.259417202789336 ], [ 698008.164667814737186, 3579834.410397086292505 ], [ 698022.628178638871759, 3579813.615638901013881 ], [ 698022.666129434597678, 3579788.869186759926379 ], [ 697928.32823179254774, 3579594.557166593614966 ], [ 697900.754242219612934, 3579576.016608148813248 ], [ 697861.480189558933489, 3579584.175805139821023 ], [ 697692.083962594275363, 3579761.617261223029345 ], [ 697582.127040598075837, 3579863.222252453211695 ], [ 697408.204641806194559, 3579987.575584642123431 ] ] ], [ [ [ 697973.314685484627262, 3579470.525770858861506 ], [ 697946.482894442975521, 3579478.676820082124323 ], [ 697931.750522463349625, 3579496.628267279360443 ], [ 697935.7523335267324, 3579550.211954624392092 ], [ 698049.707970398943871, 3579782.469131058547646 ], [ 698071.355367800919339, 3579798.523935167118907 ], [ 698098.274092185660265, 3579797.201503038406372 ], [ 698124.720675261458382, 3579766.525436663068831 ], [ 698124.720675261458382, 3579735.910762073472142 ], [ 698010.077265916392207, 3579493.231527361087501 ], [ 697995.537494805408642, 3579477.266986366827041 ], [ 697973.314685484627262, 3579470.525770858861506 ] ] ] ] } },
{ "type": "Feature", "properties": { "depth_bin": "95-100" }, "geometry": { "type": "MultiPolygon", "coordinates": [ [ [ [ 697437.387262519216165, 3579969.674182801507413 ], [ 697387.503954522777349, 3580005.363230325747281 ], [ 697368.078424468403682, 3580029.928581356070936 ], [ 697368.078424468403682, 3580060.543255945667624 ], [ 697391.211987933609635, 3580083.752725401893258 ], [ 697431.507837669691071, 3580080.702534175477922 ], [ 697491.553641925565898, 3580032.957995819393545 ], [ 697604.021441528690048, 3579961.560307019390166 ], [ 697769.187605156679638, 3579810.503209476359189 ], [ 697871.956212597433478, 3579699.854344695806503 ], [ 697945.286696141003631, 3579834.593901029787958 ], [ 697976.618323130533099, 3579846.385531464591622 ], [ 698005.079361134092323, 3579835.858173368964344 ], [ 698017.981243196758442, 3579816.549142324831337 ], [ 698018.019194018212147, 3579791.802690229378641 ], [ 697922.005828557652421, 3579603.547433004714549 ], [ 697890.548912151600234, 3579584.430896643083543 ], [ 697855.119837892823853, 3579594.689748160075396 ], [ 697698.140717870322987, 3579763.292828844394535 ], [ 697594.430593064869754, 3579858.954660899471492 ], [ 697521.299443728057668, 3579918.118158135563135 ], [ 697437.387262519216165, 3579969.674182801507413 ] ] ], [ [ [ 697946.554092154139653, 3579482.279447662178427 ], [ 697935.606952185509726, 3579502.760106028988957 ], [ 697937.883182101184502, 3579525.871056204661727 ], [ 698052.52659372263588, 3579768.550289896316826 ], [ 698076.192057206411846, 3579787.97203385271132 ], [ 698111.23035066947341, 3579785.085121985524893 ], [ 698130.891291815787554, 3579763.62988003809005 ], [ 698132.251674254308455, 3579735.187476648017764 ], [ 698022.342685854411684, 3579490.487758322618902 ], [ 697989.500790896010585, 3579467.974612661171705 ], [ 697946.554092154139653, 3579482.279447662178427 ] ] ] ] } },
{ "type": "Feature", "properties": { "depth_bin": "100-105" }, "geometry": { "type": "MultiPolygon", "coordinates": [ [ [ [ 697444.828868992975913, 3579968.675566654186696 ], [ 697372.573535872390494, 3580033.08978530857712 ], [ 697372.573535872390494, 3580063.704459898173809 ], [ 697395.70709934970364, 3580086.913929428905249 ], [ 697436.284690982894972, 3580083.293441181536764 ], [ 697645.84388307435438, 3579935.158771110232919 ], [ 697789.298994208103977, 3579798.807160095777363 ], [ 697868.60525713826064, 3579711.967961668036878 ], [ 697930.599726027227007, 3579828.023098136298358 ], [ 697948.506434045033529, 3579846.005707901902497 ], [ 697972.806666934280656, 3579850.574197276495397 ], [ 697997.347119195619598, 3579840.239452758803964 ], [ 698011.810629969113506, 3579819.444694728124887 ], [ 698011.810629969113506, 3579796.221920547541231 ], [ 697924.445992018911056, 3579628.002265457995236 ], [ 697895.385462881880812, 3579605.415532073006034 ], [ 697860.84825366968289, 3579603.903351075947285 ], [ 697831.682359890895896, 3579625.782513615675271 ], [ 697708.920172647223808, 3579758.987570985686034 ], [ 697602.01081120793242, 3579860.668277323711663 ], [ 697524.500051598064601, 3579921.104053978342563 ], [ 697444.828868992975913, 3579968.675566654186696 ] ] ], [ [ [ 698013.691887198132463, 3579468.161804994102567 ], [ 697990.915332111879252, 3579463.631266500800848 ], [ 697961.765999970491976, 3579475.375853580422699 ], [ 697948.864117907825857, 3579494.684884624555707 ], [ 697948.826169886975549, 3579519.431336846202612 ], [ 697991.754865821450949, 3579627.838116154074669 ], [ 698060.182938951766118, 3579767.216362532228231 ], [ 698080.152452231151983, 3579785.31567435991019 ], [ 698107.071176615892909, 3579786.638106488622725 ], [ 698133.82194847392384, 3579765.768584121018648 ], [ 698136.898611908662133, 3579732.253969462588429 ], [ 698083.539584577665664, 3579625.707224782556295 ], [ 698044.897132887737826, 3579512.851702000480145 ], [ 698013.691887198132463, 3579468.161804994102567 ] ] ] ] } },
{ "type": "Feature", "properties": { "depth_bin": "105-110" }, "geometry": { "type": "MultiPolygon", "coordinates": [ [ [ [ 697448.282465650001541, 3579972.710401512216777 ], [ 697375.544974814751185, 3580036.213036388158798 ], [ 697375.544974814751185, 3580066.827710977755487 ], [ 697398.678638267796487, 3580090.037183057516813 ], [ 697438.974488340667449, 3580086.98699200199917 ], [ 697505.6500305745285, 3580034.441506423056126 ], [ 697602.042343118810095, 3579979.806444165296853 ], [ 697789.10924170888029, 3579806.425539381802082 ], [ 697865.742450861027464, 3579724.586483938153833 ], [ 697927.970857064705342, 3579834.323540864046663 ], [ 697943.859498929581605, 3579848.939210765995085 ], [ 697966.636054015834816, 3579853.469749259296805 ], [ 697991.176406205981039, 3579843.135002361610532 ], [ 698004.078288268647157, 3579823.825971317477524 ], [ 698004.116239156923257, 3579799.079519354738295 ], [ 697922.391022125608288, 3579649.295795634854585 ], [ 697891.920665992656723, 3579622.100080226082355 ], [ 697857.421406385488808, 3579619.064221546053886 ], [ 697818.923703543841839, 3579648.334068971686065 ], [ 697729.031688480055891, 3579747.291309931315482 ], [ 697598.69780327193439, 3579871.258093933574855 ], [ 697522.786618306534365, 3579928.684469733387232 ], [ 697448.282465650001541, 3579972.710401512216777 ] ] ], [ [ [ 697961.082845273078419, 3579484.620734082069248 ], [ 697958.044134422321804, 3579516.611668773926795 ], [ 698010.498302147607319, 3579642.751471222843975 ], [ 698035.953473759116605, 3579659.760073118377477 ], [ 698072.112559386529028, 3579652.415564199443907 ], [ 698088.406559069640934, 3579632.978387464769185 ], [ 698090.758687108522281, 3579606.820080033503473 ], [ 698038.836445324472152, 3579478.434125749394298 ], [ 698020.884998126886785, 3579463.701753769535571 ], [ 698000.133297009509988, 3579460.811598040629178 ], [ 697974.136886526248418, 3579470.21781906299293 ], [ 697961.082845273078419, 3579484.620734082069248 ] ] ], [ [ [ 698058.161273543955758, 3579704.69222710840404 ], [ 698052.188646820024587, 3579734.718649310059845 ], [ 698074.730995885678567, 3579776.347404026892036 ], [ 698105.551091933739372, 3579785.272325248923153 ], [ 698137.159812033292837, 3579769.430839304812253 ], [ 698145.470805114833638, 3579736.251495057251304 ], [ 698122.89050544903148, 3579696.146418757271022 ], [ 698087.499372422927991, 3579687.107647362165153 ], [ 698058.161273543955758, 3579704.69222710840404 ] ] ] ] } },
{ "type": "Feature", "properties": { "depth_bin": "110-115" }, "geometry": { "type": "MultiPolygon", "coordinates": [ [ [ [ 697491.868637361563742, 3579951.326641912572086 ], [ 697391.544711311347783, 3580025.030173361767083 ], [ 697383.972505909274332, 3580058.065987795591354 ], [ 697400.981107804575004, 3580083.521159406751394 ], [ 697424.727589752757922, 3580090.30032795201987 ], [ 697446.668757559149526, 3580084.129411944653839 ], [ 697498.782187494914979, 3580042.366467461455613 ], [ 697589.443759487941861, 3579994.106489848345518 ], [ 697646.950088024954312, 3579951.957142516039312 ], [ 697862.942591075901873, 3579737.619446015916765 ], [ 697923.323922099196352, 3579837.25704357912764 ], [ 697942.761096071568318, 3579853.551044188905507 ], [ 697965.872046246775426, 3579855.827274104580283 ], [ 697989.438010988757014, 3579843.43235827004537 ], [ 698000.385150957386941, 3579822.951699903234839 ], [ 697999.469304085709155, 3579802.013022193219513 ], [ 697923.459300697082654, 3579667.617970606777817 ], [ 697884.499763861880638, 3579635.702177372761071 ], [ 697854.032507298630662, 3579632.701414517126977 ], [ 697817.172329041641206, 3579657.438179416116327 ], [ 697730.587816512910649, 3579752.464145766571164 ], [ 697591.884142365772277, 3579885.996704819612205 ], [ 697491.868637361563742, 3579951.326641912572086 ] ] ], [ [ [ 697978.817067807074636, 3579472.410611786879599 ], [ 697968.823725625290535, 3579489.083495944272727 ], [ 697967.75608387903776, 3579513.069530604407191 ], [ 698017.698205827968195, 3579636.56486871978268 ], [ 698041.363669311744161, 3579655.986612676177174 ], [ 698076.439910933491774, 3579651.576018369290978 ], [ 698094.539222760824487, 3579631.606505090370774 ], [ 698097.54322667082306, 3579606.283767440821975 ], [ 698054.339927849709056, 3579491.284667357802391 ], [ 698035.562374869245104, 3579468.326682570856065 ], [ 698017.990256383316591, 3579460.015689488966018 ], [ 697997.05157815979328, 3579460.931539325043559 ], [ 697978.817067807074636, 3579472.410611786879599 ] ] ], [ [ [ 698085.292745010112412, 3579688.663876757957041 ], [ 698062.083271830924787, 3579711.79744971357286 ], [ 698062.045321706100367, 3579743.93580335797742 ], [ 698087.421477187541313, 3579777.808179413434118 ], [ 698124.632042224984616, 3579779.562410670798272 ], [ 698149.403145062737167, 3579754.943108839914203 ], [ 698148.031266725156456, 3579718.1957673500292 ], [ 698122.002135992865078, 3579688.815677177160978 ], [ 698085.292745010112412, 3579688.663876757957041 ] ] ] ] } },
{ "type": "Feature", "properties": { "depth_bin": "115-120" }, "geometry": { "type": "Polygon", "coordinates": [ [ [ 697925.606875037890859, 3579699.235634715761989 ], [ 697902.830319951637648, 3579694.70509622246027 ], [ 697884.528196244034916, 3579701.253700797446072 ], [ 697871.474154990864918, 3579715.65661581652239 ], [ 697866.713055405532941, 3579736.036162528209388 ], [ 697893.35580677643884, 3579790.817269104067236 ], [ 697928.771356247714721, 3579808.602743964642286 ], [ 697957.055627495166846, 3579796.887015212327242 ], [ 697968.771356247714721, 3579768.602743964642286 ], [ 697960.620314671075903, 3579741.770951880607754 ], [ 697925.606875037890859, 3579699.235634715761989 ] ] ] } }
]
}
