{
"type": "FeatureCollection",
"name": "LM_06_MBV_20150818_CS_MB_4347_4352_depth",
"crs": { "type": "name", "properties": { "name": "urn:ogc:def:crs:EPSG::26915" } },
"features": [
{ "type": "Feature", "properties": { "depth_bin": "10-15" }, "geometry": { "type": "Polygon", "coordinates": [ [ [ 696776.423800090677105, 3576398.411393472459167 ], [ 696747.127383110928349, 3576389.524422539863735 ], [ 696720.127650589565746, 3576403.95608024019748 ], [ 696711.164842115482315, 3576436.299831122625619 ], [ 696725.59649981581606, 3576463.299563643988222 ], [ 696756.991161473444663, 3576475.578157157637179 ], [ 696787.911579607985914, 3576460.953888524323702 ], [ 696796.260491499910131, 3576426.250877269543707 ], [ 696776.423800090677105, 3576398.411393472459167 ] ] ] } },
{ "type": "Feature", "properties": { "depth_bin": "15-20" }, "geometry": { "type": "Polygon", "coordinates": [ [ [ 696694.012891709106043, 3576366.033773802220821 ], [ 696677.294900748645887, 3576380.182764429133385 ], [ 696670.553685240796767, 3576402.405573749914765 ], [ 696694.820525264134631, 3576455.5568398530595 ], [ 696747.815064704394899, 3576510.73588401870802 ], [ 696773.638954000314698, 3576515.342260901816189 ], [ 696795.026331165921874, 3576507.345827572979033 ], [ 696814.172497244318947, 3576476.521980714984238 ], [ 696816.264952835510485, 3576445.863420934416354 ], [ 696806.93444623448886, 3576416.819789188914001 ], [ 696750.391363480244763, 3576359.962421231437474 ], [ 696715.926673217327334, 3576356.731029016897082 ], [ 696694.012891709106043, 3576366.033773802220821 ] ] ] } },
{ "type": "Feature", "properties": { "depth_bin": "20-25" }, "geometry": { "type": "Polygon", "coordinates": [ [ [ 696604.026275903219357, 3576135.926722322590649 ], [ 696574.688177024247125, 3576153.511302068829536 ], [ 696568.639717595884576, 3576186.585055567789823 ], [ 696646.238815492368303, 3576324.75566572137177 ], [ 696662.504241880844347, 3576340.268174017313868 ], [ 696650.635455596260726, 3576368.168771067168564 ], [ 696649.680294607882388, 3576395.129733376670629 ], [ 696668.613386990269646, 3576443.964866914320737 ], [ 696743.168225081753917, 3576513.669460532721132 ], [ 696763.547761609079316, 3576518.430529181379825 ], [ 696802.249223308288492, 3576512.67666244879365 ], [ 696821.670967264450155, 3576489.01119896536693 ], [ 696823.117716136272065, 3576449.788424736820161 ], [ 696809.943861728417687, 3576418.419294088147581 ], [ 696757.746192556573078, 3576358.407643468119204 ], [ 696765.818312390940264, 3576328.737385574728251 ], [ 696751.607968466822058, 3576273.921344196423888 ], [ 696694.512148853042163, 3576226.04032281273976 ], [ 696640.726497045252472, 3576150.610923029016703 ], [ 696604.026275903219357, 3576135.926722322590649 ] ] ] } },
{ "type": "Feature", "properties": { "depth_bin": "25-30" }, "geometry": { "type": "Polygon", "coordinates": [ [ [ 696569.630005162442103, 3576107.824261486064643 ], [ 696544.402960225939751, 3576128.731754778884351 ], [ 696528.986499264021404, 3576187.122895538341254 ], [ 696567.651105791097507, 3576273.744959516450763 ], [ 696611.995494215399958, 3576335.987364567816257 ], [ 696608.654962699045427, 3576389.534936735872179 ], [ 696616.043241392588243, 3576412.164287344086915 ], [ 696659.952095390763134, 3576469.774409118574113 ], [ 696703.742382599157281, 3576505.065225126687437 ], [ 696745.800215338007547, 3576522.467643576674163 ], [ 696811.201630777330138, 3576520.522514422424138 ], [ 696832.153150371159427, 3576489.166349461767823 ], [ 696823.155840406776406, 3576438.013866135384887 ], [ 696848.072395963594317, 3576452.017650126013905 ], [ 696869.011063921032473, 3576453.00936654349789 ], [ 696897.332868381170556, 3576439.759566912427545 ], [ 696912.065240360796452, 3576421.808119715191424 ], [ 696914.417307375464588, 3576395.649833287112415 ], [ 696894.877868162002414, 3576336.946665489580482 ], [ 696841.231881476123817, 3576296.95887732738629 ], [ 696801.283109383075498, 3576296.34608062915504 ], [ 696779.856444133445621, 3576305.212003145832568 ], [ 696750.756125844898634, 3576254.362441952340305 ], [ 696742.345140867284499, 3576217.280156760010868 ], [ 696693.979072183254175, 3576154.985331174451858 ], [ 696650.221346002770588, 3576130.596497636754066 ], [ 696619.383685200475156, 3576128.472310824785382 ], [ 696596.548729547183029, 3576109.146693614777178 ], [ 696569.630005162442103, 3576107.824261486064643 ] ], [ [ 696806.136561805731617, 3576410.514645205810666 ], [ 696795.030595486750826, 3576402.040671734139323 ], [ 696783.472889924421906, 3576386.674409988336265 ], [ 696802.754114316427149, 3576395.49555645044893 ], [ 696812.167500174604356, 3576418.038113421294838 ], [ 696806.136561805731617, 3576410.514645205810666 ] ] ] } },
{ "type": "Feature", "properties": { "depth_bin": "30-35" }, "geometry": { "type": "Polygon", "coordinates": [ [ [ 696511.119349558721296, 3576130.901353213470429 ], [ 696477.479356309166178, 3576180.968847724609077 ], [ 696477.479356309166178, 3576211.583522314205766 ], [ 696539.961184021551162, 3576306.864781043492258 ], [ 696558.584672995260917, 3576321.837613415904343 ], [ 696585.797433967585675, 3576402.263925111852586 ], [ 696645.666976036736742, 3576478.51165320398286 ], [ 696660.546826492645778, 3576523.043944128789008 ], [ 696680.886191459721886, 3576544.516030533239245 ], [ 696713.229941495112143, 3576553.478840553667396 ], [ 696769.195103587699123, 3576518.61273743538186 ], [ 696787.51364449923858, 3576527.600248369388282 ], [ 696813.671929421136156, 3576525.399857099633664 ], [ 696847.391020395210944, 3576489.715335370972753 ], [ 696854.149202918051742, 3576465.542368593160063 ], [ 696887.75216923665721, 3576464.624100175686181 ], [ 696908.622787166619673, 3576450.23646871605888 ], [ 696919.491468005580828, 3576414.232978935819119 ], [ 696903.411724033183418, 3576338.416156507097185 ], [ 696879.274032877525315, 3576305.959402027539909 ], [ 696837.916177550796419, 3576273.713037743233144 ], [ 696810.234224492916837, 3576271.323054879903793 ], [ 696780.578256078879349, 3576286.730122210923582 ], [ 696773.530461499001831, 3576280.513598373159766 ], [ 696764.663192214909941, 3576261.585499954875559 ], [ 696774.339696905575693, 3576239.215552268084139 ], [ 696769.809158412623219, 3576216.438997182063758 ], [ 696716.745360806235112, 3576162.135762114077806 ], [ 696612.514081493252888, 3576101.986359672155231 ], [ 696583.2915875116596, 3576093.005811364389956 ], [ 696550.499527944833972, 3576098.332373620942235 ], [ 696511.119349558721296, 3576130.901353213470429 ] ] ] } },
{ "type": "Feature", "properties": { "depth_bin": "35-40" }, "geometry": { "type": "Polygon", "coordinates": [ [ [ 696482.138440814102069, 3576161.00910077104345 ], [ 696453.103619555244222, 3576182.870490460656583 ], [ 696451.425288828788325, 3576217.033697228413075 ], [ 696500.209399228449911, 3576284.531392440199852 ], [ 696510.821859009563923, 3576313.762673989869654 ], [ 696536.051909468253143, 3576333.179859852883965 ], [ 696545.721537753823213, 3576381.714170293882489 ], [ 696614.407834279350936, 3576470.307617178186774 ], [ 696625.05611563520506, 3576534.810912799555808 ], [ 696635.79041211004369, 3576560.81067515257746 ], [ 696650.193327129120007, 3576573.864716405514628 ], [ 696676.852809482836165, 3576577.819277048110962 ], [ 696720.668532198411413, 3576556.439922542311251 ], [ 696744.702851095004007, 3576530.464535765815526 ], [ 696747.168678623507731, 3576499.735252945218235 ], [ 696723.935777769540437, 3576443.721928338520229 ], [ 696663.162235784577206, 3576369.784522695932537 ], [ 696643.01327238813974, 3576297.594897451344877 ], [ 696623.948036774876527, 3576259.759166071657091 ], [ 696594.54499588010367, 3576233.751511781942099 ], [ 696588.472457788535394, 3576197.984380089212209 ], [ 696610.998690036940388, 3576207.612610717769712 ], [ 696643.747294659144245, 3576208.341194920241833 ], [ 696683.717009200947359, 3576251.912381791044027 ], [ 696656.599667853210121, 3576276.361995240673423 ], [ 696653.598904997925274, 3576306.829251803923398 ], [ 696670.869319029967301, 3576337.404821735341102 ], [ 696696.724170845001936, 3576349.00120076444 ], [ 696708.832431332324632, 3576410.966702068224549 ], [ 696753.383936609956436, 3576466.397918826434761 ], [ 696761.52316873066593, 3576499.181010927539319 ], [ 696777.703369516530074, 3576520.217712210025638 ], [ 696815.233516131876968, 3576523.914109018631279 ], [ 696855.658663107897155, 3576491.742438032757491 ], [ 696874.970474383793771, 3576507.867335319519043 ], [ 696903.412867032806389, 3576509.227686623577029 ], [ 696924.909310321789235, 3576497.489082179963589 ], [ 696937.6415455264505, 3576478.654182341415435 ], [ 696974.184368564281613, 3576483.545833468902856 ], [ 697000.973007832071744, 3576461.152589458040893 ], [ 697002.651338558527641, 3576426.989382690284401 ], [ 696968.874254419235513, 3576381.37068126257509 ], [ 696942.373895174707286, 3576364.740160698536783 ], [ 696920.911233017686754, 3576362.219430352095515 ], [ 696892.462201769230887, 3576313.704373594373465 ], [ 696839.116157344309613, 3576262.020988028496504 ], [ 696799.137497342075221, 3576258.378405852243304 ], [ 696784.767474684980698, 3576230.219726531300694 ], [ 696709.506193235050887, 3576146.709515899885446 ], [ 696627.540003650123253, 3576104.971354620996863 ], [ 696606.874410120421089, 3576083.550710182171315 ], [ 696574.883488093386404, 3576080.512031528167427 ], [ 696545.717953952844255, 3576102.391370076220483 ], [ 696534.194836133392528, 3576126.754955710843205 ], [ 696540.073516706121154, 3576151.780749971978366 ], [ 696512.953082734602503, 3576148.054450931493193 ], [ 696482.138440814102069, 3576161.00910077104345 ] ] ] } },
{ "type": "Feature", "properties": { "depth_bin": "40-45" }, "geometry": { "type": "MultiPolygon", "coordinates": [ [ [ [ 696449.964486213750206, 3576172.763152402359992 ], [ 696426.781242212979123, 3576196.478007739409804 ], [ 696426.743325554765761, 3576228.61634660884738 ], [ 696516.170462586567737, 3576348.213160876650363 ], [ 696518.904735695570707, 3576384.895583217497915 ], [ 696552.703272631624714, 3576420.755519801285118 ], [ 696561.920004618703388, 3576465.970889400690794 ], [ 696591.572353486553766, 3576484.532774747814983 ], [ 696598.500409413012676, 3576565.713573175482452 ], [ 696612.82084665785078, 3576583.986544832587242 ], [ 696634.275892411242239, 3576592.873515765182674 ], [ 696684.819814009824768, 3576575.312542991247028 ], [ 696704.654372534132563, 3576559.50635791150853 ], [ 696713.541343466495164, 3576538.05131215788424 ], [ 696699.85327173571568, 3576459.707552360370755 ], [ 696637.290862514055334, 3576364.347650734707713 ], [ 696610.861632425803691, 3576293.288012775126845 ], [ 696578.465967747964896, 3576260.748758355621248 ], [ 696564.68812775996048, 3576226.313081310596317 ], [ 696519.812943104538135, 3576172.481272620148957 ], [ 696480.800066768657416, 3576160.013012717943639 ], [ 696449.964486213750206, 3576172.763152402359992 ] ] ], [ [ [ 696556.321337424102239, 3576095.119001744780689 ], [ 696551.264592696796171, 3576130.476863642688841 ], [ 696574.813370518502779, 3576167.513266308698803 ], [ 696656.386928154737689, 3576207.998628129716963 ], [ 696693.350108225480653, 3576255.232166928239167 ], [ 696665.665831626043655, 3576279.636833140160888 ], [ 696662.665068770758808, 3576310.104089703410864 ], [ 696678.719872879213654, 3576331.751487105153501 ], [ 696704.485264321905561, 3576338.499522702768445 ], [ 696700.795594360330142, 3576362.860372032038867 ], [ 696711.993520432268269, 3576406.471538132987916 ], [ 696728.276946737081744, 3576433.565800855867565 ], [ 696764.775496916146949, 3576465.682205225341022 ], [ 696767.857092981575988, 3576494.150992159266025 ], [ 696780.758975044242106, 3576513.460023203399032 ], [ 696813.938319291453809, 3576521.771016285289079 ], [ 696857.350764848175459, 3576496.252458913251758 ], [ 696908.898779317154549, 3576504.314326036721468 ], [ 696939.747756401542574, 3576478.524908088613302 ], [ 696975.023439120035619, 3576481.566050119698048 ], [ 697004.348677146714181, 3576463.291038811206818 ], [ 697012.697589100222103, 3576428.58802551496774 ], [ 696991.463954021804966, 3576392.605245595332235 ], [ 696957.135221401462331, 3576359.484138008207083 ], [ 696919.741880645393394, 3576348.202625288628042 ], [ 696908.957124881329946, 3576324.787147983442992 ], [ 696833.430413602036424, 3576251.942509257234633 ], [ 696799.168135670013726, 3576243.902776942122728 ], [ 696709.657858598395251, 3576140.61485042842105 ], [ 696604.238840006757528, 3576079.140029203146696 ], [ 696577.968734826077707, 3576079.064197636209428 ], [ 696556.321337424102239, 3576095.119001744780689 ] ] ] ] } },
{ "type": "Feature", "properties": { "depth_bin": "45-50" }, "geometry": { "type": "MultiPolygon", "coordinates": [ [ [ [ 696430.939975982997566, 3576185.309227040037513 ], [ 696405.681828464148566, 3576205.716171418782324 ], [ 696399.67128493427299, 3576237.266257665120065 ], [ 696479.996740005211905, 3576333.696063064504415 ], [ 696487.606982849771157, 3576349.370646209456027 ], [ 696477.771213524159975, 3576372.337927903514355 ], [ 696484.319818098912947, 3576398.481422837357968 ], [ 696527.456321514211595, 3576424.250916079618037 ], [ 696504.870023593306541, 3576466.6902074823156 ], [ 696506.425784682156518, 3576518.750892348121852 ], [ 696535.577353101922199, 3576542.674966269638389 ], [ 696554.992353072739206, 3576541.721168482676148 ], [ 696574.420079836971126, 3576528.925425942987204 ], [ 696564.337661077501252, 3576569.642620960250497 ], [ 696570.088503927923739, 3576604.646420542150736 ], [ 696593.753967411699705, 3576624.068164498545229 ], [ 696622.196357352426276, 3576622.783652576152235 ], [ 696649.479399058851413, 3576600.660473595373333 ], [ 696678.45289513701573, 3576546.431443105451763 ], [ 696674.265841182088479, 3576450.833895958494395 ], [ 696659.506194532033987, 3576423.777563740499318 ], [ 696634.334802357363515, 3576404.748418438248336 ], [ 696600.895567900734022, 3576349.718116476666182 ], [ 696587.398400427191518, 3576293.961219188757241 ], [ 696562.264026526012458, 3576273.7456856216304 ], [ 696549.034388946718536, 3576242.694323646370322 ], [ 696502.534678345313296, 3576189.861147879157215 ], [ 696466.095528195146471, 3576173.463703582063317 ], [ 696430.939975982997566, 3576185.309227040037513 ] ] ], [ [ [ 696562.857431937474757, 3576087.571790100075305 ], [ 696551.141703184926882, 3576115.85606134776026 ], [ 696564.640618419856764, 3576147.44020219752565 ], [ 696659.528513551922515, 3576203.481950593180954 ], [ 696669.401627379702404, 3576226.277743311598897 ], [ 696695.96956983441487, 3576249.642364625819027 ], [ 696690.426316412282176, 3576289.420822563115507 ], [ 696696.974920987035148, 3576307.722946270834655 ], [ 696716.330427406472154, 3576325.696020092815161 ], [ 696705.060229748371057, 3576363.624441416468471 ], [ 696717.974533020635135, 3576411.194215195253491 ], [ 696733.998348760185763, 3576435.026410816702992 ], [ 696786.516519547207281, 3576475.401485759299248 ], [ 696803.955261513008736, 3576500.315803184639663 ], [ 696830.854660569224507, 3576509.433304200880229 ], [ 696858.886789488140494, 3576497.946103934198618 ], [ 696912.022054264787585, 3576501.342829988803715 ], [ 696942.287812554975972, 3576480.007761532440782 ], [ 696986.601234030793421, 3576474.7071706908755 ], [ 697007.471853003720753, 3576460.319538414943963 ], [ 697014.86696714325808, 3576421.808750878088176 ], [ 696984.338553970679641, 3576372.607856505550444 ], [ 696862.486447431147099, 3576283.672888689674437 ], [ 696833.69583494681865, 3576241.276836624834687 ], [ 696796.515798188862391, 3576231.614615355152637 ], [ 696747.678435039822944, 3576186.466300286818296 ], [ 696706.800107259768993, 3576132.920686094090343 ], [ 696636.021936616278253, 3576099.47004331741482 ], [ 696607.399918357259594, 3576074.644864140544087 ], [ 696582.653478639316745, 3576074.60694839945063 ], [ 696562.857431937474757, 3576087.571790100075305 ] ] ] ] } },
{ "type": "Feature", "properties": { "depth_bin": "50-55" }, "geometry": { "type": "MultiPolygon", "coordinates": [ [ [ [ 696405.652059429208748, 3576202.982679669279605 ], [ 696391.939214401179925, 3576226.040439758915454 ], [ 696395.44741734850686, 3576265.339005345478654 ], [ 696414.614753847243264, 3576294.643326992169023 ], [ 696461.28191441053059, 3576338.891211065463722 ], [ 696439.332705162698403, 3576366.022139701992273 ], [ 696435.3432194449706, 3576396.713493386283517 ], [ 696453.567413332057185, 3576431.096823138184845 ], [ 696481.850737136555836, 3576443.978285087738186 ], [ 696477.292379436315969, 3576487.709547669626772 ], [ 696499.803238909691572, 3576549.535795668605715 ], [ 696519.772752189077437, 3576567.635107496287674 ], [ 696549.109250177629292, 3576568.092446396593004 ], [ 696557.554813550785184, 3576608.450771681964397 ], [ 696573.73501040507108, 3576629.487470069900155 ], [ 696592.037134112673812, 3576636.036074644885957 ], [ 696614.813689198927023, 3576631.505536151584238 ], [ 696642.282615589094348, 3576602.621553913224488 ], [ 696658.340809629531577, 3576531.427132905926555 ], [ 696648.17093926249072, 3576448.202324178535491 ], [ 696611.284466062672436, 3576421.253776308149099 ], [ 696605.76971884467639, 3576385.095476950518787 ], [ 696579.168002646183595, 3576360.642628813162446 ], [ 696569.153808462782763, 3576315.11920869955793 ], [ 696485.281352675170638, 3576209.251696411985904 ], [ 696441.299717728048563, 3576189.617338903713971 ], [ 696405.652059429208748, 3576202.982679669279605 ] ] ], [ [ [ 696583.452693576342426, 3576079.090458900667727 ], [ 696561.804849570500664, 3576100.738302906509489 ], [ 696563.483180296956562, 3576134.901509674265981 ], [ 696592.842653312254697, 3576168.00548944529146 ], [ 696656.690261028241366, 3576195.809299431275576 ], [ 696678.278307699249126, 3576237.171011538244784 ], [ 696700.51539406098891, 3576250.806333276443183 ], [ 696713.46836148831062, 3576295.669013478793204 ], [ 696732.028876701719128, 3576313.101918851956725 ], [ 696708.565603619092144, 3576349.113823529332876 ], [ 696723.993364196736366, 3576414.393223071005195 ], [ 696738.506392773822881, 3576434.653142093680799 ], [ 696791.141160657862201, 3576471.429954289924353 ], [ 696808.488345469813794, 3576501.953228361904621 ], [ 696833.864076836383902, 3576511.032810227479786 ], [ 696889.44936084386427, 3576495.665300816763192 ], [ 696916.630981078837067, 3576499.932818861678243 ], [ 696963.870042505441234, 3576472.331307802349329 ], [ 696989.68649104621727, 3576473.259339327458292 ], [ 697008.995522090583108, 3576460.357457264792174 ], [ 697017.88249302294571, 3576438.902411511167884 ], [ 697015.106122931232676, 3576416.627050417475402 ], [ 697000.384370259125717, 3576388.047115274704993 ], [ 696954.68640733207576, 3576341.863138264976442 ], [ 696870.008415299351327, 3576286.887154941447079 ], [ 696827.790651228278875, 3576233.506827676203102 ], [ 696795.823761574807577, 3576224.288121830206364 ], [ 696748.572282122448087, 3576185.914037559647113 ], [ 696703.723017663112842, 3576127.534987045451999 ], [ 696639.028474511113018, 3576099.90495528653264 ], [ 696615.591033746255562, 3576079.128374675288796 ], [ 696583.452693576342426, 3576079.090458900667727 ] ], [ [ 696837.985559437423944, 3576368.715836788062006 ], [ 696813.201921373605728, 3576350.856132711283863 ], [ 696809.966539408778772, 3576342.832158805802464 ], [ 696849.918638731818646, 3576375.673904447350651 ], [ 696837.985559437423944, 3576368.715836788062006 ] ] ] ] } },
{ "type": "Feature", "properties": { "depth_bin": "55-60" }, "geometry": { "type": "MultiPolygon", "coordinates": [ [ [ [ 696448.421662914101034, 3576214.0021748887375 ], [ 696406.825635429588147, 3576222.769283080473542 ], [ 696378.188079861691222, 3576269.235392213799059 ], [ 696387.075050794053823, 3576298.531809193547815 ], [ 696430.442596715060063, 3576328.101898759137839 ], [ 696415.111279395292513, 3576378.401600073091686 ], [ 696421.97734123643022, 3576424.558730145916343 ], [ 696445.074447244289331, 3576458.121228590141982 ], [ 696449.220611588214524, 3576493.844183800276369 ], [ 696463.72813991329167, 3576528.818082003854215 ], [ 696493.038980376673862, 3576574.074197360314429 ], [ 696514.632958397269249, 3576590.376421173103154 ], [ 696534.935272329021245, 3576593.401397888548672 ], [ 696561.242321874946356, 3576641.373530369251966 ], [ 696595.076518285903148, 3576646.392359306570143 ], [ 696632.673847396159545, 3576609.325817810371518 ], [ 696633.19786054873839, 3576503.787089272402227 ], [ 696611.275911668082699, 3576472.846021272242069 ], [ 696572.783859825809486, 3576459.609604307450354 ], [ 696578.868698482168838, 3576401.0208381973207 ], [ 696570.557705400628038, 3576383.448719711508602 ], [ 696544.345907541690394, 3576361.526926630176604 ], [ 696547.668291900423355, 3576333.980783793609589 ], [ 696537.422172592603602, 3576303.657279855106026 ], [ 696487.418769028387032, 3576245.89557428099215 ], [ 696448.421662914101034, 3576214.0021748887375 ] ] ], [ [ [ 696564.852180745685473, 3576100.814134453423321 ], [ 696562.538035049918108, 3576125.448750230483711 ], [ 696577.866592756705359, 3576153.661484178155661 ], [ 696660.635082189342938, 3576197.530619842000306 ], [ 696670.963210486574098, 3576224.791993374936283 ], [ 696756.341793039697222, 3576306.512613252270967 ], [ 696716.675793173024431, 3576329.325950902886689 ], [ 696711.467371454578824, 3576370.778582063037902 ], [ 696736.046958701335825, 3576427.660625257529318 ], [ 696795.54804343439173, 3576467.055965480860323 ], [ 696798.432563266949728, 3576486.378066687844694 ], [ 696811.497761775157414, 3576503.552734449040145 ], [ 696840.79417875490617, 3576512.439705381635576 ], [ 696892.586720209685154, 3576492.590357414912432 ], [ 696924.363080622744747, 3576495.551408756989986 ], [ 696964.144558551954105, 3576470.363754920661449 ], [ 696991.248078992473893, 3576471.773589074611664 ], [ 697015.203955076518469, 3576455.938125226646662 ], [ 697022.59906917589251, 3576417.427337616216391 ], [ 696991.956898609176278, 3576372.797449147794396 ], [ 696959.113910422194749, 3576341.238031913526356 ], [ 696920.85738740535453, 3576323.181133280042559 ], [ 696868.619239971973002, 3576282.301013615448028 ], [ 696835.371171501232311, 3576235.220083760097623 ], [ 696792.741231827763841, 3576216.619743544608355 ], [ 696708.475438454537652, 3576126.86393689038232 ], [ 696611.134640535805374, 3576076.927976306062192 ], [ 696582.951492573018186, 3576080.844621174503118 ], [ 696564.852180745685473, 3576100.814134453423321 ] ], [ [ 696846.041331347427331, 3576376.064399058464915 ], [ 696807.58554562937934, 3576354.009877741336823 ], [ 696802.917151884990744, 3576332.31168475234881 ], [ 696855.978786234278232, 3576382.002051106654108 ], [ 696846.041331347427331, 3576376.064399058464915 ] ], [ [ 696790.952996126259677, 3576315.143290523905307 ], [ 696791.098823943873867, 3576315.106762557290494 ], [ 696791.238477968261577, 3576315.40203618304804 ], [ 696790.952996126259677, 3576315.143290523905307 ] ] ] ] } },
{ "type": "Feature", "properties": { "depth_bin": "60-65" }, "geometry": { "type": "MultiPolygon", "coordinates": [ [ [ [ 696395.258455664734356, 3576221.356182363815606 ], [ 696350.393271149718203, 3576251.441321320366114 ], [ 696342.082278068177402, 3576284.620665567927063 ], [ 696359.090879963478073, 3576310.075837179087102 ], [ 696393.653891779831611, 3576320.813100191764534 ], [ 696396.406211947673, 3576338.761578628793359 ], [ 696381.939039357355796, 3576398.433677642606199 ], [ 696403.799841212108731, 3576448.314347671344876 ], [ 696423.842909952159971, 3576464.212139709852636 ], [ 696443.692984827328473, 3576537.467115156818181 ], [ 696471.394650250673294, 3576564.376736828126013 ], [ 696484.630272535141557, 3576591.954045182093978 ], [ 696528.114097314071842, 3576612.667706310749054 ], [ 696556.595485077472404, 3576644.307099723257124 ], [ 696578.818294398253784, 3576651.048315231222659 ], [ 696599.197829171549529, 3576646.363086244091392 ], [ 696621.710934513946995, 3576613.521176398731768 ], [ 696605.127250486635603, 3576529.006846039555967 ], [ 696589.072446378180757, 3576507.35944863781333 ], [ 696549.428779751295224, 3576497.189954253844917 ], [ 696530.540812119259499, 3576479.916585247963667 ], [ 696543.103953908430412, 3576444.705565940123051 ], [ 696540.827723992755637, 3576421.594615764450282 ], [ 696526.095352013129741, 3576403.643168567214161 ], [ 696499.190478845965117, 3576392.68311678385362 ], [ 696515.14038333541248, 3576362.357278974726796 ], [ 696517.346572539070621, 3576327.127766899298877 ], [ 696508.624217992648482, 3576296.842186212074012 ], [ 696473.321795710595325, 3576257.491778023075312 ], [ 696418.369405839941464, 3576223.632412279490381 ], [ 696395.258455664734356, 3576221.356182363815606 ] ] ], [ [ [ 696605.99615693220403, 3576073.795031246729195 ], [ 696572.432593150762841, 3576102.527379003819078 ], [ 696569.504553772858344, 3576124.802733256015927 ], [ 696578.391524705220945, 3576146.257779009640217 ], [ 696609.92258525302168, 3576170.364799120929092 ], [ 696656.325694819330238, 3576189.000499165151268 ], [ 696671.710093791596591, 3576220.191237924620509 ], [ 696710.756077128928155, 3576263.205868017394096 ], [ 696733.723305591265671, 3576272.167127722874284 ], [ 696757.61878831742797, 3576300.583171122707427 ], [ 696788.255104926531203, 3576305.003551733680069 ], [ 696820.012289894628339, 3576345.204737732186913 ], [ 696892.165519515168853, 3576398.994920215103775 ], [ 696879.433364078169689, 3576410.946509341709316 ], [ 696807.60819207970053, 3576359.460731538943946 ], [ 696781.405076946597546, 3576320.780016673728824 ], [ 696748.225732699385844, 3576312.469023591838777 ], [ 696725.108927445486188, 3576326.324703441467136 ], [ 696714.429742518230341, 3576354.709848289843649 ], [ 696724.410466531990096, 3576397.632885472849011 ], [ 696743.292025473667309, 3576429.159253503661603 ], [ 696781.486970078200102, 3576448.929507959634066 ], [ 696822.761973438551649, 3576486.272914958186448 ], [ 696859.120695387013257, 3576502.418658040463924 ], [ 696897.160942317685112, 3576486.385610213968903 ], [ 696932.817698482656851, 3576491.664030994754285 ], [ 696968.039645685814321, 3576464.850291669834405 ], [ 696993.648737787036225, 3576468.308054721914232 ], [ 697014.129396153846756, 3576457.360914753284305 ], [ 697024.122738335630856, 3576440.688030595891178 ], [ 697025.152373688761145, 3576418.225692287553102 ], [ 696999.126133911078796, 3576377.343413625378162 ], [ 696965.352088195388205, 3576342.128566074185073 ], [ 696924.438611001707613, 3576322.65055536152795 ], [ 696870.38297714246437, 3576279.977920061908662 ], [ 696836.970673475065269, 3576232.210665883030742 ], [ 696776.236897251103073, 3576196.148097154684365 ], [ 696721.880533650168218, 3576134.103325250092894 ], [ 696684.102522627450526, 3576061.738165497779846 ], [ 696648.014638499356806, 3576050.79102552914992 ], [ 696605.99615693220403, 3576073.795031246729195 ] ] ] ] } },
{ "type": "Feature", "properties": { "depth_bin": "65-70" }, "geometry": { "type": "MultiPolygon", "coordinates": [ [ [ [ 696351.810331200947985, 3576248.218812006991357 ], [ 696308.482963646296412, 3576296.666508506052196 ], [ 696308.482963646296412, 3576334.378247451968491 ], [ 696321.53700489946641, 3576348.781162471044809 ], [ 696343.567702999687754, 3576355.512940159998834 ], [ 696375.689895912539214, 3576451.921109283342957 ], [ 696416.939796504215337, 3576499.714797452092171 ], [ 696417.332669280469418, 3576545.501183371525258 ], [ 696452.719429485034198, 3576582.338757798075676 ], [ 696461.579664653167129, 3576612.931174939963967 ], [ 696488.579397174529731, 3576627.362832640297711 ], [ 696538.857855662703514, 3576620.467530885245651 ], [ 696567.239194930996746, 3576597.089117193128914 ], [ 696573.249741737032309, 3576565.539030112791806 ], [ 696535.375533827231266, 3576510.640459925867617 ], [ 696517.250325628672726, 3576496.837868428323418 ], [ 696498.127101562218741, 3576422.056551837362349 ], [ 696469.911870861542411, 3576390.812311658635736 ], [ 696486.380255474126898, 3576354.018413465935737 ], [ 696486.486798444529995, 3576314.86816117959097 ], [ 696475.368928712327033, 3576285.342347677331418 ], [ 696453.543922362965532, 3576262.308711412362754 ], [ 696412.770620230701752, 3576237.508699872996658 ], [ 696382.727892088587396, 3576234.765817820094526 ], [ 696351.810331200947985, 3576248.218812006991357 ] ] ], [ [ [ 696622.06506692932453, 3576071.204482808243483 ], [ 696618.110506287193857, 3576097.863965162076056 ], [ 696640.31527584977448, 3576162.274263478349894 ], [ 696685.9724742352264, 3576234.313261687289923 ], [ 696722.308226342429407, 3576253.830720747355372 ], [ 696754.403517209808342, 3576292.470436146482825 ], [ 696786.889022330520675, 3576297.827094665262848 ], [ 696818.602377526462078, 3576340.595716515555978 ], [ 696918.991839486290701, 3576410.564368190709502 ], [ 696900.583008634508587, 3576417.118214951362461 ], [ 696886.46630260150414, 3576433.767945873085409 ], [ 696846.277097474434413, 3576388.332566283643246 ], [ 696824.411811391473748, 3576382.009911778848618 ], [ 696804.032274280791171, 3576386.695142504293472 ], [ 696786.011788127943873, 3576406.125540138222277 ], [ 696781.443330898298882, 3576430.425762839149684 ], [ 696809.309686230262741, 3576471.966800149530172 ], [ 696831.27695127367042, 3576486.95989506598562 ], [ 696850.504974181414582, 3576489.812102832365781 ], [ 696871.960019934806041, 3576480.925131899770349 ], [ 696884.117161633563228, 3576463.697510736994445 ], [ 696900.507170632015914, 3576486.683121072594076 ], [ 696926.650665565975942, 3576493.231725647579879 ], [ 696951.014251200249419, 3576481.708607828244567 ], [ 696962.331324595608748, 3576458.734060871880502 ], [ 696992.85106767504476, 3576467.436200972180814 ], [ 697017.214653309318237, 3576455.913083152845502 ], [ 697028.968300840002485, 3576426.105142707936466 ], [ 697018.440887293661945, 3576397.644154202193022 ], [ 696966.951593441539444, 3576339.119146816432476 ], [ 696917.803928498411551, 3576315.21823447290808 ], [ 696869.376338380970992, 3576274.575875542126596 ], [ 696839.955047726863995, 3576231.799477658700198 ], [ 696790.137195228831843, 3576203.064034425187856 ], [ 696761.708049576496705, 3576172.489345158915967 ], [ 696707.298855308210477, 3576048.593904109206051 ], [ 696686.818196941399947, 3576037.646764140576124 ], [ 696667.40319697058294, 3576038.600561927538365 ], [ 696622.06506692932453, 3576071.204482808243483 ] ] ] ] } },
{ "type": "Feature", "properties": { "depth_bin": "70-75" }, "geometry": { "type": "MultiPolygon", "coordinates": [ [ [ [ 696290.912074676714838, 3576287.599892830010504 ], [ 696248.187901833560318, 3576330.232058724854141 ], [ 696247.919479863718152, 3576369.004171111620963 ], [ 696269.567323869559914, 3576390.652015117462724 ], [ 696298.240453271544538, 3576392.793718370143324 ], [ 696350.755350826657377, 3576471.433484151959419 ], [ 696373.013652062625624, 3576485.956469355616719 ], [ 696391.213998596882448, 3576516.897992056794465 ], [ 696392.802266322309151, 3576550.989122117869556 ], [ 696438.421337025123648, 3576624.551686106715351 ], [ 696473.262440772843547, 3576638.983343807049096 ], [ 696522.28178399708122, 3576630.859095919877291 ], [ 696542.254547702963464, 3576619.082587506156415 ], [ 696556.718014691607095, 3576598.287811944261193 ], [ 696556.718014691607095, 3576575.065037763677537 ], [ 696520.094930503983051, 3576525.712633655406535 ], [ 696498.543919534189627, 3576511.599027551244944 ], [ 696485.141388416639529, 3576453.750245085917413 ], [ 696440.559633131488226, 3576387.438796898815781 ], [ 696435.995126993511803, 3576374.966842169873416 ], [ 696450.197030636016279, 3576356.952551445923746 ], [ 696453.049238402512856, 3576337.724528538063169 ], [ 696431.548808461753651, 3576271.741873381659389 ], [ 696403.173630507779308, 3576255.565159493125975 ], [ 696375.490166982868686, 3576252.208381111267954 ], [ 696290.912074676714838, 3576287.599892830010504 ] ] ], [ [ [ 696643.620984516572207, 3576060.085087128914893 ], [ 696640.661139767267741, 3576091.536895119585097 ], [ 696696.64403968770057, 3576220.650950747542083 ], [ 696739.667932893149555, 3576265.449958742130548 ], [ 696785.700325655634515, 3576291.467137283179909 ], [ 696827.668547076289542, 3576343.87065824912861 ], [ 696878.631003463990055, 3576385.514102793298662 ], [ 696914.234975463827141, 3576400.774833756033331 ], [ 696968.269160722149536, 3576459.401845970191061 ], [ 696994.412655656109564, 3576465.950450545176864 ], [ 697018.776241290383041, 3576454.427332725841552 ], [ 697030.567807556246407, 3576423.095723052043468 ], [ 697017.068892963114195, 3576391.511558778118342 ], [ 696965.503761123516597, 3576336.033891090191901 ], [ 696916.394013380515389, 3576310.609310986474156 ], [ 696876.85817561938893, 3576278.626161210238934 ], [ 696840.093842985108495, 3576229.239165115635842 ], [ 696793.065657809493132, 3576199.303997988346964 ], [ 696768.885154828894883, 3576131.037621392868459 ], [ 696713.393520773854107, 3576048.745565784629434 ], [ 696695.234885640558787, 3576037.190641803201288 ], [ 696672.772552936337888, 3576036.161013207398355 ], [ 696643.620984516572207, 3576060.085087128914893 ] ] ] ] } },
{ "type": "Feature", "properties": { "depth_bin": "75-80" }, "geometry": { "type": "MultiPolygon", "coordinates": [ [ [ [ 696241.925652077537961, 3576323.096169696655124 ], [ 696218.867779826396145, 3576353.592222056817263 ], [ 696221.868542681680992, 3576384.059478620067239 ], [ 696236.13817055313848, 3576407.390432060696185 ], [ 696272.044189112260938, 3576426.767377469688654 ], [ 696327.17993751144968, 3576499.814403110649437 ], [ 696359.553272588411346, 3576525.002603900618851 ], [ 696359.635541362687945, 3576559.487401018384844 ], [ 696367.946534444228746, 3576577.059519504196942 ], [ 696436.970746498554945, 3576647.903425496071577 ], [ 696466.214273596997373, 3576648.807672921102494 ], [ 696493.080058799823746, 3576634.629545287229121 ], [ 696511.923856937442906, 3576594.866093887016177 ], [ 696509.875147922895849, 3576562.61315792100504 ], [ 696475.7284336599987, 3576526.007724460680038 ], [ 696471.963183906627819, 3576483.456986920442432 ], [ 696417.501585248508491, 3576418.322536054532975 ], [ 696366.30356192344334, 3576320.43031962076202 ], [ 696350.690481083467603, 3576308.850869686808437 ], [ 696320.222349795163609, 3576302.379546298645437 ], [ 696264.272970624850132, 3576309.097062729299068 ], [ 696241.925652077537961, 3576323.096169696655124 ] ] ], [ [ [ 696662.9622710167896, 3576040.723719749599695 ], [ 696646.907466908334754, 3576062.371117151342332 ], [ 696646.869551509968005, 3576087.117557729594409 ], [ 696731.303413175628521, 3576250.687435573898256 ], [ 696786.991735595744103, 3576288.981708827894181 ], [ 696809.940424555912614, 3576324.094888887833804 ], [ 696860.582660215906799, 3576369.083541746716946 ], [ 696913.564993142266758, 3576397.349040639586747 ], [ 696969.83074870693963, 3576457.916095513384789 ], [ 696995.974243640899658, 3576464.464700088370591 ], [ 697017.429289394291118, 3576455.57772915577516 ], [ 697032.05355802772101, 3576424.657311021350324 ], [ 697018.035267258179374, 3576388.531785524450243 ], [ 696958.075010874308646, 3576328.225856718141586 ], [ 696915.284082828089595, 3576306.331369669642299 ], [ 696865.344630067236722, 3576259.563992926850915 ], [ 696839.668019607313909, 3576226.403895400930196 ], [ 696835.552968790987507, 3576185.790623131673783 ], [ 696770.891389671014622, 3576116.908141670748591 ], [ 696729.932242749026045, 3576044.377011844422668 ], [ 696701.446759053389542, 3576028.383772277273238 ], [ 696662.9622710167896, 3576040.723719749599695 ] ] ] ] } },
{ "type": "Feature", "properties": { "depth_bin": "80-85" }, "geometry": { "type": "MultiPolygon", "coordinates": [ [ [ [ 696225.49417155503761, 3576335.714215642772615 ], [ 696198.371430326835252, 3576388.253822629339993 ], [ 696216.616390505922027, 3576434.508373050484806 ], [ 696255.517334350384772, 3576468.043330636806786 ], [ 696291.566798866377212, 3576521.797204784117639 ], [ 696324.763093600515276, 3576549.79106296505779 ], [ 696342.260256521054544, 3576593.145423868205398 ], [ 696385.636671429499984, 3576648.950148946605623 ], [ 696427.221100194845349, 3576669.570159581489861 ], [ 696463.418019409989938, 3576660.701887256931514 ], [ 696490.602262596134096, 3576629.879954498726875 ], [ 696494.556823238264769, 3576603.220472144894302 ], [ 696471.729577296995558, 3576556.319431242533028 ], [ 696443.461818084353581, 3576534.471221162006259 ], [ 696437.720661073341034, 3576488.435722097288817 ], [ 696349.707571282749996, 3576396.846459876745939 ], [ 696343.582260969560593, 3576373.539223955478519 ], [ 696323.137315690517426, 3576349.804738556500524 ], [ 696262.665577273000963, 3576322.386813505087048 ], [ 696225.49417155503761, 3576335.714215642772615 ] ] ], [ [ [ 696665.828870802302845, 3576044.482600834686309 ], [ 696659.818328745197505, 3576076.032689566258341 ], [ 696682.655503049842082, 3576123.45084121869877 ], [ 696684.918781007407233, 3576146.613498509395868 ], [ 696700.942612950108014, 3576170.445679778698832 ], [ 696723.491877269931138, 3576186.572891334537417 ], [ 696724.401221339125186, 3576218.638986131642014 ], [ 696739.149249594425783, 3576241.735016736667603 ], [ 696832.378447032300755, 3576341.424102245364338 ], [ 696884.801613166928291, 3576382.618440641555935 ], [ 696912.543795905890875, 3576394.315021586138755 ], [ 696966.715745410998352, 3576454.054059929680079 ], [ 696993.615146011230536, 3576463.171560539398342 ], [ 697018.990877377800643, 3576454.091978673823178 ], [ 697033.422535078134388, 3576419.25087492633611 ], [ 697013.653852775227278, 3576380.799684058409184 ], [ 696973.084186826483347, 3576337.747150932904333 ], [ 696904.38129090028815, 3576291.714792907703668 ], [ 696881.611340419738553, 3576234.19984819367528 ], [ 696779.118506217142567, 3576114.712496661581099 ], [ 696733.09332183515653, 3576039.881842883769423 ], [ 696696.728551535634324, 3576025.412269871216267 ], [ 696665.828870802302845, 3576044.482600834686309 ] ] ] ] } },
{ "type": "Feature", "properties": { "depth_bin": "85-90" }, "geometry": { "type": "MultiPolygon", "coordinates": [ [ [ [ 696221.34781998815015, 3576355.181408631149679 ], [ 696189.682726896018721, 3576371.351048806682229 ], [ 696167.981227074167691, 3576403.420233012642711 ], [ 696170.257456989842467, 3576426.531183188315481 ], [ 696196.90303311846219, 3576466.080014477483928 ], [ 696247.602208256255835, 3576506.965541173238307 ], [ 696366.720852850121446, 3576670.86303230933845 ], [ 696415.824996862211265, 3576680.24297459051013 ], [ 696457.315196004346944, 3576662.706989214755595 ], [ 696471.778662578202784, 3576641.912214861251414 ], [ 696470.56999216764234, 3576610.422498719301075 ], [ 696410.962546095834114, 3576549.187348107341677 ], [ 696393.788246627314948, 3576502.542931681498885 ], [ 696356.751480461098254, 3576471.115422183182091 ], [ 696338.967309108586051, 3576438.669631038792431 ], [ 696265.078212887281552, 3576361.292008419055492 ], [ 696243.623167133890092, 3576352.40503748646006 ], [ 696221.34781998815015, 3576355.181408631149679 ] ] ], [ [ [ 696698.331510727643035, 3576021.074870865326375 ], [ 696670.475701079238206, 3576041.54901366867125 ], [ 696664.42724372970406, 3576074.622769016306847 ], [ 696689.33558055665344, 3576124.579202536027879 ], [ 696730.942005934426561, 3576181.561791404150426 ], [ 696728.09425822342746, 3576211.897627614438534 ], [ 696741.381884813308716, 3576238.695844946894795 ], [ 696763.251468943548389, 3576258.034139107912779 ], [ 696783.865085569443181, 3576262.783705742564052 ], [ 696799.288331974879839, 3576301.121411717031151 ], [ 696831.006452124915086, 3576335.291412608232349 ], [ 696877.372761135455221, 3576374.810506161767989 ], [ 696919.007019300130196, 3576396.358762901742011 ], [ 696969.763083893223666, 3576454.12989741563797 ], [ 696991.218129646615125, 3576463.016868348233402 ], [ 697017.361624580575153, 3576456.4682637732476 ], [ 697034.946204326697625, 3576427.130164894275367 ], [ 697025.501936126034707, 3576394.816155560314655 ], [ 696974.544894308433868, 3576337.298041989095509 ], [ 696926.846993935760111, 3576300.527447099331766 ], [ 696914.487541480455548, 3576260.936487584840506 ], [ 696852.15056244446896, 3576197.746154456399381 ], [ 696778.399902235600166, 3576092.443397636525333 ], [ 696804.785965164774098, 3576064.74830554286018 ], [ 696808.028983850730583, 3576041.635812133550644 ], [ 696801.480379275977612, 3576023.333688425831497 ], [ 696783.053458936163224, 3576002.966132388915867 ], [ 696760.830649615381844, 3575996.224916880950332 ], [ 696734.819727801019326, 3576000.527997268363833 ], [ 696712.133605699171312, 3576019.460106871556491 ], [ 696698.331510727643035, 3576021.074870865326375 ] ] ] ] } },
{ "type": "Feature", "properties": { "depth_bin": "90-95" }, "geometry": { "type": "MultiPolygon", "coordinates": [ [ [ [ 696165.224983177846298, 3576397.904324845410883 ], [ 696142.051109980558977, 3576413.963474052492529 ], [ 696133.164139048196375, 3576435.418519806116819 ], [ 696138.722398055717349, 3576468.435433876700699 ], [ 696157.755587599705905, 3576493.867092905100435 ], [ 696246.231463218224235, 3576555.094794784672558 ], [ 696337.535554968053475, 3576686.118133557029068 ], [ 696373.656630159588531, 3576692.242443458177149 ], [ 696417.219766347203404, 3576672.722034557722509 ], [ 696433.541398785309866, 3576639.330229840241373 ], [ 696424.856995822978206, 3576599.679614321794361 ], [ 696259.685907907085493, 3576391.164580752607435 ], [ 696230.138284885673784, 3576374.458257026970387 ], [ 696206.339276355109178, 3576371.492293797899038 ], [ 696183.428248662385158, 3576379.450804724358022 ], [ 696165.224983177846298, 3576397.904324845410883 ] ] ], [ [ [ 696692.404936641105451, 3576021.636348059866577 ], [ 696673.226866280660033, 3576046.25534581579268 ], [ 696674.473467892385088, 3576076.221403495408595 ], [ 696724.91777148435358, 3576165.104622785933316 ], [ 696829.515893180156127, 3576288.11250117328018 ], [ 696825.615924022509716, 3576309.555829415563494 ], [ 696834.502894954872318, 3576331.010875169187784 ], [ 696871.286256178864278, 3576367.825298869516701 ], [ 696915.562729118391871, 3576391.281248423736542 ], [ 696974.477593940449879, 3576454.982513250317425 ], [ 697000.621088874409907, 3576461.531117825303227 ], [ 697022.076134627801366, 3576452.644146892707795 ], [ 697036.50779232813511, 3576425.644414371345192 ], [ 697028.549274614430033, 3576394.891992932651192 ], [ 696839.892908891430125, 3576165.120524003636092 ], [ 696867.196298064431176, 3576139.178975030314177 ], [ 696871.264606210985221, 3576107.948489355389029 ], [ 696807.442819251562469, 3575992.944331353064626 ], [ 696791.829738411586732, 3575981.364881419111043 ], [ 696768.718788236379623, 3575979.088651503436267 ], [ 696692.404936641105451, 3576021.636348059866577 ] ] ] ] } },
{ "type": "Feature", "properties": { "depth_bin": "95-100" }, "geometry": { "type": "MultiPolygon", "coordinates": [ [ [ [ 696098.232516882824712, 3576429.805637674871832 ], [ 696091.645993445650674, 3576457.472793709952384 ], [ 696108.479340998455882, 3576487.38457935815677 ], [ 696102.201741645811126, 3576511.754684823565185 ], [ 696108.077997326501645, 3576540.240103731863201 ], [ 696167.613620799500495, 3576646.087817684747279 ], [ 696189.068666552891955, 3576654.97478861734271 ], [ 696213.368883299059235, 3576650.482170530594885 ], [ 696229.78986439993605, 3576634.061189429834485 ], [ 696234.62258893600665, 3576610.549125986173749 ], [ 696273.62436015822459, 3576650.758665721863508 ], [ 696285.985677629359998, 3576684.791610055137426 ], [ 696318.131524899625219, 3576705.930167163256556 ], [ 696358.876979347201996, 3576703.022898487746716 ], [ 696392.16452484857291, 3576679.796664456836879 ], [ 696406.0396160739474, 3576641.694985083770007 ], [ 696401.584918856620789, 3576615.871103430632502 ], [ 696357.458433362655342, 3576566.758580295369029 ], [ 696314.519656409742311, 3576502.094770110212266 ], [ 696253.888625783729367, 3576443.342448173090816 ], [ 696219.447904969449155, 3576428.293035965878516 ], [ 696199.946758446632884, 3576405.409383009653538 ], [ 696178.491712693241425, 3576396.522412077058107 ], [ 696119.269205165444873, 3576413.625442277174443 ], [ 696098.232516882824712, 3576429.805637674871832 ] ] ], [ [ [ 696791.256952513824217, 3575977.070944462437183 ], [ 696760.789695950574242, 3575980.071707318071276 ], [ 696739.806369840516709, 3576005.22292323037982 ], [ 696745.282739427639171, 3576049.015732778701931 ], [ 696775.710166745469905, 3576099.395858321338892 ], [ 696742.783310631755739, 3576121.471520730759948 ], [ 696741.029147807508707, 3576158.682062021456659 ], [ 696775.509235914447345, 3576215.151233119890094 ], [ 696846.370735635398887, 3576300.959632255602628 ], [ 696845.658326147007756, 3576327.64479979686439 ], [ 696856.605466115637682, 3576348.125458163674921 ], [ 696902.067499050172046, 3576370.296315434388816 ], [ 696976.039181941887364, 3576453.496762692928314 ], [ 697013.569328557234257, 3576457.193159501533955 ], [ 697035.217172563076019, 3576435.545315495692194 ], [ 697035.25509127357509, 3576403.406971620861441 ], [ 696943.577547781052999, 3576281.434861165471375 ], [ 696886.859976719715632, 3576220.165726970415562 ], [ 696874.031462583574466, 3576195.830010483507067 ], [ 696891.003695302642882, 3576146.068048716522753 ], [ 696882.549723454634659, 3576106.880678892601281 ], [ 696812.904349915799685, 3575993.125748571008444 ], [ 696791.256952513824217, 3575977.070944462437183 ] ] ] ] } },
{ "type": "Feature", "properties": { "depth_bin": "100-105" }, "geometry": { "type": "MultiPolygon", "coordinates": [ [ [ [ 696095.15545178973116, 3576426.996272584889084 ], [ 696082.235578400897793, 3576456.371916914824396 ], [ 696097.072485257172957, 3576493.596473307814449 ], [ 696096.267903008381836, 3576524.700135933235288 ], [ 696168.858940574806184, 3576660.325710630510002 ], [ 696207.969721953500994, 3576687.648244757205248 ], [ 696248.487345385830849, 3576682.300760630052537 ], [ 696265.419542642892338, 3576714.771889006718993 ], [ 696288.536347896791995, 3576728.627568856347352 ], [ 696323.83669941953849, 3576726.654710459057242 ], [ 696372.464616426033899, 3576694.477377571631223 ], [ 696383.987734245485626, 3576670.1137919370085 ], [ 696379.457195752533153, 3576647.33723685098812 ], [ 696292.689483527559787, 3576535.299191338010132 ], [ 696254.918119382113218, 3576503.207437847275287 ], [ 696226.120502734323964, 3576499.788451964501292 ], [ 696188.548833416542038, 3576458.710974676068872 ], [ 696183.414668287616223, 3576438.160668758209795 ], [ 696166.993687186739407, 3576421.739687657449394 ], [ 696122.961713659344241, 3576413.630962421186268 ], [ 696095.15545178973116, 3576426.996272584889084 ] ] ], [ [ [ 696750.286729443003424, 3575988.487074071075767 ], [ 696741.399758510640822, 3576009.942119824700058 ], [ 696744.176136563997716, 3576032.217477356549352 ], [ 696802.683653265354224, 3576131.902416287921369 ], [ 696801.428895503282547, 3576155.228370293043554 ], [ 696782.673739763442427, 3576189.34898953139782 ], [ 696790.024114102590829, 3576221.343383882194757 ], [ 696970.05355742003303, 3576445.474910875316709 ], [ 696990.534215786843561, 3576456.422050843946636 ], [ 697017.193698140559718, 3576452.467490201350302 ], [ 697035.293009967892431, 3576432.497976922430098 ], [ 697035.293009967892431, 3576401.883302332833409 ], [ 696957.100974008324556, 3576289.394562982022762 ], [ 696906.114136977819726, 3576232.571846663486212 ], [ 696908.529259144095704, 3576203.40192708466202 ], [ 696897.349258531467058, 3576173.720604744274169 ], [ 696902.427580956486054, 3576142.265421573072672 ], [ 696885.480312367086299, 3576101.922226403839886 ], [ 696809.668128437013365, 3575981.494549644645303 ], [ 696778.848044120706618, 3575972.569663883652538 ], [ 696750.286729443003424, 3575988.487074071075767 ] ] ] ] } },
{ "type": "Feature", "properties": { "depth_bin": "105-110" }, "geometry": { "type": "MultiPolygon", "coordinates": [ [ [ [ 696089.553003649692982, 3576425.324778959155083 ], [ 696070.131259693531319, 3576448.990242442581803 ], [ 696071.339934959076345, 3576480.479949474334717 ], [ 696151.352411918109283, 3576644.537218549754471 ], [ 696201.311862204805948, 3576717.750185808632523 ], [ 696220.620893249171786, 3576730.652067871298641 ], [ 696279.352143434807658, 3576738.121099992189556 ], [ 696329.258263082709163, 3576723.553509272169322 ], [ 696342.399296858115122, 3576706.454686892684549 ], [ 696345.251504624611698, 3576687.226663984823972 ], [ 696316.170787422568537, 3576619.530744577758014 ], [ 696291.681176289683208, 3576597.058133395388722 ], [ 696235.799366396851838, 3576578.331822330132127 ], [ 696214.931213424890302, 3576579.805566574912518 ], [ 696177.166184350848198, 3576509.856392617337406 ], [ 696176.678392767324112, 3576473.516491186339408 ], [ 696146.087648759945296, 3576425.413579886313528 ], [ 696119.188256400404498, 3576416.296079127117991 ], [ 696089.553003649692982, 3576425.324778959155083 ] ] ], [ [ [ 696756.046040645102039, 3575982.607029187958688 ], [ 696745.098900676472113, 3576003.087687554769218 ], [ 696747.375130592146888, 3576026.198637730441988 ], [ 696819.725059662130661, 3576152.822596289683133 ], [ 696822.786468614591286, 3576252.651009963359684 ], [ 696937.746229271171615, 3576395.883192508015782 ], [ 696958.226887637982145, 3576406.830332476645708 ], [ 696984.886369991698302, 3576402.875771834049374 ], [ 697004.585187218384817, 3576379.896838757675141 ], [ 697005.907619347213767, 3576352.978114372584969 ], [ 696939.750849917298183, 3576263.209974175784737 ], [ 696921.413877545273863, 3576199.324706410057843 ], [ 696908.162629552185535, 3576180.737700855825096 ], [ 696908.332672414719127, 3576150.035426734946668 ], [ 696892.984904603334144, 3576106.682809776160866 ], [ 696812.791292782640085, 3575978.523044559173286 ], [ 696781.971208436763845, 3575969.598158825188875 ], [ 696756.046040645102039, 3575982.607029187958688 ] ] ] ] } },
{ "type": "Feature", "properties": { "depth_bin": "110-115" }, "geometry": { "type": "MultiPolygon", "coordinates": [ [ [ [ 696125.05027645942755, 3576431.302671641577035 ], [ 696101.939326284220442, 3576429.026441725902259 ], [ 696081.458667917409912, 3576439.973581694532186 ], [ 696070.511527948779985, 3576460.454240061342716 ], [ 696072.787757864454761, 3576483.565190237015486 ], [ 696191.393107118667103, 3576712.883996121119708 ], [ 696213.763853080687113, 3576733.824879372026771 ], [ 696244.378527669818141, 3576733.824879372026771 ], [ 696269.14954048988875, 3576709.205453746020794 ], [ 696269.263303896528669, 3576674.01979312999174 ], [ 696223.076917127240449, 3576606.093261342030019 ], [ 696158.277709198417142, 3576468.027186776977032 ], [ 696125.05027645942755, 3576431.302671641577035 ] ] ], [ [ [ 696765.011335189803503, 3575981.646208967082202 ], [ 696751.15565534029156, 3576004.763014220632613 ], [ 696753.431885255966336, 3576027.873964396305382 ], [ 696800.537002398981713, 3576102.998123617377132 ], [ 696820.812351544736885, 3576117.275732388719916 ], [ 696819.924478985602036, 3576136.427544097881764 ], [ 696830.278629948734306, 3576158.578831193037331 ], [ 696855.733801560243592, 3576175.587433088570833 ], [ 696885.760223761666566, 3576169.614806364290416 ], [ 696900.492595741292462, 3576151.663359167054296 ], [ 696902.768825656967238, 3576128.552408991381526 ], [ 696890.076308336225338, 3576103.248199850320816 ], [ 696871.286711512017064, 3576090.532174323685467 ], [ 696872.288330410723574, 3576066.809359241276979 ], [ 696860.562270856811665, 3576038.525491475127637 ], [ 696810.766603437601589, 3575977.327691359911114 ], [ 696786.466380943194963, 3575972.759238034486771 ], [ 696765.011335189803503, 3575981.646208967082202 ] ] ], [ [ [ 696911.320179104921408, 3576185.273210591170937 ], [ 696893.748060618992895, 3576176.96221750928089 ], [ 696870.637110443785787, 3576179.238447424955666 ], [ 696846.713036522269249, 3576208.390015844721347 ], [ 696848.811334149097092, 3576243.079615340568125 ], [ 696863.432688223081641, 3576273.482458798680454 ], [ 696890.905925916391425, 3576293.858000542037189 ], [ 696920.932348117814399, 3576287.885373817756772 ], [ 696939.502535527572036, 3576260.944450950715691 ], [ 696925.833215216873214, 3576205.533129849471152 ], [ 696911.320179104921408, 3576185.273210591170937 ] ] ] ] } }
]
}
