{
"type": "FeatureCollection",
"name": "LM_06_MBV_20180803_CS_MB_4395_4400_depth_polygons",
"crs": { "type": "name", "properties": { "name": "urn:ogc:def:crs:OGC:1.3:CRS84" } },
"features": [
{ "type": "Feature", "properties": { "depth_bin": "40-45 ft", "bin_order": -42.5, "survey_id": "LM_06_MBV_20180803_CS_MB_4395_4400", "date": "2018-08-03", "year": 2018, "mile": 440.0 }, "geometry": { "type": "Polygon", "coordinates": [ [ [ -90.945742581323302, 32.342609784024653 ], [ -90.945933889925584, 32.34271642766987 ], [ -90.946045974124033, 32.342902964861558 ], [ -90.946031888853554, 32.343077835966909 ], [ -90.945906266805707, 32.343240243301871 ], [ -90.945646407049722, 32.34335533265731 ], [ -90.945344667321805, 32.34336971587458 ], [ -90.944949361422516, 32.343232183233312 ], [ -90.944797960932377, 32.342920343990961 ], [ -90.944944243148242, 32.342653553418188 ], [ -90.945237614588549, 32.342539983058337 ], [ -90.945742581323302, 32.342609784024653 ] ] ] } },
{ "type": "Feature", "properties": { "depth_bin": "45-50 ft", "bin_order": -47.5, "survey_id": "LM_06_MBV_20180803_CS_MB_4395_4400", "date": "2018-08-03", "year": 2018, "mile": 440.0 }, "geometry": { "type": "Polygon", "coordinates": [ [ [ -90.945834353072129, 32.342528068900506 ], [ -90.946143198225144, 32.342916235959507 ], [ -90.946114501199688, 32.343151685010156 ], [ -90.945954386440448, 32.34331097802594 ], [ -90.945336001466458, 32.343449601279659 ], [ -90.94487026712244, 32.343338948619795 ], [ -90.944638565427738, 32.343150444751302 ], [ -90.944564608624091, 32.342810071636919 ], [ -90.944766524034947, 32.342569703219965 ], [ -90.945318094585687, 32.342470875904439 ], [ -90.945834353072129, 32.342528068900506 ] ] ] } },
{ "type": "Feature", "properties": { "depth_bin": "50-55 ft", "bin_order": -52.5, "survey_id": "LM_06_MBV_20180803_CS_MB_4395_4400", "date": "2018-08-03", "year": 2018, "mile": 440.0 }, "geometry": { "type": "Polygon", "coordinates": [ [ [ -90.946065777950551, 32.342675341903274 ], [ -90.946214880335873, 32.342895091638688 ], [ -90.946195444307747, 32.343151291809733 ], [ -90.946003230220484, 32.343351970872646 ], [ -90.945638984602212, 32.343486802670327 ], [ -90.94489206861202, 32.343450972543209 ], [ -90.944625865956937, 32.34327498120058 ], [ -90.944399724051493, 32.342979048636295 ], [ -90.944428517797306, 32.342757343033334 ], [ -90.944587632405572, 32.342586565145531 ], [ -90.945114393690105, 32.342407467443074 ], [ -90.945725096773387, 32.34241746201274 ], [ -90.946065777950551, 32.342675341903274 ] ] ] } },
{ "type": "Feature", "properties": { "depth_bin": "55-60 ft", "bin_order": -57.5, "survey_id": "LM_06_MBV_20180803_CS_MB_4395_4400", "date": "2018-08-03", "year": 2018, "mile": 440.0 }, "geometry": { "type": "Polygon", "coordinates": [ [ [ -90.945763799959437, 32.342388795106942 ], [ -90.946380127947066, 32.342929391272655 ], [ -90.946374168880496, 32.343246626874524 ], [ -90.946101195797382, 32.343475186102616 ], [ -90.945704479848899, 32.343596431544221 ], [ -90.945045530008485, 32.343588444432172 ], [ -90.944649329852226, 32.343465893267364 ], [ -90.944404475716723, 32.34329047277167 ], [ -90.944237838162465, 32.342979832683575 ], [ -90.944266724652962, 32.342771870031619 ], [ -90.944457754726443, 32.342532221011218 ], [ -90.94512993479205, 32.342311187728455 ], [ -90.945763799959437, 32.342388795106942 ] ] ] } },
{ "type": "Feature", "properties": { "depth_bin": "60-65 ft", "bin_order": -62.5, "survey_id": "LM_06_MBV_20180803_CS_MB_4395_4400", "date": "2018-08-03", "year": 2018, "mile": 440.0 }, "geometry": { "type": "MultiPolygon", "coordinates": [ [ [ [ -90.950072370952867, 32.343837747861365 ], [ -90.950139443651722, 32.344039262065415 ], [ -90.949991874133985, 32.344343054770292 ], [ -90.950060700119167, 32.344512765247366 ], [ -90.950008139421286, 32.344744811506679 ], [ -90.94979237888559, 32.344904538382401 ], [ -90.949490920677022, 32.344906879945206 ], [ -90.949299315408425, 32.345177140837905 ], [ -90.949008027766808, 32.345375054107109 ], [ -90.94876521397245, 32.345411964632234 ], [ -90.948283089344372, 32.345273917729592 ], [ -90.948132785028648, 32.345153739887529 ], [ -90.948065777826287, 32.344953973881928 ], [ -90.947769562147641, 32.344753633966015 ], [ -90.947723148005807, 32.344569079338271 ], [ -90.947790328368342, 32.344335244158266 ], [ -90.948083185014767, 32.344075405188413 ], [ -90.948478719261431, 32.344066019532711 ], [ -90.94872396600023, 32.344298255842475 ], [ -90.949015739482306, 32.343957487379953 ], [ -90.949543404066929, 32.34369662122819 ], [ -90.949845740174254, 32.343689267848752 ], [ -90.950072370952867, 32.343837747861365 ] ] ], [ [ [ -90.946479234731868, 32.342726845908722 ], [ -90.946629876458445, 32.343065048610377 ], [ -90.946582633960233, 32.343332199400116 ], [ -90.946134684732044, 32.343639943605879 ], [ -90.945705775781477, 32.343788832105851 ], [ -90.944553491280317, 32.343658764483799 ], [ -90.944259978445004, 32.343469837002125 ], [ -90.944077152444891, 32.343159274207572 ], [ -90.94409513935328, 32.3428123454485 ], [ -90.944251000134969, 32.342545106211375 ], [ -90.944413335117801, 32.342430288664779 ], [ -90.945080722054641, 32.342215222948674 ], [ -90.945519953656074, 32.342238800951847 ], [ -90.945868679724214, 32.342395673334806 ], [ -90.946084227173074, 32.342590423358395 ], [ -90.94631578472648, 32.342619751031414 ], [ -90.946479234731868, 32.342726845908722 ] ] ] ] } },
{ "type": "Feature", "properties": { "depth_bin": "65-70 ft", "bin_order": -67.5, "survey_id": "LM_06_MBV_20180803_CS_MB_4395_4400", "date": "2018-08-03", "year": 2018, "mile": 440.0 }, "geometry": { "type": "MultiPolygon", "coordinates": [ [ [ [ -90.950162737636163, 32.342979457836698 ], [ -90.950338192016815, 32.343211885837697 ], [ -90.950312905208278, 32.343812589287239 ], [ -90.950196314349228, 32.344384024196785 ], [ -90.949844143547807, 32.345338989167857 ], [ -90.949263357580179, 32.345676750321928 ], [ -90.948682085191905, 32.345808368647035 ], [ -90.948451418264014, 32.345788466429219 ], [ -90.947672655134284, 32.346135385713858 ], [ -90.947265150508812, 32.346062741600498 ], [ -90.947129071622456, 32.345906315576997 ], [ -90.947083533735324, 32.345665211664922 ], [ -90.946529117592007, 32.34584633883005 ], [ -90.946193514413238, 32.345821268232918 ], [ -90.945966885603838, 32.345672781346025 ], [ -90.945900163325135, 32.345422341496224 ], [ -90.945612548147693, 32.345383110868589 ], [ -90.945427907294956, 32.345206563618468 ], [ -90.944992240351226, 32.345292881172163 ], [ -90.944799203898569, 32.345230674416648 ], [ -90.944652427285149, 32.345077653257412 ], [ -90.944181352756672, 32.345130115257305 ], [ -90.94393844784932, 32.344967960406031 ], [ -90.943876281510626, 32.344692365986141 ], [ -90.943656023675231, 32.344824427374007 ], [ -90.943451238021822, 32.344846811215035 ], [ -90.943225196485344, 32.344762974504043 ], [ -90.943092117540672, 32.344586659166588 ], [ -90.94317558061276, 32.34422020365551 ], [ -90.943508019380786, 32.343788392856652 ], [ -90.943498357447126, 32.343571432313603 ], [ -90.943360909514041, 32.343333758808747 ], [ -90.943451332100793, 32.343002917940112 ], [ -90.9437803060259, 32.342835892745427 ], [ -90.944198909101601, 32.342421276307682 ], [ -90.944958592749131, 32.342141098022793 ], [ -90.945521023860437, 32.342120388194417 ], [ -90.945988561521617, 32.342448342918303 ], [ -90.946291367623203, 32.342412937909316 ], [ -90.946530181912337, 32.342483458397282 ], [ -90.946961819961402, 32.34286671119677 ], [ -90.946968376588714, 32.343232213366413 ], [ -90.947258990244791, 32.343247360013564 ], [ -90.947451788218601, 32.343390911403688 ], [ -90.94802948553712, 32.343284056252777 ], [ -90.948362853241463, 32.34345279230407 ], [ -90.948673751049796, 32.343304960808744 ], [ -90.948965354727761, 32.343324061530488 ], [ -90.949432662090345, 32.343012645472434 ], [ -90.949886427212732, 32.342915905221062 ], [ -90.950162737636163, 32.342979457836698 ] ], [ [ -90.945220471560987, 32.342952902139047 ], [ -90.945123002348495, 32.342981673707037 ], [ -90.945287771732183, 32.34299275672474 ], [ -90.945220471560987, 32.342952902139047 ] ] ], [ [ [ -90.944747148467755, 32.349574802325499 ], [ -90.944677591307894, 32.349844471277031 ], [ -90.944403770125774, 32.349993404925186 ], [ -90.944069896605129, 32.349934437732124 ], [ -90.943894446745318, 32.349702001361415 ], [ -90.943964006073273, 32.349432332926824 ], [ -90.944237826178679, 32.349283400182166 ], [ -90.944571697463843, 32.349342366842883 ], [ -90.944747148467755, 32.349574802325499 ] ] ], [ [ [ -90.940254200327473, 32.349344805234701 ], [ -90.940279935057632, 32.349633745272726 ], [ -90.940068826169693, 32.349843730693941 ], [ -90.939696060474887, 32.349865730559202 ], [ -90.93944868848115, 32.349686527320507 ], [ -90.939422956400023, 32.3493975872221 ], [ -90.939634065624404, 32.349187602887554 ], [ -90.940006828530898, 32.34916560309069 ], [ -90.940254200327473, 32.349344805234701 ] ] ] ] } },
{ "type": "Feature", "properties": { "depth_bin": "70-75 ft", "bin_order": -72.5, "survey_id": "LM_06_MBV_20180803_CS_MB_4395_4400", "date": "2018-08-03", "year": 2018, "mile": 440.0 }, "geometry": { "type": "MultiPolygon", "coordinates": [ [ [ [ -90.950598229995293, 32.342449942032445 ], [ -90.950729820209389, 32.342625695534124 ], [ -90.950736095841549, 32.342814639645191 ], [ -90.950145674696799, 32.344444196202033 ], [ -90.949788846919233, 32.344598724689902 ], [ -90.949443301296682, 32.344461932970589 ], [ -90.949153329819111, 32.344738456934536 ], [ -90.948531449086389, 32.345001569172823 ], [ -90.948846101131949, 32.344981867187528 ], [ -90.949455112972188, 32.344786254752137 ], [ -90.949722222201515, 32.344864452667721 ], [ -90.949888323766643, 32.345062387542029 ], [ -90.949878781396336, 32.345306382235478 ], [ -90.949519631605284, 32.346337304054224 ], [ -90.949165411049663, 32.346622869273119 ], [ -90.948774629770625, 32.346558191357495 ], [ -90.948573793957806, 32.346371430593472 ], [ -90.948511323903631, 32.346157483085385 ], [ -90.948360185839107, 32.346150521228545 ], [ -90.94808338941786, 32.346207216542403 ], [ -90.947504829272219, 32.346487530169995 ], [ -90.946986703364132, 32.346423881387338 ], [ -90.946619487554429, 32.34652188325196 ], [ -90.9460903326638, 32.346358061739942 ], [ -90.945877878826678, 32.346473954393019 ], [ -90.945380362732905, 32.346521837072856 ], [ -90.945137679746963, 32.346392920613937 ], [ -90.944997487768759, 32.346107855310976 ], [ -90.94451955996341, 32.34611370939912 ], [ -90.944197302915754, 32.345880438943709 ], [ -90.943766302251333, 32.345958500645672 ], [ -90.943404449004461, 32.34575364911295 ], [ -90.942975944415693, 32.345725721243866 ], [ -90.942774511665249, 32.345509000630457 ], [ -90.942783012199826, 32.345235430138366 ], [ -90.94248348769321, 32.345095875148594 ], [ -90.942298728161916, 32.345215801244699 ], [ -90.942086973343777, 32.345240833209523 ], [ -90.941819333356619, 32.345154577969758 ], [ -90.94165967050823, 32.344923815366265 ], [ -90.941334193837179, 32.345064944171646 ], [ -90.940992266883612, 32.344966689841648 ], [ -90.940603172824964, 32.345039217624795 ], [ -90.940377133738153, 32.34495537589607 ], [ -90.94024406023199, 32.344779057770786 ], [ -90.940361815099067, 32.344312110513457 ], [ -90.94120814390881, 32.343308183251743 ], [ -90.94152550513158, 32.343166963390615 ], [ -90.941820586659603, 32.343191907881 ], [ -90.941985036195689, 32.343022942370247 ], [ -90.942463902671975, 32.342902037404855 ], [ -90.942785694584146, 32.342684953866367 ], [ -90.943217437294493, 32.342708092729914 ], [ -90.943610204237828, 32.342516047553161 ], [ -90.944417160529852, 32.34227653614338 ], [ -90.94460547175396, 32.342113259860284 ], [ -90.944978371663552, 32.342022468801588 ], [ -90.945103029385862, 32.341568018506123 ], [ -90.945390500532355, 32.341369373819695 ], [ -90.945724665269026, 32.341385717753205 ], [ -90.945933048073186, 32.341552346758213 ], [ -90.946013315828353, 32.341956632055819 ], [ -90.94593177756262, 32.342215003573358 ], [ -90.946008410399529, 32.342331873649393 ], [ -90.946444971644397, 32.342294564505906 ], [ -90.94747401350098, 32.342491419764798 ], [ -90.947768970114964, 32.342611171617712 ], [ -90.948416544941296, 32.342575577014081 ], [ -90.948651795327379, 32.342452978806236 ], [ -90.948967661298454, 32.342482309581122 ], [ -90.94960721462769, 32.342326304910365 ], [ -90.95024080432205, 32.342311225505838 ], [ -90.950598229995293, 32.342449942032445 ] ], [ [ -90.944933519714084, 32.34322694588429 ], [ -90.945332112182896, 32.343170863685657 ], [ -90.945697805915614, 32.343246728875521 ], [ -90.945187224948171, 32.342848068002283 ], [ -90.944661816281936, 32.343085745619568 ], [ -90.944933519714084, 32.34322694588429 ] ] ], [ [ [ -90.948387271099364, 32.348806545770017 ], [ -90.948519752619077, 32.349167516669908 ], [ -90.948240007918358, 32.349923358968894 ], [ -90.948006827537682, 32.350064359775267 ], [ -90.947547222919681, 32.350068402404816 ], [ -90.947229505871718, 32.35020389798779 ], [ -90.946331190794211, 32.350028929755148 ], [ -90.94607525816447, 32.350045329859739 ], [ -90.9459198394444, 32.350196574042961 ], [ -90.945691835011729, 32.350266346215449 ], [ -90.944768384660691, 32.350092806805769 ], [ -90.944509324113227, 32.350175876941478 ], [ -90.944140417871651, 32.350091401981736 ], [ -90.943600080371382, 32.350137287891648 ], [ -90.943198981200652, 32.350012572787591 ], [ -90.943050676132287, 32.349894772021123 ], [ -90.942287041319133, 32.349896253380351 ], [ -90.941998068343821, 32.349780378252987 ], [ -90.941477455647757, 32.349886415704987 ], [ -90.941169246208759, 32.349844897097249 ], [ -90.940969805541485, 32.349728150856585 ], [ -90.940723174163821, 32.350008925095068 ], [ -90.940410209573443, 32.350083963178783 ], [ -90.940155632135045, 32.34997730977387 ], [ -90.9397338866696, 32.349960561353768 ], [ -90.939472640339872, 32.349800461545989 ], [ -90.939353997793958, 32.349622159608217 ], [ -90.93845738081464, 32.349611546596854 ], [ -90.938212521736418, 32.349436115002369 ], [ -90.938122526286818, 32.349241144608058 ], [ -90.938188034235296, 32.348903220514941 ], [ -90.93838009537636, 32.348675067725289 ], [ -90.938617492162834, 32.348618151342514 ], [ -90.938932881142549, 32.34868730629605 ], [ -90.939057868844927, 32.348481659253238 ], [ -90.939318978642319, 32.348382002069421 ], [ -90.939816874313678, 32.348528767542263 ], [ -90.939918238871996, 32.348283257301567 ], [ -90.940207938836267, 32.348157833780327 ], [ -90.940517264746063, 32.348243036343767 ], [ -90.940877917833163, 32.348623252026222 ], [ -90.941508428161114, 32.348553663042381 ], [ -90.941710865348554, 32.34867332738866 ], [ -90.941798184161613, 32.348850598070094 ], [ -90.941942559706391, 32.348876588049514 ], [ -90.942152588484575, 32.348871467821091 ], [ -90.942420798533888, 32.348728709792695 ], [ -90.942646932637487, 32.348747160758151 ], [ -90.942857695280409, 32.348594255476897 ], [ -90.94313999496876, 32.348586108648533 ], [ -90.943473460610946, 32.348457322125419 ], [ -90.943790703191695, 32.348473921457533 ], [ -90.944335196861275, 32.348700989186632 ], [ -90.944759420702283, 32.348465694202012 ], [ -90.945270883033245, 32.348568764888803 ], [ -90.945959689925317, 32.348447888105746 ], [ -90.94630493571529, 32.348592476359919 ], [ -90.946769170075527, 32.348443953942279 ], [ -90.946995224212543, 32.348527784757977 ], [ -90.947142449840854, 32.348696235925836 ], [ -90.947406791963985, 32.348544704153433 ], [ -90.947611585395833, 32.348522314197439 ], [ -90.948072384199406, 32.348617054589226 ], [ -90.948387271099364, 32.348806545770017 ] ] ] ] } },
{ "type": "Feature", "properties": { "depth_bin": "75-80 ft", "bin_order": -77.5, "survey_id": "LM_06_MBV_20180803_CS_MB_4395_4400", "date": "2018-08-03", "year": 2018, "mile": 440.0 }, "geometry": { "type": "Polygon", "coordinates": [ [ [ -90.948675814789212, 32.342068871309408 ], [ -90.950515683646515, 32.342215450505208 ], [ -90.950718119863964, 32.342335100404497 ], [ -90.950806542823813, 32.342600756990073 ], [ -90.950660169898015, 32.34293031944803 ], [ -90.950449555614796, 32.343086611461267 ], [ -90.950085146218299, 32.343100735637499 ], [ -90.949854811861115, 32.343238633131868 ], [ -90.949212441670639, 32.34326736681335 ], [ -90.948645431094107, 32.34342103022955 ], [ -90.948825506693254, 32.343804142213472 ], [ -90.948725351013323, 32.344094215253982 ], [ -90.948435674983358, 32.344219659436838 ], [ -90.948056760049269, 32.344139310773151 ], [ -90.947921674222798, 32.344298047517377 ], [ -90.947733364829645, 32.344369938357922 ], [ -90.94745104417774, 32.344329677770567 ], [ -90.94691872878623, 32.344020411398624 ], [ -90.946797289612064, 32.343658709770992 ], [ -90.946977180354153, 32.343373326439725 ], [ -90.946744554977485, 32.343289113912299 ], [ -90.94653141126382, 32.343058985370462 ], [ -90.946382572551244, 32.343023721571043 ], [ -90.94608971749868, 32.343204655613931 ], [ -90.945771195609581, 32.343212078611991 ], [ -90.945596167362723, 32.343119099023745 ], [ -90.945249367097986, 32.342733622840079 ], [ -90.943900839361675, 32.343219863178291 ], [ -90.943933715016939, 32.343429485588267 ], [ -90.94411707605677, 32.343360593082096 ], [ -90.94438782240239, 32.343372239759539 ], [ -90.944681237397276, 32.343601897178182 ], [ -90.944967098985785, 32.343405447484045 ], [ -90.945407987802085, 32.343408523967909 ], [ -90.945610419397781, 32.343528181883798 ], [ -90.945700609021827, 32.343728335062465 ], [ -90.945843866055796, 32.343485674790948 ], [ -90.946092189053743, 32.343364757691468 ], [ -90.946395405824973, 32.34338998568672 ], [ -90.946679060346739, 32.3435504772279 ], [ -90.94692822799648, 32.344094350704914 ], [ -90.94683329924149, 32.344405785269885 ], [ -90.946548031312659, 32.344662059971824 ], [ -90.946282333666744, 32.34473938480874 ], [ -90.945988251215923, 32.344964300310153 ], [ -90.945663119054558, 32.344959003813074 ], [ -90.945428044308215, 32.34474550210836 ], [ -90.945139293756057, 32.345002951615868 ], [ -90.945270804219618, 32.345170189820806 ], [ -90.945604089630251, 32.345093616723581 ], [ -90.945838725487192, 32.345158237047869 ], [ -90.946097165049409, 32.345535097333972 ], [ -90.94655496028038, 32.345490172379506 ], [ -90.946797428745498, 32.345587133836787 ], [ -90.947154142202578, 32.345514744783451 ], [ -90.947447100397412, 32.345660430319185 ], [ -90.948202033851942, 32.345368765699064 ], [ -90.948546611309368, 32.345412567676313 ], [ -90.949302068825332, 32.345076469022096 ], [ -90.949559227221272, 32.34512116869741 ], [ -90.949730280855093, 32.345272048123618 ], [ -90.949772607178687, 32.34561587993948 ], [ -90.94923260689923, 32.347157774294992 ], [ -90.948980915773134, 32.34744463142043 ], [ -90.949010237064414, 32.347791055137861 ], [ -90.94879280780124, 32.348023917606163 ], [ -90.948803775643981, 32.348383027020887 ], [ -90.948438297083058, 32.349401818316004 ], [ -90.948266896307913, 32.3495920780869 ], [ -90.94826365023664, 32.349911174077405 ], [ -90.948122691269049, 32.35008302501835 ], [ -90.947805129599473, 32.350196775234366 ], [ -90.946954740893403, 32.350273952440524 ], [ -90.946354357452549, 32.350166289262113 ], [ -90.94614638166135, 32.350279562619242 ], [ -90.945488719003379, 32.350336904444951 ], [ -90.945139972068731, 32.350255307657299 ], [ -90.943600818543644, 32.350247230991535 ], [ -90.943140752261201, 32.350091064103687 ], [ -90.942864566718583, 32.350143460969598 ], [ -90.942162496090461, 32.350051750306726 ], [ -90.941786627429295, 32.350118561506854 ], [ -90.941328927380653, 32.349903408596347 ], [ -90.941068324886928, 32.350059401611063 ], [ -90.940671854507585, 32.350125694887289 ], [ -90.939471194915015, 32.350088478800195 ], [ -90.939011481908494, 32.349904233522096 ], [ -90.938287358736687, 32.349845007564582 ], [ -90.938052361363503, 32.349698007247888 ], [ -90.937962366036643, 32.349503036750242 ], [ -90.937996501052282, 32.349316438996688 ], [ -90.938874578373301, 32.347456872157153 ], [ -90.939180631757253, 32.347226542616326 ], [ -90.93947984018736, 32.347248868519543 ], [ -90.939965428065634, 32.347132567867725 ], [ -90.940222684605914, 32.347162274902182 ], [ -90.940550149391527, 32.347097091880698 ], [ -90.940896281634394, 32.347225393703035 ], [ -90.941165712833637, 32.347149100486938 ], [ -90.941831710573808, 32.347223287155025 ], [ -90.942046987635266, 32.347325531049151 ], [ -90.942163407368753, 32.347540678183066 ], [ -90.942586039860487, 32.347490223546643 ], [ -90.942941199443993, 32.347632336410975 ], [ -90.943106010610052, 32.347827048996251 ], [ -90.943206023822512, 32.347837510783187 ], [ -90.943659926493993, 32.347609507046457 ], [ -90.944185952543336, 32.347712508698592 ], [ -90.944377108546348, 32.34751208780019 ], [ -90.944565426968069, 32.34744020238174 ], [ -90.944847755566286, 32.347480469756434 ], [ -90.945144146839866, 32.347762034248341 ], [ -90.945319597970112, 32.347832259067992 ], [ -90.945478544858958, 32.347589207389539 ], [ -90.945868698514559, 32.347469109817851 ], [ -90.946115334485299, 32.347473127428977 ], [ -90.946295462727775, 32.347571062924153 ], [ -90.94757390273648, 32.347349012817311 ], [ -90.947222447721614, 32.346999783840289 ], [ -90.94715660446613, 32.346833015000037 ], [ -90.946698798620773, 32.346999956261321 ], [ -90.946371351098946, 32.346973000710818 ], [ -90.945865739308303, 32.347241961827898 ], [ -90.945378236567819, 32.347065917987578 ], [ -90.94463571625468, 32.347302901742694 ], [ -90.94422125645751, 32.347219906633761 ], [ -90.944017142045212, 32.347059605311912 ], [ -90.943599225777831, 32.347252946846247 ], [ -90.943228702156347, 32.347133447284129 ], [ -90.943101270062215, 32.347431818156544 ], [ -90.942756888099012, 32.34753012478 ], [ -90.942448895121728, 32.34736650736275 ], [ -90.94239341572505, 32.347089062064462 ], [ -90.942089757163544, 32.347078040764416 ], [ -90.941263654295511, 32.346792718545458 ], [ -90.941127585024631, 32.34663628639619 ], [ -90.941081920165473, 32.346401231740757 ], [ -90.940654319825484, 32.346470898951125 ], [ -90.940386677812853, 32.346384640592269 ], [ -90.940266891609554, 32.346241872574396 ], [ -90.940247440434774, 32.346033121596157 ], [ -90.940377841047237, 32.345793907014993 ], [ -90.94060667776067, 32.345620398995436 ], [ -90.940373780339769, 32.34567513332118 ], [ -90.940106677761875, 32.345596915766791 ], [ -90.939953886372123, 32.345432519020967 ], [ -90.939927525415015, 32.345258674487695 ], [ -90.940308168739762, 32.344480575955586 ], [ -90.940502413517819, 32.343757613771579 ], [ -90.940817794824568, 32.343259112910268 ], [ -90.940916525100192, 32.342738610298106 ], [ -90.941073489848961, 32.342539203513347 ], [ -90.941303153688295, 32.342462803151356 ], [ -90.941792046806128, 32.342508475025589 ], [ -90.942274098067102, 32.342403146528703 ], [ -90.942589097465898, 32.342492893937475 ], [ -90.94291220163214, 32.342335668123155 ], [ -90.94322640763734, 32.342356029003618 ], [ -90.944284385641723, 32.34218456010796 ], [ -90.944968056616318, 32.341895146773908 ], [ -90.944912713989368, 32.341612710638643 ], [ -90.945148265104663, 32.341073037674136 ], [ -90.945451065057824, 32.340848461242011 ], [ -90.945711329528621, 32.340764788551105 ], [ -90.946117951098245, 32.340876990924158 ], [ -90.946316617954452, 32.34117667469954 ], [ -90.946323347730541, 32.341434334147117 ], [ -90.946107007274932, 32.342211604162685 ], [ -90.948675814789212, 32.342068871309408 ] ], [ [ -90.947815272665693, 32.343570473270908 ], [ -90.947824231705553, 32.343464808340222 ], [ -90.947770624535863, 32.343487698300848 ], [ -90.947815272665693, 32.343570473270908 ] ], [ [ -90.945718064165604, 32.344205398254637 ], [ -90.945818652201169, 32.344177667786447 ], [ -90.945694565301707, 32.343815381523136 ], [ -90.945606007058785, 32.343999548616303 ], [ -90.945718064165604, 32.344205398254637 ] ] ] } },
{ "type": "Feature", "properties": { "depth_bin": "80-85 ft", "bin_order": -82.5, "survey_id": "LM_06_MBV_20180803_CS_MB_4395_4400", "date": "2018-08-03", "year": 2018, "mile": 440.0 }, "geometry": { "type": "Polygon", "coordinates": [ [ [ -90.949736306920272, 32.341875677558505 ], [ -90.950202760367247, 32.342075934340556 ], [ -90.950546426714524, 32.34202111940337 ], [ -90.950830225639791, 32.3421558882035 ], [ -90.950911836028453, 32.342470194892158 ], [ -90.950647697691892, 32.342827940494757 ], [ -90.950311608988997, 32.342905734600713 ], [ -90.949457092076969, 32.342830054083144 ], [ -90.949226786909179, 32.342883548616499 ], [ -90.948235874435014, 32.342838153243115 ], [ -90.947754646037978, 32.343041904629345 ], [ -90.947402335787828, 32.342892010003276 ], [ -90.946744880084296, 32.342867921493657 ], [ -90.946503915160989, 32.342892186940695 ], [ -90.946153917279887, 32.343121883684844 ], [ -90.94590978988181, 32.343147079538291 ], [ -90.945498110353611, 32.342982141428344 ], [ -90.945282751966914, 32.34259797445084 ], [ -90.944623285360422, 32.342879276205764 ], [ -90.94384394027891, 32.342990601712074 ], [ -90.943289407220334, 32.343168343276666 ], [ -90.943073622008285, 32.343154322311143 ], [ -90.942863268302972, 32.343463385247432 ], [ -90.942619182299012, 32.343546973544818 ], [ -90.942400948769986, 32.343511765164649 ], [ -90.94234346819259, 32.343575959330046 ], [ -90.942282483232503, 32.343871153335932 ], [ -90.942063295559592, 32.344098742122796 ], [ -90.942308797991259, 32.344277340391123 ], [ -90.942362094644182, 32.344600754057396 ], [ -90.942174073304585, 32.344989014496484 ], [ -90.941805149157219, 32.345374375335844 ], [ -90.942052872949191, 32.345459473880013 ], [ -90.942205054783585, 32.34565986609465 ], [ -90.942747433027336, 32.345717739545918 ], [ -90.942948531574785, 32.345933615620929 ], [ -90.943170005448337, 32.345805494797553 ], [ -90.943416636487157, 32.345809517501685 ], [ -90.944813568022369, 32.346429356022213 ], [ -90.945124706690606, 32.346246908360641 ], [ -90.945736755636403, 32.346189788288513 ], [ -90.945948732644453, 32.346100385088157 ], [ -90.946276284454655, 32.346088555579463 ], [ -90.946473629663473, 32.346176451764514 ], [ -90.947307879945669, 32.345983830187969 ], [ -90.94798963253352, 32.345934104033539 ], [ -90.948188925459718, 32.345979944319275 ], [ -90.948359978248902, 32.346130825559186 ], [ -90.948434604461823, 32.346347575164145 ], [ -90.948989889553758, 32.346621480801595 ], [ -90.949251734787964, 32.34697678015943 ], [ -90.948819592961584, 32.348327976501643 ], [ -90.948437933116423, 32.348817099788413 ], [ -90.947917772875073, 32.349032361585429 ], [ -90.947563095124082, 32.348933159712523 ], [ -90.947153133277226, 32.348661393129035 ], [ -90.946897566681599, 32.348832857469986 ], [ -90.946642604527568, 32.348838334917339 ], [ -90.946419441872308, 32.348735517592623 ], [ -90.946263052143109, 32.348851748772923 ], [ -90.946006461966476, 32.348904225771122 ], [ -90.945394281825514, 32.348786415828329 ], [ -90.94488722743219, 32.348935382369199 ], [ -90.944411872033626, 32.348763239142976 ], [ -90.944175046283277, 32.34893059458792 ], [ -90.943918547107771, 32.348996809287357 ], [ -90.943235383162758, 32.348828692713141 ], [ -90.942681009866092, 32.349012216588264 ], [ -90.942329206691767, 32.348987213696041 ], [ -90.942122658162631, 32.348865735547726 ], [ -90.941928074296612, 32.348966878600805 ], [ -90.941432407133362, 32.349037160973445 ], [ -90.941164756863117, 32.348950903960684 ], [ -90.941023255324964, 32.348743525690395 ], [ -90.940686577721621, 32.348875833157955 ], [ -90.940245986836402, 32.348711705618058 ], [ -90.940116317331743, 32.348957983036961 ], [ -90.939817997433309, 32.349058584687114 ], [ -90.940029721342924, 32.34918579870866 ], [ -90.940402547054106, 32.349234761996016 ], [ -90.940725543811524, 32.34911652320266 ], [ -90.942322185977901, 32.349235131442576 ], [ -90.942582190264758, 32.349312154401069 ], [ -90.943316821042501, 32.349241451765508 ], [ -90.943808934492196, 32.349327487153822 ], [ -90.94446638596142, 32.349249630551547 ], [ -90.945155853774111, 32.349290134983711 ], [ -90.945581557603148, 32.349406906741415 ], [ -90.945859536389378, 32.349366562869484 ], [ -90.946554564277577, 32.349447397562884 ], [ -90.947300703415209, 32.349400786062098 ], [ -90.947917967351501, 32.349447691089516 ], [ -90.948149539702655, 32.349563589014984 ], [ -90.948261636218803, 32.34975012457604 ], [ -90.948243942433734, 32.350138283350184 ], [ -90.948092077655645, 32.350344298417646 ], [ -90.947820718510116, 32.350421769232362 ], [ -90.947352454214681, 32.350326946892935 ], [ -90.94696265119255, 32.350425946299076 ], [ -90.946256977346252, 32.350344095876302 ], [ -90.945391856171227, 32.350378604469 ], [ -90.944504655343735, 32.350289271487462 ], [ -90.943173188577632, 32.35029314688979 ], [ -90.942509199326338, 32.350191796671496 ], [ -90.942217890252095, 32.35028401836211 ], [ -90.94183791687685, 32.350210632854086 ], [ -90.940598529469426, 32.350236850309663 ], [ -90.939446813022542, 32.350164991746112 ], [ -90.938231197351371, 32.349964676810124 ], [ -90.937988516371547, 32.349835746689315 ], [ -90.937898521064653, 32.349640776150075 ], [ -90.937933770501928, 32.349445963994107 ], [ -90.938155090718837, 32.349063212496851 ], [ -90.938492241963615, 32.348963479763178 ], [ -90.938556387198489, 32.348123614824019 ], [ -90.938729050110098, 32.347893250167196 ], [ -90.938810644657465, 32.347580870037469 ], [ -90.939978784510316, 32.345138555734252 ], [ -90.941660772614867, 32.344162765048061 ], [ -90.941333490946505, 32.343987063476327 ], [ -90.941115688882448, 32.344176420989783 ], [ -90.9408317568721, 32.344207450222974 ], [ -90.940616488487976, 32.344105204563604 ], [ -90.940504414369798, 32.343918662971639 ], [ -90.940565699757201, 32.343537415576051 ], [ -90.941074816193293, 32.342374986337127 ], [ -90.941217073048819, 32.342222413709273 ], [ -90.941551132574091, 32.342058717225235 ], [ -90.941899185737626, 32.342020140962596 ], [ -90.94266351557647, 32.342112596757914 ], [ -90.942951435610539, 32.342015060308881 ], [ -90.944167212887351, 32.342063461480869 ], [ -90.944584964122754, 32.341881046352334 ], [ -90.944615481624965, 32.341670710973403 ], [ -90.944916682084767, 32.341301492973336 ], [ -90.945046281744197, 32.340976366552987 ], [ -90.945389640277185, 32.340762606658529 ], [ -90.945710774139656, 32.340682331134744 ], [ -90.946101114519394, 32.340780869229611 ], [ -90.94639774569896, 32.341203767181192 ], [ -90.946411754112418, 32.341481491271118 ], [ -90.946243411154384, 32.342078236307017 ], [ -90.946697901353247, 32.341959989917861 ], [ -90.947612873210929, 32.341868757463914 ], [ -90.94836974922309, 32.341905609251569 ], [ -90.948632371397991, 32.341808814626674 ], [ -90.949736306920272, 32.341875677558505 ] ], [ [ -90.939640280745692, 32.349039283625203 ], [ -90.939356226988465, 32.348975479902165 ], [ -90.939323358117846, 32.34909172738584 ], [ -90.939557244744961, 32.349044858501372 ], [ -90.939640280745692, 32.349039283625203 ] ] ] } },
{ "type": "Feature", "properties": { "depth_bin": "85-90 ft", "bin_order": -87.5, "survey_id": "LM_06_MBV_20180803_CS_MB_4395_4400", "date": "2018-08-03", "year": 2018, "mile": 440.0 }, "geometry": { "type": "MultiPolygon", "coordinates": [ [ [ [ -90.950932859535243, 32.341884263444136 ], [ -90.951075305734363, 32.342095064742729 ], [ -90.951046435046479, 32.342303029619281 ], [ -90.950807417089734, 32.342625384839621 ], [ -90.950450713636826, 32.342782188353858 ], [ -90.950017879817437, 32.3428160298877 ], [ -90.949362375427953, 32.342539129436162 ], [ -90.948732751521504, 32.34266521009382 ], [ -90.947525605922749, 32.342608626699956 ], [ -90.946577762135391, 32.342742977301363 ], [ -90.946342552148622, 32.343000110914041 ], [ -90.946032225459433, 32.343118142398396 ], [ -90.945731473805878, 32.343089573634728 ], [ -90.945530302449882, 32.342954498523113 ], [ -90.945330222717203, 32.342510263830384 ], [ -90.943918642044324, 32.342849201468766 ], [ -90.943038153826663, 32.342812272054303 ], [ -90.942704628256791, 32.342973670718507 ], [ -90.942476690182261, 32.342998781694675 ], [ -90.942181348979929, 32.342890370764081 ], [ -90.941326323919597, 32.342836012557079 ], [ -90.941146599748819, 32.342715246328112 ], [ -90.941056603722913, 32.342520277849196 ], [ -90.941316694774358, 32.341847447932317 ], [ -90.941588078275956, 32.341662633164091 ], [ -90.943032497286296, 32.341686587977883 ], [ -90.943708762641762, 32.341803850397078 ], [ -90.9444788193763, 32.341773218455955 ], [ -90.944919177756788, 32.340796459705672 ], [ -90.945087343528755, 32.340694767023251 ], [ -90.945596901599515, 32.340600423741876 ], [ -90.946035268542474, 32.340690685051221 ], [ -90.94643210733382, 32.341137620824853 ], [ -90.946476785443849, 32.341522405281204 ], [ -90.946362708413318, 32.341953120122874 ], [ -90.947214353749857, 32.341723839935781 ], [ -90.948688189424502, 32.341505332825449 ], [ -90.94948356509687, 32.341565104658699 ], [ -90.950155565309316, 32.341830418206357 ], [ -90.950593405697816, 32.341787251775315 ], [ -90.950932859535243, 32.341884263444136 ] ] ], [ [ [ -90.948137494864511, 32.349784327057307 ], [ -90.948270163018336, 32.35010921233949 ], [ -90.948108546415071, 32.350385448147733 ], [ -90.947878867186802, 32.350461860237857 ], [ -90.947331182110076, 32.350437312273023 ], [ -90.947027874789228, 32.350494345645281 ], [ -90.946713940030776, 32.350428001477326 ], [ -90.945473175928569, 32.3504331831952 ], [ -90.944569341514949, 32.350335927579735 ], [ -90.943513638794897, 32.350360217181183 ], [ -90.942816055565686, 32.350284107154351 ], [ -90.94212111904362, 32.350339458778357 ], [ -90.941768396673638, 32.350270555008464 ], [ -90.939877043285577, 32.350251448032701 ], [ -90.938142747587335, 32.350010621081573 ], [ -90.937940312545777, 32.34989095109789 ], [ -90.937849073919111, 32.349660600317904 ], [ -90.937966704032945, 32.349405840277015 ], [ -90.93823115154143, 32.349271119351549 ], [ -90.938793003715872, 32.349279608089617 ], [ -90.94014904294211, 32.349480851113817 ], [ -90.94055956604717, 32.349471475712015 ], [ -90.94086512861108, 32.349277882787703 ], [ -90.941098733894961, 32.349238415622345 ], [ -90.94172413638239, 32.349335994982525 ], [ -90.942016681801363, 32.349458372030909 ], [ -90.943278672265578, 32.349422916496117 ], [ -90.94375183593823, 32.349571215257853 ], [ -90.944954204278361, 32.349563363661566 ], [ -90.945511483705303, 32.349660462945494 ], [ -90.945713550051948, 32.349542457903766 ], [ -90.94610312456993, 32.349475326391264 ], [ -90.946919315170192, 32.349601005612698 ], [ -90.947391987882597, 32.349567879454703 ], [ -90.947894570460306, 32.349622179225243 ], [ -90.948137494864511, 32.349784327057307 ] ] ] ] } },
{ "type": "Feature", "properties": { "depth_bin": "90-95 ft", "bin_order": -92.5, "survey_id": "LM_06_MBV_20180803_CS_MB_4395_4400", "date": "2018-08-03", "year": 2018, "mile": 440.0 }, "geometry": { "type": "MultiPolygon", "coordinates": [ [ [ [ -90.950770591963177, 32.341609495014026 ], [ -90.951127007433897, 32.341798567764187 ], [ -90.951173429849433, 32.342104467229639 ], [ -90.950920195800606, 32.34242804890475 ], [ -90.950616893793793, 32.342505675006578 ], [ -90.950392449061383, 32.342675178767315 ], [ -90.950018757569168, 32.342670131366347 ], [ -90.949306636019031, 32.34226757521715 ], [ -90.948987109509758, 32.342318623754757 ], [ -90.948730887655088, 32.342234074278025 ], [ -90.946746224903691, 32.342592649856705 ], [ -90.946575532077006, 32.342664882697257 ], [ -90.946342366826102, 32.342972625116744 ], [ -90.945983565952119, 32.343104635363261 ], [ -90.94562771160038, 32.342995255823197 ], [ -90.945384731962889, 32.342603202344321 ], [ -90.945379154498056, 32.342222544270292 ], [ -90.945632313091068, 32.341460058974029 ], [ -90.94558919342748, 32.341334194034843 ], [ -90.94555344459593, 32.341573920849157 ], [ -90.945314543910513, 32.341874003160967 ], [ -90.945282774132494, 32.34224865929847 ], [ -90.945156619839551, 32.342387415348938 ], [ -90.944936027985932, 32.34247320201731 ], [ -90.944232407930272, 32.342508724274659 ], [ -90.943859438643912, 32.342606427913388 ], [ -90.943265394140397, 32.342573988831447 ], [ -90.942994735366256, 32.342470904509391 ], [ -90.942432238111905, 32.342570334830967 ], [ -90.94155020589811, 32.342422631952623 ], [ -90.941337921443122, 32.342274536280819 ], [ -90.94124792538183, 32.342079567926817 ], [ -90.941443813049432, 32.341489507171985 ], [ -90.94173973097449, 32.341310574115624 ], [ -90.943306132038998, 32.341451628150374 ], [ -90.944333221326019, 32.341675392815056 ], [ -90.944757295761178, 32.340797244400804 ], [ -90.94504857757785, 32.34059934072851 ], [ -90.945385899296156, 32.340518987527695 ], [ -90.945966806837248, 32.340562122778472 ], [ -90.946451461130906, 32.341009058326165 ], [ -90.946574307655908, 32.34127258054513 ], [ -90.946488582733906, 32.34175768475216 ], [ -90.946913779483026, 32.341595611774821 ], [ -90.947795185178336, 32.341432401793355 ], [ -90.948855752059416, 32.34132670683767 ], [ -90.9494079775979, 32.341460762290225 ], [ -90.95006587972847, 32.341493542390964 ], [ -90.950436302603748, 32.341636220410088 ], [ -90.950770591963177, 32.341609495014026 ] ] ], [ [ [ -90.947480740557225, 32.349688520444232 ], [ -90.94805287222465, 32.349801262024862 ], [ -90.948223931616354, 32.349952143647592 ], [ -90.948286631824359, 32.35015036204851 ], [ -90.948210510349867, 32.350349546956203 ], [ -90.947872026189557, 32.350512546833762 ], [ -90.947125386610722, 32.350548844519835 ], [ -90.944526010909613, 32.350382630017151 ], [ -90.943254968048919, 32.350416441505637 ], [ -90.939909789948373, 32.350306264822152 ], [ -90.938110642185478, 32.350052005030136 ], [ -90.937908207099994, 32.349932334993589 ], [ -90.937816968520465, 32.349701984193402 ], [ -90.937994621248407, 32.349398199371677 ], [ -90.938395502390065, 32.349320128689158 ], [ -90.940559465407105, 32.349578210209941 ], [ -90.942914198227399, 32.349559495859438 ], [ -90.943133262319748, 32.34961357376406 ], [ -90.944177279228427, 32.34959461526423 ], [ -90.945537827957921, 32.349700082268875 ], [ -90.945861388771107, 32.349641421441618 ], [ -90.947045591972355, 32.349753174150479 ], [ -90.947480740557225, 32.349688520444232 ] ] ] ] } },
{ "type": "Feature", "properties": { "depth_bin": "95-100 ft", "bin_order": -97.5, "survey_id": "LM_06_MBV_20180803_CS_MB_4395_4400", "date": "2018-08-03", "year": 2018, "mile": 440.0 }, "geometry": { "type": "MultiPolygon", "coordinates": [ [ [ [ -90.949943167076626, 32.341391873844891 ], [ -90.95095995614605, 32.341596015256641 ], [ -90.951196860100012, 32.341806422127441 ], [ -90.951190637920305, 32.34208242991528 ], [ -90.950924244157704, 32.342315248694682 ], [ -90.950266280640335, 32.342353604949807 ], [ -90.94983144676344, 32.34219077115759 ], [ -90.949479465713566, 32.34220020925509 ], [ -90.948926419311377, 32.342060572972159 ], [ -90.948084540828589, 32.342132650740325 ], [ -90.947144324758327, 32.342302530652269 ], [ -90.946688067917989, 32.342471734474614 ], [ -90.946341415152233, 32.34294951927162 ], [ -90.94592542291295, 32.343064543546888 ], [ -90.945578683103435, 32.342926777046245 ], [ -90.945433482568362, 32.342630452505482 ], [ -90.945450909000954, 32.342201066094219 ], [ -90.945710966083695, 32.341438770124228 ], [ -90.94555529978004, 32.341238366359725 ], [ -90.94543327631331, 32.341252470190277 ], [ -90.945391006084108, 32.341492248908736 ], [ -90.945174916695322, 32.341822632673505 ], [ -90.945201233456487, 32.342023359941642 ], [ -90.945111954339936, 32.342214793915183 ], [ -90.944907956270782, 32.342357711360684 ], [ -90.944651384924668, 32.342410185105727 ], [ -90.942722033043026, 32.342117847829449 ], [ -90.94180548049529, 32.342141250391194 ], [ -90.941497600991497, 32.341943925281008 ], [ -90.941389987841916, 32.341686168972764 ], [ -90.94152288316991, 32.341234954452432 ], [ -90.941427064933052, 32.340859931882278 ], [ -90.941687081858817, 32.34060126342974 ], [ -90.942134915768179, 32.340565739677722 ], [ -90.942309935428099, 32.340658723762253 ], [ -90.94241775214789, 32.340829559800689 ], [ -90.94264486430724, 32.340778780973096 ], [ -90.943082094088382, 32.34082129649164 ], [ -90.943603492506739, 32.341340980850561 ], [ -90.944202382885067, 32.341565885710295 ], [ -90.944361431247117, 32.341317838546686 ], [ -90.944320770849501, 32.341004246293856 ], [ -90.944558416360195, 32.340648890846836 ], [ -90.94506813455034, 32.340503727362361 ], [ -90.945279290298203, 32.340350251357343 ], [ -90.945717388906161, 32.340282884965774 ], [ -90.946016765108396, 32.340347190156884 ], [ -90.946185763304385, 32.340555871142726 ], [ -90.946420354349385, 32.340601149458031 ], [ -90.946668334461222, 32.340803314258601 ], [ -90.946735675796177, 32.341046058675559 ], [ -90.946636835614228, 32.341445613718641 ], [ -90.947373081493225, 32.341255792675483 ], [ -90.948151557519211, 32.341150621404104 ], [ -90.948963304146019, 32.341237803435646 ], [ -90.949440074830505, 32.341419375493246 ], [ -90.949943167076626, 32.341391873844891 ] ] ], [ [ [ -90.948104689331288, 32.349861187587592 ], [ -90.948302039167487, 32.350183617242742 ], [ -90.948173283600823, 32.350499455601458 ], [ -90.947921246445631, 32.350608510337516 ], [ -90.947239180251003, 32.350617007407678 ], [ -90.944201279735026, 32.350438870675816 ], [ -90.940875136667472, 32.350441669341507 ], [ -90.938905830124867, 32.350283601856148 ], [ -90.937986202335622, 32.35009264088513 ], [ -90.937815160490487, 32.34994174605346 ], [ -90.937768764671887, 32.349757188541354 ], [ -90.93793108614372, 32.349462844167704 ], [ -90.938282448626907, 32.349361900983432 ], [ -90.939149292778069, 32.349509089976316 ], [ -90.940935456040819, 32.349646393501423 ], [ -90.944210028249515, 32.34964943000039 ], [ -90.945541459761387, 32.349761920254608 ], [ -90.947691859004095, 32.349783695634187 ], [ -90.948104689331288, 32.349861187587592 ] ] ] ] } },
{ "type": "Feature", "properties": { "depth_bin": "100-105 ft", "bin_order": -102.5, "survey_id": "LM_06_MBV_20180803_CS_MB_4395_4400", "date": "2018-08-03", "year": 2018, "mile": 440.0 }, "geometry": { "type": "MultiPolygon", "coordinates": [ [ [ [ -90.949397961872336, 32.341311421298464 ], [ -90.95094801114179, 32.341512423092972 ], [ -90.951155512333855, 32.341618979697856 ], [ -90.951274182605673, 32.341875999043502 ], [ -90.951112011700147, 32.342184105684808 ], [ -90.950850931663851, 32.342283788645254 ], [ -90.950411323893192, 32.342256692181174 ], [ -90.949891860725884, 32.342110065327958 ], [ -90.949293387859342, 32.342124721918857 ], [ -90.948758113357613, 32.341937062524565 ], [ -90.948104188075931, 32.341897534209494 ], [ -90.946859657119347, 32.342158018340889 ], [ -90.946639874709405, 32.342351546125649 ], [ -90.946417920367267, 32.342827316020873 ], [ -90.945925052517012, 32.343009571055276 ], [ -90.945657414878454, 32.342923324056642 ], [ -90.945514980408518, 32.342712517120269 ], [ -90.945515755325388, 32.342214494775973 ], [ -90.945781281742086, 32.341393754210991 ], [ -90.945530912566255, 32.3411521429827 ], [ -90.945215116421792, 32.341252547200433 ], [ -90.945179628063414, 32.34152897075839 ], [ -90.944923854415038, 32.342133656095825 ], [ -90.944713140006144, 32.342276195508575 ], [ -90.944414892522531, 32.342329726634752 ], [ -90.943620677255012, 32.342165252788284 ], [ -90.942978982634727, 32.341866987256886 ], [ -90.942723135519927, 32.341823823937581 ], [ -90.942576101883461, 32.34170752241404 ], [ -90.941901846608701, 32.341747511016713 ], [ -90.941714214985012, 32.341611580037096 ], [ -90.941647927941048, 32.3414318093674 ], [ -90.9413881501915, 32.341269567303478 ], [ -90.941321006969432, 32.341054306325006 ], [ -90.941461243805378, 32.340758613097599 ], [ -90.941710505173518, 32.340603802665868 ], [ -90.942028239238979, 32.340561864069478 ], [ -90.942944644277574, 32.34065625914031 ], [ -90.94331480374035, 32.340832532617306 ], [ -90.943715406206138, 32.341301962762408 ], [ -90.944167573302295, 32.341459888124056 ], [ -90.944335660653167, 32.340984897282006 ], [ -90.944735285926114, 32.34046936929964 ], [ -90.945124180946962, 32.340284939074841 ], [ -90.945684642452193, 32.340228070509951 ], [ -90.946664657075686, 32.340651370458922 ], [ -90.946782066357386, 32.340873013195697 ], [ -90.946753013510687, 32.341256388093377 ], [ -90.947517570122614, 32.341076425755723 ], [ -90.94815081403928, 32.341040678236475 ], [ -90.949397961872336, 32.341311421298464 ] ] ], [ [ [ -90.948274343754605, 32.350121696474723 ], [ -90.948266124852267, 32.350484297748736 ], [ -90.948124547838233, 32.350611891209347 ], [ -90.94786416395101, 32.350681825133599 ], [ -90.945749701933195, 32.350624247606923 ], [ -90.944154380774734, 32.350494376782549 ], [ -90.941507004816586, 32.350507341153531 ], [ -90.938232843622714, 32.3502120490297 ], [ -90.937871581436696, 32.350069268261123 ], [ -90.937736659202969, 32.349798572396658 ], [ -90.937914403815455, 32.349508530610706 ], [ -90.938315285509887, 32.34943046019896 ], [ -90.939035605156391, 32.349557194651595 ], [ -90.940915783474026, 32.349707400189402 ], [ -90.94261575234593, 32.349767260576328 ], [ -90.944291439064514, 32.349717752364391 ], [ -90.945708658914228, 32.349848485710496 ], [ -90.947928481268818, 32.349895106417975 ], [ -90.948121529870022, 32.349957308828515 ], [ -90.948274343754605, 32.350121696474723 ] ] ] ] } },
{ "type": "Feature", "properties": { "depth_bin": "105-110 ft", "bin_order": -107.5, "survey_id": "LM_06_MBV_20180803_CS_MB_4395_4400", "date": "2018-08-03", "year": 2018, "mile": 440.0 }, "geometry": { "type": "MultiPolygon", "coordinates": [ [ [ [ -90.946504522945588, 32.340586501228074 ], [ -90.946768608618271, 32.341128358666346 ], [ -90.946712195918863, 32.341416578967845 ], [ -90.94690245724972, 32.341627358289763 ], [ -90.946882930873571, 32.341869815799207 ], [ -90.946674532660907, 32.342070574784856 ], [ -90.94641352911259, 32.342127154127844 ], [ -90.946450525425263, 32.342429595958045 ], [ -90.946307462828898, 32.342716046402117 ], [ -90.946087730147156, 32.342811198040337 ], [ -90.945842758234676, 32.342786678865728 ], [ -90.94561727244394, 32.342587767449317 ], [ -90.945589975609664, 32.342276494654094 ], [ -90.945733224802709, 32.342017530866492 ], [ -90.946043425006948, 32.341917232262453 ], [ -90.946013955679661, 32.341690449814003 ], [ -90.945872149492558, 32.341508419887568 ], [ -90.945886553568116, 32.341235192855642 ], [ -90.945645475469021, 32.341150487485194 ], [ -90.945444098335798, 32.340911915844032 ], [ -90.945449967588459, 32.340580937396695 ], [ -90.945684270963099, 32.340389516262789 ], [ -90.945970406685746, 32.340382250352654 ], [ -90.946504522945588, 32.340586501228074 ] ] ], [ [ [ -90.95056366980198, 32.341460116461235 ], [ -90.951108878337962, 32.341581047955756 ], [ -90.951228676432663, 32.341723806211782 ], [ -90.951181793735657, 32.342061522943368 ], [ -90.950866653405228, 32.342214994971762 ], [ -90.950395802729147, 32.342111165630754 ], [ -90.950220350163676, 32.341878737752452 ], [ -90.950289883602792, 32.34160906450473 ], [ -90.95056366980198, 32.341460116461235 ] ] ], [ [ [ -90.947334709044853, 32.349955530426705 ], [ -90.948138184517191, 32.350025944308562 ], [ -90.948290998541552, 32.350190331938826 ], [ -90.948310468625891, 32.350399082336573 ], [ -90.948190031331023, 32.350581833952496 ], [ -90.947970280938875, 32.350676988067015 ], [ -90.947547253528143, 32.350684224344675 ], [ -90.947103435678585, 32.350560676992963 ], [ -90.946984767471903, 32.350303654070338 ], [ -90.947114959393431, 32.35005068308385 ], [ -90.947334709044853, 32.349955530426705 ] ] ], [ [ [ -90.945182860650704, 32.349881750290926 ], [ -90.94537051414359, 32.350017676848445 ], [ -90.945437580057245, 32.350219193130705 ], [ -90.94536145236448, 32.350418376058514 ], [ -90.945167790066876, 32.350548088645155 ], [ -90.944290089980484, 32.35051269775699 ], [ -90.943985358711302, 32.350291962316767 ], [ -90.943991604740873, 32.350015956136538 ], [ -90.944225936502036, 32.349824539100098 ], [ -90.945182860650704, 32.349881750290926 ] ] ], [ [ [ -90.943398693538995, 32.340945143855222 ], [ -90.943579006073506, 32.341218388402226 ], [ -90.943478744914302, 32.341494713993299 ], [ -90.943147394880299, 32.341621203577802 ], [ -90.942814826633082, 32.341507777968069 ], [ -90.942667076703884, 32.341261861846874 ], [ -90.94276733999871, 32.34098553698167 ], [ -90.943057012552998, 32.340860105664568 ], [ -90.943398693538995, 32.340945143855222 ] ] ], [ [ [ -90.943684583714059, 32.349841423665666 ], [ -90.943837389079107, 32.350005816359428 ], [ -90.943856848870965, 32.350214567032012 ], [ -90.943736403119573, 32.350397314041373 ], [ -90.943516648957456, 32.350492460220572 ], [ -90.943012709683757, 32.35048293042923 ], [ -90.942849250579187, 32.350375830776848 ], [ -90.942762379964293, 32.350201538127187 ], [ -90.942664170186845, 32.350390614505706 ], [ -90.942456459490685, 32.350503584763992 ], [ -90.941384361856592, 32.350491572181923 ], [ -90.941127956401786, 32.350383460821462 ], [ -90.941015874190484, 32.350196919498714 ], [ -90.941085442439018, 32.349927253037251 ], [ -90.941359268449403, 32.349778326811546 ], [ -90.942472089923939, 32.349813402824999 ], [ -90.94267453118313, 32.349933065767416 ], [ -90.942761401398343, 32.35010735846722 ], [ -90.942859610637868, 32.34991828198423 ], [ -90.943027796028801, 32.349816592970917 ], [ -90.943449937705736, 32.349776798944845 ], [ -90.943684583714059, 32.349841423665666 ] ] ], [ [ [ -90.939296993838752, 32.349593285599809 ], [ -90.940018835921464, 32.349732194763355 ], [ -90.940632406964255, 32.34973882166593 ], [ -90.940857898199539, 32.349937742068718 ], [ -90.940851642672882, 32.350213747708167 ], [ -90.940537142801432, 32.350424377709579 ], [ -90.939732251051481, 32.350389578449189 ], [ -90.939140121148483, 32.350303899309104 ], [ -90.938928943972329, 32.350204931514689 ], [ -90.938672111207424, 32.350273596285831 ], [ -90.938192688979115, 32.350216531710636 ], [ -90.937918841957654, 32.350128989098955 ], [ -90.937752758732913, 32.34993103928548 ], [ -90.937790772046711, 32.349643141560215 ], [ -90.938046088104244, 32.349472156264454 ], [ -90.938690064939465, 32.34953354656259 ], [ -90.938982372452188, 32.349659611838973 ], [ -90.939296993838752, 32.349593285599809 ] ] ] ] } }
]
}
