{
"type": "FeatureCollection",
"name": "LM_08_MVF_20170708_CS_MB_48325_48375_depth_polygons",
"crs": { "type": "name", "properties": { "name": "urn:ogc:def:crs:OGC:1.3:CRS84" } },
"features": [
{ "type": "Feature", "properties": { "depth_bin": "55-60 ft", "bin_order": -57.5, "survey_id": "LM_08_MVF_20170708_CS_MB_48325_48375", "date": "2017-07-08", "year": 2017, "mile": 484.0 }, "geometry": { "type": "Polygon", "coordinates": [ [ [ -91.147081631782783, 32.74915979360572 ], [ -91.147268016069688, 32.749594870137017 ], [ -91.14719194368837, 32.749794167564424 ], [ -91.147035838653039, 32.749909590315703 ], [ -91.146622247659877, 32.74991964749195 ], [ -91.146369658494265, 32.749817681885133 ], [ -91.146118496989075, 32.749604054344623 ], [ -91.146023635618619, 32.749178439482478 ], [ -91.146253027119201, 32.748899039718253 ], [ -91.146708607484328, 32.748862208176213 ], [ -91.147081631782783, 32.74915979360572 ] ] ] } },
{ "type": "Feature", "properties": { "depth_bin": "60-65 ft", "bin_order": -62.5, "survey_id": "LM_08_MVF_20170708_CS_MB_48325_48375", "date": "2017-07-08", "year": 2017, "mile": 484.0 }, "geometry": { "type": "Polygon", "coordinates": [ [ [ -91.147302807359523, 32.749387248286808 ], [ -91.147366332089831, 32.749676684891675 ], [ -91.147264722673569, 32.74990404022261 ], [ -91.1470563015002, 32.750017317058102 ], [ -91.146727227158692, 32.750014180164271 ], [ -91.146288478046912, 32.749831950713848 ], [ -91.146058093978965, 32.749635256548132 ], [ -91.145957501177918, 32.749290783289702 ], [ -91.145991612769052, 32.748999725793162 ], [ -91.146231241472634, 32.748724217030414 ], [ -91.146609418849991, 32.748684202136452 ], [ -91.146960241096409, 32.748898812692993 ], [ -91.147302807359523, 32.749387248286808 ] ] ] } },
{ "type": "Feature", "properties": { "depth_bin": "65-70 ft", "bin_order": -67.5, "survey_id": "LM_08_MVF_20170708_CS_MB_48325_48375", "date": "2017-07-08", "year": 2017, "mile": 484.0 }, "geometry": { "type": "Polygon", "coordinates": [ [ [ -91.147364884532507, 32.749406721379451 ], [ -91.147448262243927, 32.749744863791975 ], [ -91.147346652946439, 32.749972219191712 ], [ -91.147081291432883, 32.750107341780136 ], [ -91.14673757383396, 32.750083805630723 ], [ -91.146272591444557, 32.749873280408529 ], [ -91.146021180461673, 32.749632169865741 ], [ -91.145908468780419, 32.749263616779622 ], [ -91.145956506785609, 32.748843255536016 ], [ -91.146263339707218, 32.748598721240526 ], [ -91.146713148052143, 32.748641320725021 ], [ -91.147008773899373, 32.748871013157711 ], [ -91.147364884532507, 32.749406721379451 ] ] ] } },
{ "type": "Feature", "properties": { "depth_bin": "70-75 ft", "bin_order": -72.5, "survey_id": "LM_08_MVF_20170708_CS_MB_48325_48375", "date": "2017-07-08", "year": 2017, "mile": 484.0 }, "geometry": { "type": "Polygon", "coordinates": [ [ [ -91.147413792469834, 32.749420145912516 ], [ -91.147488013407681, 32.749883490115145 ], [ -91.147265493179162, 32.750127974521064 ], [ -91.146866490649344, 32.750160161297757 ], [ -91.146308511503918, 32.749933231908436 ], [ -91.146009685250945, 32.749676797105849 ], [ -91.145891330370247, 32.749388374174039 ], [ -91.145856492152987, 32.749022431738389 ], [ -91.145941431331124, 32.748688065139426 ], [ -91.146261966716963, 32.748447565738488 ], [ -91.146651755397727, 32.748506490271048 ], [ -91.147065281440945, 32.748858373502493 ], [ -91.147413792469834, 32.749420145912516 ] ] ] } },
{ "type": "Feature", "properties": { "depth_bin": "75-80 ft", "bin_order": -77.5, "survey_id": "LM_08_MVF_20170708_CS_MB_48325_48375", "date": "2017-07-08", "year": 2017, "mile": 484.0 }, "geometry": { "type": "Polygon", "coordinates": [ [ [ -91.147462450415162, 32.749406087611391 ], [ -91.147544041728978, 32.749889479764505 ], [ -91.147334814774069, 32.750165065225033 ], [ -91.146964557038572, 32.750214493544838 ], [ -91.146305987344022, 32.749969260187122 ], [ -91.145993673773816, 32.749704385360161 ], [ -91.145815948494658, 32.749258124528112 ], [ -91.145792863879507, 32.748836379437634 ], [ -91.145929572356351, 32.748493341383437 ], [ -91.146085676186246, 32.74837791994883 ], [ -91.146303992880377, 32.748338207089461 ], [ -91.14675209403633, 32.748497311562318 ], [ -91.147113939137952, 32.748844315337109 ], [ -91.147462450415162, 32.749406087611391 ] ] ] } },
{ "type": "Feature", "properties": { "depth_bin": "80-85 ft", "bin_order": -82.5, "survey_id": "LM_08_MVF_20170708_CS_MB_48325_48375", "date": "2017-07-08", "year": 2017, "mile": 484.0 }, "geometry": { "type": "Polygon", "coordinates": [ [ [ -91.147561266487457, 32.749542868738821 ], [ -91.147591578923979, 32.749985638102615 ], [ -91.147325761234384, 32.750238102671531 ], [ -91.146777758970543, 32.750206243201937 ], [ -91.146256773523547, 32.749975268046867 ], [ -91.145923863871658, 32.749660285312153 ], [ -91.145716385993509, 32.749038893588512 ], [ -91.145888818685179, 32.748328290547924 ], [ -91.146279495416096, 32.748203569463726 ], [ -91.146735514440252, 32.748409277191811 ], [ -91.147178857695522, 32.748830151557307 ], [ -91.147561266487457, 32.749542868738821 ] ] ] } },
{ "type": "Feature", "properties": { "depth_bin": "85-90 ft", "bin_order": -87.5, "survey_id": "LM_08_MVF_20170708_CS_MB_48325_48375", "date": "2017-07-08", "year": 2017, "mile": 484.0 }, "geometry": { "type": "Polygon", "coordinates": [ [ [ -91.147596130064741, 32.749454054831162 ], [ -91.147651500367573, 32.749978623469282 ], [ -91.147569198326494, 32.750149014805814 ], [ -91.14738069583305, 32.750278390669159 ], [ -91.147136841053168, 32.750315644454261 ], [ -91.14677800876423, 32.750233726009512 ], [ -91.146241192646457, 32.749997164909139 ], [ -91.145928754406185, 32.749718548516284 ], [ -91.145695324485146, 32.749293449320731 ], [ -91.145626593429768, 32.748776562125379 ], [ -91.14574920549147, 32.748329603219183 ], [ -91.146195086991838, 32.748119883209966 ], [ -91.146684802902953, 32.748250387411041 ], [ -91.147177608121595, 32.748692737463074 ], [ -91.147462059123939, 32.749092741299314 ], [ -91.147596130064741, 32.749454054831162 ] ] ] } },
{ "type": "Feature", "properties": { "depth_bin": "90-95 ft", "bin_order": -92.5, "survey_id": "LM_08_MVF_20170708_CS_MB_48325_48375", "date": "2017-07-08", "year": 2017, "mile": 484.0 }, "geometry": { "type": "Polygon", "coordinates": [ [ [ -91.147377754770673, 32.748763474736329 ], [ -91.147772661134653, 32.749762337013102 ], [ -91.147733055875065, 32.7500055779593 ], [ -91.14759294567348, 32.750231721373105 ], [ -91.147424204052683, 32.750333658763495 ], [ -91.1471446800021, 32.750350746192431 ], [ -91.145997344859524, 32.750059403826128 ], [ -91.145813892695173, 32.7498148857836 ], [ -91.145546736133269, 32.748826209794721 ], [ -91.145552203933676, 32.748404541151693 ], [ -91.145788508594919, 32.748026612066205 ], [ -91.145957247484432, 32.747924676754728 ], [ -91.146204242624961, 32.747907802680629 ], [ -91.146533309929282, 32.747998795791794 ], [ -91.146961667624481, 32.748242901607576 ], [ -91.147377754770673, 32.748763474736329 ] ] ] } },
{ "type": "Feature", "properties": { "depth_bin": "95-100 ft", "bin_order": -97.5, "survey_id": "LM_08_MVF_20170708_CS_MB_48325_48375", "date": "2017-07-08", "year": 2017, "mile": 484.0 }, "geometry": { "type": "Polygon", "coordinates": [ [ [ -91.147257930243128, 32.748104625456442 ], [ -91.147992643641828, 32.749478411804446 ], [ -91.14797659693852, 32.749962768465771 ], [ -91.147625364120557, 32.750359255412455 ], [ -91.147153976889243, 32.750411729584464 ], [ -91.146572138581121, 32.750226270399168 ], [ -91.146307022307681, 32.750266061201025 ], [ -91.145998648886106, 32.750149902243017 ], [ -91.145732586359841, 32.749815412862404 ], [ -91.145419699622067, 32.748601064544197 ], [ -91.14561500362484, 32.747876978980422 ], [ -91.146107507989555, 32.747555321441929 ], [ -91.146508016768593, 32.747526090591897 ], [ -91.146743851345363, 32.747590376597628 ], [ -91.147257930243128, 32.748104625456442 ] ], [ [ -91.146792137788026, 32.749479272557096 ], [ -91.146742121304285, 32.749325159432516 ], [ -91.146412560502753, 32.748824111347368 ], [ -91.146508876292486, 32.749238412114124 ], [ -91.146792137788026, 32.749479272557096 ] ] ] } },
{ "type": "Feature", "properties": { "depth_bin": "100-105 ft", "bin_order": -102.5, "survey_id": "LM_08_MVF_20170708_CS_MB_48325_48375", "date": "2017-07-08", "year": 2017, "mile": 484.0 }, "geometry": { "type": "Polygon", "coordinates": [ [ [ -91.149129652605581, 32.749711251431826 ], [ -91.149487421019558, 32.749991441855421 ], [ -91.149518025945781, 32.750577494391358 ], [ -91.149251803032101, 32.750952402388705 ], [ -91.149373856354984, 32.751145979579 ], [ -91.149345260156139, 32.751353989553351 ], [ -91.149184726361838, 32.751513518122763 ], [ -91.148946364515254, 32.751570794105824 ], [ -91.148550802051801, 32.75151276567626 ], [ -91.148317760142064, 32.751338362470548 ], [ -91.148184471335213, 32.751066816934426 ], [ -91.147226756638474, 32.750765547972186 ], [ -91.146767471882143, 32.750455992453098 ], [ -91.146657836442998, 32.750281769308245 ], [ -91.14636570239692, 32.750337018221067 ], [ -91.146132759607696, 32.750277927225405 ], [ -91.145410878570246, 32.749892610069772 ], [ -91.145147474573434, 32.749641158449904 ], [ -91.145036791468669, 32.749414337709879 ], [ -91.145065272157694, 32.749192587585867 ], [ -91.145225808660669, 32.749033064355039 ], [ -91.145447788894856, 32.748976232372627 ], [ -91.14523746474417, 32.748231204446085 ], [ -91.145180865578894, 32.747465849177274 ], [ -91.146436048723572, 32.746208057622979 ], [ -91.146757508819206, 32.746158946962545 ], [ -91.147106826756641, 32.746331732853406 ], [ -91.147538883527389, 32.746250068680837 ], [ -91.147807284870524, 32.746407433366727 ], [ -91.147854640660455, 32.746727015942987 ], [ -91.147595620816219, 32.746954529141753 ], [ -91.14761548374743, 32.747250775407196 ], [ -91.147347517095255, 32.747634458638345 ], [ -91.147634902825445, 32.748069122698055 ], [ -91.148205394889445, 32.748219359309793 ], [ -91.148369810585606, 32.748326221668599 ], [ -91.148603677576602, 32.748718615421687 ], [ -91.148506474008713, 32.749127306485001 ], [ -91.148618645994532, 32.749457785589414 ], [ -91.148932985513355, 32.74968229274922 ], [ -91.149129652605581, 32.749711251431826 ] ], [ [ -91.146963213905948, 32.749579945073336 ], [ -91.14650547284036, 32.748636311845118 ], [ -91.14631462920967, 32.748452974789224 ], [ -91.146334058435258, 32.748860243503103 ], [ -91.146515125706642, 32.749424904105027 ], [ -91.146963213905948, 32.749579945073336 ] ] ] } },
{ "type": "Feature", "properties": { "depth_bin": "105-110 ft", "bin_order": -107.5, "survey_id": "LM_08_MVF_20170708_CS_MB_48325_48375", "date": "2017-07-08", "year": 2017, "mile": 484.0 }, "geometry": { "type": "MultiPolygon", "coordinates": [ [ [ [ -91.156096355190385, 32.746356020912124 ], [ -91.156473640410525, 32.746866939469058 ], [ -91.156445285240025, 32.747381402979087 ], [ -91.155937693324077, 32.747708271232348 ], [ -91.155573518043951, 32.747687774281182 ], [ -91.1553976063676, 32.747569447610935 ], [ -91.155272005949655, 32.747348321313446 ], [ -91.155304087632913, 32.746957652633689 ], [ -91.155170386144803, 32.74668839418414 ], [ -91.155222955549135, 32.746483751231139 ], [ -91.155401200520615, 32.746338278081701 ], [ -91.155693696620247, 32.746286946211143 ], [ -91.156096355190385, 32.746356020912124 ] ] ], [ [ [ -91.149904179874966, 32.749835661607264 ], [ -91.150714384828134, 32.749977962972856 ], [ -91.150917190336102, 32.750194389776517 ], [ -91.150857338315646, 32.750498649460667 ], [ -91.150560670408126, 32.750650407332877 ], [ -91.150677421887224, 32.750870289581364 ], [ -91.150624839096622, 32.751074930025979 ], [ -91.148967261319569, 32.752442783994461 ], [ -91.148541133955618, 32.752703224707361 ], [ -91.148297272882814, 32.752740480518604 ], [ -91.148070015822483, 32.752656971902418 ], [ -91.147900579387283, 32.752437126995943 ], [ -91.147793659939822, 32.751975821071532 ], [ -91.14750081858061, 32.751472882421858 ], [ -91.147477964847525, 32.751278804304725 ], [ -91.14727501795771, 32.751086119054975 ], [ -91.146841953044984, 32.750923411065685 ], [ -91.146749774580954, 32.750629591154038 ], [ -91.146555987964234, 32.750373171129205 ], [ -91.146315608837909, 32.750383611439851 ], [ -91.145530223427826, 32.750185637968784 ], [ -91.144902686934316, 32.749546548321355 ], [ -91.144802970847948, 32.749298264044917 ], [ -91.144836622147153, 32.749084130616431 ], [ -91.14504544300128, 32.748869326082534 ], [ -91.145325135865406, 32.748811940005162 ], [ -91.145007195938149, 32.747944109360219 ], [ -91.145018293800931, 32.747598790871834 ], [ -91.145628207068754, 32.746975741087198 ], [ -91.145997137756666, 32.746909094146233 ], [ -91.146042065066226, 32.746554954476622 ], [ -91.146999792159406, 32.745613481535905 ], [ -91.147238138998688, 32.74555620868118 ], [ -91.147454685145263, 32.745601661529363 ], [ -91.147913821332523, 32.745897474317182 ], [ -91.148201325735613, 32.746213055972653 ], [ -91.148431286382902, 32.746239006915403 ], [ -91.148620058239686, 32.74637466432565 ], [ -91.148678303141835, 32.746660066082576 ], [ -91.148436530517813, 32.746974345036378 ], [ -91.148606920446383, 32.747289400640526 ], [ -91.148565042745815, 32.747664728147377 ], [ -91.148633906085919, 32.747850815186268 ], [ -91.149057555980988, 32.748036886152619 ], [ -91.149211903136177, 32.748333891688389 ], [ -91.149434381090629, 32.748397420070937 ], [ -91.149730440703195, 32.748662391419678 ], [ -91.149798220036288, 32.748863814879229 ], [ -91.149716880392148, 32.749068908481 ], [ -91.149898189454632, 32.749224730330816 ], [ -91.14998115720357, 32.749418151216659 ], [ -91.149904179874966, 32.749835661607264 ] ], [ [ -91.147424430852823, 32.749737253711714 ], [ -91.14744144744175, 32.749340361105304 ], [ -91.147078417164295, 32.749175141811634 ], [ -91.14701165947136, 32.748942444720711 ], [ -91.146324418419681, 32.747904536304105 ], [ -91.14615063568364, 32.748339702224115 ], [ -91.146469960867336, 32.749535047681093 ], [ -91.147424430852823, 32.749737253711714 ] ] ] ] } },
{ "type": "Feature", "properties": { "depth_bin": "110-115 ft", "bin_order": -112.5, "survey_id": "LM_08_MVF_20170708_CS_MB_48325_48375", "date": "2017-07-08", "year": 2017, "mile": 484.0 }, "geometry": { "type": "MultiPolygon", "coordinates": [ [ [ [ -91.155943516585907, 32.745656770401204 ], [ -91.15640379670667, 32.746345193182137 ], [ -91.156380579213348, 32.746625353124955 ], [ -91.156511206034708, 32.746860600842822 ], [ -91.156496245221859, 32.747335717697908 ], [ -91.156353669906039, 32.747488516533728 ], [ -91.155571367324427, 32.747916226215452 ], [ -91.15535553007112, 32.747992008922843 ], [ -91.155109381818534, 32.747967855889755 ], [ -91.154757105966354, 32.747737084008754 ], [ -91.154405976395111, 32.746761575742632 ], [ -91.154164425998971, 32.746656134426338 ], [ -91.154051441776019, 32.746469759202853 ], [ -91.154080024952734, 32.746261747552708 ], [ -91.154236221002648, 32.746104821800792 ], [ -91.153920496036719, 32.745378295578035 ], [ -91.153821659660395, 32.745020677582872 ], [ -91.153852133325756, 32.744825499480442 ], [ -91.153736454673123, 32.744595225810791 ], [ -91.153841070028463, 32.744165241855583 ], [ -91.153735580276489, 32.743943254583357 ], [ -91.15377020794854, 32.743724911672771 ], [ -91.15367438551506, 32.743254731729337 ], [ -91.153806055573881, 32.74300051037627 ], [ -91.152876521938339, 32.740873047708831 ], [ -91.152697149481043, 32.740638165908123 ], [ -91.152759802860047, 32.740315869019987 ], [ -91.153002824345123, 32.740142490837947 ], [ -91.153360212422058, 32.74007699710959 ], [ -91.153617981778822, 32.740184720162482 ], [ -91.153935401430545, 32.740831030170803 ], [ -91.154186417180156, 32.741119601642858 ], [ -91.154226910471095, 32.741459054222709 ], [ -91.154752833657668, 32.742522486571978 ], [ -91.154883448731709, 32.743062860570689 ], [ -91.155118873834965, 32.74342707560406 ], [ -91.155190631918288, 32.743813859333748 ], [ -91.155943516585907, 32.745656770401204 ] ] ], [ [ [ -91.154046653407889, 32.748046013843172 ], [ -91.154347783899169, 32.748344244655691 ], [ -91.154354349263002, 32.748519441092277 ], [ -91.154233744047744, 32.748702375084207 ], [ -91.153052892360719, 32.749426597518294 ], [ -91.152732170427228, 32.749793457355466 ], [ -91.151870129533663, 32.750213375541065 ], [ -91.151536389666958, 32.750625804186285 ], [ -91.150237718444004, 32.751316167648255 ], [ -91.149514089148965, 32.751964867403231 ], [ -91.149201532927776, 32.752033742562475 ], [ -91.148910092576642, 32.751897898231512 ], [ -91.148729640095851, 32.752573847232306 ], [ -91.147969900135664, 32.753042407602365 ], [ -91.147617997351134, 32.752970291923873 ], [ -91.147422493561379, 32.752670162903513 ], [ -91.147151208490612, 32.752650919260525 ], [ -91.146941523200198, 32.752484584558857 ], [ -91.14689706346212, 32.752237291011177 ], [ -91.147054234046877, 32.751891455251538 ], [ -91.146845863839573, 32.751642592743934 ], [ -91.146907291371733, 32.751290258141609 ], [ -91.146602929207901, 32.751016362302913 ], [ -91.146434610021728, 32.750418962445316 ], [ -91.145697184786826, 32.750332652686517 ], [ -91.145413871056263, 32.750222403859659 ], [ -91.14482188026895, 32.749602040434006 ], [ -91.144628895557716, 32.749265814489938 ], [ -91.144696986064247, 32.748858625001766 ], [ -91.144869228329242, 32.748729358479963 ], [ -91.145181108007165, 32.748648608824276 ], [ -91.14488644985245, 32.747965691915503 ], [ -91.1449053414443, 32.747695718804451 ], [ -91.145198990121173, 32.747435451200808 ], [ -91.145563787700013, 32.747425714528248 ], [ -91.14575255740462, 32.747561376169841 ], [ -91.145903929950194, 32.747904555086379 ], [ -91.146372338240127, 32.749344453335013 ], [ -91.146382955941775, 32.749628357703052 ], [ -91.14690280898148, 32.749621049835554 ], [ -91.147412725360425, 32.749803529386099 ], [ -91.147525699311913, 32.749989910159563 ], [ -91.147487473683654, 32.750261636700699 ], [ -91.148409849751104, 32.75093698792459 ], [ -91.148710173537239, 32.75158649585115 ], [ -91.148760283585062, 32.751367358337781 ], [ -91.148928650602997, 32.751204018734974 ], [ -91.148735443218953, 32.750872677799251 ], [ -91.148946496824422, 32.750520901873884 ], [ -91.148987805865929, 32.750043504602061 ], [ -91.148663598177023, 32.749926460278132 ], [ -91.148183148931835, 32.749535678551474 ], [ -91.148052969297012, 32.749145595158957 ], [ -91.148229403370252, 32.748794531060554 ], [ -91.148015210299675, 32.748427464429511 ], [ -91.147779602902034, 32.748256168173384 ], [ -91.147516071423965, 32.748273255845604 ], [ -91.147086040315983, 32.748122737222417 ], [ -91.146793755378766, 32.74769890765706 ], [ -91.146822355886997, 32.747490898321125 ], [ -91.147083864595757, 32.747282325678242 ], [ -91.147358167119592, 32.746651465374839 ], [ -91.147296241116095, 32.746586358766713 ], [ -91.146982157427075, 32.746577945211435 ], [ -91.146747016082827, 32.746415905329435 ], [ -91.146626877737305, 32.74622288670647 ], [ -91.146631089500488, 32.745999768530375 ], [ -91.147388963002712, 32.745199065116488 ], [ -91.147638174018269, 32.745077788342861 ], [ -91.147998008960514, 32.745087474488194 ], [ -91.14824621477986, 32.745348275844982 ], [ -91.148603936403987, 32.745349898610776 ], [ -91.148853167012547, 32.745479097863694 ], [ -91.149020841592929, 32.745755224886828 ], [ -91.148901085098444, 32.746124227026193 ], [ -91.149260191869161, 32.746192386535931 ], [ -91.149448964950977, 32.746328042739329 ], [ -91.149515418226301, 32.746494086990786 ], [ -91.149475854178348, 32.746829991383819 ], [ -91.149763492107013, 32.746822233502954 ], [ -91.149996249967302, 32.746977434613306 ], [ -91.150579943510749, 32.746693967933915 ], [ -91.150826086605662, 32.746718129704313 ], [ -91.150990502935898, 32.746824988660372 ], [ -91.151062230722374, 32.747173365396975 ], [ -91.150791352773354, 32.747422693495892 ], [ -91.150569246150241, 32.747994693926969 ], [ -91.151029089531988, 32.747726780050712 ], [ -91.151355716691057, 32.747731599711088 ], [ -91.151596065685411, 32.747963715839326 ], [ -91.151522736232366, 32.748318769184294 ], [ -91.151966485626261, 32.748004531235175 ], [ -91.152139971724168, 32.747757901069242 ], [ -91.152607020955102, 32.747623790771655 ], [ -91.153055182824261, 32.747735957163457 ], [ -91.153204960451504, 32.748023309120249 ], [ -91.153618204726556, 32.747946990341426 ], [ -91.154046653407889, 32.748046013843172 ] ] ] ] } },
{ "type": "Feature", "properties": { "depth_bin": "115-120 ft", "bin_order": -117.5, "survey_id": "LM_08_MVF_20170708_CS_MB_48325_48375", "date": "2017-07-08", "year": 2017, "mile": 484.0 }, "geometry": { "type": "MultiPolygon", "coordinates": [ [ [ [ -91.155600635206568, 32.744537038398057 ], [ -91.155631242550172, 32.744801336724024 ], [ -91.155982770896514, 32.745657491424012 ], [ -91.156426975242397, 32.746324240146237 ], [ -91.156563841927806, 32.747170487431674 ], [ -91.156462385055832, 32.74741159262885 ], [ -91.15609725787057, 32.747538805040101 ], [ -91.155753914233784, 32.747388669377713 ], [ -91.155766084148922, 32.74763730707064 ], [ -91.155560812863314, 32.747919729920618 ], [ -91.153424304084425, 32.749204636163398 ], [ -91.153183597603672, 32.749261788061133 ], [ -91.152840765657047, 32.749702795321738 ], [ -91.152617168107383, 32.749855800760038 ], [ -91.152297507359521, 32.749913614847223 ], [ -91.152058965912886, 32.749847586643703 ], [ -91.151727088530492, 32.749972197726869 ], [ -91.151690796836903, 32.750270924809719 ], [ -91.151399589172357, 32.75051332488497 ], [ -91.151155735028553, 32.750550586531091 ], [ -91.150874644295286, 32.750420360572591 ], [ -91.150545938947133, 32.75041632896734 ], [ -91.150236727450491, 32.750081926931024 ], [ -91.149941906964699, 32.750176345312767 ], [ -91.149575292164599, 32.750091120956753 ], [ -91.149426352347675, 32.749845416663952 ], [ -91.149541841616781, 32.749568988052083 ], [ -91.149357456970719, 32.749435168578074 ], [ -91.149291002081654, 32.74926912424894 ], [ -91.149454124111159, 32.748785598907858 ], [ -91.149188510053833, 32.748691931141018 ], [ -91.148331243607231, 32.747940616118903 ], [ -91.148294026726433, 32.747699630258488 ], [ -91.14844685024562, 32.747471510917556 ], [ -91.148000383290182, 32.74705224351591 ], [ -91.147969574603962, 32.746788397009318 ], [ -91.148083331914535, 32.746582909554192 ], [ -91.147997351734091, 32.746320378450001 ], [ -91.147686821256173, 32.746236146536695 ], [ -91.147300812425598, 32.745945739595115 ], [ -91.147200328993009, 32.745453008908008 ], [ -91.147836147025842, 32.744790136535357 ], [ -91.148232120596731, 32.74472963627062 ], [ -91.149068328868225, 32.7451430489076 ], [ -91.149511880282503, 32.74505540154 ], [ -91.149728340399477, 32.745157328024362 ], [ -91.149837653345344, 32.745330372648979 ], [ -91.150132150587453, 32.745312463781815 ], [ -91.150348612072335, 32.745414389237837 ], [ -91.150458804211212, 32.745755224131891 ], [ -91.150306673433334, 32.74596146379038 ], [ -91.149984030358112, 32.746089887129642 ], [ -91.150108362894358, 32.746282174124993 ], [ -91.150937437921058, 32.746241685715773 ], [ -91.151378613551728, 32.746562023353157 ], [ -91.151713520009778, 32.74663396039584 ], [ -91.152102996030038, 32.74658709568677 ], [ -91.152638276563181, 32.746856672579348 ], [ -91.153483503207397, 32.747045939493468 ], [ -91.153245823209645, 32.746858651357222 ], [ -91.152568666243951, 32.746663515523416 ], [ -91.152111672301857, 32.745960240608333 ], [ -91.152235183414589, 32.74563659324749 ], [ -91.152784990738397, 32.745497223257892 ], [ -91.152801967731037, 32.745376974102037 ], [ -91.152667689796928, 32.74508319638187 ], [ -91.152708232046606, 32.744624914716127 ], [ -91.152502586770211, 32.744253648858646 ], [ -91.152543314110332, 32.744024887226416 ], [ -91.152427027391141, 32.743771352545494 ], [ -91.152495765844876, 32.743581970835223 ], [ -91.152315429064316, 32.743347883745912 ], [ -91.152366609013427, 32.742881417341415 ], [ -91.152106719456754, 32.742420866522586 ], [ -91.152398920435488, 32.741799492359036 ], [ -91.151963650223067, 32.74077075314154 ], [ -91.152036918780055, 32.740606770665195 ], [ -91.152269768516987, 32.74042581398195 ], [ -91.153276434235849, 32.740062022913712 ], [ -91.153534832770276, 32.740106344786817 ], [ -91.153751597190777, 32.740280844690815 ], [ -91.153960218922307, 32.740800586593153 ], [ -91.154236055038197, 32.741137904772643 ], [ -91.154254069624614, 32.741423509759073 ], [ -91.15444141272107, 32.741908597809974 ], [ -91.154785353057534, 32.742522273446312 ], [ -91.154907275562934, 32.743059893286386 ], [ -91.155151267405458, 32.743413120984172 ], [ -91.1551986939659, 32.743747906533144 ], [ -91.155600635206568, 32.744537038398057 ] ], [ [ -91.15525936265891, 32.746121834615487 ], [ -91.155261123906257, 32.746124418916366 ], [ -91.155259464727479, 32.746121315582791 ], [ -91.15525936265891, 32.746121834615487 ] ], [ [ -91.155388439912869, 32.746753502530062 ], [ -91.155694248991296, 32.747302466293817 ], [ -91.155660451238603, 32.747018697890461 ], [ -91.155501271976973, 32.746748843154585 ], [ -91.155510407169004, 32.746495831447966 ], [ -91.155319234363589, 32.74629010765517 ], [ -91.155388439912869, 32.746753502530062 ] ] ], [ [ [ -91.149398257406261, 32.744235281707098 ], [ -91.149219589189016, 32.744529989129589 ], [ -91.148908860228644, 32.744644101087154 ], [ -91.148597966432504, 32.744559358132243 ], [ -91.148449037806969, 32.744313652897887 ], [ -91.148549188510586, 32.744037175314482 ], [ -91.148920851452601, 32.743869561759674 ], [ -91.149248003211625, 32.743954197996004 ], [ -91.149398257406261, 32.744235281707098 ] ] ], [ [ [ -91.148335314061853, 32.752303259976543 ], [ -91.148343109429774, 32.75270883375061 ], [ -91.148174201800956, 32.752947043989693 ], [ -91.147571188769106, 32.753341672894351 ], [ -91.147125183451081, 32.75336568395754 ], [ -91.14693639975097, 32.753230023989694 ], [ -91.146869541759571, 32.753053141497652 ], [ -91.146542996667051, 32.752889021353042 ], [ -91.14632619260054, 32.752505042255379 ], [ -91.146338448988814, 32.75227794989901 ], [ -91.146078025138237, 32.75203941594993 ], [ -91.146013075552247, 32.751597141927867 ], [ -91.146166243570946, 32.751261759968301 ], [ -91.146069842384335, 32.751027416030929 ], [ -91.146214949905882, 32.750705123252288 ], [ -91.146212282372133, 32.75044778645848 ], [ -91.145212436171988, 32.750363695426401 ], [ -91.144812863097627, 32.750481878750243 ], [ -91.144346061423832, 32.750239402015573 ], [ -91.144184816858001, 32.750508677391998 ], [ -91.143821799806787, 32.750584487382049 ], [ -91.143513553062604, 32.750482063744975 ], [ -91.143217755852845, 32.750244559751607 ], [ -91.143103125618154, 32.74991194019271 ], [ -91.143332527969946, 32.749632546204239 ], [ -91.143762378581073, 32.749622394689538 ], [ -91.144222245104046, 32.749926680491221 ], [ -91.144368652415352, 32.749659256344437 ], [ -91.144656615605683, 32.749558523324005 ], [ -91.144455650040655, 32.749225158524574 ], [ -91.144428441237395, 32.749010123861424 ], [ -91.144619860016874, 32.748668188842423 ], [ -91.145028335538058, 32.748511889070265 ], [ -91.144789439116693, 32.747916223675091 ], [ -91.14484335496978, 32.747746965317859 ], [ -91.145049739382927, 32.74755004238974 ], [ -91.14545083613784, 32.747522642986254 ], [ -91.145710770598185, 32.747775993242897 ], [ -91.1462832387422, 32.749269636426909 ], [ -91.146269810297497, 32.74948575580806 ], [ -91.146138966442138, 32.749652024412775 ], [ -91.147049657918316, 32.749675065291108 ], [ -91.147416009673819, 32.749873022657709 ], [ -91.147481122585447, 32.750123507134845 ], [ -91.147335216333076, 32.750383386808309 ], [ -91.147357788661679, 32.750600704713271 ], [ -91.147650741035605, 32.750698288569794 ], [ -91.14783655892694, 32.750931768660649 ], [ -91.14788343237143, 32.751102518324423 ], [ -91.1478039703523, 32.751400131731842 ], [ -91.148120507086404, 32.751754457509044 ], [ -91.148335314061853, 32.752303259976543 ] ] ] ] } },
{ "type": "Feature", "properties": { "depth_bin": "120-125 ft", "bin_order": -122.5, "survey_id": "LM_08_MVF_20170708_CS_MB_48325_48375", "date": "2017-07-08", "year": 2017, "mile": 484.0 }, "geometry": { "type": "MultiPolygon", "coordinates": [ [ [ [ -91.154282706940947, 32.74142010007391 ], [ -91.154831293624753, 32.742555590961942 ], [ -91.154939795156963, 32.743059680118016 ], [ -91.155197082387602, 32.743432696971688 ], [ -91.155214796008963, 32.743702085626659 ], [ -91.1553977264347, 32.744129956253325 ], [ -91.155662837141847, 32.744570248931417 ], [ -91.155663913518978, 32.744798518772555 ], [ -91.155966060074121, 32.745372917470469 ], [ -91.156027819193454, 32.745675659896875 ], [ -91.156442982892472, 32.746296650589898 ], [ -91.156451336811131, 32.74662099684312 ], [ -91.156559734704331, 32.746832797668432 ], [ -91.1565262089714, 32.747339644854272 ], [ -91.156384260362927, 32.747467453146641 ], [ -91.156145913354166, 32.747524743417486 ], [ -91.155912970639108, 32.74746567063989 ], [ -91.155740827218722, 32.747315039520849 ], [ -91.155692972248872, 32.747018484507613 ], [ -91.155517153759462, 32.74670751234823 ], [ -91.155547117282254, 32.746483178349898 ], [ -91.155357621692332, 32.746314370531017 ], [ -91.155107935093326, 32.745761432562936 ], [ -91.154795396962683, 32.745029008193264 ], [ -91.154764590994958, 32.744736286004169 ], [ -91.154378935032341, 32.743946100364603 ], [ -91.154346146374706, 32.74369180813251 ], [ -91.154109762140351, 32.743308111564858 ], [ -91.153946285325674, 32.742758698412956 ], [ -91.153529604240376, 32.741900034447411 ], [ -91.153479277524099, 32.742046983096692 ], [ -91.153601747062865, 32.742240887933953 ], [ -91.153610072993672, 32.742747206031602 ], [ -91.153810597765286, 32.743181644306766 ], [ -91.153613780677361, 32.743964883455554 ], [ -91.153776354678982, 32.744205437146341 ], [ -91.153830951374744, 32.74457590022503 ], [ -91.153940650866943, 32.744732701003912 ], [ -91.153911608128382, 32.745059175573779 ], [ -91.154143854012858, 32.745831716302042 ], [ -91.154069126080586, 32.74606639804626 ], [ -91.153812302505884, 32.746212233880833 ], [ -91.154229556845138, 32.746400961531165 ], [ -91.154604392871335, 32.746678344980509 ], [ -91.154724053191089, 32.746951483231321 ], [ -91.154957936171428, 32.747152279782448 ], [ -91.154977924615665, 32.747361006895616 ], [ -91.154873338102888, 32.747689922540417 ], [ -91.154738683177385, 32.747839297417627 ], [ -91.154714262696231, 32.748075748024995 ], [ -91.154517446966835, 32.74825294998216 ], [ -91.153974547439674, 32.748363514070668 ], [ -91.153418611987732, 32.748162045732123 ], [ -91.153004166236798, 32.748214278634407 ], [ -91.152614103323955, 32.747941130329821 ], [ -91.152340572972278, 32.748141436329945 ], [ -91.151955586266013, 32.748074651802646 ], [ -91.151762970921197, 32.748202838231876 ], [ -91.151515975461876, 32.748219723276179 ], [ -91.151299505916711, 32.748117799590275 ], [ -91.151186699953072, 32.747932055210114 ], [ -91.150927715877131, 32.748272733134101 ], [ -91.15073122957476, 32.748328893629875 ], [ -91.150489069906101, 32.748284459279645 ], [ -91.150154804340033, 32.747917724460663 ], [ -91.150163647269892, 32.747431825777014 ], [ -91.149615701352218, 32.74733672122526 ], [ -91.149340384038283, 32.746905109915446 ], [ -91.149072107689008, 32.746674835774449 ], [ -91.149005441406345, 32.746459341260632 ], [ -91.148751879230474, 32.746478729699199 ], [ -91.148437603338792, 32.746349953200671 ], [ -91.148274599422209, 32.746026476386334 ], [ -91.148291641173429, 32.745802257409174 ], [ -91.147916717131551, 32.745838274175512 ], [ -91.147672676154428, 32.745709705371439 ], [ -91.147513628966706, 32.745273786695449 ], [ -91.147647463708864, 32.74495284313533 ], [ -91.149206913753559, 32.743345403979845 ], [ -91.150078009542511, 32.743132840345524 ], [ -91.150943739065013, 32.743341183274239 ], [ -91.150958869397158, 32.743238183199253 ], [ -91.150661117177222, 32.742816050222501 ], [ -91.150635288223583, 32.742311166016961 ], [ -91.151107767555189, 32.741697256241601 ], [ -91.151593149941448, 32.740763242802878 ], [ -91.151787522426417, 32.740603926917984 ], [ -91.152497344447966, 32.740340265167802 ], [ -91.152704643134172, 32.740334719241908 ], [ -91.152917346922962, 32.740433665960303 ], [ -91.15299257427796, 32.740201999408228 ], [ -91.153186822668786, 32.740071994196725 ], [ -91.153513422297905, 32.740076807239923 ], [ -91.153805018548979, 32.740311305544282 ], [ -91.153966069265849, 32.740739538540439 ], [ -91.154252188482914, 32.741124056879677 ], [ -91.154282706940947, 32.74142010007391 ] ], [ [ -91.153395728275854, 32.741385867755859 ], [ -91.153368224032036, 32.741338186594035 ], [ -91.153384170872172, 32.741413616967542 ], [ -91.153395728275854, 32.741385867755859 ] ] ], [ [ [ -91.147599657647859, 32.751974996117255 ], [ -91.1475685254171, 32.752295623816941 ], [ -91.147793003028156, 32.75255797200537 ], [ -91.147800302602207, 32.753136788719317 ], [ -91.147150883063134, 32.753619248096584 ], [ -91.146786060126189, 32.753628988482447 ], [ -91.14657260205729, 32.75349495764911 ], [ -91.146235897436384, 32.753097147766439 ], [ -91.145903379288086, 32.752338523296366 ], [ -91.14568837279441, 32.752110653401019 ], [ -91.145611404401549, 32.751603808064829 ], [ -91.145339655567227, 32.751095021597152 ], [ -91.145356261831637, 32.75066665569139 ], [ -91.14555470169276, 32.750451865333851 ], [ -91.144871292915411, 32.750525353666283 ], [ -91.144550088372398, 32.750431631721121 ], [ -91.144044937909868, 32.750621740701327 ], [ -91.143551218008781, 32.750535957347935 ], [ -91.143050781840458, 32.750619582216373 ], [ -91.142733263546958, 32.75051458997396 ], [ -91.142498369021965, 32.75030085029983 ], [ -91.142486857419783, 32.749992569926754 ], [ -91.142764260719176, 32.749732413385942 ], [ -91.143057660842445, 32.749699740815736 ], [ -91.143369009184326, 32.749502974956862 ], [ -91.144200880019511, 32.749612538554999 ], [ -91.144324252871527, 32.749512973506313 ], [ -91.144166791812566, 32.749303347876527 ], [ -91.14418677312986, 32.749025158333069 ], [ -91.144363290018305, 32.748667986348813 ], [ -91.144859512661384, 32.748396189943676 ], [ -91.144695410183104, 32.747963985349855 ], [ -91.144768698404889, 32.747800007993618 ], [ -91.14500548266443, 32.747615354392387 ], [ -91.145290649703071, 32.747583910769677 ], [ -91.145507110617402, 32.747685844557445 ], [ -91.14589550174091, 32.748420681119214 ], [ -91.146142134878573, 32.749176167448979 ], [ -91.146040523032767, 32.749403521712637 ], [ -91.14578588928309, 32.749525391077164 ], [ -91.145878979242966, 32.74969640319047 ], [ -91.147033521840086, 32.74968891318133 ], [ -91.147388254061667, 32.749917755681672 ], [ -91.147399907579924, 32.750239777619683 ], [ -91.147108965120552, 32.750497429439143 ], [ -91.147085207837648, 32.751256343731505 ], [ -91.147348703421713, 32.751412590819271 ], [ -91.147433114396947, 32.751777752484863 ], [ -91.147599657647859, 32.751974996117255 ] ] ], [ [ [ -91.139688771917307, 32.756574831576266 ], [ -91.139651164557762, 32.756862789066467 ], [ -91.139395011779413, 32.75703414460768 ], [ -91.139037963938563, 32.757002470303412 ], [ -91.138818787482506, 32.756772388082496 ], [ -91.138856521173707, 32.756498172348067 ], [ -91.139112673341174, 32.756326817876349 ], [ -91.139485980807237, 32.756358387254849 ], [ -91.139688771917307, 32.756574831576266 ] ] ] ] } },
{ "type": "Feature", "properties": { "depth_bin": "125-130 ft", "bin_order": -127.5, "survey_id": "LM_08_MVF_20170708_CS_MB_48325_48375", "date": "2017-07-08", "year": 2017, "mile": 484.0 }, "geometry": { "type": "MultiPolygon", "coordinates": [ [ [ [ -91.154850265751833, 32.742508105772586 ], [ -91.154979580923325, 32.743085253187751 ], [ -91.155216180680497, 32.74339895311352 ], [ -91.155238265895761, 32.743683316552556 ], [ -91.155681935517748, 32.744536504989199 ], [ -91.155694102340718, 32.744795549779212 ], [ -91.155998327910766, 32.74534522123983 ], [ -91.156043953159823, 32.745661811777921 ], [ -91.156458737786465, 32.746241577363008 ], [ -91.156609713951994, 32.747191744518737 ], [ -91.156510914039202, 32.747383789479699 ], [ -91.156302509838866, 32.747497082374231 ], [ -91.155999299745133, 32.747481039584663 ], [ -91.155755975464857, 32.747268827416022 ], [ -91.155710992066261, 32.746996054806537 ], [ -91.155550053347568, 32.746748523141072 ], [ -91.155585113993524, 32.746478149208173 ], [ -91.155356383389858, 32.746254523749428 ], [ -91.154844177404982, 32.745028688470256 ], [ -91.154811095679236, 32.744783182575709 ], [ -91.154394816869015, 32.743904769681862 ], [ -91.154377609812627, 32.743690346471041 ], [ -91.153431092315273, 32.741657350787165 ], [ -91.153427868530045, 32.741358570950716 ], [ -91.153195438493213, 32.741051510744931 ], [ -91.152948996989508, 32.740506154718751 ], [ -91.152968113382542, 32.740263662088758 ], [ -91.15312861947784, 32.740104127434172 ], [ -91.153523017372393, 32.740063983933645 ], [ -91.153816508441011, 32.740266677568705 ], [ -91.153917958265239, 32.740580406753061 ], [ -91.154284581368103, 32.741110102489806 ], [ -91.15454044816407, 32.741993031208047 ], [ -91.154850265751833, 32.742508105772586 ] ] ], [ [ [ -91.152563481048162, 32.743504907491342 ], [ -91.152564272892121, 32.743722041799607 ], [ -91.152713719268959, 32.743929935254783 ], [ -91.152731789930087, 32.744344035795365 ], [ -91.152865468667883, 32.744519860486584 ], [ -91.152872031218863, 32.744695056988483 ], [ -91.152719907783691, 32.744901299874954 ], [ -91.152226714918598, 32.745111170561472 ], [ -91.152166388681934, 32.745522736807068 ], [ -91.152390837777219, 32.74569377582808 ], [ -91.152527890901936, 32.746181469326828 ], [ -91.152246063204615, 32.746516619507219 ], [ -91.151782801393551, 32.746814742273486 ], [ -91.151418631298526, 32.746794233402561 ], [ -91.150862250875406, 32.746425999330874 ], [ -91.150413134722541, 32.74657280667212 ], [ -91.149821214489947, 32.746378640315569 ], [ -91.149603532935132, 32.746092631430805 ], [ -91.149763741756715, 32.745737928640914 ], [ -91.149469033794759, 32.745736259635862 ], [ -91.149238428059263, 32.745584209942777 ], [ -91.149031821875923, 32.745646485034847 ], [ -91.148789670411716, 32.745602047671319 ], [ -91.148600299254142, 32.745419149064347 ], [ -91.148587896533854, 32.74518665084301 ], [ -91.148212531979212, 32.745037154608731 ], [ -91.148058707213551, 32.744872981039599 ], [ -91.148082986982743, 32.744565229548186 ], [ -91.14838448556668, 32.744205016188765 ], [ -91.148745669151282, 32.744027114604279 ], [ -91.149036968866909, 32.743710144637426 ], [ -91.149097105825817, 32.743431768024635 ], [ -91.149686098615561, 32.742772066081869 ], [ -91.149786295282055, 32.74239379437202 ], [ -91.151299601856095, 32.741368500597353 ], [ -91.151562429667877, 32.74102172898219 ], [ -91.151819350955165, 32.740880642201489 ], [ -91.152143822018132, 32.740912490735909 ], [ -91.152346611647204, 32.741128914910192 ], [ -91.152327493271969, 32.741371407346662 ], [ -91.152137156563839, 32.741547443045235 ], [ -91.152189733246701, 32.742204779567238 ], [ -91.152002002943689, 32.742598864133598 ], [ -91.152257218269668, 32.742643274156109 ], [ -91.152429346987773, 32.742793909638287 ], [ -91.152466573692706, 32.743034894774745 ], [ -91.152328814895597, 32.743232431891528 ], [ -91.152563481048162, 32.743504907491342 ] ] ], [ [ [ -91.147370134123037, 32.749983862283145 ], [ -91.147268846783334, 32.750357507519553 ], [ -91.146685334298539, 32.750619043350596 ], [ -91.14639860472829, 32.750989102329271 ], [ -91.146583950500826, 32.751377899553447 ], [ -91.146497967600325, 32.751704223634782 ], [ -91.146690625150981, 32.751887425973464 ], [ -91.146763211143139, 32.752292834578334 ], [ -91.147021851376664, 32.752544902938411 ], [ -91.147056302383561, 32.752794565486781 ], [ -91.147365485658597, 32.753269254540385 ], [ -91.147265194683143, 32.753531988904058 ], [ -91.146805680557947, 32.753778308912217 ], [ -91.14637209155984, 32.753665493255177 ], [ -91.145919511710105, 32.753210606800089 ], [ -91.145756895526361, 32.752866967144072 ], [ -91.145149633163527, 32.752152648876468 ], [ -91.144968801431588, 32.751643023855173 ], [ -91.144555896996067, 32.751595850443323 ], [ -91.144289395047508, 32.751374260545617 ], [ -91.144059654775049, 32.751450491002061 ], [ -91.143855037345361, 32.751421736320545 ], [ -91.143156024829679, 32.751017282143358 ], [ -91.142903519654467, 32.75115733292786 ], [ -91.142616562402779, 32.751141152379795 ], [ -91.142321189115108, 32.750938932483749 ], [ -91.142202662925214, 32.75071069061692 ], [ -91.142283785584269, 32.750225915054237 ], [ -91.142424033243429, 32.750013519288082 ], [ -91.143168424412437, 32.749468700113859 ], [ -91.143640192669579, 32.749448308198822 ], [ -91.143490128567706, 32.749218212202997 ], [ -91.143559468214889, 32.748948438486096 ], [ -91.144016089802577, 32.748525312034587 ], [ -91.144602736652004, 32.748280003519341 ], [ -91.144617572738426, 32.747954560399549 ], [ -91.144838292020111, 32.747736682383028 ], [ -91.145027321275805, 32.74766452621207 ], [ -91.145250540958855, 32.747676086820739 ], [ -91.145454136731118, 32.747795459619802 ], [ -91.145911165991762, 32.748701558971064 ], [ -91.145907227729481, 32.74911298133047 ], [ -91.145712826009216, 32.749272286971269 ], [ -91.145461562405771, 32.749312185638338 ], [ -91.145645181839498, 32.749507942159845 ], [ -91.145667578008158, 32.749718699523633 ], [ -91.147033771722889, 32.749716395992721 ], [ -91.147250239814312, 32.749818326991374 ], [ -91.147370134123037, 32.749983862283145 ] ] ], [ [ [ -91.139536046496744, 32.756080489948836 ], [ -91.139769341419353, 32.75649185980506 ], [ -91.139777859676229, 32.756886918465213 ], [ -91.139561378001346, 32.757176011159913 ], [ -91.139189531089343, 32.75724578919062 ], [ -91.138900213104108, 32.75705772959747 ], [ -91.138605398172245, 32.756553884173599 ], [ -91.138564855315749, 32.756213999321673 ], [ -91.138717031086003, 32.756007775848126 ], [ -91.139035932718727, 32.755907310551017 ], [ -91.139330883375749, 32.755931181986263 ], [ -91.139536046496744, 32.756080489948836 ] ] ] ] } },
{ "type": "Feature", "properties": { "depth_bin": "130-135 ft", "bin_order": -132.5, "survey_id": "LM_08_MVF_20170708_CS_MB_48325_48375", "date": "2017-07-08", "year": 2017, "mile": 484.0 }, "geometry": { "type": "MultiPolygon", "coordinates": [ [ [ [ -91.155169425458595, 32.74325215581198 ], [ -91.155446253998349, 32.744102153519911 ], [ -91.155727751165998, 32.744556080787483 ], [ -91.155727207396779, 32.744796027650757 ], [ -91.15606040422702, 32.745364689285971 ], [ -91.15607786089798, 32.745679009235779 ], [ -91.156394410907112, 32.746052330747141 ], [ -91.156517493041363, 32.746330704250525 ], [ -91.15661898180096, 32.747212814617676 ], [ -91.156498383004006, 32.74739575105491 ], [ -91.156277841842126, 32.747491235920144 ], [ -91.155977886692369, 32.747451502360761 ], [ -91.155772109749691, 32.747254979335828 ], [ -91.155733887875613, 32.746984465089149 ], [ -91.155582448025982, 32.746734568409309 ], [ -91.155621671560752, 32.746468900914785 ], [ -91.155372517558305, 32.746240675720394 ], [ -91.154843071532369, 32.744768445741883 ], [ -91.154427336758843, 32.74390455664571 ], [ -91.15439377689323, 32.743667006667465 ], [ -91.154161506474182, 32.743287896320034 ], [ -91.154027632769171, 32.742738708296741 ], [ -91.153463359627366, 32.741629655219093 ], [ -91.153460387501823, 32.741358358179397 ], [ -91.153227957357004, 32.741051298037547 ], [ -91.152981389851519, 32.740492200675618 ], [ -91.153000506152111, 32.740249708036913 ], [ -91.153197306365428, 32.740072507726367 ], [ -91.153555409988158, 32.740050029732465 ], [ -91.153853292691096, 32.740256020618425 ], [ -91.154317100258737, 32.741109889493742 ], [ -91.15457997779103, 32.741973468034345 ], [ -91.154895954113968, 32.742513940471333 ], [ -91.155004708215031, 32.743045512364425 ], [ -91.155169425458595, 32.74325215581198 ] ] ], [ [ [ -91.150436639314549, 32.742399267767269 ], [ -91.15067017769114, 32.742733960435253 ], [ -91.150632487970356, 32.743008181808108 ], [ -91.150376396116798, 32.743179562347365 ], [ -91.149954358766351, 32.743148344625979 ], [ -91.149718173992937, 32.742835937750968 ], [ -91.14975574108054, 32.742547975335498 ], [ -91.150076620195307, 32.74234868940124 ], [ -91.150436639314549, 32.742399267767269 ] ] ], [ [ [ -91.147019957060323, 32.749809016852055 ], [ -91.147193496072845, 32.749960247272071 ], [ -91.147240492832736, 32.750144738546091 ], [ -91.147164419861625, 32.750344035921202 ], [ -91.146979943547066, 32.750483441503292 ], [ -91.146760189746473, 32.750562920291564 ], [ -91.145443584055698, 32.750702848428112 ], [ -91.145791362710824, 32.751279744514143 ], [ -91.145985430305728, 32.751840304113472 ], [ -91.14651285110601, 32.752489911913358 ], [ -91.146718338046512, 32.752867794495224 ], [ -91.147093270728931, 32.753245293819845 ], [ -91.147119848097603, 32.753547942990352 ], [ -91.146993972149417, 32.753710535709239 ], [ -91.146669554875302, 32.753907273630034 ], [ -91.146315667906833, 32.75397033539582 ], [ -91.145919562755552, 32.753787114146014 ], [ -91.145533413093077, 32.753286155268135 ], [ -91.145679132177847, 32.753816144572291 ], [ -91.145614863895261, 32.754368499280673 ], [ -91.145371190449751, 32.754633975760164 ], [ -91.144931965723728, 32.754684437816159 ], [ -91.14470399526499, 32.754536267561285 ], [ -91.144427699325163, 32.753980704655454 ], [ -91.144404993605221, 32.753600183817561 ], [ -91.144590624119388, 32.753342966875898 ], [ -91.144561915059228, 32.75321318621166 ], [ -91.14415865529223, 32.753162843677529 ], [ -91.143835399217394, 32.7529355156748 ], [ -91.143732850243808, 32.752731240343216 ], [ -91.143388283383146, 32.75262166970402 ], [ -91.142872267172706, 32.751919060209339 ], [ -91.141890794472744, 32.750967725024054 ], [ -91.141827073212141, 32.750634504533096 ], [ -91.143052871131601, 32.749418541531476 ], [ -91.14329564225666, 32.749277172075438 ], [ -91.14354912956253, 32.748949960973526 ], [ -91.143856146953183, 32.748808764288917 ], [ -91.143978643266536, 32.748547202520726 ], [ -91.144632997945294, 32.74792415896902 ], [ -91.144898356290483, 32.747789041421854 ], [ -91.145177021683736, 32.747813003740696 ], [ -91.145374203628577, 32.747947142042932 ], [ -91.14569135713127, 32.748558877004243 ], [ -91.145663002981451, 32.748794368771328 ], [ -91.145502467679961, 32.748953892611738 ], [ -91.145273579713503, 32.749023996521139 ], [ -91.144930654453731, 32.748985669921545 ], [ -91.144779324852408, 32.749109520618319 ], [ -91.145272969621089, 32.749335765236786 ], [ -91.145398672538832, 32.749570642647576 ], [ -91.145399465429847, 32.749787539450061 ], [ -91.146772035484375, 32.74973687898175 ], [ -91.147019957060323, 32.749809016852055 ] ] ], [ [ [ -91.144547457710317, 32.754838028122776 ], [ -91.144665850849705, 32.755059510789259 ], [ -91.144591463163792, 32.755335409592902 ], [ -91.144208670805284, 32.75556223313329 ], [ -91.14389975203207, 32.755599900905246 ], [ -91.143623457171415, 32.755489216887511 ], [ -91.143424496424501, 32.755233263158331 ], [ -91.143220844831475, 32.755110762382486 ], [ -91.143026750123497, 32.754854975403248 ], [ -91.142999916578333, 32.75468116485726 ], [ -91.143229332227918, 32.754401771710967 ], [ -91.143846850660509, 32.754320883169335 ], [ -91.144139404181971, 32.754431461392805 ], [ -91.144547457710317, 32.754838028122776 ] ] ], [ [ [ -91.139481776450367, 32.755391324132717 ], [ -91.139982359583456, 32.757125574591164 ], [ -91.139789230521785, 32.757387299725693 ], [ -91.139411598864356, 32.757456568235838 ], [ -91.139136106333822, 32.757381407218595 ], [ -91.13892173289581, 32.757157112736309 ], [ -91.138175034356877, 32.756068061550074 ], [ -91.138093754753356, 32.755607882029793 ], [ -91.137784718132991, 32.755623767391363 ], [ -91.137556757857638, 32.755475584486682 ], [ -91.137489002170028, 32.755274155415449 ], [ -91.137556022821926, 32.755040229530955 ], [ -91.138264424206398, 32.754313767326416 ], [ -91.138646688530699, 32.754219516518596 ], [ -91.138892847831059, 32.754243702344155 ], [ -91.139447973933102, 32.754770012804336 ], [ -91.139526914175022, 32.75507893475514 ], [ -91.139481776450367, 32.755391324132717 ] ] ] ] } },
{ "type": "Feature", "properties": { "depth_bin": "135-140 ft", "bin_order": -137.5, "survey_id": "LM_08_MVF_20170708_CS_MB_48325_48375", "date": "2017-07-08", "year": 2017, "mile": 484.0 }, "geometry": { "type": "MultiPolygon", "coordinates": [ [ [ [ -91.154100688190553, 32.740561616781207 ], [ -91.155098936609733, 32.743152278695121 ], [ -91.155310775251948, 32.743418209181804 ], [ -91.155443311688629, 32.744002942698764 ], [ -91.155760397550466, 32.744569608787359 ], [ -91.155761607741468, 32.744804047215879 ], [ -91.155903154944951, 32.745146182739376 ], [ -91.156092924648917, 32.745364475805331 ], [ -91.156125637123992, 32.745713814603384 ], [ -91.156406026646522, 32.746021443851163 ], [ -91.156540671545287, 32.746309751191838 ], [ -91.15667349206754, 32.747053903438939 ], [ -91.156568716010852, 32.747328033242944 ], [ -91.156334778326297, 32.747469386069113 ], [ -91.155994020978312, 32.747437654252558 ], [ -91.155788117761432, 32.747227389876336 ], [ -91.155760218693885, 32.746974743208312 ], [ -91.155614968933932, 32.746734355048098 ], [ -91.155656251625629, 32.74646276059083 ], [ -91.155404912084578, 32.746226721036969 ], [ -91.154892579485761, 32.744987144572939 ], [ -91.154875395764847, 32.74475637676079 ], [ -91.154459856648316, 32.743904343601102 ], [ -91.154426255817313, 32.743655324072762 ], [ -91.154227176933745, 32.743356178217645 ], [ -91.154060010764553, 32.742734719895928 ], [ -91.153774742165922, 32.74223841014981 ], [ -91.153662106800866, 32.741805909927862 ], [ -91.153479115615454, 32.741574583239561 ], [ -91.153488647021433, 32.741339517903889 ], [ -91.153013782703283, 32.740478246624214 ], [ -91.153032898911448, 32.740235753976812 ], [ -91.153193404842824, 32.740076219232627 ], [ -91.153563617642305, 32.740026771067519 ], [ -91.153864656607865, 32.740197651233117 ], [ -91.154100688190553, 32.740561616781207 ] ] ], [ [ [ -91.147174250366277, 32.750123523043271 ], [ -91.14707396282877, 32.750386257485331 ], [ -91.146800744296655, 32.750527438969335 ], [ -91.143881298368612, 32.750792835810351 ], [ -91.144395427223969, 32.751196651964044 ], [ -91.144508615513217, 32.751507133945914 ], [ -91.145324780758813, 32.752235830444953 ], [ -91.145649934604307, 32.752263408760776 ], [ -91.145923901702488, 32.752396733160985 ], [ -91.146664826465837, 32.753107327041654 ], [ -91.146825802330213, 32.753498726498883 ], [ -91.146797573963184, 32.753747959778146 ], [ -91.146621019257864, 32.753935073040118 ], [ -91.14543611348337, 32.754619812846407 ], [ -91.145074267092625, 32.754737750058332 ], [ -91.144795580255391, 32.754713786879044 ], [ -91.144585894900686, 32.75454744826876 ], [ -91.144222504369921, 32.75376551336339 ], [ -91.14374912470528, 32.753009795103502 ], [ -91.143326430786971, 32.752610981004871 ], [ -91.141577016649507, 32.751369743664249 ], [ -91.141486216881134, 32.751174898959242 ], [ -91.141551654883983, 32.750878108468072 ], [ -91.142405595718529, 32.750068229302528 ], [ -91.14336950607489, 32.749983024139325 ], [ -91.143067425999348, 32.749805780140399 ], [ -91.143009321874146, 32.749534117857678 ], [ -91.143404025198038, 32.749088321193916 ], [ -91.143673241314119, 32.748978802816083 ], [ -91.144230268029162, 32.749006228067991 ], [ -91.144593702250106, 32.74917592355353 ], [ -91.144755950770005, 32.749416956476942 ], [ -91.144758751964204, 32.749887972911907 ], [ -91.146798068623241, 32.749794305473948 ], [ -91.147055856815456, 32.749902042594236 ], [ -91.147174250366277, 32.750123523043271 ] ] ], [ [ [ -91.145271251244168, 32.748294405006526 ], [ -91.145171085157571, 32.748570879286937 ], [ -91.144776062603967, 32.748825443149492 ], [ -91.144449432670243, 32.748820606199807 ], [ -91.144222518651176, 32.748622008615598 ], [ -91.144262825021258, 32.7482866705083 ], [ -91.14465688640955, 32.747988070640012 ], [ -91.145053580281399, 32.748008388651542 ], [ -91.145271251244168, 32.748294405006526 ] ] ], [ [ [ -91.143925758656096, 32.754185482823083 ], [ -91.144659683790465, 32.754941962022038 ], [ -91.144590964815777, 32.755280443977377 ], [ -91.143939788295228, 32.755773541758174 ], [ -91.143618795614515, 32.755879189636047 ], [ -91.143268178762469, 32.755766358630993 ], [ -91.143103055689934, 32.755495327844073 ], [ -91.142405843278141, 32.755022493867081 ], [ -91.14196643218763, 32.754987916445586 ], [ -91.141714731641827, 32.754883404770538 ], [ -91.141445302082303, 32.754908823847792 ], [ -91.141110523753483, 32.754766303107601 ], [ -91.141070819572576, 32.754863825600665 ], [ -91.141592252208596, 32.755308719730102 ], [ -91.143125912860938, 32.755707989667343 ], [ -91.143312519041189, 32.755899441959833 ], [ -91.143332481140845, 32.756108169750007 ], [ -91.143147291384338, 32.756346477744572 ], [ -91.142404820824268, 32.756882839952226 ], [ -91.142060217439422, 32.756958661816874 ], [ -91.141903418619492, 32.757188405702728 ], [ -91.141577617835267, 32.75726426458494 ], [ -91.141449927762224, 32.757484298139239 ], [ -91.140729053932333, 32.757956559737636 ], [ -91.140640513524701, 32.758302170839926 ], [ -91.140301300332055, 32.758469548145641 ], [ -91.140010207825213, 32.758411665562853 ], [ -91.139588996400022, 32.758143731525884 ], [ -91.139497225965471, 32.757922913322105 ], [ -91.139066426832613, 32.757455185025044 ], [ -91.138515643636339, 32.75652704047598 ], [ -91.13753232956735, 32.755504695081918 ], [ -91.137441535015995, 32.755309847732519 ], [ -91.137541733208437, 32.755033380994767 ], [ -91.137976203211096, 32.754664112490012 ], [ -91.138047896496559, 32.754508333838068 ], [ -91.138685950379994, 32.753871683788546 ], [ -91.138955155664377, 32.753738913106886 ], [ -91.139031215421866, 32.753540058582971 ], [ -91.139696094751415, 32.752920805835807 ], [ -91.13968052987444, 32.752682457627856 ], [ -91.139779371685549, 32.752490427606908 ], [ -91.139996538715266, 32.752346962725241 ], [ -91.140394762014381, 32.752293788005709 ], [ -91.14059938002778, 32.752322548368838 ], [ -91.141031962080518, 32.75254704551562 ], [ -91.141204815957664, 32.752765210576939 ], [ -91.141563156622311, 32.752797314736057 ], [ -91.142615924381275, 32.753265164822217 ], [ -91.143305719785886, 32.753816376129627 ], [ -91.143925758656096, 32.754185482823083 ] ] ] ] } },
{ "type": "Feature", "properties": { "depth_bin": "140-145 ft", "bin_order": -142.5, "survey_id": "LM_08_MVF_20170708_CS_MB_48325_48375", "date": "2017-07-08", "year": 2017, "mile": 484.0 }, "geometry": { "type": "MultiPolygon", "coordinates": [ [ [ [ -91.155313361283817, 32.743357089154649 ], [ -91.15597065134456, 32.74515614624557 ], [ -91.156125445070472, 32.745364262316251 ], [ -91.156221371689156, 32.745780521727255 ], [ -91.156526238189343, 32.746166288734273 ], [ -91.156570316319858, 32.746579642075488 ], [ -91.156718180760322, 32.746934044193488 ], [ -91.156633506542391, 32.747300123231106 ], [ -91.156310236681676, 32.747477281000776 ], [ -91.156026542142456, 32.747437440785156 ], [ -91.155837151941242, 32.747254552503072 ], [ -91.155799748976136, 32.746965489430693 ], [ -91.155647237352042, 32.746706658921077 ], [ -91.155701755922735, 32.74644012681604 ], [ -91.155420667620447, 32.746171648859388 ], [ -91.154491998377466, 32.743862906381182 ], [ -91.154475403836273, 32.743655360206013 ], [ -91.154192640095445, 32.743136528041816 ], [ -91.154111206491905, 32.742727462213317 ], [ -91.153809722536451, 32.742163335919741 ], [ -91.153776379017216, 32.741916110682098 ], [ -91.153541062952641, 32.741580312034237 ], [ -91.153528444048121, 32.741334315585647 ], [ -91.153059595768909, 32.740497823379826 ], [ -91.153065291660553, 32.740221799908483 ], [ -91.153294484331667, 32.740030645357344 ], [ -91.153535702121999, 32.739964130983651 ], [ -91.153794100528913, 32.740008452317987 ], [ -91.154164362109, 32.740487602682364 ], [ -91.154428772952883, 32.741329827487419 ], [ -91.154647332916738, 32.741657415975659 ], [ -91.154791423658338, 32.742224868411952 ], [ -91.154963705263711, 32.742466135517361 ], [ -91.155018822657283, 32.742811797992395 ], [ -91.155313361283817, 32.743357089154649 ] ] ], [ [ [ -91.146514924859346, 32.750001083299928 ], [ -91.146586512175219, 32.75033572052488 ], [ -91.146297022027952, 32.750571934146869 ], [ -91.142448675597791, 32.750869641606258 ], [ -91.143095719477742, 32.751532553004026 ], [ -91.143841294137687, 32.752042239916356 ], [ -91.144456915697262, 32.75259796291985 ], [ -91.145148748591367, 32.753770630739787 ], [ -91.145252701857984, 32.753433601434182 ], [ -91.145524970308998, 32.753248386247201 ], [ -91.146114743655517, 32.753304805747462 ], [ -91.14636361654658, 32.7534836483403 ], [ -91.146390316330894, 32.753800038981716 ], [ -91.146120453889907, 32.75422466683731 ], [ -91.14577741284856, 32.754366463538723 ], [ -91.145376141586439, 32.754297166149499 ], [ -91.145372181516052, 32.754507494187308 ], [ -91.14523091205308, 32.754679546251225 ], [ -91.144993206602422, 32.754765759511791 ], [ -91.144737445408467, 32.754754408470198 ], [ -91.144472061468122, 32.754548185129103 ], [ -91.144324989263879, 32.754100647469272 ], [ -91.143694227236523, 32.752997992783897 ], [ -91.142678598045137, 32.752234634880033 ], [ -91.141523663669531, 32.751682432993384 ], [ -91.141356854327569, 32.751479028056252 ], [ -91.141361204152474, 32.751269652093377 ], [ -91.141634064256337, 32.750774440820315 ], [ -91.141842493656085, 32.750661173331821 ], [ -91.142090006120156, 32.750664789227471 ], [ -91.142102253688492, 32.750334485257362 ], [ -91.142439066187734, 32.750093890223226 ], [ -91.145732324601681, 32.749853561028431 ], [ -91.146270874976736, 32.749872511510098 ], [ -91.146514924859346, 32.750001083299928 ] ] ], [ [ [ -91.143531740170218, 32.753775763605105 ], [ -91.14463642632397, 32.754832724639442 ], [ -91.144663512295608, 32.755034017756309 ], [ -91.144564677692557, 32.755226051834249 ], [ -91.14431543384427, 32.755347321140299 ], [ -91.144045960492676, 32.755313404177826 ], [ -91.144064550866872, 32.755574113729772 ], [ -91.143858227087151, 32.755833418835813 ], [ -91.143178636512417, 32.756321031640269 ], [ -91.142904225947106, 32.756378307879999 ], [ -91.14280429349941, 32.756584174678046 ], [ -91.14229172976053, 32.756966023315549 ], [ -91.141222563287002, 32.757625427946479 ], [ -91.140950196323786, 32.757722759932612 ], [ -91.140875733917468, 32.75808037254658 ], [ -91.140482854941169, 32.758452488295013 ], [ -91.140262270232952, 32.758547943202984 ], [ -91.139894214332742, 32.758489651498401 ], [ -91.139229732953282, 32.757981136050468 ], [ -91.138789028459826, 32.756980993804596 ], [ -91.138436413902383, 32.75645039749066 ], [ -91.137430936521341, 32.755372534571123 ], [ -91.137554391238197, 32.75503516310598 ], [ -91.137957757003065, 32.754942083528867 ], [ -91.138338083021708, 32.755180399897853 ], [ -91.139088660536743, 32.755972594029096 ], [ -91.139219551563883, 32.755825896303733 ], [ -91.139450140656137, 32.755749171797135 ], [ -91.1403242832872, 32.755876963745528 ], [ -91.140494221320907, 32.755554143729576 ], [ -91.140244262279595, 32.75551054722316 ], [ -91.139773781135503, 32.755187961254961 ], [ -91.139614073473211, 32.754660767060997 ], [ -91.138800275301179, 32.75440149981425 ], [ -91.138647309127464, 32.754255937514124 ], [ -91.138600452143294, 32.75408518505003 ], [ -91.138702088519352, 32.753857837856451 ], [ -91.139183805534259, 32.753469581394427 ], [ -91.139662892695199, 32.753292251430288 ], [ -91.140042881205915, 32.753354587626568 ], [ -91.140139087844275, 32.753303963173877 ], [ -91.139771466781596, 32.75312664039982 ], [ -91.139616226365831, 32.752765325567417 ], [ -91.13977589165124, 32.752506055491835 ], [ -91.140287187897457, 32.752188853563496 ], [ -91.140494156335606, 32.752200527695436 ], [ -91.14098350859976, 32.752454474476195 ], [ -91.141354172274717, 32.752526011390543 ], [ -91.141615182734839, 32.75277108969938 ], [ -91.142729757341471, 32.7532644296355 ], [ -91.143531740170218, 32.753775763605105 ] ] ] ] } },
{ "type": "Feature", "properties": { "depth_bin": "145-150 ft", "bin_order": -147.5, "survey_id": "LM_08_MVF_20170708_CS_MB_48325_48375", "date": "2017-07-08", "year": 2017, "mile": 484.0 }, "geometry": { "type": "MultiPolygon", "coordinates": [ [ [ [ -91.15635344876317, 32.745897305525922 ], [ -91.15655566807861, 32.746172229654469 ], [ -91.156741950404964, 32.747086864127738 ], [ -91.156611702533596, 32.747340037895171 ], [ -91.156291501745855, 32.747441334296141 ], [ -91.156055659794106, 32.747377066035881 ], [ -91.155901816341625, 32.747212901498983 ], [ -91.155696018697853, 32.746706338851105 ], [ -91.155728106606077, 32.746425634365181 ], [ -91.155469196250252, 32.746143846122706 ], [ -91.154607204716854, 32.744013315903224 ], [ -91.15452368706616, 32.743640887813996 ], [ -91.154207891854497, 32.743026490419595 ], [ -91.154157283926295, 32.742716090139481 ], [ -91.153974838173028, 32.742437100249759 ], [ -91.153846033383218, 32.741902784726619 ], [ -91.15357629506245, 32.741532720666903 ], [ -91.15332464359021, 32.740577281899782 ], [ -91.153400693627134, 32.740377979699652 ], [ -91.153594941851495, 32.740247973851162 ], [ -91.153986705316385, 32.740266101447389 ], [ -91.154230006962692, 32.740478316528048 ], [ -91.154444780368436, 32.74130223817594 ], [ -91.154679725929213, 32.741643461482766 ], [ -91.155038816245124, 32.742724137201741 ], [ -91.15635344876317, 32.745897305525922 ] ] ], [ [ [ -91.144611429940667, 32.749984502270578 ], [ -91.144911010449206, 32.750094599768403 ], [ -91.145029398817329, 32.75031608205704 ], [ -91.144954642905063, 32.750550757211329 ], [ -91.144720679268886, 32.750692087314171 ], [ -91.144018304549618, 32.750734380833293 ], [ -91.143774631395615, 32.750637834028716 ], [ -91.143444764594875, 32.750790528286288 ], [ -91.142516148558812, 32.750842910779419 ], [ -91.142280308962583, 32.750778616645249 ], [ -91.142113068714295, 32.750580904126629 ], [ -91.142172950342541, 32.750276649695863 ], [ -91.142504234916458, 32.750107211677751 ], [ -91.143441249784701, 32.750060783237458 ], [ -91.143726715624567, 32.750159686979487 ], [ -91.143950855342723, 32.75002915165242 ], [ -91.144611429940667, 32.749984502270578 ] ] ], [ [ [ -91.144192844695894, 32.753048801497066 ], [ -91.144436707924115, 32.753011553771515 ], [ -91.144663962144477, 32.753095068887035 ], [ -91.145065527980023, 32.753730567022934 ], [ -91.1453116693026, 32.754431087751016 ], [ -91.145235587965075, 32.754630383539919 ], [ -91.145041295953874, 32.754760374583725 ], [ -91.14471464430936, 32.754755537550977 ], [ -91.144487715280434, 32.754556940063566 ], [ -91.143967387955541, 32.753433993853314 ], [ -91.14399599751026, 32.75322598564545 ], [ -91.144192844695894, 32.753048801497066 ] ] ], [ [ [ -91.144455550422336, 32.754614020141211 ], [ -91.144475888768895, 32.754863972092743 ], [ -91.144355254615519, 32.755046895363897 ], [ -91.14413468228301, 32.755142357592909 ], [ -91.143850970408252, 32.755102489165139 ], [ -91.143363097981876, 32.75465634920451 ], [ -91.14327108895192, 32.754424618421353 ], [ -91.143028254984117, 32.754360511638374 ], [ -91.142569652525921, 32.754026757762126 ], [ -91.141840666420748, 32.753650590286753 ], [ -91.141192435261146, 32.753392934637787 ], [ -91.140725097381363, 32.75329542324048 ], [ -91.140568601031148, 32.753083529801017 ], [ -91.140020461259468, 32.752752527723992 ], [ -91.139937512497809, 32.752559100886266 ], [ -91.139990120562203, 32.752354465885531 ], [ -91.140168401400842, 32.752209015855669 ], [ -91.140412263602755, 32.752171775939985 ], [ -91.140902160157438, 32.752407010060097 ], [ -91.141353924110007, 32.752498528550923 ], [ -91.141581697500584, 32.752759942846581 ], [ -91.143204140251342, 32.753516779137833 ], [ -91.143589738180694, 32.753812889642042 ], [ -91.143698258229193, 32.754071997883038 ], [ -91.144088875307546, 32.754239396440148 ], [ -91.144455550422336, 32.754614020141211 ] ] ], [ [ [ -91.142939954155594, 32.75152280037026 ], [ -91.143798073436244, 32.752126041671929 ], [ -91.143824390538398, 32.752401208406681 ], [ -91.143612742968131, 32.752611505581044 ], [ -91.143210377253681, 32.752605542869468 ], [ -91.142580097040693, 32.75216414191155 ], [ -91.141508205315915, 32.751718071578033 ], [ -91.141354382397822, 32.751553889969905 ], [ -91.141327428710724, 32.751366336812225 ], [ -91.141502599221866, 32.751111345798563 ], [ -91.141816836233659, 32.751035857387038 ], [ -91.142939954155594, 32.75152280037026 ] ] ], [ [ [ -91.139929887178539, 32.75740887941005 ], [ -91.140040379867656, 32.757804497690856 ], [ -91.139878539637593, 32.758080957992277 ], [ -91.139522952793172, 32.758150632206643 ], [ -91.139164311388143, 32.75794032924783 ], [ -91.138923043833444, 32.757513798955699 ], [ -91.138806629198911, 32.757005118571435 ], [ -91.138839573118403, 32.756834664093539 ], [ -91.138600252362622, 32.756707154615881 ], [ -91.137585270274471, 32.755590869619688 ], [ -91.137565198180511, 32.75536839996299 ], [ -91.13771737465747, 32.755162177709046 ], [ -91.137947963158709, 32.755085455945569 ], [ -91.138190133620853, 32.755129914938308 ], [ -91.138759666016782, 32.755616776800984 ], [ -91.139281727558071, 32.756250359395978 ], [ -91.139360410478233, 32.756454230275175 ], [ -91.139327467721529, 32.756624684940718 ], [ -91.139591148437262, 32.756780990204561 ], [ -91.139929887178539, 32.75740887941005 ] ] ], [ [ [ -91.139075855700568, 32.753686465458173 ], [ -91.139401492213182, 32.753664238924486 ], [ -91.139650351969692, 32.753843094401809 ], [ -91.139676656503795, 32.754118261495499 ], [ -91.139464995264888, 32.754328551107974 ], [ -91.13913935633218, 32.754350777717967 ], [ -91.138890496287289, 32.754171921224852 ], [ -91.138864194173294, 32.75389675405485 ], [ -91.139075855700568, 32.753686465458173 ] ] ] ] } }
]
}
