{
"type": "FeatureCollection",
"name": "LM_08_MVF_20180812_CS_MB_4865_4870_depth_polygons",
"crs": { "type": "name", "properties": { "name": "urn:ogc:def:crs:OGC:1.3:CRS84" } },
"features": [
{ "type": "Feature", "properties": { "depth_bin": "95-100 ft", "bin_order": -97.5, "survey_id": "LM_08_MVF_20180812_CS_MB_4865_4870", "date": "2018-08-12", "year": 2018, "mile": 487.0 }, "geometry": { "type": "MultiPolygon", "coordinates": [ [ [ [ -91.159586858868352, 32.795522597855857 ], [ -91.159787491677122, 32.795767299321568 ], [ -91.159686635178744, 32.796147226274464 ], [ -91.159379334059352, 32.796310537268639 ], [ -91.158994839612788, 32.796252404422617 ], [ -91.158796184221188, 32.795971497696982 ], [ -91.158902217014287, 32.795599187942635 ], [ -91.159193247137367, 32.795435985341491 ], [ -91.159586858868352, 32.795522597855857 ] ] ], [ [ [ -91.155102640767936, 32.79391937161224 ], [ -91.155503944944712, 32.79389194752261 ], [ -91.155668451169817, 32.793998802870384 ], [ -91.155759321227919, 32.794193638686998 ], [ -91.155706719506014, 32.794398279428201 ], [ -91.155518905257338, 32.794547362248821 ], [ -91.155522170004758, 32.795172865043611 ], [ -91.155333793115219, 32.795593610011707 ], [ -91.155315118951677, 32.795889086271295 ], [ -91.155019191995251, 32.796384068670186 ], [ -91.154481548123982, 32.796949565592207 ], [ -91.154042021543233, 32.797107454174437 ], [ -91.153777851524026, 32.797103905333401 ], [ -91.15352884589494, 32.796925073787641 ], [ -91.153502492557706, 32.796649909410668 ], [ -91.153676528376877, 32.796408446312171 ], [ -91.153791014816221, 32.796019967345416 ], [ -91.15402092300458, 32.795838038168647 ], [ -91.154124254231718, 32.795257880641252 ], [ -91.154365728179371, 32.794820634978244 ], [ -91.154526016204031, 32.794683951657753 ], [ -91.154573817347938, 32.794448233714142 ], [ -91.154909976160965, 32.794264539226702 ], [ -91.154942036590299, 32.794078904171293 ], [ -91.155102640767936, 32.79391937161224 ] ] ] ] } },
{ "type": "Feature", "properties": { "depth_bin": "100-105 ft", "bin_order": -102.5, "survey_id": "LM_08_MVF_20180812_CS_MB_4865_4870", "date": "2018-08-12", "year": 2018, "mile": 487.0 }, "geometry": { "type": "MultiPolygon", "coordinates": [ [ [ [ -91.160525536962581, 32.79097522531319 ], [ -91.160693248765909, 32.791108813108835 ], [ -91.160825971875511, 32.791398094586484 ], [ -91.160878922825418, 32.792073086747806 ], [ -91.160800630971067, 32.792242555902753 ], [ -91.160812068410934, 32.792658086535923 ], [ -91.160681647620692, 32.79284913343237 ], [ -91.160775221378032, 32.793173142330673 ], [ -91.160584002205681, 32.793455747931297 ], [ -91.160269627689203, 32.793531278205307 ], [ -91.160042256490556, 32.793447787740405 ], [ -91.15989172598843, 32.793258039454066 ], [ -91.159962261026934, 32.79287776560372 ], [ -91.159761506255322, 32.792482281326471 ], [ -91.159717245750187, 32.79153848029096 ], [ -91.159812973607856, 32.791229716268965 ], [ -91.15997150331755, 32.791035585226467 ], [ -91.160250719997407, 32.79093102073783 ], [ -91.160525536962581, 32.79097522531319 ] ] ], [ [ [ -91.156888439956418, 32.791148238283235 ], [ -91.156812452035425, 32.791470205901682 ], [ -91.15695613189466, 32.791879070877414 ], [ -91.15681227511817, 32.792388747560935 ], [ -91.156689487089764, 32.792550299384821 ], [ -91.156812215067148, 32.792931809117583 ], [ -91.156437945981253, 32.793824920774533 ], [ -91.156185948327021, 32.795045097135237 ], [ -91.155905752758613, 32.795421982812691 ], [ -91.155900258873459, 32.795698388059385 ], [ -91.155709445220239, 32.795893922991965 ], [ -91.155685646883711, 32.796219432359116 ], [ -91.155823576713956, 32.796425534561351 ], [ -91.15578067301908, 32.796657974192442 ], [ -91.155866410055467, 32.796880555552313 ], [ -91.155756722708873, 32.797269394651842 ], [ -91.155937248111655, 32.797614261182922 ], [ -91.155839913496408, 32.797979978393492 ], [ -91.155633185182467, 32.798243130368846 ], [ -91.15524030425307, 32.798375913749879 ], [ -91.153732091424942, 32.798149588002993 ], [ -91.1533906430803, 32.797896783346786 ], [ -91.153386273443331, 32.79736283216657 ], [ -91.153106868244507, 32.797115340596498 ], [ -91.153028801980639, 32.796680766478623 ], [ -91.153766673365539, 32.795002253454207 ], [ -91.153999892437952, 32.794118099036055 ], [ -91.154119257152033, 32.793885376366518 ], [ -91.154350459246402, 32.793717277579738 ], [ -91.154445464957902, 32.793472776377023 ], [ -91.154498057902416, 32.793034752239684 ], [ -91.154405602678082, 32.792804282230101 ], [ -91.1544877415202, 32.792446569212352 ], [ -91.154923815341618, 32.792109562666965 ], [ -91.154872099896721, 32.791886425889714 ], [ -91.155009220684235, 32.791584603630902 ], [ -91.155259295621377, 32.791440119482864 ], [ -91.155325154813937, 32.791227643839896 ], [ -91.155562971102043, 32.791005256323132 ], [ -91.155922880812156, 32.790908393377322 ], [ -91.155952262056431, 32.790705448696457 ], [ -91.156112858125184, 32.790545914479061 ], [ -91.156367589706576, 32.790488521828358 ], [ -91.156636763766969, 32.790574371329242 ], [ -91.156757459591773, 32.790716958449835 ], [ -91.15675931645201, 32.7909760858469 ], [ -91.156888439956418, 32.791148238283235 ] ] ], [ [ [ -91.159725015810551, 32.795485204744885 ], [ -91.15987293721777, 32.79588630042646 ], [ -91.159757992764128, 32.796158088295023 ], [ -91.15947425812341, 32.796449777478713 ], [ -91.159482971346222, 32.796720790050237 ], [ -91.159378335941568, 32.796889300918082 ], [ -91.159490446109572, 32.797074761593123 ], [ -91.159476656926032, 32.797249657588331 ], [ -91.159255518317096, 32.797587155558816 ], [ -91.15885931438801, 32.797647682114288 ], [ -91.158655589328106, 32.79752832732369 ], [ -91.158564709813078, 32.797333493362949 ], [ -91.158695399402731, 32.796878583199195 ], [ -91.158557155029669, 32.796287163517121 ], [ -91.158698020306957, 32.796018980579674 ], [ -91.15874791138468, 32.795571044775492 ], [ -91.158889224187362, 32.795398979902323 ], [ -91.159233278871483, 32.795266506594082 ], [ -91.159491839198012, 32.795310821080008 ], [ -91.159725015810551, 32.795485204744885 ] ] ] ] } },
{ "type": "Feature", "properties": { "depth_bin": "105-110 ft", "bin_order": -107.5, "survey_id": "LM_08_MVF_20180812_CS_MB_4865_4870", "date": "2018-08-12", "year": 2018, "mile": 487.0 }, "geometry": { "type": "MultiPolygon", "coordinates": [ [ [ [ -91.160974813566256, 32.791101423979534 ], [ -91.161019103790039, 32.791398795258111 ], [ -91.160889558681788, 32.791626800690942 ], [ -91.160911460196417, 32.792072871749077 ], [ -91.160840831592836, 32.792240587192943 ], [ -91.160921515137687, 32.793158433590357 ], [ -91.160697634692681, 32.793492501543959 ], [ -91.160465434928184, 32.794518717615098 ], [ -91.160495650079781, 32.794838059142897 ], [ -91.160231911316444, 32.795291615053621 ], [ -91.160044754060081, 32.795422893625769 ], [ -91.160031344488672, 32.795651910799585 ], [ -91.15975862834074, 32.79622679460546 ], [ -91.159522939505777, 32.796435714228188 ], [ -91.159576399743628, 32.797248727898634 ], [ -91.159461961954491, 32.797575480450341 ], [ -91.159236083741021, 32.79776206521813 ], [ -91.159084717968014, 32.798728183067347 ], [ -91.158809900365256, 32.798931304391438 ], [ -91.158382771089222, 32.798901354924787 ], [ -91.158179043927589, 32.798781999302051 ], [ -91.15808683727937, 32.798551785899427 ], [ -91.158480655744839, 32.797127248013361 ], [ -91.158244165587689, 32.796098813925582 ], [ -91.158343765345947, 32.795305490184859 ], [ -91.158818687257494, 32.794808533697626 ], [ -91.159253285189692, 32.794737926623306 ], [ -91.159651714142612, 32.794097569345006 ], [ -91.159563105263032, 32.792725912233912 ], [ -91.159326352788213, 32.79179235232634 ], [ -91.159044105602973, 32.791325990439162 ], [ -91.15904791269007, 32.791061648636592 ], [ -91.159223306638566, 32.790868995087301 ], [ -91.159591662502066, 32.790783362265614 ], [ -91.160692157179199, 32.79087671608692 ], [ -91.160974813566256, 32.791101423979534 ] ] ], [ [ [ -91.157589153892516, 32.790447964377904 ], [ -91.158116637316482, 32.790556579784962 ], [ -91.158270555629159, 32.790720743326517 ], [ -91.158297426359951, 32.790894551097693 ], [ -91.1579841526992, 32.791499863741024 ], [ -91.157714521854743, 32.791673157320439 ], [ -91.157516256541768, 32.792115755193251 ], [ -91.157432997068881, 32.792612614496974 ], [ -91.157544441442838, 32.792940734546221 ], [ -91.157303037379023, 32.793192405815525 ], [ -91.157295166182593, 32.793462992276915 ], [ -91.15694075505877, 32.793981998165251 ], [ -91.156959525718008, 32.794242967928007 ], [ -91.156786265109105, 32.794434322426376 ], [ -91.156903963355816, 32.794597413646912 ], [ -91.156910532605849, 32.794772609021464 ], [ -91.156734788883966, 32.794993066898364 ], [ -91.156812450902123, 32.795478479267423 ], [ -91.156766724537817, 32.79570607455944 ], [ -91.156850116139495, 32.79592588264731 ], [ -91.15677296388877, 32.796411372565103 ], [ -91.157035883866371, 32.797324547204887 ], [ -91.156975959507079, 32.797581562716623 ], [ -91.157134216572032, 32.797685803048964 ], [ -91.157394663239756, 32.798064809845208 ], [ -91.157370391694087, 32.798372561274029 ], [ -91.15719204173142, 32.798518032493519 ], [ -91.156931787510686, 32.798555407564983 ], [ -91.156704407174374, 32.798471910755367 ], [ -91.156567978778298, 32.798287444462979 ], [ -91.15627520994795, 32.798461002545132 ], [ -91.155531309755403, 32.798427189103464 ], [ -91.154758608038065, 32.798307764277176 ], [ -91.154537984143829, 32.7982112938504 ], [ -91.154365172812589, 32.798025851520777 ], [ -91.1541727920401, 32.798153660729305 ], [ -91.153960009155981, 32.798179023255038 ], [ -91.153075260878339, 32.798028014942112 ], [ -91.15286111657008, 32.797765726979073 ], [ -91.152546840018815, 32.797594450905038 ], [ -91.152463650622394, 32.797151696792092 ], [ -91.152749852131251, 32.796592308227332 ], [ -91.152782394950577, 32.796319279754925 ], [ -91.152973697163276, 32.796039941433229 ], [ -91.152971451095397, 32.795644677572483 ], [ -91.153124318527361, 32.795389786586881 ], [ -91.153361033332345, 32.795211368553069 ], [ -91.153322536903389, 32.795002303140706 ], [ -91.153526948294257, 32.79452719848404 ], [ -91.153550113634509, 32.794196381261919 ], [ -91.153719100817099, 32.793980011616362 ], [ -91.153607999881316, 32.793412700135036 ], [ -91.153699989901725, 32.79325557856739 ], [ -91.153905040801433, 32.793143284912219 ], [ -91.153872526096805, 32.792882412590224 ], [ -91.153952006797667, 32.792573759729244 ], [ -91.154251879642374, 32.792299494793937 ], [ -91.154343951603295, 32.791776743993026 ], [ -91.154306284174439, 32.79149796762627 ], [ -91.154506228449065, 32.791264500854595 ], [ -91.154435341082234, 32.790729023878505 ], [ -91.154552574405614, 32.79036695714327 ], [ -91.154694596752108, 32.790239154283661 ], [ -91.154933059867702, 32.790181871245053 ], [ -91.157589153892516, 32.790447964377904 ] ], [ [ -91.15450367532992, 32.79606722922469 ], [ -91.154747186638517, 32.795804887616825 ], [ -91.154984234737938, 32.794836247974196 ], [ -91.154557241668243, 32.795623365367376 ], [ -91.15450367532992, 32.79606722922469 ] ], [ [ -91.155094052739145, 32.794534693342989 ], [ -91.155151571462724, 32.794474548513278 ], [ -91.155075006303761, 32.794317376023891 ], [ -91.155094052739145, 32.794534693342989 ] ], [ [ -91.154163138026775, 32.796488203371702 ], [ -91.154164151864492, 32.796487816517939 ], [ -91.154164196487073, 32.796487250966763 ], [ -91.154163138026775, 32.796488203371702 ] ] ] ] } },
{ "type": "Feature", "properties": { "depth_bin": "110-115 ft", "bin_order": -112.5, "survey_id": "LM_08_MVF_20180812_CS_MB_4865_4870", "date": "2018-08-12", "year": 2018, "mile": 487.0 }, "geometry": { "type": "MultiPolygon", "coordinates": [ [ [ [ -91.161037176296844, 32.79114837279392 ], [ -91.160887844466032, 32.792229369552821 ], [ -91.160973614753999, 32.793177757360745 ], [ -91.160865562645796, 32.793426472716114 ], [ -91.160857588699457, 32.794059483264412 ], [ -91.160598459063664, 32.794498465035986 ], [ -91.160578080743875, 32.794829305920224 ], [ -91.160296989477743, 32.795291185345818 ], [ -91.160112492422499, 32.795452593134065 ], [ -91.159875456802013, 32.796263126433423 ], [ -91.159673892202036, 32.796442105507005 ], [ -91.159651132177459, 32.797310591778668 ], [ -91.159478994122722, 32.797657820680996 ], [ -91.159290932726961, 32.797814351642316 ], [ -91.15930718510991, 32.798047547356902 ], [ -91.159213631112976, 32.798243766466648 ], [ -91.15926358379005, 32.79861126182653 ], [ -91.159136045347196, 32.79882911516119 ], [ -91.158692745865721, 32.798956077805769 ], [ -91.157543268770581, 32.798765183904315 ], [ -91.156605636982434, 32.798504613033074 ], [ -91.155522506287809, 32.79842117177467 ], [ -91.155278313763262, 32.798292613299466 ], [ -91.155132901624441, 32.798036526263623 ], [ -91.155109873538493, 32.797498009011761 ], [ -91.155414593241048, 32.797029314453766 ], [ -91.155396838432992, 32.796656425456767 ], [ -91.15515640863994, 32.796505466579241 ], [ -91.15509137260085, 32.79626872722428 ], [ -91.155250771234478, 32.796001629994855 ], [ -91.155215839490694, 32.795649514951094 ], [ -91.155280261452674, 32.7953464934537 ], [ -91.155468513730085, 32.795056077519554 ], [ -91.155505949346121, 32.794568336321682 ], [ -91.155815467405162, 32.793900636067363 ], [ -91.155773544809179, 32.793590887108003 ], [ -91.156116729931199, 32.793046557196924 ], [ -91.156191382458189, 32.792042670184813 ], [ -91.15630605794604, 32.791836391651877 ], [ -91.156261074110944, 32.791539499259279 ], [ -91.156013959037438, 32.791510910584392 ], [ -91.155814435799172, 32.79135964542273 ], [ -91.155548641796457, 32.791487488171398 ], [ -91.155379356499154, 32.792260739837992 ], [ -91.154993133702092, 32.792821730656136 ], [ -91.155096353048975, 32.7931005963883 ], [ -91.154953189959812, 32.793560831115954 ], [ -91.154790112124445, 32.793733666933015 ], [ -91.154809599390418, 32.793995988326671 ], [ -91.154497770559516, 32.794566099209881 ], [ -91.154502307876399, 32.794747196462957 ], [ -91.154190255159648, 32.795649106326302 ], [ -91.15387231278909, 32.795994456585809 ], [ -91.153807361313994, 32.796476142932931 ], [ -91.15361872218611, 32.796725333189229 ], [ -91.153606134110291, 32.797107860833947 ], [ -91.153802727667809, 32.797269396688769 ], [ -91.15386922230411, 32.797435438990675 ], [ -91.153788653998461, 32.797856012156871 ], [ -91.153591721889967, 32.798033207341696 ], [ -91.153315324252659, 32.798084422728067 ], [ -91.152728263957428, 32.797976531409255 ], [ -91.152176680842814, 32.797748840015274 ], [ -91.152008903535858, 32.797472717174642 ], [ -91.152110702264309, 32.796913000719002 ], [ -91.152376324293215, 32.796507107583025 ], [ -91.152674276822239, 32.795768454003969 ], [ -91.152707738467925, 32.795275365499954 ], [ -91.153026949142614, 32.794978535706022 ], [ -91.153134727550864, 32.794241263076636 ], [ -91.153092183382441, 32.793938278612487 ], [ -91.153290316505945, 32.793673417662028 ], [ -91.153166971829293, 32.79322319844028 ], [ -91.15328121182651, 32.792983884989589 ], [ -91.153462743280102, 32.79285878213993 ], [ -91.153332499985098, 32.792542395880865 ], [ -91.153568608643823, 32.792159522131968 ], [ -91.153540064036108, 32.791881142911713 ], [ -91.153740498912384, 32.7916165459254 ], [ -91.153597464690819, 32.791276383688448 ], [ -91.153866786123544, 32.790856540300766 ], [ -91.153753211010056, 32.790519546336242 ], [ -91.153977223911468, 32.790177386194614 ], [ -91.154427603098824, 32.790061507038651 ], [ -91.155358102520808, 32.790215269837084 ], [ -91.15567490075415, 32.79036081680551 ], [ -91.155802690697982, 32.790521124094901 ], [ -91.156046841816604, 32.790366095573006 ], [ -91.156392176113798, 32.790400156406427 ], [ -91.156642759936389, 32.79033554993746 ], [ -91.158101194460087, 32.790466002644251 ], [ -91.159738221515042, 32.790813323303894 ], [ -91.159984451376332, 32.790960860057524 ], [ -91.16007520576423, 32.791154900905383 ], [ -91.16034634152804, 32.790916552662694 ], [ -91.160584803385433, 32.790859258797241 ], [ -91.160853299185973, 32.790923307321023 ], [ -91.161037176296844, 32.79114837279392 ] ], [ [ -91.158240134314184, 32.793900100076542 ], [ -91.158382159612174, 32.793599336097131 ], [ -91.158352904978486, 32.793319938664546 ], [ -91.158481740221831, 32.793020847989183 ], [ -91.158641909527873, 32.792884212197905 ], [ -91.158701413485161, 32.79245630922636 ], [ -91.158466135871691, 32.792564954740151 ], [ -91.158230679308303, 32.792544252653641 ], [ -91.15796295051986, 32.792881322944055 ], [ -91.157747202221245, 32.793856786832499 ], [ -91.158024981900411, 32.794545432370256 ], [ -91.158131146360986, 32.794507883781641 ], [ -91.158240134314184, 32.793900100076542 ] ] ], [ [ [ -91.151502787967658, 32.794765365970754 ], [ -91.151401383520238, 32.79502020423466 ], [ -91.151071065436099, 32.795183237827992 ], [ -91.150722146279207, 32.795143805452817 ], [ -91.150509774162671, 32.794892895034167 ], [ -91.150604559131381, 32.794581320607421 ], [ -91.150983557409404, 32.794404228230356 ], [ -91.151352450011785, 32.794484283660786 ], [ -91.151502787967658, 32.794765365970754 ] ] ] ] } },
{ "type": "Feature", "properties": { "depth_bin": "115-120 ft", "bin_order": -117.5, "survey_id": "LM_08_MVF_20180812_CS_MB_4865_4870", "date": "2018-08-12", "year": 2018, "mile": 487.0 }, "geometry": { "type": "MultiPolygon", "coordinates": [ [ [ [ -91.161078933038056, 32.791155155711174 ], [ -91.160922338563836, 32.792220616176131 ], [ -91.161022294115696, 32.793163693547314 ], [ -91.160910048610361, 32.793446113754037 ], [ -91.160891272318409, 32.794182939627738 ], [ -91.160660538364311, 32.794514937700299 ], [ -91.160643157496693, 32.794828876042573 ], [ -91.160148086472589, 32.795478044449212 ], [ -91.159955465017973, 32.796243322933698 ], [ -91.159759284047539, 32.796465090047192 ], [ -91.159716464984783, 32.797337644871611 ], [ -91.159374138078107, 32.797946105956036 ], [ -91.159310777618543, 32.79866619057244 ], [ -91.159184983218935, 32.798842534537371 ], [ -91.158972853773946, 32.79895771434537 ], [ -91.158301294515283, 32.798888149590233 ], [ -91.15810877099797, 32.798781797137437 ], [ -91.157955043353283, 32.798578357893575 ], [ -91.157357518407849, 32.798357206511881 ], [ -91.157165664640317, 32.798168430278466 ], [ -91.156899808199199, 32.798126601769781 ], [ -91.15669763848544, 32.797912063921885 ], [ -91.156454407220622, 32.797827674778375 ], [ -91.156333702848173, 32.797685087194239 ], [ -91.1562264144045, 32.797287819196406 ], [ -91.156255014715526, 32.797079809050764 ], [ -91.156409083773411, 32.796924223361813 ], [ -91.156227350622999, 32.796737579534785 ], [ -91.15618359144996, 32.79625362463922 ], [ -91.156030506860589, 32.796003438921268 ], [ -91.156091218923194, 32.795787809144613 ], [ -91.156018772111153, 32.795485691247485 ], [ -91.156207077187631, 32.795172224111944 ], [ -91.156162697593047, 32.794227858065206 ], [ -91.156465254895778, 32.793409278971183 ], [ -91.156613312716544, 32.793257318610934 ], [ -91.156838116619056, 32.792740121354242 ], [ -91.156846156544646, 32.792244227346053 ], [ -91.157147532647627, 32.791986607160098 ], [ -91.157261287112178, 32.791389484477293 ], [ -91.157470881125249, 32.791087047070782 ], [ -91.158150826022265, 32.790583792768523 ], [ -91.158623264814722, 32.790588039185998 ], [ -91.159192943456318, 32.790777416220251 ], [ -91.159543591850635, 32.791229666320461 ], [ -91.160051604016857, 32.792659834003572 ], [ -91.160021480570308, 32.793011184201234 ], [ -91.160123255220739, 32.792852397363042 ], [ -91.160015108975358, 32.79230805099904 ], [ -91.160058251379809, 32.791467519238232 ], [ -91.160234557549828, 32.791075770321171 ], [ -91.160431460961419, 32.790898563482109 ], [ -91.160707960030408, 32.790861072836179 ], [ -91.160965882443094, 32.790968785466944 ], [ -91.161078933038056, 32.791155155711174 ] ], [ [ -91.158931841609757, 32.795871154648886 ], [ -91.159118472810803, 32.795731381142758 ], [ -91.159298097892545, 32.795090528246803 ], [ -91.159584137196333, 32.794864492409417 ], [ -91.159736642535535, 32.794607527762679 ], [ -91.159698357511814, 32.794379287930425 ], [ -91.159521447484892, 32.794758903593184 ], [ -91.159131537118824, 32.794859551511351 ], [ -91.158905977211717, 32.795754402864922 ], [ -91.158931841609757, 32.795871154648886 ] ], [ [ -91.160002926396899, 32.793924917816852 ], [ -91.160026628949964, 32.793640007353389 ], [ -91.159968243634424, 32.793587798173739 ], [ -91.15989737014516, 32.793775676988723 ], [ -91.160002926396899, 32.793924917816852 ] ] ], [ [ [ -91.153524211998231, 32.789891406521747 ], [ -91.155022773861148, 32.790213932796547 ], [ -91.155170331108906, 32.790530329603641 ], [ -91.154996271436403, 32.790780539591552 ], [ -91.155014849428767, 32.791314652371589 ], [ -91.154860122055851, 32.791552598413922 ], [ -91.154857239523494, 32.792099260355201 ], [ -91.1545211958191, 32.792652362762801 ], [ -91.154557078618367, 32.792843032600203 ], [ -91.154445693316319, 32.79322060569379 ], [ -91.154231137280561, 32.7934291162167 ], [ -91.154403354841079, 32.7938197333876 ], [ -91.154053899532357, 32.794481870373339 ], [ -91.154023017202363, 32.795155484577435 ], [ -91.153560638603636, 32.795700060422789 ], [ -91.153527625564067, 32.79613442257876 ], [ -91.153292019967211, 32.796495386887059 ], [ -91.153242291561739, 32.796828930577533 ], [ -91.153024425566088, 32.797139677359752 ], [ -91.153320164986013, 32.797399563099454 ], [ -91.153357409489701, 32.797640546875861 ], [ -91.153217361398902, 32.797880435148215 ], [ -91.152968006506484, 32.798001717062597 ], [ -91.152019189083447, 32.797866953878568 ], [ -91.151802601449489, 32.797765027509328 ], [ -91.151699034158398, 32.797613130528163 ], [ -91.151638757037759, 32.796902343377567 ], [ -91.151933853575329, 32.796274369597398 ], [ -91.151996294550258, 32.795760992973946 ], [ -91.152330916656808, 32.79540989673098 ], [ -91.15225114134843, 32.795036527348365 ], [ -91.152666775384517, 32.794548304266407 ], [ -91.152539411517282, 32.793983121995488 ], [ -91.152937032526296, 32.793341519971221 ], [ -91.152719512084531, 32.792970647609522 ], [ -91.152408164542933, 32.79282764163483 ], [ -91.1522251895708, 32.792533407826092 ], [ -91.151940673912591, 32.792290623155985 ], [ -91.151833576539659, 32.791527894262174 ], [ -91.151970391435128, 32.791331118376327 ], [ -91.152191047377755, 32.791235645762022 ], [ -91.152970337081413, 32.791358252542665 ], [ -91.153059446809266, 32.790922339758154 ], [ -91.153279052729147, 32.79064444959738 ], [ -91.153017020863942, 32.790306469374947 ], [ -91.153069625814652, 32.790101829771118 ], [ -91.153243935306321, 32.789946333054743 ], [ -91.153524211998231, 32.789891406521747 ] ] ], [ [ [ -91.151518981405275, 32.794646452788399 ], [ -91.151465624322398, 32.794989484319991 ], [ -91.151184379939892, 32.795191168398489 ], [ -91.150783026189416, 32.795213332501334 ], [ -91.150516778910045, 32.795002237274048 ], [ -91.150505722601551, 32.794671357598212 ], [ -91.150805418824518, 32.794424204909667 ], [ -91.15122291236068, 32.794388193067427 ], [ -91.151518981405275, 32.794646452788399 ] ] ], [ [ [ -91.151260694950224, 32.796737852056168 ], [ -91.151592530949671, 32.797003485838417 ], [ -91.151568365790482, 32.797324976776487 ], [ -91.151247790739717, 32.797579225087816 ], [ -91.150760292404769, 32.797534687937087 ], [ -91.150557385557804, 32.797318258602012 ], [ -91.150594478205036, 32.796975333905884 ], [ -91.150973095515084, 32.796745531468616 ], [ -91.151260694950224, 32.796737852056168 ] ] ] ] } },
{ "type": "Feature", "properties": { "depth_bin": "120-125 ft", "bin_order": -122.5, "survey_id": "LM_08_MVF_20180812_CS_MB_4865_4870", "date": "2018-08-12", "year": 2018, "mile": 487.0 }, "geometry": { "type": "MultiPolygon", "coordinates": [ [ [ [ -91.16108783269253, 32.791082048367883 ], [ -91.161148488442407, 32.791315487472936 ], [ -91.160977044783735, 32.791852343167669 ], [ -91.160967464730987, 32.792534042185622 ], [ -91.161070973461705, 32.793149629715131 ], [ -91.160958600839152, 32.793418308708766 ], [ -91.160956603186534, 32.794209993019265 ], [ -91.160719253829782, 32.794496306394471 ], [ -91.160674026852305, 32.79492899033005 ], [ -91.160165502469212, 32.795518841278628 ], [ -91.160036176465113, 32.796174079657092 ], [ -91.15980190743457, 32.796464213722601 ], [ -91.159781543579783, 32.797337215410153 ], [ -91.159433091078697, 32.797926585992847 ], [ -91.15934478336834, 32.798698983754299 ], [ -91.159099558222934, 32.798931474872767 ], [ -91.158781688691576, 32.798963158525069 ], [ -91.158565090155008, 32.798861243507247 ], [ -91.158452035964146, 32.798674871049698 ], [ -91.158392537977491, 32.798178734794725 ], [ -91.158496678880283, 32.797915740007248 ], [ -91.158472484442868, 32.797689417798324 ], [ -91.158619211340877, 32.797334970206819 ], [ -91.158855099210015, 32.797141602323684 ], [ -91.158916238944741, 32.796684644270044 ], [ -91.15875011148087, 32.796376160559554 ], [ -91.15881781360676, 32.796092784609918 ], [ -91.159167527000534, 32.795716907260228 ], [ -91.159312442505495, 32.79516326760362 ], [ -91.159658668687257, 32.79486007876698 ], [ -91.159808354054945, 32.794593595907223 ], [ -91.159807764676358, 32.79418430894588 ], [ -91.160077863450965, 32.793921074764611 ], [ -91.160075586866142, 32.793612648541433 ], [ -91.159942225373598, 32.793331288667716 ], [ -91.160011904866934, 32.793106952466495 ], [ -91.160150582764345, 32.79297706129821 ], [ -91.160062714426502, 32.792286090933921 ], [ -91.16011430774509, 32.791473502675998 ], [ -91.160301936784805, 32.791043717682328 ], [ -91.160480266364146, 32.790898241155467 ], [ -91.160822304902098, 32.790875856234585 ], [ -91.16108783269253, 32.791082048367883 ] ] ], [ [ [ -91.153959852493642, 32.78998775798334 ], [ -91.154296648761331, 32.790343446536966 ], [ -91.154345319191279, 32.790706572952985 ], [ -91.154159654057025, 32.791088987182064 ], [ -91.154119213473209, 32.791458217870677 ], [ -91.153813992490853, 32.791829762980285 ], [ -91.153716763679199, 32.792222228665423 ], [ -91.154039765677027, 32.792866092779185 ], [ -91.153812972364307, 32.793207892798748 ], [ -91.153824668134277, 32.79359729758766 ], [ -91.153587071156522, 32.794267952030019 ], [ -91.153642182973442, 32.794986449225043 ], [ -91.15352150884398, 32.795169378951265 ], [ -91.153238303160364, 32.795326350101156 ], [ -91.153198326081281, 32.795710572475407 ], [ -91.152940865778561, 32.796197290379119 ], [ -91.152606442437175, 32.797198232299515 ], [ -91.152666461691794, 32.797464959652601 ], [ -91.152615211994899, 32.797643820775576 ], [ -91.152380084643994, 32.797835586789923 ], [ -91.152002919311329, 32.797867060237564 ], [ -91.151090390483731, 32.797589398250182 ], [ -91.150732780486379, 32.797550804000799 ], [ -91.150489338203258, 32.797338579217545 ], [ -91.150482733584013, 32.796813696300433 ], [ -91.150587266622722, 32.796471045414322 ], [ -91.150737886879156, 32.796280356010143 ], [ -91.15076329345959, 32.796021939251517 ], [ -91.151189024900518, 32.795665740437286 ], [ -91.150539556009349, 32.795161464957353 ], [ -91.15048052662037, 32.794793617103323 ], [ -91.150627314199468, 32.794554094832975 ], [ -91.150828800673011, 32.794410085552734 ], [ -91.150891153343778, 32.794119156652847 ], [ -91.151061657882934, 32.793954817595825 ], [ -91.151067930017689, 32.793752497759392 ], [ -91.151893321387789, 32.792016291616385 ], [ -91.15187662743736, 32.791452277228963 ], [ -91.152088875695569, 32.791148925562482 ], [ -91.152163670691124, 32.790818261694611 ], [ -91.152468577476668, 32.790201957123017 ], [ -91.152834916331685, 32.789886920472497 ], [ -91.153024030617146, 32.789814755647541 ], [ -91.153959852493642, 32.78998775798334 ] ], [ [ -91.151815760996641, 32.795005969507592 ], [ -91.151741395753419, 32.794682835253838 ], [ -91.151979399390896, 32.794190239110904 ], [ -91.151960883382131, 32.794019881116903 ], [ -91.151695475095465, 32.794171393122312 ], [ -91.151689581903298, 32.794414936909554 ], [ -91.151542202026292, 32.794622970741088 ], [ -91.151587046464684, 32.795016020046056 ], [ -91.151815760996641, 32.795005969507592 ] ] ], [ [ [ -91.15854329830313, 32.79317824132206 ], [ -91.158566963054071, 32.793654945217995 ], [ -91.158421637886732, 32.794160547939512 ], [ -91.158165408650433, 32.794331938386243 ], [ -91.15784074161563, 32.794300098719432 ], [ -91.157523306778899, 32.794015723584984 ], [ -91.157407878175519, 32.793630736197791 ], [ -91.157491492289765, 32.793260985197868 ], [ -91.157825414024103, 32.792959889457784 ], [ -91.158056086305137, 32.792883133965326 ], [ -91.15836647290169, 32.792946067021902 ], [ -91.15854329830313, 32.79317824132206 ] ] ] ] } },
{ "type": "Feature", "properties": { "depth_bin": "125-130 ft", "bin_order": -127.5, "survey_id": "LM_08_MVF_20180812_CS_MB_4865_4870", "date": "2018-08-12", "year": 2018, "mile": 487.0 }, "geometry": { "type": "MultiPolygon", "coordinates": [ [ [ [ -91.161150801293829, 32.791120137589886 ], [ -91.161165266227073, 32.791370345014762 ], [ -91.161021565769943, 32.791851331895693 ], [ -91.161103638532509, 32.793163155924113 ], [ -91.1610006902186, 32.793430444271713 ], [ -91.160989268631027, 32.794223519251148 ], [ -91.160775462067647, 32.794472553855435 ], [ -91.160722961727373, 32.794942409149144 ], [ -91.160198168282562, 32.795532367707715 ], [ -91.160181583935213, 32.796063182892389 ], [ -91.1598682073855, 32.796454949066614 ], [ -91.159830862134044, 32.797391859224838 ], [ -91.159503435247814, 32.797946849941994 ], [ -91.159394101350188, 32.798753626828031 ], [ -91.159197177859483, 32.798930831135067 ], [ -91.158814356628753, 32.798976685285929 ], [ -91.158597758020022, 32.798874770322371 ], [ -91.158494177692603, 32.798722878532971 ], [ -91.158476292303391, 32.798101656393229 ], [ -91.158603047601972, 32.797627785038358 ], [ -91.158936701243888, 32.797168548565331 ], [ -91.158983147140731, 32.796719723944783 ], [ -91.158870751903521, 32.796445887901129 ], [ -91.15890004959877, 32.796188437183929 ], [ -91.15915305192344, 32.795940886142567 ], [ -91.159361377298779, 32.795176686940728 ], [ -91.159798059306723, 32.794731541002911 ], [ -91.159874942735016, 32.794285593634648 ], [ -91.160142811425345, 32.793886885489499 ], [ -91.160023570992621, 32.793330751736519 ], [ -91.160194910481678, 32.793048534966651 ], [ -91.160094361817755, 32.792189687302724 ], [ -91.160163240616953, 32.791486921739669 ], [ -91.160334473770689, 32.791043502835635 ], [ -91.160550992565717, 32.790883450873729 ], [ -91.160910316067131, 32.790888036302057 ], [ -91.161150801293829, 32.791120137589886 ] ] ], [ [ [ -91.153442089886468, 32.789935708867972 ], [ -91.153585677874233, 32.790146310609138 ], [ -91.153557754792871, 32.79055491434422 ], [ -91.153059269244608, 32.791351137312326 ], [ -91.152713344455449, 32.791728549323544 ], [ -91.152744048103926, 32.792071606193147 ], [ -91.152627635116957, 32.792410102554236 ], [ -91.152960660130248, 32.792486844946879 ], [ -91.15327339557787, 32.792779183792867 ], [ -91.153448715433044, 32.793407370422003 ], [ -91.153257487534034, 32.793647197464168 ], [ -91.152992580467952, 32.794439433210449 ], [ -91.152714075819972, 32.794772038930823 ], [ -91.152840078101846, 32.795215951469061 ], [ -91.152823828226772, 32.795553650554687 ], [ -91.152461635103251, 32.795855571844662 ], [ -91.152486252133045, 32.79612749639378 ], [ -91.152179893798561, 32.796526751549848 ], [ -91.151727149187863, 32.79668860732653 ], [ -91.152128697013879, 32.796995094876856 ], [ -91.152172827276431, 32.797435048433954 ], [ -91.151965369234972, 32.7976828696588 ], [ -91.15161131087396, 32.797745940679206 ], [ -91.151295174855463, 32.797622174510138 ], [ -91.151151625681464, 32.797477385317919 ], [ -91.150946397863152, 32.797561441453333 ], [ -91.150700115321399, 32.797537275094911 ], [ -91.150459641814678, 32.797305154303992 ], [ -91.150373945209878, 32.79671967361562 ], [ -91.150482738205255, 32.796191709812774 ], [ -91.15057701062176, 32.794669308517001 ], [ -91.151864907634589, 32.79203714149488 ], [ -91.151884396542926, 32.791747435975253 ], [ -91.152049229990752, 32.791533576104413 ], [ -91.152354321017597, 32.790161477996243 ], [ -91.152885472758982, 32.789809652998045 ], [ -91.153125422972025, 32.789803897600642 ], [ -91.153442089886468, 32.789935708867972 ] ] ] ] } },
{ "type": "Feature", "properties": { "depth_bin": "130-135 ft", "bin_order": -132.5, "survey_id": "LM_08_MVF_20180812_CS_MB_4865_4870", "date": "2018-08-12", "year": 2018, "mile": 487.0 }, "geometry": { "type": "MultiPolygon", "coordinates": [ [ [ [ -91.160552900838454, 32.791089570772641 ], [ -91.160917254392842, 32.79111005944366 ], [ -91.161129648169535, 32.791360953066139 ], [ -91.161020081255401, 32.792041303750743 ], [ -91.161103765841915, 32.793176897188545 ], [ -91.16100837918404, 32.793443864718562 ], [ -91.161036675516982, 32.794072041900407 ], [ -91.160834751553963, 32.794413251198243 ], [ -91.160758059914713, 32.794938053768455 ], [ -91.160229150542364, 32.795552511506386 ], [ -91.160198234899468, 32.796104299256932 ], [ -91.159894431534113, 32.796472900018436 ], [ -91.159925555682861, 32.797075165058622 ], [ -91.159836369793638, 32.79743967435806 ], [ -91.159521217425677, 32.797993565048969 ], [ -91.159425175171279, 32.798720404368986 ], [ -91.159197304900232, 32.798944572391648 ], [ -91.158879436413727, 32.798976256284938 ], [ -91.158635237249499, 32.798847704144976 ], [ -91.158543029348607, 32.798617491036538 ], [ -91.158653703274993, 32.797701694961191 ], [ -91.158989695044184, 32.797227189085028 ], [ -91.159046674051908, 32.796680262340153 ], [ -91.158954365036635, 32.796235930585695 ], [ -91.159298960201426, 32.795895096062459 ], [ -91.159268276677807, 32.795540129749099 ], [ -91.159445283389161, 32.795172009995454 ], [ -91.159756539183547, 32.794886916139461 ], [ -91.159922853956914, 32.794607758398875 ], [ -91.160019711557226, 32.794105990806777 ], [ -91.160181983538564, 32.793909493912281 ], [ -91.160121438769934, 32.793357589879243 ], [ -91.160230000345535, 32.793097443790408 ], [ -91.160189162908907, 32.791549107641323 ], [ -91.160358547979499, 32.791219582837343 ], [ -91.160552900838454, 32.791089570772641 ] ] ], [ [ [ -91.152108650905873, 32.791681585880553 ], [ -91.152511194510708, 32.791687526276355 ], [ -91.152728989402405, 32.791973532433779 ], [ -91.152678486766078, 32.792250954114287 ], [ -91.151857518105132, 32.793951720925193 ], [ -91.152169340899775, 32.794328853793871 ], [ -91.152240001431338, 32.794665814151983 ], [ -91.152135602657822, 32.795022208784282 ], [ -91.152009083816935, 32.795161151399903 ], [ -91.151649784458243, 32.795281662103584 ], [ -91.151377280916591, 32.795287626771142 ], [ -91.150748416480582, 32.794871517589456 ], [ -91.15070515266504, 32.79444859755754 ], [ -91.15191172982702, 32.791858778954541 ], [ -91.152108650905873, 32.791681585880553 ] ] ], [ [ [ -91.151251696517789, 32.795870644241546 ], [ -91.15140236705075, 32.796236430974403 ], [ -91.151210963678693, 32.796853721835156 ], [ -91.151271481981283, 32.797283150485974 ], [ -91.151085165681536, 32.797509972012172 ], [ -91.15076352120775, 32.7975590868758 ], [ -91.150494965172243, 32.797401724061885 ], [ -91.150382829161899, 32.797023754633187 ], [ -91.150458922635252, 32.795989324314839 ], [ -91.150579604084527, 32.795806397827967 ], [ -91.150800272691484, 32.795710928178501 ], [ -91.151062819646711, 32.795734987932519 ], [ -91.151251696517789, 32.795870644241546 ] ] ] ] } },
{ "type": "Feature", "properties": { "depth_bin": "135-140 ft", "bin_order": -137.5, "survey_id": "LM_08_MVF_20180812_CS_MB_4865_4870", "date": "2018-08-12", "year": 2018, "mile": 487.0 }, "geometry": { "type": "MultiPolygon", "coordinates": [ [ [ [ -91.151179375348022, 32.794232888741156 ], [ -91.151506707324558, 32.794369614141083 ], [ -91.1515962312521, 32.794648891484769 ], [ -91.151420627900606, 32.794949504164755 ], [ -91.151074701895269, 32.795048319840937 ], [ -91.150789184003386, 32.794913947992278 ], [ -91.150699662404023, 32.794634670162765 ], [ -91.150858998329667, 32.794334164750992 ], [ -91.151179375348022, 32.794232888741156 ] ] ], [ [ [ -91.159958747224209, 32.795305545551109 ], [ -91.160199241212837, 32.795537648846725 ], [ -91.160161677396218, 32.795825612404258 ], [ -91.15990544638484, 32.795997006319105 ], [ -91.159548233691424, 32.795965385607296 ], [ -91.159345308205772, 32.795748969837803 ], [ -91.159382874598776, 32.795461006614104 ], [ -91.159639104970481, 32.795289613736216 ], [ -91.159958747224209, 32.795305545551109 ] ] ], [ [ [ -91.159048839744955, 32.796287737115975 ], [ -91.159387454103808, 32.796103759569213 ], [ -91.159592179430916, 32.79613249249892 ], [ -91.159781070715439, 32.796268136418156 ], [ -91.159933938436737, 32.796867515635483 ], [ -91.159737990030067, 32.797164587686233 ], [ -91.159416350461399, 32.797213725005264 ], [ -91.159147779255363, 32.797056380245742 ], [ -91.159111860314084, 32.796711086744047 ], [ -91.158996244021068, 32.796492379399119 ], [ -91.159048839744955, 32.796287737115975 ] ] ] ] } }
]
}
