{
"type": "FeatureCollection",
"name": "LM_03_KGC_20220707_CS_3700_3660_depth_polygons",
"crs": { "type": "name", "properties": { "name": "urn:ogc:def:crs:OGC:1.3:CRS84" } },
"features": [
{ "type": "Feature", "properties": { "depth_bin": "10-11 ft", "survey_id": "LM_03_KGC_20220707_CS_3700_3660", "date": "2022-07-07 00:00:00+00:00", "year": 2022, "mile": 368.0, "bin_order": 7 }, "geometry": { "type": "MultiPolygon", "coordinates": [ [ [ [ -91.400066619736833, 31.60841076728725 ], [ -91.400274942926004, 31.608199896297297 ], [ -91.400596479027243, 31.608176854481474 ], [ -91.400842878167737, 31.608355139362118 ], [ -91.400869803281054, 31.608630314759811 ], [ -91.400661480386447, 31.608841186719491 ], [ -91.400339942001906, 31.6088642286214 ], [ -91.400093542566836, 31.608685942771022 ], [ -91.400066619736833, 31.60841076728725 ] ] ], [ [ [ -91.405531476271264, 31.614669199032789 ], [ -91.405739802122255, 31.614458319377274 ], [ -91.406061359093286, 31.614435264487039 ], [ -91.406307785086781, 31.614613539542969 ], [ -91.406334727306628, 31.614888714120962 ], [ -91.406126401750853, 31.615099594746393 ], [ -91.405804842495868, 31.615122649723105 ], [ -91.405558416207157, 31.614944373697256 ], [ -91.405531476271264, 31.614669199032789 ] ] ], [ [ [ -91.404734481732191, 31.617729161047535 ], [ -91.404842371016798, 31.61758010670323 ], [ -91.405059908788203, 31.617484072576186 ], [ -91.405851495728612, 31.617600574102774 ], [ -91.406117162863211, 31.617757321430251 ], [ -91.406175494577667, 31.618028911091727 ], [ -91.406056968844226, 31.618212182867939 ], [ -91.405839430292076, 31.618308218661525 ], [ -91.40504783741693, 31.618191716874726 ], [ -91.404782170974386, 31.6180349673504 ], [ -91.404734481732191, 31.617729161047535 ] ] ], [ [ [ -91.405108881737831, 31.620626596444762 ], [ -91.405340374460494, 31.620434207779521 ], [ -91.405663044320733, 31.62043823742377 ], [ -91.405887877315706, 31.620636324940403 ], [ -91.405883169215855, 31.62091243403345 ], [ -91.405651676337058, 31.621104823667057 ], [ -91.405329004178498, 31.621100793918359 ], [ -91.405104171339659, 31.620902705433362 ], [ -91.405108881737831, 31.620626596444762 ] ] ], [ [ [ -91.395958443097769, 31.651520363209716 ], [ -91.396190033381089, 31.651327995207165 ], [ -91.396512808479713, 31.6513320514992 ], [ -91.396737692746058, 31.651530156039268 ], [ -91.396732951915737, 31.651806262560093 ], [ -91.396501361475245, 31.651998631532162 ], [ -91.396178584074789, 31.651994575135046 ], [ -91.395953699965631, 31.65179646962547 ], [ -91.395958443097769, 31.651520363209716 ] ] ] ] } },
{ "type": "Feature", "properties": { "depth_bin": "11-12 ft", "survey_id": "LM_03_KGC_20220707_CS_3700_3660", "date": "2022-07-07 00:00:00+00:00", "year": 2022, "mile": 368.0, "bin_order": 6 }, "geometry": { "type": "MultiPolygon", "coordinates": [ [ [ [ -91.405212208921625, 31.614626386263186 ], [ -91.405458191577182, 31.614400837539701 ], [ -91.405900066008996, 31.614420401294982 ], [ -91.406146491642943, 31.614598676651219 ], [ -91.406173433384154, 31.614873851248024 ], [ -91.405927451095835, 31.615099401349617 ], [ -91.405485573450832, 31.615079837584751 ], [ -91.405239147908034, 31.61490156096529 ], [ -91.405212208921625, 31.614626386263186 ] ] ], [ [ [ -91.404575886097192, 31.617706357194209 ], [ -91.404784221112052, 31.617495479490135 ], [ -91.40510578869177, 31.617472427371172 ], [ -91.405352220524605, 31.617650704394883 ], [ -91.405379160393792, 31.617925878984529 ], [ -91.405170825674091, 31.618136757658654 ], [ -91.404849255810063, 31.618159809864036 ], [ -91.404602823682083, 31.617981531870292 ], [ -91.404575886097192, 31.617706357194209 ] ] ], [ [ [ -91.404329539924277, 31.62046240560203 ], [ -91.404600191461398, 31.62025857833412 ], [ -91.405042043170326, 31.620310682644376 ], [ -91.405266874505031, 31.620508771205014 ], [ -91.405262164595015, 31.620784880219979 ], [ -91.404991512862154, 31.620988708872758 ], [ -91.404549658000846, 31.620936604287749 ], [ -91.404324827255181, 31.620738514492768 ], [ -91.404329539924277, 31.62046240560203 ] ] ], [ [ [ -91.394592261743085, 31.624286986878747 ], [ -91.394800633888948, 31.624076126915732 ], [ -91.395122225506356, 31.624053100806353 ], [ -91.395368654203224, 31.624231396872506 ], [ -91.395395565599202, 31.624506572382906 ], [ -91.39518719374766, 31.624717433316288 ], [ -91.394865599845076, 31.624740459511496 ], [ -91.394619170853886, 31.62456216247497 ], [ -91.394592261743085, 31.624286986878747 ] ] ], [ [ [ -91.40453088214359, 31.629613784758618 ], [ -91.404816069014828, 31.629376799241399 ], [ -91.405212835649593, 31.629418220773974 ], [ -91.405459298170442, 31.629596498318865 ], [ -91.405486240210919, 31.629871672514895 ], [ -91.405201053404681, 31.630108659518335 ], [ -91.404804283858411, 31.630067237856647 ], [ -91.404557821443376, 31.629888959059663 ], [ -91.40453088214359, 31.629613784758618 ] ] ], [ [ [ -91.393820663446576, 31.630318911023945 ], [ -91.39405220339998, 31.630126544684938 ], [ -91.394374904929819, 31.630130603958204 ], [ -91.39459973548243, 31.63032871105089 ], [ -91.394594992258106, 31.630604818199881 ], [ -91.394363452147431, 31.630797185507589 ], [ -91.39404074831819, 31.630793126129124 ], [ -91.393815917922879, 31.630595018067737 ], [ -91.393820663446576, 31.630318911023945 ] ] ], [ [ [ -91.395020611666723, 31.642574293040649 ], [ -91.395252180777931, 31.642381925807992 ], [ -91.395574924818717, 31.642385983449294 ], [ -91.395799786334067, 31.642584089127666 ], [ -91.395795044386787, 31.642860195908789 ], [ -91.395563475118365, 31.643052564110626 ], [ -91.39524072877677, 31.643048506364192 ], [ -91.39501586741865, 31.64285039971665 ], [ -91.395020611666723, 31.642574293040649 ] ] ] ] } },
{ "type": "Feature", "properties": { "depth_bin": "12-13 ft", "survey_id": "LM_03_KGC_20220707_CS_3700_3660", "date": "2022-07-07 00:00:00+00:00", "year": 2022, "mile": 368.0, "bin_order": 5 }, "geometry": { "type": "MultiPolygon", "coordinates": [ [ [ [ -91.407752764837269, 31.602619239260431 ], [ -91.407961057769739, 31.602408354543979 ], [ -91.408282572874811, 31.602385292629016 ], [ -91.408528972578409, 31.602563562811376 ], [ -91.408555919484698, 31.602838737521481 ], [ -91.408347626847416, 31.603049623207376 ], [ -91.408026109459797, 31.603072685208865 ], [ -91.407779709460996, 31.602894414057069 ], [ -91.407752764837269, 31.602619239260431 ] ] ], [ [ [ -91.404639971847089, 31.620531436250662 ], [ -91.404950902494278, 31.620319507531651 ], [ -91.405467776959114, 31.620402591916992 ], [ -91.40571421698732, 31.620580868441539 ], [ -91.405741158380621, 31.620856042896495 ], [ -91.405633266477409, 31.621005097849235 ], [ -91.405415720892151, 31.621101132650853 ], [ -91.404898842647881, 31.621018047937159 ], [ -91.404635260081889, 31.620807545180242 ], [ -91.404639971847089, 31.620531436250662 ] ] ], [ [ [ -91.404974694519439, 31.623686573622738 ], [ -91.405206195371889, 31.623494185549486 ], [ -91.405528875770386, 31.62349821588036 ], [ -91.405753715539191, 31.623696303776057 ], [ -91.405749006480704, 31.623972412718633 ], [ -91.405517505472105, 31.624164801760358 ], [ -91.405194822774916, 31.624160771325034 ], [ -91.40496998316226, 31.623962682460856 ], [ -91.404974694519439, 31.623686573622738 ] ] ], [ [ [ -91.404688757068953, 31.62658844388692 ], [ -91.404920265945989, 31.626396056673755 ], [ -91.40524295631478, 31.626400088056819 ], [ -91.40546780215935, 31.626598176580458 ], [ -91.405463091722979, 31.626874285358969 ], [ -91.405231582689737, 31.627066673540721 ], [ -91.404908890021943, 31.627062642053183 ], [ -91.404684044333564, 31.626864552560953 ], [ -91.404688757068953, 31.62658844388692 ] ] ], [ [ [ -91.400753965634365, 31.594073114954341 ], [ -91.400962253926735, 31.593862241275438 ], [ -91.401283740491408, 31.59383919603653 ], [ -91.4015301044723, 31.594017478765188 ], [ -91.40155702939883, 31.594292654542219 ], [ -91.401348741400852, 31.594503529190295 ], [ -91.401027252554485, 31.594526574515243 ], [ -91.400780888279215, 31.5943482908174 ], [ -91.400753965634365, 31.594073114954341 ] ] ], [ [ [ -91.400725745115707, 31.599901572803507 ], [ -91.400957193258762, 31.599709190083097 ], [ -91.401279790953083, 31.599713228440798 ], [ -91.401504566467935, 31.599911322335469 ], [ -91.401499849244658, 31.600187431734415 ], [ -91.401268400945142, 31.600379815422389 ], [ -91.400945800954887, 31.600375776959982 ], [ -91.400721025596454, 31.600177682097744 ], [ -91.400725745115707, 31.599901572803507 ] ] ], [ [ [ -91.404271990107162, 31.617616960931233 ], [ -91.404542633244205, 31.617413133429363 ], [ -91.404942111693472, 31.617446147616789 ], [ -91.405188543132823, 31.61762442494458 ], [ -91.405215482514507, 31.61789959955367 ], [ -91.404969489705678, 31.618125147366449 ], [ -91.404530851572062, 31.618103573247119 ], [ -91.404267277791647, 31.617893069937345 ], [ -91.404271990107162, 31.617616960931233 ] ] ], [ [ [ -91.393786661341736, 31.639536397227619 ], [ -91.394018225075484, 31.639344031980382 ], [ -91.39434095842779, 31.639348092393838 ], [ -91.394565810204554, 31.639546200007217 ], [ -91.394561065173235, 31.639822306752656 ], [ -91.394329501282172, 31.640014672968942 ], [ -91.394006765629413, 31.640010612450293 ], [ -91.393781914009978, 31.639812503867848 ], [ -91.393786661341736, 31.639536397227619 ] ] ], [ [ [ -91.394698930762573, 31.642564626437334 ], [ -91.39493050048506, 31.642372259809473 ], [ -91.39525324444152, 31.642376318262926 ], [ -91.395478105226317, 31.642574424485044 ], [ -91.395473362330193, 31.642850531223019 ], [ -91.395241792450463, 31.643042898820067 ], [ -91.394919046193209, 31.643038840261461 ], [ -91.394694185565655, 31.642840733070166 ], [ -91.394698930762573, 31.642564626437334 ] ] ] ] } },
{ "type": "Feature", "properties": { "depth_bin": "13-14 ft", "survey_id": "LM_03_KGC_20220707_CS_3700_3660", "date": "2022-07-07 00:00:00+00:00", "year": 2022, "mile": 368.0, "bin_order": 4 }, "geometry": { "type": "MultiPolygon", "coordinates": [ [ [ [ -91.404593908641658, 31.614511371405037 ], [ -91.404904818746218, 31.614299441946649 ], [ -91.405544598263276, 31.614342587622509 ], [ -91.405810255841871, 31.614499335342312 ], [ -91.405868585052815, 31.614770925180604 ], [ -91.405750063150094, 31.614954196878557 ], [ -91.405572809250302, 31.615042131377781 ], [ -91.404892747702434, 31.615007086544821 ], [ -91.40460633987054, 31.614819705270364 ], [ -91.404593908641658, 31.614511371405037 ] ] ], [ [ [ -91.404551595545286, 31.617366755117175 ], [ -91.404878845875416, 31.617559842607275 ], [ -91.404873043366152, 31.617899959039015 ], [ -91.404580355626521, 31.618080105265268 ], [ -91.404143669464361, 31.618009362513614 ], [ -91.403942618772959, 31.617793368859861 ], [ -91.403978935499751, 31.617518984756082 ], [ -91.404231344226574, 31.617346940482889 ], [ -91.404551595545286, 31.617366755117175 ] ] ], [ [ [ -91.404015598308419, 31.620398296143517 ], [ -91.404286250308147, 31.620194469555845 ], [ -91.404691536876399, 31.620225896585819 ], [ -91.404937974905494, 31.620404174549446 ], [ -91.404964913978446, 31.620679349098268 ], [ -91.404718912967283, 31.620904896071536 ], [ -91.404274465463587, 31.620884908986277 ], [ -91.404010884724144, 31.62067440499472 ], [ -91.404015598308419, 31.620398296143517 ] ] ], [ [ [ -91.404840146280918, 31.623626990410287 ], [ -91.405092570504124, 31.623454945085843 ], [ -91.405413235295882, 31.623486019698866 ], [ -91.405614301142734, 31.623702011368536 ], [ -91.405577985973139, 31.623976395761371 ], [ -91.405325561148302, 31.624148442015318 ], [ -91.405004894132517, 31.624117367110891 ], [ -91.404803828887296, 31.623901374511743 ], [ -91.404840146280918, 31.623626990410287 ] ] ], [ [ [ -91.404004073847048, 31.635090428856067 ], [ -91.404256531463133, 31.634918386558191 ], [ -91.404577235057005, 31.63494946451052 ], [ -91.404778322386377, 31.635165457876202 ], [ -91.404741998795259, 31.635439841328552 ], [ -91.40448954057716, 31.635611884556337 ], [ -91.404168834757996, 31.635580806312444 ], [ -91.403967748030638, 31.635364812016849 ], [ -91.404004073847048, 31.635090428856067 ] ] ], [ [ [ -91.403829198824155, 31.651381853218492 ], [ -91.404060773177235, 31.651189470374991 ], [ -91.404383549039764, 31.651193506748026 ], [ -91.404608450316758, 31.651391597958945 ], [ -91.404603732779734, 31.65166770554853 ], [ -91.404372158270263, 31.651860089361556 ], [ -91.404049380105874, 31.65185605288395 ], [ -91.4038244789853, 31.651657960703503 ], [ -91.403829198824155, 31.651381853218492 ] ] ], [ [ [ -91.402922395728453, 31.620176610694667 ], [ -91.403153891616185, 31.619984226094054 ], [ -91.403476559579559, 31.619988261211425 ], [ -91.403701386726823, 31.620186352403685 ], [ -91.403696672253801, 31.620462461221731 ], [ -91.403465176209721, 31.620654846790682 ], [ -91.403142505948097, 31.620650811568726 ], [ -91.402917678957152, 31.620452719408117 ], [ -91.402922395728453, 31.620176610694667 ] ] ], [ [ [ -91.394003495196841, 31.636560338929037 ], [ -91.394255974431104, 31.636388317198712 ], [ -91.39457667858197, 31.636419420335304 ], [ -91.39477774508083, 31.636635428749845 ], [ -91.394741391473232, 31.636909808300146 ], [ -91.394488911635989, 31.637081830960266 ], [ -91.394168205259888, 31.63705072753147 ], [ -91.393967139364037, 31.636834718187139 ], [ -91.394003495196841, 31.636560338929037 ] ] ], [ [ [ -91.394766219014144, 31.639581455327381 ], [ -91.395018705332319, 31.639409432391105 ], [ -91.395339420152766, 31.639440533950015 ], [ -91.395540494657027, 31.639656541339306 ], [ -91.395504141701181, 31.639930921017449 ], [ -91.395251654779997, 31.640102944883644 ], [ -91.39493093773396, 31.640071843032562 ], [ -91.394729863832723, 31.639855834713348 ], [ -91.394766219014144, 31.639581455327381 ] ] ], [ [ [ -91.394374476415052, 31.642548467140085 ], [ -91.394685504769839, 31.64233656734401 ], [ -91.395053045281102, 31.642357135170855 ], [ -91.39526160513752, 31.642484382132338 ], [ -91.395449110106654, 31.642387126723989 ], [ -91.395653933432513, 31.642381097664806 ], [ -91.395919651085848, 31.642537867407103 ], [ -91.395977965151971, 31.642809460245033 ], [ -91.395859386195653, 31.642992720157981 ], [ -91.395641779083775, 31.643088735946048 ], [ -91.395398491135012, 31.643065144189702 ], [ -91.395228688347302, 31.642950314052232 ], [ -91.395000891847474, 31.643055666352698 ], [ -91.394673343107414, 31.643044205293908 ], [ -91.394386873403874, 31.64285679970147 ], [ -91.394374476415052, 31.642548467140085 ] ] ], [ [ [ -91.403536244151283, 31.642966973493408 ], [ -91.403788724535815, 31.642794933058184 ], [ -91.404109454851138, 31.64282601303875 ], [ -91.404310557202507, 31.643042007410212 ], [ -91.404274228134071, 31.643316390256921 ], [ -91.404021747147269, 31.643488431622323 ], [ -91.403701014605787, 31.643457351350129 ], [ -91.403499912856688, 31.64324135604846 ], [ -91.403536244151283, 31.642966973493408 ] ] ], [ [ [ -91.395432199956275, 31.645577083738143 ], [ -91.395684701821239, 31.645405060137502 ], [ -91.396005437441815, 31.64543616068606 ], [ -91.396206525815586, 31.645652167310857 ], [ -91.396170171673973, 31.645926546918389 ], [ -91.395917669205886, 31.646098571449183 ], [ -91.395596931359051, 31.646067470608443 ], [ -91.395395843588403, 31.645851463053468 ], [ -91.395432199956275, 31.645577083738143 ] ] ] ] } },
{ "type": "Feature", "properties": { "depth_bin": "14-15 ft", "survey_id": "LM_03_KGC_20220707_CS_3700_3660", "date": "2022-07-07 00:00:00+00:00", "year": 2022, "mile": 368.0, "bin_order": 3 }, "geometry": { "type": "MultiPolygon", "coordinates": [ [ [ [ -91.406244617599825, 31.611672421252489 ], [ -91.406515238829371, 31.611468588674086 ], [ -91.407079932449491, 31.611502488942907 ], [ -91.407326352996151, 31.611680761919985 ], [ -91.407353297768353, 31.611955936475791 ], [ -91.407068172223617, 31.612192930254132 ], [ -91.4065034744511, 31.612159029799042 ], [ -91.406239912200419, 31.611948530781397 ], [ -91.406244617599825, 31.611672421252489 ] ] ], [ [ [ -91.408164524672799, 31.611841577140638 ], [ -91.408395988785486, 31.611649181752448 ], [ -91.408718628819443, 31.611653202680397 ], [ -91.408943448243008, 31.611851284593154 ], [ -91.408938750776798, 31.612127394477156 ], [ -91.408707286508331, 31.612319790833393 ], [ -91.408384644177033, 31.612315769801199 ], [ -91.408159824909262, 31.612117686920403 ], [ -91.408164524672799, 31.611841577140638 ] ] ], [ [ [ -91.404431742977636, 31.614493186742305 ], [ -91.404663221278255, 31.61430079867068 ], [ -91.404985869871581, 31.614304829328763 ], [ -91.405210687212204, 31.614502917685609 ], [ -91.405205978240602, 31.614779026952895 ], [ -91.404974499783833, 31.614971415992652 ], [ -91.404651848892868, 31.614967385230077 ], [ -91.404427031708408, 31.614769295905109 ], [ -91.404431742977636, 31.614493186742305 ] ] ], [ [ [ -91.403843336963149, 31.617231684348098 ], [ -91.404434711930961, 31.617363386874725 ], [ -91.404587219154124, 31.617527228405706 ], [ -91.404607652663501, 31.617735962275482 ], [ -91.404489124319113, 31.617919232514502 ], [ -91.404147928853661, 31.618018915913343 ], [ -91.403576075477432, 31.617842582146295 ], [ -91.403456954440514, 31.617585946899897 ], [ -91.403584786403869, 31.617332399385536 ], [ -91.403843336963149, 31.617231684348098 ] ] ], [ [ [ -91.404013201452415, 31.620215023632827 ], [ -91.404330589734315, 31.620165112944655 ], [ -91.40459626127037, 31.620321863533924 ], [ -91.404654589797786, 31.620593453692198 ], [ -91.40447140571257, 31.620820789781945 ], [ -91.404194851675896, 31.620876406916693 ], [ -91.403864770180576, 31.620678013876553 ], [ -91.403657091839406, 31.620743138135204 ], [ -91.40333885221834, 31.620696594727114 ], [ -91.403061905524794, 31.620452581386115 ], [ -91.40309822621218, 31.620178197762719 ], [ -91.403350643884195, 31.620006155591593 ], [ -91.403750174120574, 31.620039915508595 ], [ -91.404013201452415, 31.620215023632827 ] ] ], [ [ [ -91.4046675655634, 31.623618010469144 ], [ -91.404899066846752, 31.623425622966295 ], [ -91.405221746960322, 31.623429654065429 ], [ -91.405446585895248, 31.623627742477229 ], [ -91.405441875942401, 31.623903851381435 ], [ -91.405210374502872, 31.624096239852765 ], [ -91.404887692090625, 31.624092208649152 ], [ -91.404662853311876, 31.623894119268876 ], [ -91.4046675655634, 31.623618010469144 ] ] ], [ [ [ -91.404533403444859, 31.626552693160168 ], [ -91.404764912537132, 31.626360306235426 ], [ -91.405087602758087, 31.626364338006997 ], [ -91.40531244817835, 31.626562426791672 ], [ -91.405307737289718, 31.626838535550807 ], [ -91.405076228041239, 31.627030923444128 ], [ -91.40475353552128, 31.627026891568065 ], [ -91.404528690257237, 31.626828801814813 ], [ -91.404533403444859, 31.626552693160168 ] ] ], [ [ [ -91.395646317016158, 31.62163070763604 ], [ -91.395877831020456, 31.621438336891639 ], [ -91.396200502852508, 31.621442390558364 ], [ -91.396425317354513, 31.621640494127529 ], [ -91.396420581129178, 31.621916601899802 ], [ -91.39618906696785, 31.622108973612583 ], [ -91.395866392837391, 31.622104919840776 ], [ -91.39564157849243, 31.621906815303237 ], [ -91.395646317016158, 31.62163070763604 ] ] ], [ [ [ -91.394907655737242, 31.639629418647583 ], [ -91.39513921749375, 31.639437051299488 ], [ -91.395461951344913, 31.639441108889802 ], [ -91.395686805804388, 31.639639214611478 ], [ -91.395682064068211, 31.639915321504791 ], [ -91.395450502154475, 31.640107689821939 ], [ -91.395127766002844, 31.640103632126486 ], [ -91.394902911700598, 31.639905525435747 ], [ -91.394907655737242, 31.639629418647583 ] ] ], [ [ [ -91.395360085862663, 31.642569087634328 ], [ -91.395612579468178, 31.642397063832501 ], [ -91.395933304769756, 31.64242816423231 ], [ -91.396134386809493, 31.642644170847916 ], [ -91.396098034029237, 31.642918550591109 ], [ -91.395845539820684, 31.643090575322983 ], [ -91.395524812293175, 31.643059474631009 ], [ -91.395323730856489, 31.642843467085349 ], [ -91.395360085862663, 31.642569087634328 ] ] ], [ [ [ -91.395965126604253, 31.648495560999983 ], [ -91.396217635672556, 31.648323536649841 ], [ -91.396538381513565, 31.648354636183857 ], [ -91.396739477138112, 31.648570642123367 ], [ -91.396703123030207, 31.648845021776363 ], [ -91.396450613358766, 31.64901704705678 ], [ -91.396129865291144, 31.648985947230599 ], [ -91.395928770269748, 31.6487699403608 ], [ -91.395965126604253, 31.648495560999983 ] ] ] ] } },
{ "type": "Feature", "properties": { "depth_bin": "15-17.5 ft", "survey_id": "LM_03_KGC_20220707_CS_3700_3660", "date": "2022-07-07 00:00:00+00:00", "year": 2022, "mile": 368.0, "bin_order": 2 }, "geometry": { "type": "MultiPolygon", "coordinates": [ [ [ [ -91.408352369807474, 31.605628751990942 ], [ -91.408604737790142, 31.605456697434978 ], [ -91.408925342685066, 31.60548776130824 ], [ -91.409126380064237, 31.605703747020854 ], [ -91.409090084532664, 31.605978133728456 ], [ -91.408837715949218, 31.606150189213302 ], [ -91.408517108832157, 31.606119125049005 ], [ -91.408316072053765, 31.60590313840752 ], [ -91.408352369807474, 31.605628751990942 ] ] ], [ [ [ -91.408462010040992, 31.608626392759668 ], [ -91.408732876526841, 31.608476337172942 ], [ -91.409048390198578, 31.608534146058581 ], [ -91.409223728884868, 31.608765956085382 ], [ -91.409156180837982, 31.609035976687679 ], [ -91.40888531332925, 31.609186033128765 ], [ -91.40856979759495, 31.609128223776423 ], [ -91.408394459931571, 31.60889641289527 ], [ -91.408462010040992, 31.608626392759668 ] ] ], [ [ [ -91.405324652477574, 31.611552572088939 ], [ -91.405677890453774, 31.611396618676189 ], [ -91.406560616598568, 31.611465830579633 ], [ -91.406812904902509, 31.611606677224131 ], [ -91.407199950323843, 31.611508065886071 ], [ -91.407465602993454, 31.61166481005338 ], [ -91.407523935650772, 31.611936399351809 ], [ -91.407405420768328, 31.612119672891076 ], [ -91.407146888108187, 31.612220395815513 ], [ -91.406944686122557, 31.612192144294529 ], [ -91.406771126383902, 31.612072813551926 ], [ -91.406507549562193, 31.612178160087556 ], [ -91.40558346793398, 31.612110168829794 ], [ -91.405279925481182, 31.611890564678131 ], [ -91.405324652477574, 31.611552572088939 ] ] ], [ [ [ -91.404709891632777, 31.614248516716344 ], [ -91.405037131682974, 31.614441603540833 ], [ -91.405031330455685, 31.614781720165006 ], [ -91.404738653040013, 31.614961867172138 ], [ -91.404302981304284, 31.614899859255676 ], [ -91.404101936596476, 31.614683865960938 ], [ -91.404138251236816, 31.614409481627792 ], [ -91.404390651029644, 31.614237436671232 ], [ -91.404709891632777, 31.614248516716344 ] ] ], [ [ [ -91.40408979731248, 31.623179863325831 ], [ -91.405069908357419, 31.623380597402871 ], [ -91.405232689224761, 31.62348708631016 ], [ -91.405321850929809, 31.623752476055749 ], [ -91.405165585491446, 31.62399408228924 ], [ -91.404814592407803, 31.624064668739322 ], [ -91.403996713379783, 31.623883085848487 ], [ -91.403795181373354, 31.623764181560066 ], [ -91.403706024042535, 31.623498790891556 ], [ -91.403831230250702, 31.623280578236137 ], [ -91.40408979731248, 31.623179863325831 ] ] ], [ [ [ -91.40410497661928, 31.626390421583672 ], [ -91.404416918585184, 31.62623569445709 ], [ -91.404937344544209, 31.626313344367599 ], [ -91.405162189516133, 31.626511433403913 ], [ -91.405157478193118, 31.626787542145031 ], [ -91.404846525806946, 31.626999470464177 ], [ -91.404285079706142, 31.626926503149431 ], [ -91.40404686589406, 31.62669490520339 ], [ -91.40410497661928, 31.626390421583672 ] ] ], [ [ [ -91.403698862419944, 31.64854717639151 ], [ -91.403969854754976, 31.648397135897731 ], [ -91.404285498672365, 31.648454960571257 ], [ -91.404460895707359, 31.648686777833213 ], [ -91.404393299930732, 31.648956792880529 ], [ -91.404122306570429, 31.649106834229944 ], [ -91.403806660586568, 31.649049009088813 ], [ -91.403631264576831, 31.648817190971247 ], [ -91.403698862419944, 31.64854717639151 ] ] ], [ [ [ -91.400748081623306, 31.596834000769384 ], [ -91.401018924737755, 31.596683960558952 ], [ -91.401334393328952, 31.596741787132771 ], [ -91.401509691632015, 31.596973606798343 ], [ -91.4014421315551, 31.597243623343275 ], [ -91.40117128741764, 31.597393664407452 ], [ -91.400855816765443, 31.597335837366675 ], [ -91.400680519485405, 31.597104016847361 ], [ -91.400748081623306, 31.596834000769384 ] ] ], [ [ [ -91.40289986616024, 31.617288731206941 ], [ -91.403211778927741, 31.617134005873442 ], [ -91.403855087543008, 31.617208611123736 ], [ -91.404101516208428, 31.617386890467138 ], [ -91.404128452342704, 31.617662065207277 ], [ -91.404020561846394, 31.61781111890549 ], [ -91.403803022310868, 31.617907151195936 ], [ -91.403118696496549, 31.617837228376981 ], [ -91.402855126752314, 31.617626722273023 ], [ -91.40289986616024, 31.617288731206941 ] ] ], [ [ [ -91.396718602074799, 31.618812742461969 ], [ -91.3970305295895, 31.618658032777542 ], [ -91.397425971243891, 31.618744504186402 ], [ -91.397627008356778, 31.618960507641471 ], [ -91.397590672313129, 31.619234889240641 ], [ -91.397297966997755, 31.619415018127121 ], [ -91.396861509318938, 31.619333227040041 ], [ -91.396651009632691, 31.619082754598374 ], [ -91.396718602074799, 31.618812742461969 ] ] ], [ [ [ -91.40262873004599, 31.620073524144154 ], [ -91.402768534391484, 31.619945347863005 ], [ -91.403003793423792, 31.619887479768941 ], [ -91.403360084707415, 31.619967218355342 ], [ -91.403537016603664, 31.620129491754248 ], [ -91.40378229138723, 31.620065457953654 ], [ -91.404219566516929, 31.62014104067779 ], [ -91.404466003388123, 31.620319319517733 ], [ -91.404492941053775, 31.620594494122884 ], [ -91.404320395530405, 31.620787613895583 ], [ -91.404085134912492, 31.620845484360476 ], [ -91.403609105948746, 31.620757487223365 ], [ -91.403395030754425, 31.62057960961689 ], [ -91.403149754373928, 31.620643642614862 ], [ -91.402869353164718, 31.620591921906623 ], [ -91.402605776517817, 31.620381415136325 ], [ -91.40262873004599, 31.620073524144154 ] ] ], [ [ [ -91.403733688746215, 31.637666141616581 ], [ -91.404004648662479, 31.637516099756791 ], [ -91.404320256130617, 31.637573923223862 ], [ -91.404495634036579, 31.63780574014552 ], [ -91.404428047657035, 31.638075755917807 ], [ -91.40415708671604, 31.638225798632835 ], [ -91.403841477182567, 31.638167974698344 ], [ -91.403666100301322, 31.637936156921441 ], [ -91.403733688746215, 31.637666141616581 ] ] ], [ [ [ -91.403424099188641, 31.640239855945087 ], [ -91.403695067226664, 31.640089815064382 ], [ -91.404010683094157, 31.640147639556069 ], [ -91.404186064757013, 31.640379456947723 ], [ -91.404118475291043, 31.640649472360103 ], [ -91.403847506228118, 31.640799514096113 ], [ -91.403531888295035, 31.640741689136942 ], [ -91.403356507657065, 31.640509870889971 ], [ -91.403424099188641, 31.640239855945087 ] ] ], [ [ [ -91.395828382814869, 31.648463071597376 ], [ -91.396099386791022, 31.648313048231348 ], [ -91.396415024669125, 31.648370892207339 ], [ -91.396590401521962, 31.64860271963968 ], [ -91.396522783242247, 31.648872729767486 ], [ -91.396251778240156, 31.649022753988913 ], [ -91.395936138295895, 31.648964909544862 ], [ -91.39576076246901, 31.648733081257127 ], [ -91.395828382814869, 31.648463071597376 ] ] ], [ [ [ -91.394017971644701, 31.630286292848215 ], [ -91.394288924286542, 31.630136271258944 ], [ -91.394604499924114, 31.630194117791756 ], [ -91.394779840088489, 31.630425947063124 ], [ -91.394712232164451, 31.630695957234391 ], [ -91.394441278497396, 31.630845979678384 ], [ -91.394125700795641, 31.630788132677676 ], [ -91.393950361656508, 31.630556302551607 ], [ -91.394017971644701, 31.630286292848215 ] ] ], [ [ [ -91.39374421405789, 31.633482962586161 ], [ -91.394015176618325, 31.633332941973716 ], [ -91.394330762764483, 31.63339078950947 ], [ -91.394506107871848, 31.633622619222407 ], [ -91.394438496429586, 31.633892629015303 ], [ -91.394167532843753, 31.634042650482566 ], [ -91.393851944633084, 31.633984802478857 ], [ -91.393676600551132, 31.6337529719111 ], [ -91.39374421405789, 31.633482962586161 ] ] ], [ [ [ -91.393984334642937, 31.639488877566347 ], [ -91.394337697860905, 31.639332960335736 ], [ -91.395063362976316, 31.639387363747815 ], [ -91.395240404955672, 31.639460125946943 ], [ -91.395461106073597, 31.639409518780372 ], [ -91.396179495027738, 31.639482310917685 ], [ -91.396445205585849, 31.639639079389166 ], [ -91.396503519763968, 31.639910672096164 ], [ -91.396384945755997, 31.640093932734164 ], [ -91.396126323449252, 31.640194629946233 ], [ -91.395189524541422, 31.640050292769669 ], [ -91.394968821767591, 31.640100899406352 ], [ -91.394243151206126, 31.640046495279812 ], [ -91.393939548845069, 31.639826862950613 ], [ -91.393984334642937, 31.639488877566347 ] ] ], [ [ [ -91.394259328807067, 31.642475920703177 ], [ -91.394530317338564, 31.642325900040785 ], [ -91.394845933997431, 31.642383747245731 ], [ -91.395021296285904, 31.642615576540873 ], [ -91.394953678628397, 31.642885586073934 ], [ -91.394682689071089, 31.643035607591468 ], [ -91.39436707034676, 31.642977759918455 ], [ -91.394191709084097, 31.642745929768179 ], [ -91.394259328807067, 31.642475920703177 ] ] ], [ [ [ -91.395731007370387, 31.642410598129995 ], [ -91.396374209589695, 31.642426939655763 ], [ -91.396537012249937, 31.642533440122186 ], [ -91.396627378637689, 31.642728115394789 ], [ -91.396576090694765, 31.642932932001393 ], [ -91.3962833071934, 31.643113055384237 ], [ -91.395682409364653, 31.643061572114462 ], [ -91.395481327547813, 31.642845564804979 ], [ -91.395517682094052, 31.642571185293772 ], [ -91.395731007370387, 31.642410598129995 ] ] ], [ [ [ -91.395616028760941, 31.645551546958831 ], [ -91.395887024394241, 31.645401523708617 ], [ -91.39629004097381, 31.645432883396779 ], [ -91.396514911107829, 31.645630988018048 ], [ -91.396510170710243, 31.645907094764119 ], [ -91.39623942543804, 31.64611090103303 ], [ -91.395796114545391, 31.646087638567266 ], [ -91.395557875782231, 31.645856024518867 ], [ -91.395616028760941, 31.645551546958831 ] ] ] ] } },
{ "type": "Feature", "properties": { "depth_bin": "17.5-20 ft", "survey_id": "LM_03_KGC_20220707_CS_3700_3660", "date": "2022-07-07 00:00:00+00:00", "year": 2022, "mile": 368.0, "bin_order": 1 }, "geometry": { "type": "MultiPolygon", "coordinates": [ [ [ [ -91.406378831913486, 31.608557378249852 ], [ -91.406649701337955, 31.608407327185368 ], [ -91.406965213258445, 31.608465141169695 ], [ -91.407140546529376, 31.608696953885012 ], [ -91.407072992575195, 31.608966973190665 ], [ -91.406802122127658, 31.609117025109462 ], [ -91.406486608144718, 31.609059210658302 ], [ -91.406311275896854, 31.608827397088699 ], [ -91.406378831913486, 31.608557378249852 ] ] ], [ [ [ -91.407340775967242, 31.60857334517712 ], [ -91.407652652146766, 31.608418607584564 ], [ -91.408615381776372, 31.60849459790542 ], [ -91.408861797715744, 31.608672867834276 ], [ -91.408888746554112, 31.608948042311351 ], [ -91.408780874149386, 31.609097100811844 ], [ -91.408563359818245, 31.609193142172558 ], [ -91.407559614612836, 31.609121835641606 ], [ -91.407296058138783, 31.608911338912566 ], [ -91.407340775967242, 31.60857334517712 ] ] ], [ [ [ -91.405003610673404, 31.611533302777417 ], [ -91.405274491010388, 31.61138325505652 ], [ -91.405713453713659, 31.611431076231518 ], [ -91.405914495604023, 31.611647066985817 ], [ -91.405878187593586, 31.6119214521465 ], [ -91.405585520925726, 31.612101601523229 ], [ -91.405146555175023, 31.612053779811127 ], [ -91.404936048179337, 31.611803320564842 ], [ -91.405003610673404, 31.611533302777417 ] ] ], [ [ [ -91.406922932611991, 31.611677138505417 ], [ -91.407193810479725, 31.611527086627007 ], [ -91.407509333238153, 31.611584899598643 ], [ -91.407684673393192, 31.611816711695692 ], [ -91.407617118336617, 31.612086731139787 ], [ -91.407346239445715, 31.612236783872621 ], [ -91.407030714624497, 31.612178970434158 ], [ -91.406855375492626, 31.611947157482685 ], [ -91.406922932611991, 31.611677138505417 ] ] ], [ [ [ -91.408040519464052, 31.611758972643269 ], [ -91.408311395888134, 31.611608918343876 ], [ -91.40862691973615, 31.61166672858451 ], [ -91.408802262875795, 31.611898539240283 ], [ -91.408734710950554, 31.612168559377171 ], [ -91.40846383350339, 31.612318614531016 ], [ -91.408148307592526, 31.612260803823613 ], [ -91.407972965475977, 31.612028992313377 ], [ -91.408040519464052, 31.611758972643269 ] ] ], [ [ [ -91.403992626807025, 31.614157971520953 ], [ -91.404586624544606, 31.614265103764172 ], [ -91.404752495739046, 31.614462452376497 ], [ -91.40471618286611, 31.614736836941219 ], [ -91.404463782253359, 31.614908882503691 ], [ -91.403860805884378, 31.614848781492409 ], [ -91.403622622588586, 31.614617183387175 ], [ -91.403626198109748, 31.614407740744948 ], [ -91.40376514400613, 31.614235295376126 ], [ -91.403992626807025, 31.614157971520953 ] ] ], [ [ [ -91.403645896711296, 31.62309073539107 ], [ -91.404263522743179, 31.623276074138623 ], [ -91.404375752955417, 31.623462227964829 ], [ -91.404348203439511, 31.62367036201438 ], [ -91.40422375137382, 31.623809648395845 ], [ -91.403872758394868, 31.623880232257164 ], [ -91.403309924391493, 31.623676272843277 ], [ -91.403220768526694, 31.623410881880687 ], [ -91.403377037842205, 31.62316927814129 ], [ -91.403645896711296, 31.62309073539107 ] ] ], [ [ [ -91.403636645703074, 31.626280904043035 ], [ -91.403948588018935, 31.626126178072148 ], [ -91.404500224194308, 31.626245624649233 ], [ -91.404701293515572, 31.626461617794071 ], [ -91.404664974238145, 31.62673600168884 ], [ -91.404331241239831, 31.626920829365933 ], [ -91.403779601366253, 31.626801381945818 ], [ -91.403569066704492, 31.626550920023075 ], [ -91.403636645703074, 31.626280904043035 ] ] ], [ [ [ -91.404275167415648, 31.629448557162583 ], [ -91.404587119557675, 31.62929383001979 ], [ -91.404984566240316, 31.629368387421252 ], [ -91.405185643109974, 31.629584379960672 ], [ -91.405149323620492, 31.629858763871059 ], [ -91.404856597884191, 31.630038909184552 ], [ -91.404418130717303, 31.629969034379769 ], [ -91.404207587542075, 31.629718573337101 ], [ -91.404275167415648, 31.629448557162583 ] ] ], [ [ [ -91.405468361125216, 31.632450961797105 ], [ -91.405739302914938, 31.632300915543734 ], [ -91.406054894175583, 31.632358734219039 ], [ -91.406230267286873, 31.632590548757548 ], [ -91.406162690334426, 31.632860565951223 ], [ -91.405891747520371, 31.6330106130597 ], [ -91.405576154194847, 31.632952793917156 ], [ -91.405400782107876, 31.632720978523526 ], [ -91.405468361125216, 31.632450961797105 ] ] ], [ [ [ -91.403869595515616, 31.635029890069287 ], [ -91.404140547387556, 31.634879847601084 ], [ -91.404456146120936, 31.634937670463202 ], [ -91.404631519718208, 31.63516948713767 ], [ -91.40456393598015, 31.63543950316528 ], [ -91.404292983083621, 31.635589546488628 ], [ -91.403977382285163, 31.63553172315914 ], [ -91.403802009712464, 31.635299905629516 ], [ -91.403869595515616, 31.635029890069287 ] ] ], [ [ [ -91.403480793722693, 31.64576411357373 ], [ -91.403751778107249, 31.645614073224717 ], [ -91.404067412534118, 31.645671898146567 ], [ -91.404242804097763, 31.645903715614892 ], [ -91.404175210074087, 31.646173730705694 ], [ -91.403904224664373, 31.646323771910222 ], [ -91.403588588171345, 31.64626594652082 ], [ -91.40341319763283, 31.646034128196973 ], [ -91.403480793722693, 31.64576411357373 ] ] ], [ [ [ -91.400905474667169, 31.60252010562272 ], [ -91.401176334423013, 31.602370065745394 ], [ -91.401491822147833, 31.602427892520854 ], [ -91.401667130868944, 31.602659712138571 ], [ -91.401599566391582, 31.602929728414328 ], [ -91.401328705612457, 31.603079769145594 ], [ -91.40101321582604, 31.60302194190308 ], [ -91.40083790812821, 31.602790121431415 ], [ -91.400905474667169, 31.60252010562272 ] ] ], [ [ [ -91.398919248687648, 31.613671602122547 ], [ -91.399190144556016, 31.613521567890434 ], [ -91.399505668144542, 31.613579400686135 ], [ -91.399680991472835, 31.613811223172721 ], [ -91.399613411788934, 31.614081237485685 ], [ -91.399342514896574, 31.614231272572084 ], [ -91.399026989245385, 31.614173439309045 ], [ -91.398851666941084, 31.613941615968177 ], [ -91.398919248687648, 31.613671602122547 ] ] ], [ [ [ -91.397887266844833, 31.616337074035023 ], [ -91.398158172188673, 31.616187042364981 ], [ -91.398473703945101, 31.616244877966029 ], [ -91.398649029349201, 31.616476701857991 ], [ -91.398581444432907, 31.616746715353152 ], [ -91.398310538064834, 31.61689674787754 ], [ -91.397995004245516, 31.616838911809051 ], [ -91.397819679865634, 31.616607087062746 ], [ -91.397887266844833, 31.616337074035023 ] ] ], [ [ [ -91.402593381153011, 31.617215429811136 ], [ -91.402864282005197, 31.617065388006949 ], [ -91.403299236513305, 31.617125730424476 ], [ -91.403500284305835, 31.617341725016516 ], [ -91.403463966272525, 31.617616108947189 ], [ -91.40317127687689, 31.617796251889626 ], [ -91.402736319370518, 31.617735908941505 ], [ -91.402525806905345, 31.617485445724935 ], [ -91.402593381153011, 31.617215429811136 ] ] ], [ [ [ -91.402024370668926, 31.619931565710406 ], [ -91.402336293806584, 31.619776842918277 ], [ -91.403007452734983, 31.619897961184442 ], [ -91.403232278642037, 31.620096053165575 ], [ -91.403227562800552, 31.620372161924298 ], [ -91.403069522611105, 31.62053212108334 ], [ -91.402875614562561, 31.620588769031631 ], [ -91.402204450916059, 31.62046764992607 ], [ -91.401966258175904, 31.620236048587607 ], [ -91.402024370668926, 31.619931565710406 ] ] ], [ [ [ -91.400689725931926, 31.622626017879526 ], [ -91.401059175175789, 31.6225004608361 ], [ -91.401524215510207, 31.62262411357835 ], [ -91.401698588189689, 31.622781575718928 ], [ -91.401951846554027, 31.622712637486142 ], [ -91.40239100546269, 31.622780568440582 ], [ -91.40276385998537, 31.622976218281938 ], [ -91.402811544647079, 31.62328202495441 ], [ -91.402638990538662, 31.623475142096439 ], [ -91.402403722178789, 31.623533009180054 ], [ -91.401778641880696, 31.623404663384363 ], [ -91.401567125212779, 31.623231596495089 ], [ -91.401313865175439, 31.623300533903041 ], [ -91.400883421388343, 31.62320264532697 ], [ -91.400606474217014, 31.622958626716546 ], [ -91.400689725931926, 31.622626017879526 ] ] ], [ [ [ -91.396807175017571, 31.636644105818615 ], [ -91.397062220648763, 31.636751255901775 ], [ -91.397179922105963, 31.636972511280579 ], [ -91.397081706675166, 31.637235552966015 ], [ -91.3968358751533, 31.637357453873925 ], [ -91.395240582784282, 31.637208139621567 ], [ -91.395026380969412, 31.637106695242235 ], [ -91.394914154600983, 31.636920533650983 ], [ -91.394981767269329, 31.63665052375638 ], [ -91.395252737381782, 31.636500500827225 ], [ -91.396807175017571, 31.636644105818615 ] ] ], [ [ [ -91.396535547353977, 31.642419370116492 ], [ -91.396883414680161, 31.642584103174386 ], [ -91.396916573671277, 31.642923068673298 ], [ -91.396645838195141, 31.643126876213138 ], [ -91.396201739364898, 31.643103732038796 ], [ -91.395976875763338, 31.642905627014418 ], [ -91.395981617181675, 31.642629520210619 ], [ -91.39621318453446, 31.642437151174121 ], [ -91.396535547353977, 31.642419370116492 ] ] ], [ [ [ -91.396155666401583, 31.651453739215853 ], [ -91.396426678783627, 31.65130371549305 ], [ -91.396742326929285, 31.651361558975694 ], [ -91.396917709896968, 31.65159338606713 ], [ -91.396850089997301, 31.651863396206249 ], [ -91.396579076589191, 31.652013420784566 ], [ -91.396263426377061, 31.651955576833824 ], [ -91.396088044435459, 31.651723748886894 ], [ -91.396155666401583, 31.651453739215853 ] ] ], [ [ [ -91.394129660885071, 31.627354910854603 ], [ -91.394400604643124, 31.627204888672935 ], [ -91.394716170543745, 31.627262734627848 ], [ -91.394891505821533, 31.627494563674254 ], [ -91.394823900723921, 31.627764574105239 ], [ -91.394552955940796, 31.627914597141515 ], [ -91.394237387976304, 31.627856750718777 ], [ -91.394062053723573, 31.627624920817752 ], [ -91.394129660885071, 31.627354910854603 ] ] ], [ [ [ -91.395484793998136, 31.633751156424637 ], [ -91.395796774415729, 31.633596451830744 ], [ -91.396599392995654, 31.63369140108404 ], [ -91.396845849229166, 31.633869694978078 ], [ -91.396872766477173, 31.634144870014453 ], [ -91.396764844458843, 31.634293916192536 ], [ -91.396547258881256, 31.634389934355102 ], [ -91.395703614402066, 31.634299664783011 ], [ -91.395440017300814, 31.6340891428998 ], [ -91.395484793998136, 31.633751156424637 ] ] ], [ [ [ -91.395265619498076, 31.639578337206977 ], [ -91.395618981083416, 31.639422416370195 ], [ -91.395966222740626, 31.639586422290751 ], [ -91.396219151356306, 31.639490010471199 ], [ -91.39669933232878, 31.639554273141108 ], [ -91.396945803724748, 31.639732567205009 ], [ -91.396972722173871, 31.640007742043156 ], [ -91.396833723588358, 31.640180177658433 ], [ -91.396606171101084, 31.640257486149483 ], [ -91.396125986614834, 31.640193223017764 ], [ -91.395900881467057, 31.640046289734283 ], [ -91.395688973597643, 31.640138020764368 ], [ -91.395484450695719, 31.640126845870885 ], [ -91.395220838259306, 31.639916323189244 ], [ -91.395265619498076, 31.639578337206977 ] ] ], [ [ [ -91.394099474471631, 31.642475846862759 ], [ -91.3943704632443, 31.642325826548433 ], [ -91.394686079785913, 31.642383674145503 ], [ -91.394861441667402, 31.64261550364715 ], [ -91.394793823551581, 31.642885513080135 ], [ -91.394522833753086, 31.643035534249609 ], [ -91.394207215146025, 31.642977686184452 ], [ -91.394031854290347, 31.642745855827673 ], [ -91.394099474471631, 31.642475846862759 ] ] ], [ [ [ -91.395959764522928, 31.645529207967623 ], [ -91.396246643993251, 31.645402629461454 ], [ -91.396554124907993, 31.64548665988654 ], [ -91.396702090408667, 31.64573207580208 ], [ -91.396603863315349, 31.645995116421769 ], [ -91.396316982435934, 31.64612169567549 ], [ -91.396009499695168, 31.646037664624533 ], [ -91.395861535603615, 31.645792247961442 ], [ -91.395959764522928, 31.645529207967623 ] ] ] ] } },
{ "type": "Feature", "properties": { "depth_bin": "5-6 ft", "survey_id": "LM_03_KGC_20220707_CS_3700_3660", "date": "2022-07-07 00:00:00+00:00", "year": 2022, "mile": 368.0, "bin_order": 12 }, "geometry": { "type": "MultiPolygon", "coordinates": [ [ [ [ -91.407584731256463, 31.61496928464992 ], [ -91.40776789586117, 31.614741943262342 ], [ -91.408085263843887, 31.614692022516383 ], [ -91.408350926887849, 31.614848765114136 ], [ -91.40840926370484, 31.615120354028335 ], [ -91.408226099835446, 31.615347696350277 ], [ -91.407908729670282, 31.615397617370395 ], [ -91.407643065891023, 31.615240873838278 ], [ -91.407584731256463, 31.61496928464992 ] ] ], [ [ [ -91.396504119733294, 31.618890502730363 ], [ -91.396712475122186, 31.618679638930896 ], [ -91.39703404785763, 31.618656607352282 ], [ -91.39728046660791, 31.61883489952017 ], [ -91.397307382819307, 31.619110074986651 ], [ -91.397099027724821, 31.619320939756271 ], [ -91.396777452704811, 31.619343971420808 ], [ -91.396531033660139, 31.619165678282755 ], [ -91.396504119733294, 31.618890502730363 ] ] ], [ [ [ -91.405872430628193, 31.620823568292622 ], [ -91.406080770079541, 31.620612688704455 ], [ -91.406402348246715, 31.620589633674058 ], [ -91.406757872425132, 31.620752705108181 ], [ -91.406829730713383, 31.621087254059663 ], [ -91.406621391790551, 31.621298134876159 ], [ -91.406299811206722, 31.621321190377156 ], [ -91.405944285767376, 31.621158117636039 ], [ -91.405872430628193, 31.620823568292622 ] ] ], [ [ [ -91.405435238453506, 31.623811156712353 ], [ -91.40564358582408, 31.623600278185652 ], [ -91.405965174363203, 31.623577224610628 ], [ -91.406211623481838, 31.623755500397699 ], [ -91.406238566837601, 31.624030674694691 ], [ -91.406030219762357, 31.624241554191642 ], [ -91.405708628938271, 31.624264607853199 ], [ -91.405462179524278, 31.624086331095874 ], [ -91.405435238453506, 31.623811156712353 ] ] ], [ [ [ -91.404127399367852, 31.648666724362869 ], [ -91.404335807581063, 31.648455850692681 ], [ -91.404657482160772, 31.648432803340054 ], [ -91.404903992118577, 31.648611083070339 ], [ -91.404930935473502, 31.648886256722175 ], [ -91.404722527555933, 31.649097131363558 ], [ -91.404400850688404, 31.649120178802786 ], [ -91.404154340434957, 31.648941898101299 ], [ -91.404127399367852, 31.648666724362869 ] ] ], [ [ [ -91.403975101399297, 31.651409432980355 ], [ -91.404183516348269, 31.651198559859882 ], [ -91.40450520042981, 31.651175513214291 ], [ -91.404751717089653, 31.651353793394783 ], [ -91.404778660420916, 31.651628966976322 ], [ -91.404570245767616, 31.651839841068085 ], [ -91.404248559397942, 31.651862887800277 ], [ -91.404002042442428, 31.651684606648494 ], [ -91.403975101399297, 31.651409432980355 ] ] ] ] } },
{ "type": "Feature", "properties": { "depth_bin": "6-7 ft", "survey_id": "LM_03_KGC_20220707_CS_3700_3660", "date": "2022-07-07 00:00:00+00:00", "year": 2022, "mile": 368.0, "bin_order": 11 }, "geometry": { "type": "MultiPolygon", "coordinates": [ [ [ [ -91.40745549137155, 31.5999702310902 ], [ -91.407663778783487, 31.599759346601608 ], [ -91.407985284792701, 31.599736285127356 ], [ -91.408231677153154, 31.599914555705123 ], [ -91.408258622770447, 31.600189730533632 ], [ -91.408050335653641, 31.600400615991546 ], [ -91.407728827362178, 31.600423677552325 ], [ -91.407482434706594, 31.600245406005225 ], [ -91.40745549137155, 31.5999702310902 ] ] ], [ [ [ -91.400379047000911, 31.602585859644254 ], [ -91.400610502721548, 31.602393477874418 ], [ -91.400933109614428, 31.602397517413436 ], [ -91.401157890560725, 31.602595612028182 ], [ -91.401153171819985, 31.602871721264211 ], [ -91.400921715942857, 31.603064104001717 ], [ -91.400599106753717, 31.603060064357972 ], [ -91.400374325963924, 31.602861968775553 ], [ -91.400379047000911, 31.602585859644254 ] ] ], [ [ [ -91.407132496990158, 31.614847619978754 ], [ -91.407290520403222, 31.614687655104397 ], [ -91.40752576363262, 31.614629778099918 ], [ -91.408284732785773, 31.614715120372868 ], [ -91.408518082039492, 31.614874081532143 ], [ -91.408878777662906, 31.614796147538271 ], [ -91.409144442399864, 31.61495288853585 ], [ -91.409202781589954, 31.615224477161405 ], [ -91.409084265469275, 31.61540775213955 ], [ -91.408825725211415, 31.615508478173563 ], [ -91.40858637456148, 31.615464626331885 ], [ -91.408428913795703, 31.615333680426335 ], [ -91.408150341275146, 31.615419570183427 ], [ -91.407431350775624, 31.615343329631123 ], [ -91.407144936598087, 31.615155953859652 ], [ -91.407132496990158, 31.614847619978754 ] ] ], [ [ [ -91.40573575673271, 31.620756301165507 ], [ -91.405967248549629, 31.620563911335029 ], [ -91.406289918956006, 31.620567939410165 ], [ -91.406514753629111, 31.620766025872936 ], [ -91.406510047356392, 31.621042135044732 ], [ -91.406278555383409, 31.62123452584358 ], [ -91.405955882678697, 31.621230497664047 ], [ -91.405731048161641, 31.621032410232885 ], [ -91.40573575673271, 31.620756301165507 ] ] ], [ [ [ -91.394437007805891, 31.624259359390987 ], [ -91.394645380226109, 31.62404849969019 ], [ -91.394966971768596, 31.624025473970015 ], [ -91.395213400085154, 31.624203770324375 ], [ -91.395240311018213, 31.624478945853188 ], [ -91.395031938892288, 31.624689806524358 ], [ -91.39471034506461, 31.624712832330363 ], [ -91.394463916453759, 31.624534535005601 ], [ -91.394437007805891, 31.624259359390987 ] ] ], [ [ [ -91.393765035973743, 31.627378116611428 ], [ -91.393996568473739, 31.627185750049275 ], [ -91.394319259843328, 31.62718980912674 ], [ -91.394544083480312, 31.627387916165699 ], [ -91.394539340636101, 31.627664023434406 ], [ -91.394307807978819, 31.62785639096516 ], [ -91.393985114310169, 31.627852331782499 ], [ -91.393760290830471, 31.627654223774943 ], [ -91.393765035973743, 31.627378116611428 ] ] ], [ [ [ -91.393659762256021, 31.630298311766257 ], [ -91.393891302474472, 31.63010594572793 ], [ -91.394214003907706, 31.630110005405474 ], [ -91.394438834058633, 31.630308112769232 ], [ -91.39443409036285, 31.630584219897322 ], [ -91.394202549987128, 31.630776586904361 ], [ -91.393879846254492, 31.630772527121607 ], [ -91.393655016260865, 31.630574418789134 ], [ -91.393659762256021, 31.630298311766257 ] ] ], [ [ [ -91.393826593903057, 31.636574801179059 ], [ -91.394058149937607, 31.636382435526404 ], [ -91.394380873068314, 31.636386495500187 ], [ -91.394605718088471, 31.636584602897234 ], [ -91.394600973723485, 31.636860709776258 ], [ -91.394369417531607, 31.637053076397859 ], [ -91.394046692100801, 31.637049016318869 ], [ -91.393821847237973, 31.636850907952891 ], [ -91.393826593903057, 31.636574801179059 ] ] ], [ [ [ -91.393626170037138, 31.639530748286379 ], [ -91.393857734073691, 31.639338383340792 ], [ -91.394180467381048, 31.639342444159293 ], [ -91.394405318791456, 31.639540552043893 ], [ -91.394400573286944, 31.639816658767824 ], [ -91.394169009093062, 31.640009024682467 ], [ -91.393846273485252, 31.640004963758759 ], [ -91.393621422232187, 31.639806854905103 ], [ -91.393626170037138, 31.639530748286379 ] ] ], [ [ [ -91.395095253313755, 31.645585072264588 ], [ -91.395326830026065, 31.645392705226826 ], [ -91.395649584479614, 31.64539676302347 ], [ -91.395874453119959, 31.645594868726615 ], [ -91.395869710836166, 31.645870975387513 ], [ -91.395638133966628, 31.646063343394562 ], [ -91.395315377211944, 31.64605928549279 ], [ -91.395090508728828, 31.645861178820358 ], [ -91.395095253313755, 31.645585072264588 ] ] ], [ [ [ -91.395796550722224, 31.651523304598417 ], [ -91.396028141333417, 31.651330936901179 ], [ -91.39635091641658, 31.651334993602934 ], [ -91.396575800333196, 31.651533098417126 ], [ -91.396571059023742, 31.651809204915924 ], [ -91.396339468255377, 31.652001573582677 ], [ -91.396016690870383, 31.651997516775818 ], [ -91.395791807110953, 31.651799410992119 ], [ -91.395796550722224, 31.651523304598417 ] ] ] ] } },
{ "type": "Feature", "properties": { "depth_bin": "7-8 ft", "survey_id": "LM_03_KGC_20220707_CS_3700_3660", "date": "2022-07-07 00:00:00+00:00", "year": 2022, "mile": 368.0, "bin_order": 10 }, "geometry": { "type": "MultiPolygon", "coordinates": [ [ [ [ -91.406021323254322, 31.614686750570307 ], [ -91.406252798911069, 31.614494359529427 ], [ -91.406575448422132, 31.614498386193997 ], [ -91.406800269704476, 31.614696471872332 ], [ -91.406795565389729, 31.61497258134516 ], [ -91.406564089576975, 31.615164973354187 ], [ -91.406241437768259, 31.615160946585231 ], [ -91.406016616641907, 31.614962859938739 ], [ -91.406021323254322, 31.614686750570307 ] ] ], [ [ [ -91.406972788648616, 31.614811414302803 ], [ -91.407283694650388, 31.614599478914602 ], [ -91.407804895603306, 31.614673060477056 ], [ -91.408051325680148, 31.614851332291398 ], [ -91.408078273085948, 31.615126506663426 ], [ -91.407793139273025, 31.615363501688993 ], [ -91.407231657311002, 31.615298021555326 ], [ -91.40696808482204, 31.615087523793854 ], [ -91.406972788648616, 31.614811414302803 ] ] ], [ [ [ -91.406002610769647, 31.617925369425237 ], [ -91.406313529540583, 31.617713436914705 ], [ -91.406825304655825, 31.617803952812238 ], [ -91.407071740763726, 31.617982226644688 ], [ -91.407098685763088, 31.618257401028195 ], [ -91.406990799159928, 31.618406457357537 ], [ -91.406773261034246, 31.618502494756594 ], [ -91.40626148218459, 31.618411978535129 ], [ -91.405997903506815, 31.618201478651034 ], [ -91.406002610769647, 31.617925369425237 ] ] ], [ [ [ -91.405291449494626, 31.623751343215631 ], [ -91.405522949887398, 31.623558954553463 ], [ -91.405845630559256, 31.623562984091315 ], [ -91.406070471174331, 31.623761071454414 ], [ -91.406065763039337, 31.624037180436829 ], [ -91.405834262490444, 31.624229570067484 ], [ -91.405511579519896, 31.62422554042519 ], [ -91.405286739060941, 31.624027452093603 ], [ -91.405291449494626, 31.623751343215631 ] ] ], [ [ [ -91.404888346446896, 31.629586279433596 ], [ -91.405140787181082, 31.62941423469789 ], [ -91.405461472356819, 31.62944530983874 ], [ -91.405662550520489, 31.629661301666154 ], [ -91.405626232385416, 31.629935685754397 ], [ -91.405373791049442, 31.630107731419827 ], [ -91.40505310364901, 31.630076655987519 ], [ -91.404852026087113, 31.629860663230399 ], [ -91.404888346446896, 31.629586279433596 ] ] ], [ [ [ -91.403873537831274, 31.637684770826052 ], [ -91.404126002904448, 31.637512729093608 ], [ -91.404446715309078, 31.637543807655 ], [ -91.404647807641823, 31.637759801316616 ], [ -91.404611482315758, 31.638034184578483 ], [ -91.40435901664047, 31.638206227240929 ], [ -91.404038302010278, 31.638175148387965 ], [ -91.403837210279605, 31.637959153796338 ], [ -91.403873537831274, 31.637684770826052 ] ] ], [ [ [ -91.403760427019279, 31.645844068106058 ], [ -91.403991987256802, 31.645651684777437 ], [ -91.404314743973472, 31.645655720695018 ], [ -91.404539632289186, 31.645853811746967 ], [ -91.404534915568092, 31.646129919567048 ], [ -91.404303355174207, 31.646322303864988 ], [ -91.403980596156316, 31.646318267842837 ], [ -91.403755707996964, 31.646120175821569 ], [ -91.403760427019279, 31.645844068106058 ] ] ], [ [ [ -91.393463614354076, 31.627286334154093 ], [ -91.393621682394581, 31.627126387979228 ], [ -91.393815609160598, 31.62706975478385 ], [ -91.394178680581078, 31.627202652470384 ], [ -91.394441977357403, 31.627200322914632 ], [ -91.394688412723767, 31.627378620442837 ], [ -91.394715322594976, 31.627653795929731 ], [ -91.394607405186505, 31.627802840563973 ], [ -91.394389832979726, 31.627898855571143 ], [ -91.394185337057507, 31.627887679471709 ], [ -91.393985741394616, 31.627770638141044 ], [ -91.393722443041938, 31.627772966701432 ], [ -91.393458868337575, 31.627562441280716 ], [ -91.393463614354076, 31.627286334154093 ] ] ], [ [ [ -91.393575204580131, 31.633484514174871 ], [ -91.393827675993109, 31.633312492961743 ], [ -91.39414836943854, 31.63334359683293 ], [ -91.394349428618668, 31.633559605769136 ], [ -91.394313075366298, 31.633833985322511 ], [ -91.394060603350368, 31.634006007465306 ], [ -91.393739907680072, 31.633974903301912 ], [ -91.393538849102882, 31.633758893436031 ], [ -91.393575204580131, 31.633484514174871 ] ] ], [ [ [ -91.393914593675078, 31.642512962635362 ], [ -91.394167089657046, 31.64234094177618 ], [ -91.394487814120183, 31.642372045787436 ], [ -91.394688892597685, 31.642588054567806 ], [ -91.394652535618064, 31.642862433760961 ], [ -91.394400039032931, 31.643034455550158 ], [ -91.394079312343919, 31.643003351246644 ], [ -91.393878234469568, 31.642787341536263 ], [ -91.393914593675078, 31.642512962635362 ] ] ], [ [ [ -91.394857753467974, 31.642570012767859 ], [ -91.395089322890229, 31.642377645841457 ], [ -91.395412066890458, 31.642381703893992 ], [ -91.395636928037376, 31.642579809847685 ], [ -91.3956321856096, 31.642855916606951 ], [ -91.395400616030102, 31.643048284502527 ], [ -91.395077869729093, 31.643044226344841 ], [ -91.394853008739418, 31.642846119421975 ], [ -91.394857753467974, 31.642570012767859 ] ] ], [ [ [ -91.40367746623717, 31.643009375303073 ], [ -91.403909019345107, 31.64281699181603 ], [ -91.404231766255862, 31.642821027621192 ], [ -91.404456647833285, 31.643019118672566 ], [ -91.404451931388692, 31.643295226604163 ], [ -91.404220378124364, 31.643487611060422 ], [ -91.403897628912716, 31.643483575150693 ], [ -91.403672747491669, 31.643285483130114 ], [ -91.40367746623717, 31.643009375303073 ] ] ], [ [ [ -91.394933296630995, 31.645558821115607 ], [ -91.395164873596073, 31.645366454379978 ], [ -91.395487627933278, 31.645370512583106 ], [ -91.395712496156335, 31.645568618558965 ], [ -91.395707753398739, 31.645844725199076 ], [ -91.395476176276418, 31.646037092903978 ], [ -91.395153419638063, 31.64603303459571 ], [ -91.394928551572278, 31.645834927650572 ], [ -91.394933296630995, 31.645558821115607 ] ] ], [ [ [ -91.396105036575264, 31.648307093527716 ], [ -91.396408670933056, 31.648526721509036 ], [ -91.396385685706036, 31.648834609149354 ], [ -91.39609288283286, 31.649014731308053 ], [ -91.395649412184014, 31.648981123312076 ], [ -91.395448318318557, 31.648765115722089 ], [ -91.395484676056398, 31.648490736544836 ], [ -91.395698015374663, 31.648330150030844 ], [ -91.396105036575264, 31.648307093527716 ] ] ] ] } },
{ "type": "Feature", "properties": { "depth_bin": "8-9 ft", "survey_id": "LM_03_KGC_20220707_CS_3700_3660", "date": "2022-07-07 00:00:00+00:00", "year": 2022, "mile": 368.0, "bin_order": 9 }, "geometry": { "type": "MultiPolygon", "coordinates": [ [ [ [ -91.406155690875863, 31.614915873232082 ], [ -91.40627661095742, 31.614591841771979 ], [ -91.406494140272883, 31.614495804878686 ], [ -91.407294169574328, 31.614583060827051 ], [ -91.407559830916128, 31.61473980501971 ], [ -91.40761816536471, 31.615011394221717 ], [ -91.407361548942148, 31.615271163618644 ], [ -91.406795569342776, 31.615263049239836 ], [ -91.40626791564577, 31.615102025421667 ], [ -91.406155690875863, 31.614915873232082 ] ] ], [ [ [ -91.405851728129065, 31.617886036442005 ], [ -91.406083212341002, 31.617693646074997 ], [ -91.40640587286228, 31.617697673531246 ], [ -91.406630701160495, 31.617895759655305 ], [ -91.406625995757466, 31.618171868966893 ], [ -91.406394511389493, 31.618364260302165 ], [ -91.406071848570193, 31.618360232741527 ], [ -91.405847020428013, 31.61816214564919 ], [ -91.405851728129065, 31.617886036442005 ] ] ], [ [ [ -91.406010274932413, 31.620507317870633 ], [ -91.40633753914814, 31.620700401992966 ], [ -91.40633174123289, 31.621040518499161 ], [ -91.406039046045208, 31.621220667752731 ], [ -91.40560307722771, 31.621152288308572 ], [ -91.405402016627093, 31.620936296720526 ], [ -91.405438330726525, 31.620661912230069 ], [ -91.405690745646666, 31.620489865344389 ], [ -91.406010274932413, 31.620507317870633 ] ] ], [ [ [ -91.400686640419835, 31.602604094576591 ], [ -91.400894948727981, 31.602393221914529 ], [ -91.40121646471772, 31.6023701778491 ], [ -91.401462850296866, 31.602548461220444 ], [ -91.401489776342984, 31.602823636733095 ], [ -91.401281468329373, 31.603034510364672 ], [ -91.400959950056972, 31.60305755451618 ], [ -91.400713564183306, 31.602879270175318 ], [ -91.400686640419835, 31.602604094576591 ] ] ], [ [ [ -91.400468677202142, 31.605530444622762 ], [ -91.400700140308189, 31.605338063011679 ], [ -91.40102275736723, 31.605342102659844 ], [ -91.401247545305424, 31.605540197270205 ], [ -91.401242826286591, 31.60581630639097 ], [ -91.401011363024054, 31.60600868896983 ], [ -91.400688743668425, 31.606004649216921 ], [ -91.400463955886735, 31.605806553638786 ], [ -91.400468677202142, 31.605530444622762 ] ] ], [ [ [ -91.395336695196548, 31.621559284601947 ], [ -91.395568209629019, 31.621366914432414 ], [ -91.395890881165613, 31.621370968873279 ], [ -91.396115694821574, 31.621569072962384 ], [ -91.396110957695214, 31.621845180695832 ], [ -91.39587944310567, 31.622037551833738 ], [ -91.395556769270669, 31.622033497287788 ], [ -91.39533195577178, 31.621835392230299 ], [ -91.395336695196548, 31.621559284601947 ] ] ], [ [ [ -91.405002056450044, 31.626642385697732 ], [ -91.405233564846355, 31.626449997900899 ], [ -91.40555625545062, 31.62645402849838 ], [ -91.405781102108961, 31.626652116494689 ], [ -91.405776392587939, 31.626928225313051 ], [ -91.405544884035479, 31.627120614078475 ], [ -91.405222191132182, 31.627116583376527 ], [ -91.404997344630004, 31.626918494411623 ], [ -91.405002056450044, 31.626642385697732 ] ] ], [ [ [ -91.393617795274039, 31.627332306230894 ], [ -91.393849327947223, 31.627139939940843 ], [ -91.394172019135368, 31.627143999385144 ], [ -91.394396842342545, 31.627342106670795 ], [ -91.394392099071936, 31.62761821392154 ], [ -91.394160566241467, 31.627810581180185 ], [ -91.393837872754276, 31.62780652163066 ], [ -91.393613049704385, 31.627608413376425 ], [ -91.393617795274039, 31.627332306230894 ] ] ], [ [ [ -91.403821236010543, 31.648629438639865 ], [ -91.404052803295485, 31.648437055505887 ], [ -91.404375569645538, 31.648441091586271 ], [ -91.404600464537708, 31.648639182673808 ], [ -91.404595747483725, 31.648915290381481 ], [ -91.404364180042393, 31.649107674484892 ], [ -91.404041411390821, 31.649103638299945 ], [ -91.403816516655027, 31.64890554624299 ], [ -91.403821236010543, 31.648629438639865 ] ] ] ] } },
{ "type": "Feature", "properties": { "depth_bin": "9-10 ft", "survey_id": "LM_03_KGC_20220707_CS_3700_3660", "date": "2022-07-07 00:00:00+00:00", "year": 2022, "mile": 368.0, "bin_order": 8 }, "geometry": { "type": "MultiPolygon", "coordinates": [ [ [ [ -91.40711598628846, 31.597006256498791 ], [ -91.407324267539238, 31.596795372276826 ], [ -91.407645763373424, 31.596772311312911 ], [ -91.407892147505109, 31.596950582345823 ], [ -91.407919091660162, 31.597225757307584 ], [ -91.407710810704444, 31.597436642498778 ], [ -91.407389312588336, 31.597459703549156 ], [ -91.407142928161591, 31.59728143154701 ], [ -91.40711598628846, 31.597006256498791 ] ] ], [ [ [ -91.405702668094833, 31.614646984848179 ], [ -91.405973299357811, 31.614443153833989 ], [ -91.406378806910922, 31.614470697041455 ], [ -91.40662523362785, 31.614648971506732 ], [ -91.406652176790686, 31.614924146047485 ], [ -91.40640619547797, 31.615149697103742 ], [ -91.405961529612611, 31.61513359445475 ], [ -91.405697960549077, 31.614923094175449 ], [ -91.405702668094833, 31.614646984848179 ] ] ], [ [ [ -91.405532101736625, 31.617840918036283 ], [ -91.405690133090673, 31.617680955473269 ], [ -91.405925384794585, 31.617623081726137 ], [ -91.406316500029291, 31.617711013390874 ], [ -91.406497546845287, 31.617983506628882 ], [ -91.406702707206122, 31.617834073556246 ], [ -91.406986618318882, 31.617825686653688 ], [ -91.407233054803953, 31.618003960186169 ], [ -91.407260000283145, 31.61827913455063 ], [ -91.407121054314302, 31.618451583633025 ], [ -91.406893563239734, 31.618528912753369 ], [ -91.406586159520273, 31.618444909528488 ], [ -91.406437982262503, 31.618193920517978 ], [ -91.406193663975998, 31.61835479370523 ], [ -91.405790970444897, 31.618327528017851 ], [ -91.405527393100215, 31.618117027202416 ], [ -91.405532101736625, 31.617840918036283 ] ] ], [ [ [ -91.405264408839002, 31.620658745004519 ], [ -91.405495901336892, 31.620466356050187 ], [ -91.405818571332503, 31.620470385305136 ], [ -91.406043404743755, 31.620668472560308 ], [ -91.40603869709723, 31.620944581672891 ], [ -91.405807204443249, 31.621136971595583 ], [ -91.405484532149288, 31.621132942236205 ], [ -91.405259698894142, 31.620934854012667 ], [ -91.405264408839002, 31.620658745004519 ] ] ], [ [ [ -91.40052955872433, 31.602624291805665 ], [ -91.400737867422052, 31.602413419413796 ], [ -91.401059383502229, 31.602390375747586 ], [ -91.401305768819668, 31.602568659413343 ], [ -91.401332694405227, 31.602843834943137 ], [ -91.40112438600201, 31.603054708304516 ], [ -91.400802867639172, 31.603077752056802 ], [ -91.400556482027227, 31.60289946742153 ], [ -91.40052955872433, 31.602624291805665 ] ] ], [ [ [ -91.3954902971184, 31.621591790277503 ], [ -91.39572181133093, 31.621399419822456 ], [ -91.396044483004005, 31.621403473878946 ], [ -91.396269297072919, 31.621601577709967 ], [ -91.396264560394101, 31.621877685462799 ], [ -91.396033046024513, 31.622070056886223 ], [ -91.395710372053045, 31.622066002724655 ], [ -91.395485558141175, 31.621867897925263 ], [ -91.3954902971184, 31.621591790277503 ] ] ], [ [ [ -91.405133627416063, 31.623715558852414 ], [ -91.405365128028848, 31.623523170483274 ], [ -91.405687808552386, 31.623527200415861 ], [ -91.405912648737711, 31.623725288044156 ], [ -91.405907940143209, 31.624001397006872 ], [ -91.405676439374304, 31.624193786344481 ], [ -91.405353756552074, 31.624189756307455 ], [ -91.405128916522898, 31.62399166771068 ], [ -91.405133627416063, 31.623715558852414 ] ] ], [ [ [ -91.404843118895144, 31.62661342747986 ], [ -91.405074627531235, 31.626421039978954 ], [ -91.405397318010557, 31.626425070974769 ], [ -91.405622164252378, 31.626623159238527 ], [ -91.405617454267286, 31.626899268036723 ], [ -91.405385945475032, 31.627091656506234 ], [ -91.405063252696692, 31.627087625405942 ], [ -91.404838406611034, 31.626889536173589 ], [ -91.404843118895144, 31.62661342747986 ] ] ], [ [ [ -91.403547067755383, 31.64029633016121 ], [ -91.403778614141501, 31.640103946618545 ], [ -91.404101351660429, 31.640107982444967 ], [ -91.404326226677398, 31.64030607358206 ], [ -91.404321510346762, 31.640582181613528 ], [ -91.404089963804282, 31.640774566125302 ], [ -91.403767223984772, 31.640770530194299 ], [ -91.40354234912418, 31.640572438088107 ], [ -91.403547067755383, 31.64029633016121 ] ] ], [ [ [ -91.395254434254809, 31.6456130778435 ], [ -91.395486010724369, 31.645420710509018 ], [ -91.395808765299861, 31.645424767906405 ], [ -91.396033634355433, 31.645622873341615 ], [ -91.396028892536933, 31.645898980022867 ], [ -91.395797315910173, 31.646091348326639 ], [ -91.395474559033516, 31.646087290824134 ], [ -91.395249690135159, 31.645889184419637 ], [ -91.395254434254809, 31.6456130778435 ] ] ], [ [ [ -91.403603585109892, 31.645843788889895 ], [ -91.403835145656984, 31.645651405856597 ], [ -91.404157902347976, 31.645655442170703 ], [ -91.404382790317825, 31.645853533488104 ], [ -91.404378073133216, 31.646129641287068 ], [ -91.404146512429705, 31.646322025289681 ], [ -91.403823753437493, 31.64631798887099 ], [ -91.403598865624048, 31.646119896584281 ], [ -91.403603585109892, 31.645843788889895 ] ] ] ] } },
{ "type": "Feature", "properties": { "depth_bin": "<5 ft", "survey_id": "LM_03_KGC_20220707_CS_3700_3660", "date": "2022-07-07 00:00:00+00:00", "year": 2022, "mile": 368.0, "bin_order": 13 }, "geometry": { "type": "MultiPolygon", "coordinates": [ [ [ [ -91.407994363083645, 31.602508997700927 ], [ -91.408281092800138, 31.602382386414547 ], [ -91.408588446070993, 31.602466384066531 ], [ -91.40873638080744, 31.602711786412954 ], [ -91.408638237853623, 31.602974840615524 ], [ -91.408351506731876, 31.603101452648577 ], [ -91.408044151638265, 31.603017454372313 ], [ -91.407896218307059, 31.602772051279199 ], [ -91.407994363083645, 31.602508997700927 ] ] ], [ [ [ -91.409159962373295, 31.605452266227196 ], [ -91.409423513818638, 31.605662759034626 ], [ -91.409378805351935, 31.606000753942499 ], [ -91.409107947190947, 31.60615081122674 ], [ -91.408642947101072, 31.606094674393614 ], [ -91.40846761460071, 31.605862863688923 ], [ -91.40853516191406, 31.605592843311822 ], [ -91.408765746478764, 31.605450889443713 ], [ -91.409159962373295, 31.605452266227196 ] ] ], [ [ [ -91.408647455656947, 31.608599196062539 ], [ -91.408934203601362, 31.608472584013459 ], [ -91.409241577300136, 31.608556580696778 ], [ -91.409389522698561, 31.608801982436113 ], [ -91.409291374394826, 31.609065036748941 ], [ -91.409004625044801, 31.609191649544918 ], [ -91.40869724952266, 31.609107652237199 ], [ -91.408549305529846, 31.608862249750967 ], [ -91.408647455656947, 31.608599196062539 ] ] ], [ [ [ -91.408387974276721, 31.611758341336152 ], [ -91.408674732428096, 31.611631730261848 ], [ -91.409108990946635, 31.61173116963931 ], [ -91.40928433542507, 31.611962979674157 ], [ -91.409216784825702, 31.612233000107942 ], [ -91.408904898053834, 31.612387741097926 ], [ -91.408470636765458, 31.612288300942463 ], [ -91.4082898197112, 31.612021394566181 ], [ -91.408387974276721, 31.611758341336152 ] ] ], [ [ [ -91.407991277261118, 31.614855333443067 ], [ -91.408319395599918, 31.614727501588899 ], [ -91.410025294372929, 31.614961460436405 ], [ -91.410271729612873, 31.615139728121388 ], [ -91.410298683620837, 31.61541490223118 ], [ -91.410126159783118, 31.615608030714551 ], [ -91.409890915458575, 31.615665912474583 ], [ -91.408185004326853, 31.615431951442691 ], [ -91.407908059485081, 31.615187948520187 ], [ -91.407991277261118, 31.614855333443067 ] ] ], [ [ [ -91.407268812267191, 31.61785175411605 ], [ -91.410317454483078, 31.618474358847998 ], [ -91.410542293175681, 31.618672438394384 ], [ -91.410537599178738, 31.618948548197917 ], [ -91.410343777990079, 31.619126275805169 ], [ -91.410062191492727, 31.619158442897628 ], [ -91.406883286568686, 31.61854328715949 ], [ -91.4066063364005, 31.618299281334785 ], [ -91.4066426456057, 31.618024896241899 ], [ -91.406895051075765, 31.617852846597525 ], [ -91.407268812267191, 31.61785175411605 ] ] ], [ [ [ -91.406555296897366, 31.620635154844251 ], [ -91.408434955776244, 31.621003361571958 ], [ -91.408636488221532, 31.621122258582023 ], [ -91.4087256577468, 31.621387646289143 ], [ -91.408569405150629, 31.621629257197409 ], [ -91.408382921295384, 31.621701904174351 ], [ -91.40809802310271, 31.62168833380592 ], [ -91.40646223483553, 31.621338380131991 ], [ -91.406260704857644, 31.621219479768772 ], [ -91.406170336863411, 31.621024810711194 ], [ -91.406268507918341, 31.620761759977579 ], [ -91.406555296897366, 31.620635154844251 ] ] ], [ [ [ -91.407795464695823, 31.623970604131351 ], [ -91.40803699047089, 31.62409860490196 ], [ -91.408126160733659, 31.624363992946424 ], [ -91.408000962798781, 31.624582210063043 ], [ -91.407701041235072, 31.624684154613917 ], [ -91.405816360270336, 31.624304813623134 ], [ -91.405629415637023, 31.624169581906475 ], [ -91.405561781013716, 31.623968270553117 ], [ -91.405689616874554, 31.623714721274482 ], [ -91.405989537260069, 31.623612781405079 ], [ -91.407795464695823, 31.623970604131351 ] ] ], [ [ [ -91.407094783199696, 31.593958114850473 ], [ -91.407381487310516, 31.593831504594327 ], [ -91.407784375170181, 31.593886653124706 ], [ -91.407985386109829, 31.594102640099784 ], [ -91.407949093283051, 31.594377027000778 ], [ -91.407656486813551, 31.594557183548631 ], [ -91.407212594137164, 31.59450671904802 ], [ -91.407002118823868, 31.594256263669973 ], [ -91.407094783199696, 31.593958114850473 ] ] ], [ [ [ -91.407696343183773, 31.59982923781137 ], [ -91.407983064894751, 31.599702626884838 ], [ -91.408290409168345, 31.599786624988162 ], [ -91.408438339186077, 31.600032027613008 ], [ -91.408340198556317, 31.600295081757935 ], [ -91.408053475440255, 31.600421693431063 ], [ -91.407746129344176, 31.60033769470348 ], [ -91.407598200731528, 31.600092291332036 ], [ -91.407696343183773, 31.59982923781137 ] ] ], [ [ [ -91.405468394759865, 31.626474755926438 ], [ -91.406741183041746, 31.62677385999805 ], [ -91.406889148423744, 31.627019264697584 ], [ -91.406790971725158, 31.62728231550102 ], [ -91.406421510236143, 31.62740788867529 ], [ -91.40527238274413, 31.627105130320754 ], [ -91.405124421567322, 31.626859723885818 ], [ -91.405197469879141, 31.626624802280638 ], [ -91.405468394759865, 31.626474755926438 ] ] ], [ [ [ -91.405416784769372, 31.629442126300386 ], [ -91.40611595690433, 31.629611916606876 ], [ -91.406281857195424, 31.629809263783049 ], [ -91.406245540794117, 31.630083648099639 ], [ -91.405993100131226, 31.630255695010764 ], [ -91.405243590818046, 31.630134156635766 ], [ -91.405005366729966, 31.629902560241693 ], [ -91.405023449607597, 31.629659958970791 ], [ -91.405181502706512, 31.62949999801242 ], [ -91.405416784769372, 31.629442126300386 ] ] ], [ [ [ -91.405677105201647, 31.632422527645122 ], [ -91.405977053982085, 31.632320588863401 ], [ -91.406398136014488, 31.632448329567474 ], [ -91.406546108792085, 31.632693734722039 ], [ -91.406447924455264, 31.632956784807671 ], [ -91.406119738634061, 31.633084609299463 ], [ -91.405698654194993, 31.632956867606783 ], [ -91.405550683302422, 31.632711461539085 ], [ -91.405677105201647, 31.632422527645122 ] ] ], [ [ [ -91.400674921857203, 31.593957841697115 ], [ -91.400961634002186, 31.593831246142951 ], [ -91.401268952155007, 31.593915260371659 ], [ -91.401416854797731, 31.594160670429076 ], [ -91.401318701574525, 31.59442371895949 ], [ -91.4010319880243, 31.594550315259788 ], [ -91.400724668049918, 31.594466300406591 ], [ -91.400576766812449, 31.59422088960304 ], [ -91.400674921857203, 31.593957841697115 ] ] ], [ [ [ -91.400494773695726, 31.596826397319376 ], [ -91.400781495033712, 31.596699802524608 ], [ -91.401177404959427, 31.59676929559544 ], [ -91.401352702912135, 31.597001115464352 ], [ -91.401285142362369, 31.597271131909405 ], [ -91.401014297906571, 31.597421172628948 ], [ -91.400577381856166, 31.597356361307327 ], [ -91.400396614775033, 31.597089444856351 ], [ -91.400494773695726, 31.596826397319376 ] ] ], [ [ [ -91.400467653741785, 31.599799365745895 ], [ -91.400754384409055, 31.599672771372681 ], [ -91.401156460034727, 31.599727975866095 ], [ -91.401357467140329, 31.59994397299349 ], [ -91.401321151915766, 31.600218357049197 ], [ -91.401028514587793, 31.600398497220784 ], [ -91.400585431341739, 31.600347974529459 ], [ -91.400374961832071, 31.600097508600726 ], [ -91.400467653741785, 31.599799365745895 ] ] ], [ [ [ -91.400164044370925, 31.602494314700092 ], [ -91.400450783845486, 31.602367721348195 ], [ -91.400847371032427, 31.602438173481133 ], [ -91.40102267813414, 31.602669993930945 ], [ -91.400955111802844, 31.602940009803223 ], [ -91.400684250021271, 31.603090049131762 ], [ -91.400246654196991, 31.603024278553733 ], [ -91.400065877860314, 31.602757361529719 ], [ -91.400164044370925, 31.602494314700092 ] ] ], [ [ [ -91.400399673330611, 31.605424155222828 ], [ -91.400699539342597, 31.605322225747031 ], [ -91.400995792437655, 31.605431620301818 ], [ -91.401114892640621, 31.605688257576894 ], [ -91.400987071441349, 31.605941803368655 ], [ -91.400687203694758, 31.606043733454715 ], [ -91.400390949086457, 31.605934338141534 ], [ -91.400271850618097, 31.605677700256191 ], [ -91.400399673330611, 31.605424155222828 ] ] ], [ [ [ -91.400029101841014, 31.608250644216618 ], [ -91.400328977421267, 31.608148715969072 ], [ -91.400625238848804, 31.608258111620135 ], [ -91.400744341267512, 31.608514749217427 ], [ -91.400616514869157, 31.608768294368605 ], [ -91.400316637554027, 31.608870223226464 ], [ -91.40002037461305, 31.608760826816908 ], [ -91.399901273929189, 31.608504188609317 ], [ -91.400029101841014, 31.608250644216618 ] ] ], [ [ [ -91.399430131723392, 31.611080083303523 ], [ -91.399716898972684, 31.61095349267142 ], [ -91.400024271441282, 31.611037511511736 ], [ -91.40017219579488, 31.611282923169213 ], [ -91.400074018958819, 31.611545969351202 ], [ -91.399787250303021, 31.611672560729939 ], [ -91.39947987601137, 31.611588541264684 ], [ -91.399331953064276, 31.611343128860579 ], [ -91.399430131723392, 31.611080083303523 ] ] ], [ [ [ -91.398168188029402, 31.613552530069796 ], [ -91.398496314003367, 31.613424723733704 ], [ -91.399276098533093, 31.613526120562639 ], [ -91.399500901521321, 31.613724218534969 ], [ -91.399496175838337, 31.614000327065764 ], [ -91.399338140739872, 31.614160281904066 ], [ -91.399144244079949, 31.614216924601983 ], [ -91.39832310428713, 31.614116745633154 ], [ -91.398075473239558, 31.613850669940582 ], [ -91.398168188029402, 31.613552530069796 ] ] ], [ [ [ -91.397445386378379, 31.616200220604455 ], [ -91.39777352271436, 31.616072416519152 ], [ -91.398277045651824, 31.616208750261915 ], [ -91.398478079604416, 31.61642475234315 ], [ -91.398441747371734, 31.616699134405177 ], [ -91.398108039543033, 31.616883946870647 ], [ -91.397563162410918, 31.616748830918404 ], [ -91.39735266629755, 31.616498359667379 ], [ -91.397445386378379, 31.616200220604455 ] ] ], [ [ [ -91.396427535333672, 31.61874420203414 ], [ -91.396714330326091, 31.618617619210607 ], [ -91.39702172465644, 31.61870164593206 ], [ -91.397169652184445, 31.618947060926804 ], [ -91.3970714579754, 31.619210103947349 ], [ -91.396784661575737, 31.619336687517624 ], [ -91.396477265421808, 31.619252660170897 ], [ -91.396329339301047, 31.619007244429415 ], [ -91.396427535333672, 31.61874420203414 ] ] ], [ [ [ -91.404211233343688, 31.63505232512118 ], [ -91.404498069644063, 31.634925726426623 ], [ -91.404932287477806, 31.635015397159901 ], [ -91.405107662423575, 31.635247213221167 ], [ -91.405040079984147, 31.635517229541431 ], [ -91.404728107293593, 31.63567195698387 ], [ -91.404293886663538, 31.635582285470225 ], [ -91.404113039733659, 31.635315373017409 ], [ -91.404211233343688, 31.63505232512118 ] ] ], [ [ [ -91.403771542722851, 31.640234535019914 ], [ -91.404058395807724, 31.640107937958732 ], [ -91.404458703083392, 31.640156249908131 ], [ -91.404659800796992, 31.640372243652696 ], [ -91.404623474143179, 31.640646626777517 ], [ -91.404330712696932, 31.640826769440221 ], [ -91.40388938007851, 31.640783139744403 ], [ -91.403678815293958, 31.640532677477982 ], [ -91.403771542722851, 31.640234535019914 ] ] ], [ [ [ -91.403931278351337, 31.642901950771055 ], [ -91.40423126302548, 31.642800017429973 ], [ -91.404527637480896, 31.642909407241756 ], [ -91.404646790653359, 31.643166041675116 ], [ -91.404518923001859, 31.64341958819189 ], [ -91.404218936590169, 31.643521522144372 ], [ -91.403922560618355, 31.643412131573317 ], [ -91.403803409183425, 31.643155496528564 ], [ -91.403931278351337, 31.642901950771055 ] ] ], [ [ [ -91.404641943474033, 31.645655283518305 ], [ -91.404889674016587, 31.645921348605786 ], [ -91.404796943653537, 31.646219491552252 ], [ -91.404510072345374, 31.646346089569732 ], [ -91.404041241659343, 31.646261975002826 ], [ -91.403893255705725, 31.646016566952191 ], [ -91.403991462541882, 31.645753520041964 ], [ -91.40423730794636, 31.645631605924056 ], [ -91.404641943474033, 31.645655283518305 ] ] ], [ [ [ -91.404046752685588, 31.64853332914695 ], [ -91.404333631429694, 31.648406732455904 ], [ -91.404641130276246, 31.64849074392064 ], [ -91.404789121863061, 31.648736151206805 ], [ -91.404690913729624, 31.648999198583361 ], [ -91.404404033576824, 31.649125796022371 ], [ -91.404096532903495, 31.649041783932123 ], [ -91.403948542725374, 31.648796375898009 ], [ -91.404046752685588, 31.64853332914695 ] ] ], [ [ [ -91.395895874091465, 31.648351850388909 ], [ -91.396066453799605, 31.648502123382936 ], [ -91.396110690485401, 31.648708140114472 ], [ -91.396013672926259, 31.6489004605208 ], [ -91.395808101401286, 31.649014260668736 ], [ -91.394657529451322, 31.649011086876609 ], [ -91.394443301819948, 31.648909640819369 ], [ -91.394340528797457, 31.648757946527908 ], [ -91.394376889773056, 31.648483567774221 ], [ -91.394629401591672, 31.648311546663546 ], [ -91.395379269957175, 31.648289504490958 ], [ -91.395895874091465, 31.648351850388909 ] ] ], [ [ [ -91.404216303768933, 31.651289418491803 ], [ -91.404503190938911, 31.651162821744339 ], [ -91.404810698923086, 31.651246833070449 ], [ -91.404958695006798, 31.651492240216996 ], [ -91.404860484095181, 31.651755287534804 ], [ -91.404573595516339, 31.651881885030303 ], [ -91.404266085705117, 31.651797873078642 ], [ -91.40411809103027, 31.65155246518405 ], [ -91.404216303768933, 31.651289418491803 ] ] ], [ [ [ -91.396150927089323, 31.651318999488144 ], [ -91.396352506691997, 31.651437917006582 ], [ -91.396442880465571, 31.651632592422143 ], [ -91.396409830953772, 31.651805627502799 ], [ -91.396251723834297, 31.651965575306804 ], [ -91.395494594573691, 31.652021185448969 ], [ -91.39518800219038, 31.651858704725065 ], [ -91.3951296859818, 31.651587111784906 ], [ -91.395312955942302, 31.651359792918448 ], [ -91.395506932794959, 31.651303158999124 ], [ -91.396150927089323, 31.651318999488144 ] ] ], [ [ [ -91.395093713797763, 31.621394929381268 ], [ -91.395380518757804, 31.621268349936127 ], [ -91.395811126287199, 31.621363357969948 ], [ -91.395986453946065, 31.621595185440164 ], [ -91.39591885702869, 31.621865196938348 ], [ -91.395606916851705, 31.622019903413864 ], [ -91.395176306566427, 31.6219248946067 ], [ -91.394995510933526, 31.621657970427709 ], [ -91.395093713797763, 31.621394929381268 ] ] ], [ [ [ -91.394078231434989, 31.624033294689834 ], [ -91.394406399971487, 31.623905500480515 ], [ -91.394886671668218, 31.624019473100258 ], [ -91.395087713523694, 31.624235480565638 ], [ -91.395051367302699, 31.624509860907565 ], [ -91.394717624579968, 31.624694663140197 ], [ -91.394195995341732, 31.624581907134125 ], [ -91.39398549181648, 31.624331430338621 ], [ -91.394078231434989, 31.624033294689834 ] ] ], [ [ [ -91.39321052437343, 31.627149438216122 ], [ -91.393497349708881, 31.627022863785839 ], [ -91.393897375831074, 31.627085779371146 ], [ -91.394098421603715, 31.627301788438679 ], [ -91.394062070888239, 31.627576168235702 ], [ -91.393769332279803, 31.627756287707182 ], [ -91.393328286244014, 31.627698051164717 ], [ -91.39311777846973, 31.627447572899161 ], [ -91.39321052437343, 31.627149438216122 ] ] ], [ [ [ -91.393129307264815, 31.630090159393337 ], [ -91.393429260794463, 31.629988250274611 ], [ -91.394095662346473, 31.630098206647329 ], [ -91.394296714757388, 31.630314215535606 ], [ -91.394260363047238, 31.630588595244969 ], [ -91.393926596593275, 31.630773394464754 ], [ -91.3932188334622, 31.630664654005599 ], [ -91.393002850605143, 31.630379079773409 ], [ -91.393129307264815, 31.630090159393337 ] ] ], [ [ [ -91.393305901480431, 31.63337842067741 ], [ -91.393592746205044, 31.633251846784216 ], [ -91.394026299607205, 31.633349778273004 ], [ -91.394201643867575, 31.633581608378023 ], [ -91.39413403158764, 31.633851617982966 ], [ -91.393822047729614, 31.634006318385762 ], [ -91.393388491557218, 31.633908386118371 ], [ -91.393207679514646, 31.633641459286199 ], [ -91.393305901480431, 31.63337842067741 ] ] ], [ [ [ -91.392797174759878, 31.636361859251654 ], [ -91.393125388975449, 31.636234070074902 ], [ -91.394178280546512, 31.636361943241344 ], [ -91.394424738760875, 31.636540241820466 ], [ -91.394451649265051, 31.636815417045195 ], [ -91.394312651168491, 31.636987850000274 ], [ -91.3940851046967, 31.637065154221798 ], [ -91.39299084558543, 31.636938496811727 ], [ -91.392713880716798, 31.636694460909329 ], [ -91.392797174759878, 31.636361859251654 ] ] ], [ [ [ -91.393372848834133, 31.639404631032729 ], [ -91.393659712354065, 31.63927805771711 ], [ -91.39409428436619, 31.639364271441764 ], [ -91.394269639412357, 31.639596101624729 ], [ -91.394202022182725, 31.6398661108827 ], [ -91.393890017885667, 31.640020810646604 ], [ -91.393455443066188, 31.639934596139362 ], [ -91.393274619944918, 31.639667669249516 ], [ -91.393372848834133, 31.639404631032729 ] ] ], [ [ [ -91.394250082627011, 31.642320462471783 ], [ -91.394424301032672, 31.642412801380395 ], [ -91.394536532507772, 31.64259896343555 ], [ -91.394415531553364, 31.642922979847608 ], [ -91.393953164972473, 31.643040863305274 ], [ -91.393542829829528, 31.642922747159279 ], [ -91.393423707925237, 31.642666103370502 ], [ -91.393551604074091, 31.642412568910693 ], [ -91.393769211565839, 31.642316556696819 ], [ -91.394250082627011, 31.642320462471783 ] ] ], [ [ [ -91.394162933237624, 31.645347148816718 ], [ -91.395247723012474, 31.645368280365261 ], [ -91.395489284521489, 31.645496305737922 ], [ -91.395578436410119, 31.645761701189631 ], [ -91.395422106904164, 31.646003292630994 ], [ -91.395194538952566, 31.646080598026089 ], [ -91.394309125543629, 31.646076062459457 ], [ -91.394030985606292, 31.646037941509515 ], [ -91.393844016745049, 31.645902692091937 ], [ -91.393785707407318, 31.64563109854743 ], [ -91.393968968201634, 31.645403781127712 ], [ -91.394162933237624, 31.645347148816718 ] ] ] ] } },
{ "type": "Feature", "properties": { "depth_bin": ">20 ft", "survey_id": "LM_03_KGC_20220707_CS_3700_3660", "date": "2022-07-07 00:00:00+00:00", "year": 2022, "mile": 368.0, "bin_order": 0 }, "geometry": { "type": "MultiPolygon", "coordinates": [ [ [ [ -91.407226802255522, 31.593835199742038 ], [ -91.407530847616243, 31.593930191011633 ], [ -91.407678767034483, 31.594175594360721 ], [ -91.407580631182597, 31.594438648286481 ], [ -91.407293925423375, 31.594565258925527 ], [ -91.401427028199336, 31.594564860443825 ], [ -91.401045173869989, 31.594449328773305 ], [ -91.400897271799764, 31.594203918313301 ], [ -91.400995425934568, 31.593940870129803 ], [ -91.401282137625444, 31.593814273839573 ], [ -91.407226802255522, 31.593835199742038 ] ] ], [ [ [ -91.407402237607158, 31.596777702160246 ], [ -91.407657189652184, 31.596884828518103 ], [ -91.407776298591472, 31.597141460154667 ], [ -91.407648507876345, 31.597395013926292 ], [ -91.407390016875482, 31.597495738921189 ], [ -91.401207878944462, 31.597396797727153 ], [ -91.400952933499383, 31.597289658699381 ], [ -91.40083526865358, 31.597068406839707 ], [ -91.400886517621231, 31.596863585961476 ], [ -91.401062076636236, 31.596717653524941 ], [ -91.401702074576377, 31.596653457986736 ], [ -91.407402237607158, 31.596777702160246 ] ] ], [ [ [ -91.40796636935012, 31.599796525660462 ], [ -91.408099358735427, 31.599972366153882 ], [ -91.408095795239902, 31.600181809726504 ], [ -91.407956879168509, 31.600354261128583 ], [ -91.407729433420926, 31.60043159342753 ], [ -91.401265711382621, 31.600405631777424 ], [ -91.400969473597172, 31.60029623828434 ], [ -91.400851805251932, 31.600074986413144 ], [ -91.400949966422189, 31.599811938706054 ], [ -91.401236696525103, 31.599685343229599 ], [ -91.407700368722473, 31.599711304702701 ], [ -91.40796636935012, 31.599796525660462 ] ] ], [ [ [ -91.408120388590376, 31.602383248406539 ], [ -91.408366787965491, 31.602561518891548 ], [ -91.408393734392732, 31.602836693620159 ], [ -91.408221231115107, 31.603029820531855 ], [ -91.407870491703079, 31.603099810098431 ], [ -91.40140737934297, 31.60309281981608 ], [ -91.401111133007987, 31.602983426407814 ], [ -91.400993461229149, 31.602762174633291 ], [ -91.401150907857485, 31.602449851741628 ], [ -91.401535765366432, 31.602357910308157 ], [ -91.408120388590376, 31.602383248406539 ] ] ], [ [ [ -91.400978638178842, 31.605317523384358 ], [ -91.408648294525506, 31.605432622688514 ], [ -91.408913932958143, 31.605589363495397 ], [ -91.4089722668581, 31.605860952394412 ], [ -91.408822708062232, 31.606067621011373 ], [ -91.408553902651448, 31.606146176628634 ], [ -91.401170105622995, 31.606051737011757 ], [ -91.400774504820134, 31.605974081051414 ], [ -91.400593721622556, 31.605707164653936 ], [ -91.400691890139555, 31.605444117588839 ], [ -91.400978638178842, 31.605317523384358 ] ] ], [ [ [ -91.400592334663983, 31.60815148502958 ], [ -91.407613924243321, 31.60843745539611 ], [ -91.407879569153891, 31.60859419850906 ], [ -91.407937901509044, 31.608865787720418 ], [ -91.407754749463507, 31.609093129947325 ], [ -91.407401506754866, 31.609156925988859 ], [ -91.40367066803411, 31.60902855932008 ], [ -91.400539225293841, 31.608863810966682 ], [ -91.400325080887924, 31.608762377013438 ], [ -91.400207404349615, 31.608541124527253 ], [ -91.400305577276598, 31.608278078006382 ], [ -91.400592334663983, 31.60815148502958 ] ] ], [ [ [ -91.408418861560406, 31.608534037823308 ], [ -91.408736208046506, 31.60848411470468 ], [ -91.409001855072773, 31.608640855547815 ], [ -91.409060190733825, 31.608912444353106 ], [ -91.408877041247919, 31.609139788275648 ], [ -91.408559692580084, 31.609189711668382 ], [ -91.408294044818703, 31.609032969891114 ], [ -91.408235711339387, 31.608761380811703 ], [ -91.408418861560406, 31.608534037823308 ] ] ], [ [ [ -91.407202197377018, 31.611594578742721 ], [ -91.407437432784278, 31.611536701618562 ], [ -91.408396146897246, 31.611612238443708 ], [ -91.408620965517343, 31.611810320899774 ], [ -91.408616267106794, 31.612086430742231 ], [ -91.408458250485936, 31.612246397540666 ], [ -91.408264362747758, 31.612303054421901 ], [ -91.407264292834498, 31.612228738154133 ], [ -91.407101528562151, 31.612122252228744 ], [ -91.407011166729134, 31.611927583732452 ], [ -91.407044179284938, 31.611754543750148 ], [ -91.407202197377018, 31.611594578742721 ] ] ], [ [ [ -91.405115993465714, 31.632164090717438 ], [ -91.405960563884108, 31.632387576922234 ], [ -91.406079708936701, 31.632644210111081 ], [ -91.405951860804436, 31.632897759070389 ], [ -91.405651910117498, 31.632999697721878 ], [ -91.405092198852557, 31.632908912396253 ], [ -91.394589287998159, 31.630919077627428 ], [ -91.394193136579759, 31.630751544092256 ], [ -91.39411067409587, 31.630451204780854 ], [ -91.394293902657097, 31.630223885357104 ], [ -91.394611329273829, 31.630174000216861 ], [ -91.405115993465714, 31.632164090717438 ] ] ], [ [ [ -91.400077959145634, 31.610973353524457 ], [ -91.405359909843682, 31.611383300487532 ], [ -91.405584721260809, 31.611581388066547 ], [ -91.405580013930361, 31.611857497510588 ], [ -91.405421992688716, 31.612017460397166 ], [ -91.405186754978473, 31.612075333721958 ], [ -91.399861896477887, 31.611701548401335 ], [ -91.399606914440142, 31.611594405672218 ], [ -91.399487811651909, 31.611337767106196 ], [ -91.399646703743073, 31.611060832573461 ], [ -91.400077959145634, 31.610973353524457 ] ] ], [ [ [ -91.403962592204223, 31.626095033321782 ], [ -91.404188291050417, 31.626242681246445 ], [ -91.404246621301596, 31.626514271431951 ], [ -91.404063423992397, 31.626741606316319 ], [ -91.403746013101951, 31.626791515546451 ], [ -91.395016589078921, 31.624785797298166 ], [ -91.394790908875592, 31.624638133720136 ], [ -91.394732607227397, 31.624366540088467 ], [ -91.39498928371944, 31.624106798433203 ], [ -91.395391131952621, 31.624118447640441 ], [ -91.403962592204223, 31.626095033321782 ] ] ], [ [ [ -91.395498970539819, 31.627397686208234 ], [ -91.404447451832084, 31.629219718515209 ], [ -91.4047681239106, 31.62936537858986 ], [ -91.404887262157857, 31.629622012773162 ], [ -91.404759415349531, 31.629875560683047 ], [ -91.404377335508613, 31.629969536964278 ], [ -91.395260516849447, 31.628087164146134 ], [ -91.394529976591386, 31.627989941768206 ], [ -91.39426430167461, 31.62783317024299 ], [ -91.3942059999968, 31.627561576486031 ], [ -91.394324561162875, 31.627378317139716 ], [ -91.394542132195198, 31.627282302198171 ], [ -91.395498970539819, 31.627397686208234 ] ] ], [ [ [ -91.396677499433068, 31.633710337819714 ], [ -91.404186304544339, 31.634865043893065 ], [ -91.404387860385, 31.634983948173744 ], [ -91.404477029160503, 31.635249338333328 ], [ -91.404320741009769, 31.635490942405333 ], [ -91.404010546600205, 31.635567231390354 ], [ -91.39654167912694, 31.6344216196125 ], [ -91.396300144039898, 31.634293596922689 ], [ -91.396210999544778, 31.634028201812388 ], [ -91.396367305602439, 31.633786608234598 ], [ -91.396677499433068, 31.633710337819714 ] ] ], [ [ [ -91.403969204188101, 31.637479836964399 ], [ -91.404251602188467, 31.63761355207965 ], [ -91.4043407727454, 31.637878942299491 ], [ -91.404184479542195, 31.638120545951665 ], [ -91.40387427620584, 31.638196834282656 ], [ -91.397150978000695, 31.637428414554417 ], [ -91.396646137896525, 31.637293854299919 ], [ -91.396499398668041, 31.636977718826792 ], [ -91.396655709278065, 31.636736125142338 ], [ -91.396965912809705, 31.636659854377925 ], [ -91.403969204188101, 31.637479836964399 ] ] ], [ [ [ -91.403616423866637, 31.640070831074205 ], [ -91.403912789020083, 31.640180222048926 ], [ -91.4040319373334, 31.640436856991037 ], [ -91.403904072112084, 31.64069040306428 ], [ -91.403604093996549, 31.640792335880811 ], [ -91.396683480774797, 31.640253080656514 ], [ -91.396428426231694, 31.640145929569531 ], [ -91.396309299470033, 31.639889288221575 ], [ -91.396383804883527, 31.639689758506869 ], [ -91.396537658845858, 31.639573934541009 ], [ -91.397061015780068, 31.639531741389955 ], [ -91.403616423866637, 31.640070831074205 ] ] ], [ [ [ -91.396695721003013, 31.642422131143729 ], [ -91.40394937181793, 31.642811632175661 ], [ -91.404137101845961, 31.642994119394814 ], [ -91.404132384461619, 31.643270227284468 ], [ -91.403900830629453, 31.643462611141793 ], [ -91.396642033616601, 31.643141376876066 ], [ -91.396386971386306, 31.643034225492354 ], [ -91.396267841416091, 31.642777584098745 ], [ -91.396395730138693, 31.642524046540569 ], [ -91.396695721003013, 31.642422131143729 ] ] ], [ [ [ -91.403514192883463, 31.645585894243794 ], [ -91.403873260219783, 31.645646972853353 ], [ -91.404060995544341, 31.645829460290077 ], [ -91.404056277413062, 31.646105568046732 ], [ -91.403824716134821, 31.64629795144603 ], [ -91.396555011981164, 31.646147233676146 ], [ -91.396172198114812, 31.646041450501308 ], [ -91.396022810243593, 31.645760648733386 ], [ -91.396150704073946, 31.645507111692652 ], [ -91.39645070491153, 31.645405197245008 ], [ -91.403514192883463, 31.645585894243794 ] ] ], [ [ [ -91.404128006467332, 31.648454439523768 ], [ -91.404303403100556, 31.648686256989301 ], [ -91.40423580687262, 31.648956271938168 ], [ -91.404005105419714, 31.649098212912474 ], [ -91.40355653520119, 31.649144196379854 ], [ -91.401707646614938, 31.649071754410421 ], [ -91.396610435874464, 31.649048684582404 ], [ -91.396222848085259, 31.648950775478941 ], [ -91.396073455800916, 31.648669973733725 ], [ -91.396201353840155, 31.648416436881167 ], [ -91.396501364120653, 31.648314522667775 ], [ -91.40389475351779, 31.648390711734507 ], [ -91.404128006467332, 31.648454439523768 ] ] ], [ [ [ -91.404259106616308, 31.65122654794737 ], [ -91.404446853448675, 31.651409035058549 ], [ -91.404467290635225, 31.651617768119685 ], [ -91.404348716015576, 31.65180103586118 ], [ -91.404090068565736, 31.651901748249877 ], [ -91.396660694024959, 31.652013361034996 ], [ -91.396364301196925, 31.651903952445064 ], [ -91.396246584489049, 31.651682696250582 ], [ -91.396344819288359, 31.651419656363593 ], [ -91.396631716739847, 31.651293077687722 ], [ -91.402934503343317, 31.65118189520685 ], [ -91.404259106616308, 31.65122654794737 ] ] ], [ [ [ -91.399435075737514, 31.613538664524054 ], [ -91.40414194947914, 31.614225740634485 ], [ -91.404289889523838, 31.614471147928139 ], [ -91.404191720376232, 31.614734197423719 ], [ -91.403822306099158, 31.614859764837515 ], [ -91.399340602874034, 31.614252208176946 ], [ -91.399099114586164, 31.614124191999426 ], [ -91.399007343395084, 31.613894132948669 ], [ -91.399135181723153, 31.613640589982317 ], [ -91.399435075737514, 31.613538664524054 ] ] ], [ [ [ -91.402529251222205, 31.622860440645638 ], [ -91.40362974874364, 31.623062777623051 ], [ -91.403831279055481, 31.623181682128202 ], [ -91.403920436484142, 31.623447072723653 ], [ -91.403764168046436, 31.623688677149406 ], [ -91.403454012862682, 31.623764966199101 ], [ -91.402627796235848, 31.62360855038914 ], [ -91.402292213271849, 31.623495492954369 ], [ -91.402143917319819, 31.623241445038055 ], [ -91.401943218123336, 31.623384680935182 ], [ -91.401699277113408, 31.623402160613931 ], [ -91.401270884095524, 31.623297445508342 ], [ -91.401093614719514, 31.623134537700814 ], [ -91.400766013116339, 31.623190718164295 ], [ -91.39621090580593, 31.622202424917639 ], [ -91.395855018913565, 31.622042955656315 ], [ -91.395772557452048, 31.621742617102782 ], [ -91.395955764039471, 31.621515294292156 ], [ -91.396273160162636, 31.621465403939332 ], [ -91.400982604640305, 31.622494241078229 ], [ -91.401235766210462, 31.622685168548202 ], [ -91.401481234730227, 31.622621025264259 ], [ -91.401915862315036, 31.622705681751935 ], [ -91.402117389574158, 31.622824588871921 ], [ -91.402208098617905, 31.623027898866006 ], [ -91.402529251222205, 31.622860440645638 ] ] ], [ [ [ -91.398438768897179, 31.616208203752674 ], [ -91.402947939300063, 31.617059814863431 ], [ -91.40313486611997, 31.617195050053045 ], [ -91.403193188830372, 31.617466640801819 ], [ -91.403010007757644, 31.617693974986587 ], [ -91.402774754311224, 31.617751843294315 ], [ -91.402380781986807, 31.617693633515035 ], [ -91.398263009562356, 31.616910385040068 ], [ -91.398037342420508, 31.616762727488844 ], [ -91.39797236477952, 31.616526078123826 ], [ -91.398128635053112, 31.616284480627709 ], [ -91.398438768897179, 31.616208203752674 ] ] ], [ [ [ -91.397431020494835, 31.618717281566582 ], [ -91.402190781517746, 31.619704315155349 ], [ -91.40251595122416, 31.619847551146403 ], [ -91.402635072238979, 31.620104187193444 ], [ -91.402507233611047, 31.620357733439789 ], [ -91.402125191158774, 31.620451704327373 ], [ -91.39756444243767, 31.619499019416768 ], [ -91.397111315615533, 31.619351286513407 ], [ -91.396964600209557, 31.619035151605065 ], [ -91.397120877521388, 31.618793555660144 ], [ -91.397431020494835, 31.618717281566582 ] ] ], [ [ [ -91.394027277184094, 31.633411260749416 ], [ -91.394463710498727, 31.633369677366126 ], [ -91.395803593992966, 31.633585819586251 ], [ -91.396050048368295, 31.633764114960343 ], [ -91.396076963248049, 31.634039290090023 ], [ -91.395904374754991, 31.634232396690869 ], [ -91.395669075395034, 31.63429025022679 ], [ -91.394128045453414, 31.634057838858503 ], [ -91.393926505353292, 31.633938918856099 ], [ -91.393836152353487, 31.633744241883097 ], [ -91.393869198691505, 31.633571206944257 ], [ -91.394027277184094, 31.633411260749416 ] ] ], [ [ [ -91.394300723619267, 31.636453516469594 ], [ -91.394577329105658, 31.636397922633922 ], [ -91.39536718944656, 31.636532558310687 ], [ -91.395568258061914, 31.636748565544803 ], [ -91.395531906707248, 31.637022945391411 ], [ -91.395198119047507, 31.637207747076619 ], [ -91.394325593277088, 31.637072070374746 ], [ -91.394109593026556, 31.636786497685481 ], [ -91.394142640193891, 31.636613462774086 ], [ -91.394300723619267, 31.636453516469594 ] ] ] ] } }
]
}
