{
"type": "FeatureCollection",
"name": "LM_08_MVF_20190502_CS_4934_4936_depth_polygons",
"crs": { "type": "name", "properties": { "name": "urn:ogc:def:crs:OGC:1.3:CRS84" } },
"features": [
{ "type": "Feature", "properties": { "depth_bin": "95-100 ft", "bin_order": -97.5, "survey_id": "LM_08_MVF_20190502_CS_4934_4936", "date": "2019-05-02", "year": 2019, "mile": 494.0 }, "geometry": { "type": "Polygon", "coordinates": [ [ [ -91.091493012549904, 32.869891852303333 ], [ -91.091686540088162, 32.869630220260852 ], [ -91.092088195500068, 32.869603013071441 ], [ -91.092526607032966, 32.869965199218761 ], [ -91.092537940037246, 32.870273472846947 ], [ -91.09230248959841, 32.870465112126986 ], [ -91.091975424293921, 32.870460122120221 ], [ -91.091582293942679, 32.870157424454227 ], [ -91.091493012549904, 32.869891852303333 ] ] ] } },
{ "type": "Feature", "properties": { "depth_bin": "100-105 ft", "bin_order": -102.5, "survey_id": "LM_08_MVF_20190502_CS_4934_4936", "date": "2019-05-02", "year": 2019, "mile": 494.0 }, "geometry": { "type": "Polygon", "coordinates": [ [ [ -91.09115704967671, 32.869563287581251 ], [ -91.091418267085288, 32.869304371405406 ], [ -91.091818492999707, 32.86934381511378 ], [ -91.092162827634937, 32.869640867221761 ], [ -91.092228525978996, 32.869867752707208 ], [ -91.092468650862301, 32.869912370902952 ], [ -91.092619999758881, 32.87003240733835 ], [ -91.092687726823641, 32.870233856691762 ], [ -91.09261141751584, 32.870433109087486 ], [ -91.092336187902163, 32.870582302672666 ], [ -91.092016560299797, 32.870523562126273 ], [ -91.091879882408534, 32.870391584022052 ], [ -91.091835093739405, 32.870195382178714 ], [ -91.091559388532517, 32.870132019836539 ], [ -91.091239426182213, 32.869863772716599 ], [ -91.09115704967671, 32.869563287581251 ] ] ] } },
{ "type": "Feature", "properties": { "depth_bin": "105-110 ft", "bin_order": -107.5, "survey_id": "LM_08_MVF_20190502_CS_4934_4936", "date": "2019-05-02", "year": 2019, "mile": 494.0 }, "geometry": { "type": "MultiPolygon", "coordinates": [ [ [ [ -91.09277368546465, 32.866774014722068 ], [ -91.092960299492404, 32.866547293113882 ], [ -91.093282219145067, 32.866498337633018 ], [ -91.09355086990486, 32.866655825544086 ], [ -91.093608880334159, 32.866927503262289 ], [ -91.093422267061456, 32.867154225857014 ], [ -91.093100345077062, 32.867203181609575 ], [ -91.092831693562204, 32.867045692711962 ], [ -91.09277368546465, 32.866774014722068 ] ] ], [ [ [ -91.090596546467239, 32.869039674755193 ], [ -91.090846838432213, 32.868814933328281 ], [ -91.091247061809938, 32.868854378779169 ], [ -91.091840901820419, 32.869377900601684 ], [ -91.091884902658819, 32.869583982271763 ], [ -91.091811407284709, 32.869747918422931 ], [ -91.09153617859856, 32.869897110290552 ], [ -91.09121655406642, 32.869838367802004 ], [ -91.090643623437586, 32.869345527041645 ], [ -91.090596546467239, 32.869039674755193 ] ] ], [ [ [ -91.091967978251418, 32.870214308423726 ], [ -91.092180036420217, 32.870004116994416 ], [ -91.092506104649971, 32.869982028851425 ], [ -91.092755178315528, 32.870160982877067 ], [ -91.092781353643602, 32.870436150951917 ], [ -91.092569295760427, 32.870646343401987 ], [ -91.092243225095999, 32.870668431618931 ], [ -91.091994151144817, 32.870489476572558 ], [ -91.091967978251418, 32.870214308423726 ] ] ] ] } },
{ "type": "Feature", "properties": { "depth_bin": "110-115 ft", "bin_order": -112.5, "survey_id": "LM_08_MVF_20190502_CS_4934_4936", "date": "2019-05-02", "year": 2019, "mile": 494.0 }, "geometry": { "type": "MultiPolygon", "coordinates": [ [ [ [ -91.092344760081772, 32.866334481119381 ], [ -91.092595039856732, 32.866109735659286 ], [ -91.092995252197838, 32.866149175111474 ], [ -91.093174514757266, 32.866397525723364 ], [ -91.093461815547201, 32.866585183214411 ], [ -91.093505819119642, 32.866791264487894 ], [ -91.093432329251598, 32.866955201855234 ], [ -91.093157111973028, 32.867104397770973 ], [ -91.092837496089672, 32.867045659730763 ], [ -91.092658233283274, 32.866797308646518 ], [ -91.092391842140287, 32.866640333040344 ], [ -91.092344760081772, 32.866334481119381 ] ] ], [ [ [ -91.094558954513658, 32.868328267570575 ], [ -91.094874995861687, 32.868117323350155 ], [ -91.095227849055917, 32.868197651110322 ], [ -91.095483856375211, 32.868525719598345 ], [ -91.095788448007397, 32.868745644799141 ], [ -91.095815212020383, 32.86891946036431 ], [ -91.095716135477431, 32.869111444106082 ], [ -91.095424910966656, 32.869237160972069 ], [ -91.095113646446023, 32.869152272749169 ], [ -91.094967606449572, 32.868925527131438 ], [ -91.094570294648562, 32.868636541341012 ], [ -91.094558954513658, 32.868328267570575 ] ] ], [ [ [ -91.092097121755558, 32.870279095213164 ], [ -91.09233257210397, 32.870087456312746 ], [ -91.092659636108436, 32.870092445335821 ], [ -91.092886725838753, 32.870291139869813 ], [ -91.092880815073045, 32.870567148069583 ], [ -91.092645364529787, 32.870758787985544 ], [ -91.092318298081707, 32.870753798835899 ], [ -91.092091208546222, 32.870555103286357 ], [ -91.092097121755558, 32.870279095213164 ] ] ], [ [ [ -91.089682267666433, 32.86825657664113 ], [ -91.089972298992365, 32.868020517650237 ], [ -91.090366009464489, 32.868092881258136 ], [ -91.090881328308143, 32.868535321813091 ], [ -91.090967247635504, 32.86869853242019 ], [ -91.091248561919969, 32.868857808375331 ], [ -91.091313469852764, 32.86909457407566 ], [ -91.091214383570758, 32.869286553881082 ], [ -91.09092315265697, 32.869412260001376 ], [ -91.090611892402734, 32.869327360705725 ], [ -91.090467810455465, 32.869113257021482 ], [ -91.090269030808216, 32.869033679106543 ], [ -91.089753712380656, 32.868591236066507 ], [ -91.089682267666433, 32.86825657664113 ] ] ] ] } },
{ "type": "Feature", "properties": { "depth_bin": "115-120 ft", "bin_order": -117.5, "survey_id": "LM_08_MVF_20190502_CS_4934_4936", "date": "2019-05-02", "year": 2019, "mile": 494.0 }, "geometry": { "type": "MultiPolygon", "coordinates": [ [ [ [ -91.092478641005059, 32.865664029749773 ], [ -91.093306571616225, 32.866424340465002 ], [ -91.09339444194967, 32.866600205092624 ], [ -91.093608861323787, 32.866701720762642 ], [ -91.094011668378684, 32.867091891422177 ], [ -91.09403784718981, 32.867367059470844 ], [ -91.093825799847309, 32.867577254526687 ], [ -91.09354023480428, 32.867608565623392 ], [ -91.093323553777992, 32.86750653533187 ], [ -91.092966028780211, 32.867175852419628 ], [ -91.092878158798911, 32.866999987516351 ], [ -91.092663739621656, 32.866898470601747 ], [ -91.091866372618867, 32.866162396136154 ], [ -91.091783996757329, 32.865861911293827 ], [ -91.091970611197851, 32.865635191154162 ], [ -91.092292527939705, 32.86558623811424 ], [ -91.092478641005059, 32.865664029749773 ] ] ], [ [ [ -91.094797503504566, 32.868499224252417 ], [ -91.095094931002436, 32.868319998348632 ], [ -91.095447785220955, 32.868400325522202 ], [ -91.095593825670193, 32.86862707056941 ], [ -91.095898417931494, 32.868846995523747 ], [ -91.095925182180707, 32.869020811071692 ], [ -91.095826105746411, 32.869212794902232 ], [ -91.095534881038844, 32.869338512016043 ], [ -91.095223616049864, 32.869253624051467 ], [ -91.095077575619996, 32.869026878590084 ], [ -91.094790230290002, 32.86883921688127 ], [ -91.094797503504566, 32.868499224252417 ] ] ], [ [ [ -91.092230037843052, 32.870345241880003 ], [ -91.092527476554636, 32.870166022550897 ], [ -91.092880335314973, 32.870246357132814 ], [ -91.093028573793092, 32.870552939346176 ], [ -91.093268667784557, 32.870597556952269 ], [ -91.09344092870937, 32.870748276031641 ], [ -91.093484933795011, 32.870954357256394 ], [ -91.093385849830838, 32.871146338824964 ], [ -91.093094615503276, 32.87127204985859 ], [ -91.092783346487877, 32.871187155679678 ], [ -91.092635107925588, 32.870880573197134 ], [ -91.092395013558274, 32.870835954359656 ], [ -91.092222754316552, 32.870685233899586 ], [ -91.092230037843052, 32.870345241880003 ] ] ], [ [ [ -91.08914434701704, 32.86770233410742 ], [ -91.08944178245774, 32.867523121953042 ], [ -91.089794627631974, 32.867603464790946 ], [ -91.090355187041837, 32.868105398773196 ], [ -91.090399183936768, 32.868311480856619 ], [ -91.090300096679059, 32.868503459919651 ], [ -91.090008867202869, 32.868629163971313 ], [ -91.089697610637486, 32.868544262521489 ], [ -91.089137052451392, 32.868042325658337 ], [ -91.08914434701704, 32.86770233410742 ] ] ], [ [ [ -91.090287144077493, 32.868681197767778 ], [ -91.090584580729868, 32.868501982956303 ], [ -91.090904200008993, 32.868560726881327 ], [ -91.091185829007372, 32.868856401441803 ], [ -91.091125674412226, 32.869160616742555 ], [ -91.090850446521117, 32.869309807138002 ], [ -91.090530824620572, 32.869251062984787 ], [ -91.090262609841631, 32.868988923741696 ], [ -91.090287144077493, 32.868681197767778 ] ] ] ] } },
{ "type": "Feature", "properties": { "depth_bin": "120-125 ft", "bin_order": -122.5, "survey_id": "LM_08_MVF_20190502_CS_4934_4936", "date": "2019-05-02", "year": 2019, "mile": 494.0 }, "geometry": { "type": "MultiPolygon", "coordinates": [ [ [ [ -91.095703794147326, 32.868728421445006 ], [ -91.096321050651753, 32.869220104474479 ], [ -91.096365061883546, 32.869426184949333 ], [ -91.096205682218823, 32.869667255861813 ], [ -91.095890989274181, 32.869742611709334 ], [ -91.095663493526999, 32.869659000308864 ], [ -91.095275419116774, 32.869304084541469 ], [ -91.095187543972614, 32.869128229953319 ], [ -91.094945481006448, 32.86900005772489 ], [ -91.09485689280892, 32.86873093478502 ], [ -91.094632586834166, 32.868685906850772 ], [ -91.094423244223478, 32.868519978130223 ], [ -91.094307057428395, 32.868224201758458 ], [ -91.094013908265168, 32.868138836513111 ], [ -91.093867871511208, 32.867912082241176 ], [ -91.093405917747575, 32.867581236829011 ], [ -91.093313818684095, 32.867350981572663 ], [ -91.093415712457499, 32.867123683996823 ], [ -91.093706932497625, 32.86699797162229 ], [ -91.094018188070251, 32.867082863050626 ], [ -91.094384155503917, 32.867512294465328 ], [ -91.094650551907733, 32.867669265801574 ], [ -91.094714765546414, 32.867909584730903 ], [ -91.094939103102419, 32.867954611575932 ], [ -91.095176046635629, 32.868147190539638 ], [ -91.095264635319438, 32.868416313291135 ], [ -91.095557753264686, 32.868501676554196 ], [ -91.095703794147326, 32.868728421445006 ] ] ], [ [ [ -91.096996999017861, 32.870526070850808 ], [ -91.097294429337978, 32.870346839854136 ], [ -91.097677858968055, 32.870451400248982 ], [ -91.09871963769379, 32.871418909774519 ], [ -91.098784567214764, 32.871655672298914 ], [ -91.098656770470043, 32.87187345239191 ], [ -91.098352340035547, 32.871974481508445 ], [ -91.098052420861322, 32.871864261742765 ], [ -91.097010644709485, 32.87089674679607 ], [ -91.096944209680288, 32.870730677972368 ], [ -91.096996999017861, 32.870526070850808 ] ] ], [ [ [ -91.095554518111513, 32.872555220852426 ], [ -91.096252981122944, 32.87313583606597 ], [ -91.096338385855788, 32.873295610454548 ], [ -91.096268788835118, 32.873565344188322 ], [ -91.095993554982414, 32.873714545626051 ], [ -91.095640679372622, 32.873634219268638 ], [ -91.095011032231994, 32.873093937548489 ], [ -91.094925630103333, 32.872934162342361 ], [ -91.094995230564066, 32.872664429461651 ], [ -91.095270462639604, 32.872515230140955 ], [ -91.095554518111513, 32.872555220852426 ] ] ], [ [ [ -91.092925792608426, 32.870303910882036 ], [ -91.094240961688627, 32.871433455683047 ], [ -91.094267141797445, 32.871708623575806 ], [ -91.094055084107026, 32.871918818523582 ], [ -91.093810877107941, 32.871955954747513 ], [ -91.09358337795959, 32.871872339453553 ], [ -91.092409906988777, 32.870869267959087 ], [ -91.09229691048867, 32.870682839447774 ], [ -91.092366516728418, 32.87041310816641 ], [ -91.092641745756978, 32.870263914489577 ], [ -91.092925792608426, 32.870303910882036 ] ] ], [ [ [ -91.091498495727066, 32.86545887803468 ], [ -91.09179591899003, 32.86527965976908 ], [ -91.092115527769352, 32.865338400230392 ], [ -91.092489364215325, 32.865705323335519 ], [ -91.092442630321273, 32.866043076186287 ], [ -91.092167414394694, 32.8661922699862 ], [ -91.091847802538112, 32.866133529551426 ], [ -91.091473967127868, 32.865766604582468 ], [ -91.091498495727066, 32.86545887803468 ] ] ], [ [ [ -91.087887250376042, 32.866625564416012 ], [ -91.088184684483707, 32.866446355184458 ], [ -91.088537524123055, 32.866526701385361 ], [ -91.089762864026468, 32.867585270345167 ], [ -91.089827767214842, 32.867822036683378 ], [ -91.089728679347417, 32.868014015282412 ], [ -91.089437450769779, 32.868139718041256 ], [ -91.089126196509909, 32.868054815245131 ], [ -91.087925228489652, 32.867025047374931 ], [ -91.087834443074172, 32.866830167127482 ], [ -91.087887250376042, 32.866625564416012 ] ] ] ] } },
{ "type": "Feature", "properties": { "depth_bin": "125-130 ft", "bin_order": -127.5, "survey_id": "LM_08_MVF_20190502_CS_4934_4936", "date": "2019-05-02", "year": 2019, "mile": 494.0 }, "geometry": { "type": "MultiPolygon", "coordinates": [ [ [ [ -91.095677283132616, 32.86930995177687 ], [ -91.095974711759425, 32.869130723836015 ], [ -91.09635813446674, 32.869235288049957 ], [ -91.097619862967633, 32.870405507253388 ], [ -91.097684788933279, 32.870642270251402 ], [ -91.097556991137779, 32.870860049208176 ], [ -91.097252563117465, 32.870961075742713 ], [ -91.096952648790577, 32.870850853495945 ], [ -91.095690923395281, 32.869680627726446 ], [ -91.095624491655144, 32.8695145582941 ], [ -91.095677283132616, 32.86930995177687 ] ] ], [ [ [ -91.098096768870946, 32.871539478493936 ], [ -91.098353336877992, 32.871368225359042 ], [ -91.098678254182559, 32.871400228486792 ], [ -91.098881190302308, 32.871616741106621 ], [ -91.098843267538754, 32.871890933749178 ], [ -91.098586698864452, 32.872062187855569 ], [ -91.098261779200925, 32.872030184405908 ], [ -91.098058843748447, 32.871813670814603 ], [ -91.098096768870946, 32.871539478493936 ] ] ], [ [ [ -91.093989974009531, 32.871203617444984 ], [ -91.095612478894182, 32.872608048187793 ], [ -91.09563866341648, 32.87288321591226 ], [ -91.095426605904294, 32.873093413165698 ], [ -91.095100526570036, 32.873115508525991 ], [ -91.093410906700626, 32.871723584982824 ], [ -91.09332010480891, 32.871528708241733 ], [ -91.093395112667352, 32.871294076896447 ], [ -91.093670342888359, 32.871144881011276 ], [ -91.093989974009531, 32.871203617444984 ] ] ], [ [ [ -91.093697808834193, 32.86748578601221 ], [ -91.093995234920627, 32.86730656265464 ], [ -91.09434808401754, 32.867386892761239 ], [ -91.095001395046637, 32.868003976871293 ], [ -91.095045402743139, 32.868210057714826 ], [ -91.094946325439594, 32.86840204083515 ], [ -91.09465510230612, 32.868527755966305 ], [ -91.094343841063733, 32.868442865935101 ], [ -91.093690531705008, 32.867825778478334 ], [ -91.093697808834193, 32.86748578601221 ] ] ], [ [ [ -91.08855174904599, 32.862692459787247 ], [ -91.088826959500494, 32.862543273693788 ], [ -91.089179784527673, 32.862623617582187 ], [ -91.089433279456202, 32.862935646231946 ], [ -91.089338082371029, 32.863233419758906 ], [ -91.089046869273986, 32.86335912225276 ], [ -91.088735631913835, 32.86327421905051 ], [ -91.088491590766566, 32.86299667392624 ], [ -91.08855174904599, 32.862692459787247 ] ] ], [ [ [ -91.091058625850962, 32.865053485711066 ], [ -91.091356048549144, 32.864874268463858 ], [ -91.091708885354748, 32.86495460560873 ], [ -91.092159481942545, 32.86540128930497 ], [ -91.092186238161176, 32.865575105438481 ], [ -91.092087158033507, 32.8657670862506 ], [ -91.091795940016269, 32.865892794938745 ], [ -91.091484690949571, 32.865807898192138 ], [ -91.091051339328317, 32.865393477786156 ], [ -91.091058625850962, 32.865053485711066 ] ] ], [ [ [ -91.087223778875583, 32.866008214692577 ], [ -91.087499001940017, 32.865859032056086 ], [ -91.087851838560425, 32.86593938009122 ], [ -91.088526669364967, 32.866539190778447 ], [ -91.088570661407005, 32.866745273370306 ], [ -91.088471572198387, 32.866937250948538 ], [ -91.088180345597635, 32.867062950863236 ], [ -91.087869096409733, 32.866978045105526 ], [ -91.087194267044779, 32.866378230948783 ], [ -91.08715027835126, 32.866172147984891 ], [ -91.087223778875583, 32.866008214692577 ] ] ] ] } },
{ "type": "Feature", "properties": { "depth_bin": "130-135 ft", "bin_order": -132.5, "survey_id": "LM_08_MVF_20190502_CS_4934_4936", "date": "2019-05-02", "year": 2019, "mile": 494.0 }, "geometry": { "type": "MultiPolygon", "coordinates": [ [ [ [ -91.088705096607768, 32.863024196054567 ], [ -91.08889171233109, 32.862797480483387 ], [ -91.089213620016949, 32.862748535036502 ], [ -91.089482252157353, 32.862906031100998 ], [ -91.08954024822124, 32.863177710315867 ], [ -91.089353633252429, 32.863404426873551 ], [ -91.089031723235124, 32.863453372591813 ], [ -91.088763090340223, 32.863295875540814 ], [ -91.088705096607768, 32.863024196054567 ] ] ], [ [ [ -91.090794327284442, 32.864949800515866 ], [ -91.091017299699189, 32.864705436901588 ], [ -91.091382575432803, 32.864695876097962 ], [ -91.091702365864734, 32.864963661541587 ], [ -91.091713696266325, 32.865271935349561 ], [ -91.091478257915085, 32.86546357364211 ], [ -91.09115121112778, 32.865458582150779 ], [ -91.09085232839297, 32.865221479233966 ], [ -91.090794327284442, 32.864949800515866 ] ] ], [ [ [ -91.087042925328348, 32.866039338282448 ], [ -91.087229551871928, 32.865812625683901 ], [ -91.087551471237276, 32.865763684973906 ], [ -91.087820109074983, 32.86592118476478 ], [ -91.087878101516608, 32.86619286451274 ], [ -91.087691475727496, 32.866419578097911 ], [ -91.087369554030303, 32.866468519079241 ], [ -91.0871009154381, 32.866311018301722 ], [ -91.087042925328348, 32.866039338282448 ] ] ] ] } },
{ "type": "Feature", "properties": { "depth_bin": "135-140 ft", "bin_order": -137.5, "survey_id": "LM_08_MVF_20190502_CS_4934_4936", "date": "2019-05-02", "year": 2019, "mile": 494.0 }, "geometry": { "type": "MultiPolygon", "coordinates": [ [ [ [ -91.089509679453897, 32.862927660555528 ], [ -91.091461538706056, 32.864730268385856 ], [ -91.091519541757947, 32.865001946872866 ], [ -91.091332927613834, 32.8652286663674 ], [ -91.091052380465257, 32.865283442896704 ], [ -91.090794339408049, 32.865175582569762 ], [ -91.088897414805515, 32.86342601268732 ], [ -91.088808845103273, 32.863156909801809 ], [ -91.088457566090753, 32.863020638615289 ], [ -91.088366783120861, 32.862825758743753 ], [ -91.088419586361184, 32.862621155551324 ], [ -91.088676145376098, 32.862449921787736 ], [ -91.089001025525477, 32.862481948790581 ], [ -91.089173263928757, 32.862632673094168 ], [ -91.08921655816664, 32.862842284656189 ], [ -91.089509679453897, 32.862927660555528 ] ] ], [ [ [ -91.086268767166615, 32.865286832853151 ], [ -91.086584815907784, 32.865075909820384 ], [ -91.086937648502968, 32.865156260300907 ], [ -91.087726724312787, 32.865853972767553 ], [ -91.087770714231922, 32.866060055581784 ], [ -91.087671624169957, 32.86625203251041 ], [ -91.087380398827335, 32.866377730615319 ], [ -91.08706915286696, 32.866292822973143 ], [ -91.086300984860429, 32.865625791074741 ], [ -91.086268767166615, 32.865286832853151 ] ] ] ] } },
{ "type": "Feature", "properties": { "depth_bin": "140-145 ft", "bin_order": -142.5, "survey_id": "LM_08_MVF_20190502_CS_4934_4936", "date": "2019-05-02", "year": 2019, "mile": 494.0 }, "geometry": { "type": "Polygon", "coordinates": [ [ [ -91.086118986360347, 32.865326440915759 ], [ -91.086249619921446, 32.865073358653824 ], [ -91.086554038569147, 32.864972358544996 ], [ -91.086853919307416, 32.865082604639007 ], [ -91.086973597190664, 32.865339516840351 ], [ -91.086842965218821, 32.865592599910009 ], [ -91.086538544705519, 32.865693600647013 ], [ -91.086238662377966, 32.865583353745279 ], [ -91.086118986360347, 32.865326440915759 ] ] ] } },
{ "type": "Feature", "properties": { "depth_bin": "145-150 ft", "bin_order": -147.5, "survey_id": "LM_08_MVF_20190502_CS_4934_4936", "date": "2019-05-02", "year": 2019, "mile": 494.0 }, "geometry": { "type": "MultiPolygon", "coordinates": [ [ [ [ -91.086007547830164, 32.865193227199292 ], [ -91.086166945804692, 32.864952169846603 ], [ -91.086481628575768, 32.864876838104976 ], [ -91.086767260757014, 32.865011359962772 ], [ -91.086856523735293, 32.865276934986966 ], [ -91.086697126955514, 32.865517993254407 ], [ -91.086382442044624, 32.865593325454554 ], [ -91.086096808668643, 32.865458802681985 ], [ -91.086007547830164, 32.865193227199292 ] ] ], [ [ [ -91.095607490887815, 32.873415647974568 ], [ -91.095766879366707, 32.873174578266379 ], [ -91.096081584683006, 32.873099223218276 ], [ -91.096367258243887, 32.873233724470722 ], [ -91.096456557197556, 32.873499293660977 ], [ -91.096297169914763, 32.873740364283869 ], [ -91.095982462458309, 32.873815719791217 ], [ -91.095696787701328, 32.87368121762406 ], [ -91.095607490887815, 32.873415647974568 ] ] ] ] } },
{ "type": "Feature", "properties": { "depth_bin": "150-155 ft", "bin_order": -152.5, "survey_id": "LM_08_MVF_20190502_CS_4934_4936", "date": "2019-05-02", "year": 2019, "mile": 494.0 }, "geometry": { "type": "MultiPolygon", "coordinates": [ [ [ [ -91.088258347488633, 32.862653706909818 ], [ -91.088417734616584, 32.86241264620341 ], [ -91.088732406689914, 32.862337308367046 ], [ -91.089018034588563, 32.862471824959229 ], [ -91.089107302208134, 32.862737398631346 ], [ -91.088947916274975, 32.862978460252336 ], [ -91.088633242062201, 32.863053798547305 ], [ -91.088347612968761, 32.862919281040519 ], [ -91.088258347488633, 32.862653706909818 ] ] ], [ [ [ -91.085893259575414, 32.865095357070508 ], [ -91.086052657662947, 32.864854299864923 ], [ -91.08636734016568, 32.864778968400714 ], [ -91.086652971854406, 32.864913490503746 ], [ -91.086742234404539, 32.86517906559731 ], [ -91.086582837511756, 32.865420123717655 ], [ -91.086268152869195, 32.865495455640385 ], [ -91.085982519985734, 32.865360932622586 ], [ -91.085893259575414, 32.865095357070508 ] ] ] ] } },
{ "type": "Feature", "properties": { "depth_bin": "155-160 ft", "bin_order": -157.5, "survey_id": "LM_08_MVF_20190502_CS_4934_4936", "date": "2019-05-02", "year": 2019, "mile": 494.0 }, "geometry": { "type": "MultiPolygon", "coordinates": [ [ [ [ -91.085778972404171, 32.864997458874207 ], [ -91.085938370604623, 32.864756401815711 ], [ -91.086253052838899, 32.864681070628933 ], [ -91.086538684035062, 32.86481559297718 ], [ -91.086627946157009, 32.865081168140136 ], [ -91.086468549151263, 32.865322226113385 ], [ -91.086153864777188, 32.865397557758669 ], [ -91.085868232386304, 32.865263034495662 ], [ -91.085778972404171, 32.864997458874207 ] ] ], [ [ [ -91.098155466000094, 32.871774713145989 ], [ -91.09831484457851, 32.871533639769119 ], [ -91.098629542194118, 32.871458277996155 ], [ -91.098915214764844, 32.871592773406832 ], [ -91.099004520019022, 32.871858341060317 ], [ -91.098845142636833, 32.872099415351755 ], [ -91.098530442881341, 32.872174777584064 ], [ -91.098244769114388, 32.872040281258826 ], [ -91.098155466000094, 32.871774713145989 ] ] ] ] } },
{ "type": "Feature", "properties": { "depth_bin": "160-165 ft", "bin_order": -162.5, "survey_id": "LM_08_MVF_20190502_CS_4934_4936", "date": "2019-05-02", "year": 2019, "mile": 494.0 }, "geometry": { "type": "GeometryCollection", "geometries": [ ] } },
{ "type": "Feature", "properties": { "depth_bin": "165-170 ft", "bin_order": -167.5, "survey_id": "LM_08_MVF_20190502_CS_4934_4936", "date": "2019-05-02", "year": 2019, "mile": 494.0 }, "geometry": { "type": "Polygon", "coordinates": [ [ [ -91.085661900283839, 32.864934875907544 ], [ -91.085792534487524, 32.864681794134988 ], [ -91.08609695223447, 32.86458079510308 ], [ -91.086396831056362, 32.864691042230781 ], [ -91.086516507130099, 32.864947954817048 ], [ -91.086385874515628, 32.865201037397362 ], [ -91.086081454903052, 32.865302037057411 ], [ -91.085781574491975, 32.865191789121958 ], [ -91.085661900283839, 32.864934875907544 ] ] ] } }
]
}
