{
"type": "FeatureCollection",
"name": "LM_03_KGC_20220629_CS_3784_3758_depth_polygons",
"crs": { "type": "name", "properties": { "name": "urn:ogc:def:crs:OGC:1.3:CRS84" } },
"features": [
{ "type": "Feature", "properties": { "depth_bin": "10-11 ft", "survey_id": "LM_03_KGC_20220629_CS_3784_3758", "date": "2022-06-29 00:00:00+00:00", "year": 2022, "mile": 377.0, "bin_order": 7 }, "geometry": { "type": "MultiPolygon", "coordinates": [ [ [ [ -91.387716681573522, 31.741891587507645 ], [ -91.387873202872342, 31.741650015024167 ], [ -91.388183765880342, 31.741573778689297 ], [ -91.388466448421042, 31.741707536394006 ], [ -91.388555659711088, 31.741972935302492 ], [ -91.388399139565053, 31.74221450865366 ], [ -91.388088574546529, 31.742290745441167 ], [ -91.387805890853031, 31.742156986868764 ], [ -91.387716681573522, 31.741891587507645 ] ] ], [ [ [ -91.364232620872727, 31.760233643368188 ], [ -91.364416190262446, 31.760006382364669 ], [ -91.364734075038072, 31.759956587993731 ], [ -91.365000064164605, 31.760113428929213 ], [ -91.365058345340287, 31.760385030543265 ], [ -91.364874776687543, 31.760612292487298 ], [ -91.364556889712361, 31.760662087131678 ], [ -91.364290899848868, 31.760505245255697 ], [ -91.364232620872727, 31.760233643368188 ] ] ], [ [ [ -91.363524802006964, 31.763100040301612 ], [ -91.363708379064946, 31.762872780665543 ], [ -91.364026274012929, 31.762822988425942 ], [ -91.364292269857359, 31.76297983100811 ], [ -91.364350550361209, 31.763251432819672 ], [ -91.364166974040245, 31.763478693396365 ], [ -91.363849076892365, 31.763528485909429 ], [ -91.363583080310931, 31.763371642386634 ], [ -91.363524802006964, 31.763100040301612 ] ] ] ] } },
{ "type": "Feature", "properties": { "depth_bin": "11-12 ft", "survey_id": "LM_03_KGC_20220629_CS_3784_3758", "date": "2022-06-29 00:00:00+00:00", "year": 2022, "mile": 377.0, "bin_order": 6 }, "geometry": { "type": "MultiPolygon", "coordinates": [ [ [ [ -91.387057850543911, 31.741448444969826 ], [ -91.387266513257501, 31.741237610333016 ], [ -91.387588511574805, 31.741214617152416 ], [ -91.387835224873953, 31.741392934460528 ], [ -91.387862132059325, 31.741668107085957 ], [ -91.387653469641322, 31.741878942697628 ], [ -91.387331469025412, 31.741901935964314 ], [ -91.387084755430692, 31.741723617681348 ], [ -91.387057850543911, 31.741448444969826 ] ] ], [ [ [ -91.368961626102873, 31.74922260386947 ], [ -91.369170346731494, 31.74901180108462 ], [ -91.36949237443136, 31.748988854732744 ], [ -91.369739071369523, 31.74916720641551 ], [ -91.369765926033253, 31.749442380825652 ], [ -91.369557205698598, 31.749653184585839 ], [ -91.369235175698989, 31.749676131022664 ], [ -91.368988478466861, 31.749497778364578 ], [ -91.368961626102873, 31.74922260386947 ] ] ], [ [ [ -91.367925932746431, 31.751958842604694 ], [ -91.368134662072478, 31.751748041889407 ], [ -91.368456699415049, 31.751725098492724 ], [ -91.368703401292834, 31.751903452285259 ], [ -91.368730253299532, 31.752178626723939 ], [ -91.368521524267393, 31.752389428414681 ], [ -91.368199484624753, 31.752412371896266 ], [ -91.367952782453045, 31.752234017128295 ], [ -91.367925932746431, 31.751958842604694 ] ] ], [ [ [ -91.366394404954562, 31.754640159346728 ], [ -91.366603143937112, 31.754429361546002 ], [ -91.366925190797403, 31.75440642235645 ], [ -91.367171896478979, 31.754584779184256 ], [ -91.367198744347249, 31.754859953708412 ], [ -91.366990005658494, 31.755070752484684 ], [ -91.366667956497821, 31.755093691759051 ], [ -91.36642125052245, 31.754915333955708 ], [ -91.366394404954562, 31.754640159346728 ] ] ], [ [ [ -91.365353834698368, 31.757429962647869 ], [ -91.365600303216794, 31.757204511556594 ], [ -91.366043824623986, 31.757228338889778 ], [ -91.366290535775647, 31.75740669754417 ], [ -91.366317381456952, 31.757681872076809 ], [ -91.366070913294777, 31.757907324555799 ], [ -91.365627388644668, 31.757883497210251 ], [ -91.36538067760128, 31.757705137284017 ], [ -91.365353834698368, 31.757429962647869 ] ] ], [ [ [ -91.363375131433671, 31.763046208078844 ], [ -91.36358389679161, 31.762835416360488 ], [ -91.363905973265645, 31.76281248584127 ], [ -91.364152694452741, 31.762990848848506 ], [ -91.364179534635255, 31.763266023441627 ], [ -91.363970769570969, 31.763476816135892 ], [ -91.363648690795543, 31.763499746739789 ], [ -91.363401969314793, 31.763321382756658 ], [ -91.363375131433671, 31.763046208078844 ] ] ], [ [ [ -91.363129943096013, 31.765894654878711 ], [ -91.363401118012774, 31.765690936753689 ], [ -91.363803069192244, 31.765711207454569 ], [ -91.364049797611997, 31.765889570835533 ], [ -91.364076637930452, 31.766164745348014 ], [ -91.36383014108786, 31.766390192261561 ], [ -91.363388962535439, 31.76638134647105 ], [ -91.363125081288871, 31.766170751846605 ], [ -91.363129943096013, 31.765894654878711 ] ] ] ] } },
{ "type": "Feature", "properties": { "depth_bin": "12-13 ft", "survey_id": "LM_03_KGC_20220629_CS_3784_3758", "date": "2022-06-29 00:00:00+00:00", "year": 2022, "mile": 377.0, "bin_order": 5 }, "geometry": { "type": "MultiPolygon", "coordinates": [ [ [ [ -91.387181160315833, 31.741562282548198 ], [ -91.387364636184273, 31.74133498472607 ], [ -91.387722482466671, 31.741294240826665 ], [ -91.388086180189703, 31.741517667206264 ], [ -91.388133859451528, 31.741823474316245 ], [ -91.387925197264664, 31.742034310377019 ], [ -91.387603196145108, 31.7420573043145 ], [ -91.387263682314853, 31.741862623839999 ], [ -91.387181160315833, 31.741562282548198 ] ] ], [ [ [ -91.370346397676954, 31.746511635903428 ], [ -91.370555108903773, 31.746300830453436 ], [ -91.370877127004377, 31.746277880264248 ], [ -91.371123819768684, 31.746456229185341 ], [ -91.371150678129041, 31.746731403527114 ], [ -91.370941967196288, 31.74694220995233 ], [ -91.370619946796253, 31.746965160226537 ], [ -91.370373253737881, 31.746786810330239 ], [ -91.370346397676954, 31.746511635903428 ] ] ], [ [ [ -91.367760423092534, 31.751951732075689 ], [ -91.367943966807076, 31.751724464863365 ], [ -91.368261821575757, 31.75167466060844 ], [ -91.36852779394053, 31.751831493774553 ], [ -91.368586081418428, 31.752103094284795 ], [ -91.368402538440861, 31.752330362437238 ], [ -91.368084681473633, 31.752380166965736 ], [ -91.3678187083719, 31.75222333285949 ], [ -91.367760423092534, 31.751951732075689 ] ] ], [ [ [ -91.363219005061154, 31.763023885725808 ], [ -91.36342777070891, 31.762813094272964 ], [ -91.363749847125661, 31.762790164147319 ], [ -91.363996567941882, 31.762968527445622 ], [ -91.364023407657214, 31.763243702056812 ], [ -91.363814642303083, 31.763454494485558 ], [ -91.363492563584941, 31.763477424695871 ], [ -91.363245842475081, 31.763299060421673 ], [ -91.363219005061154, 31.763023885725808 ] ] ], [ [ [ -91.362954722550143, 31.765931057678372 ], [ -91.363163495612312, 31.765720266991273 ], [ -91.363485582172046, 31.765697337885506 ], [ -91.363732309918447, 31.765875701860388 ], [ -91.363759149291553, 31.76615087640862 ], [ -91.363550376523051, 31.766361668071735 ], [ -91.363228287661585, 31.766384597262178 ], [ -91.362981559621517, 31.766206232311276 ], [ -91.362954722550143, 31.765931057678372 ] ] ] ] } },
{ "type": "Feature", "properties": { "depth_bin": "13-14 ft", "survey_id": "LM_03_KGC_20220629_CS_3784_3758", "date": "2022-06-29 00:00:00+00:00", "year": 2022, "mile": 377.0, "bin_order": 4 }, "geometry": { "type": "MultiPolygon", "coordinates": [ [ [ [ -91.387480061932507, 31.741650589862601 ], [ -91.387726435191979, 31.741425092230706 ], [ -91.388049521008767, 31.741429180263729 ], [ -91.388390482644752, 31.741675202576868 ], [ -91.388402858079601, 31.741983530891677 ], [ -91.388171018427457, 31.742175874090517 ], [ -91.387847929999182, 31.742171786279879 ], [ -91.387527739239559, 31.741956397129449 ], [ -91.387480061932507, 31.741650589862601 ] ] ], [ [ [ -91.387888475297402, 31.74527278618984 ], [ -91.388097145163925, 31.745061950536172 ], [ -91.388419156654209, 31.745038955701496 ], [ -91.388665881430128, 31.745217271687213 ], [ -91.388692791673236, 31.745492444096662 ], [ -91.388484122102454, 31.745703280725316 ], [ -91.388162108313153, 31.745726275646142 ], [ -91.387915383241491, 31.745547958685442 ], [ -91.387888475297402, 31.74527278618984 ] ] ], [ [ [ -91.368809682555337, 31.74918106750161 ], [ -91.369018403419403, 31.748970264972897 ], [ -91.369340430994797, 31.748947319001516 ], [ -91.36958712752147, 31.749125670966269 ], [ -91.369613981727724, 31.749400845394682 ], [ -91.369405261157624, 31.749611648898725 ], [ -91.369083231282488, 31.749634594955037 ], [ -91.368836534461877, 31.749456242014972 ], [ -91.368809682555337, 31.74918106750161 ] ] ], [ [ [ -91.364083327567897, 31.760181568291454 ], [ -91.364292084639331, 31.759970775050316 ], [ -91.364614151061929, 31.759947842389909 ], [ -91.364860866320385, 31.760126203891804 ], [ -91.364887708170002, 31.760401378497157 ], [ -91.36467895139225, 31.760612172714087 ], [ -91.364356882668588, 31.760635105459187 ], [ -91.364110167116465, 31.760456742981511 ], [ -91.364083327567897, 31.760181568291454 ] ] ], [ [ [ -91.361192181402316, 31.765767362987056 ], [ -91.361438682687307, 31.765541921319759 ], [ -91.361840377430568, 31.765537335148977 ], [ -91.362106376933099, 31.765694182371249 ], [ -91.362164652338706, 31.765965784914524 ], [ -91.361945203107879, 31.766210784567306 ], [ -91.361505780435579, 31.766230024978956 ], [ -91.361239780512619, 31.766073176496977 ], [ -91.361192181402316, 31.765767362987056 ] ] ], [ [ [ -91.362643133330963, 31.765870029577766 ], [ -91.362914309192774, 31.765666312522391 ], [ -91.363321915964917, 31.765686016862976 ], [ -91.363568643353503, 31.765864381143764 ], [ -91.363595482238665, 31.766139555710549 ], [ -91.3633489843413, 31.766365001656304 ], [ -91.362902150112404, 31.766356722074221 ], [ -91.362638270082954, 31.766146126479445 ], [ -91.362643133330963, 31.765870029577766 ] ] ] ] } },
{ "type": "Feature", "properties": { "depth_bin": "14-15 ft", "survey_id": "LM_03_KGC_20220629_CS_3784_3758", "date": "2022-06-29 00:00:00+00:00", "year": 2022, "mile": 377.0, "bin_order": 3 }, "geometry": { "type": "MultiPolygon", "coordinates": [ [ [ [ -91.38804427924542, 31.745301408269622 ], [ -91.388276127233922, 31.745109065659449 ], [ -91.388599225927948, 31.745113152721267 ], [ -91.388949927050305, 31.74534873007601 ], [ -91.388962304277726, 31.745657058243303 ], [ -91.388730456234001, 31.74584940208846 ], [ -91.388407354962723, 31.745845315274956 ], [ -91.388056653467217, 31.745609736427298 ], [ -91.38804427924542, 31.745301408269622 ] ] ], [ [ [ -91.370210392795045, 31.746429185050982 ], [ -91.370442279098668, 31.746236876266135 ], [ -91.370765378853562, 31.746241008674879 ], [ -91.370990426240553, 31.746439161643799 ], [ -91.370985591439222, 31.746715260539169 ], [ -91.3707537049754, 31.746907570297065 ], [ -91.370430602907916, 31.746903437781459 ], [ -91.370205555681139, 31.746705283839479 ], [ -91.370210392795045, 31.746429185050982 ] ] ], [ [ [ -91.367628481079436, 31.751851943773808 ], [ -91.367860386545402, 31.75165964048087 ], [ -91.368183504715802, 31.751663780065513 ], [ -91.368408558984314, 31.75186193769089 ], [ -91.368403715499227, 31.752138035995721 ], [ -91.368171809872734, 31.752330340261917 ], [ -91.367848689389135, 31.752326200570227 ], [ -91.367623635281134, 31.752128041971599 ], [ -91.367628481079436, 31.751851943773808 ] ] ], [ [ [ -91.366110847661147, 31.754495898727793 ], [ -91.366422322735829, 31.754284086176661 ], [ -91.366820203229665, 31.754356298925323 ], [ -91.367045260735239, 31.754554459001032 ], [ -91.3670404126958, 31.754830557001227 ], [ -91.366728937071557, 31.755042371032591 ], [ -91.366331053750031, 31.754970157909913 ], [ -91.366105996859361, 31.754771996601665 ], [ -91.366110847661147, 31.754495898727793 ] ] ], [ [ [ -91.365210439315064, 31.757369777179434 ], [ -91.365442363869917, 31.757177479081054 ], [ -91.365765500816977, 31.757181625438982 ], [ -91.365990562551232, 31.757379787448773 ], [ -91.365985710847497, 31.757655885180974 ], [ -91.36575378613189, 31.757848184252801 ], [ -91.365430646871019, 31.75784403778767 ], [ -91.365205585297502, 31.757645874804432 ], [ -91.365210439315064, 31.757369777179434 ] ] ], [ [ [ -91.363937631927598, 31.760131762192806 ], [ -91.364169566163511, 31.759939466813314 ], [ -91.36449271250099, 31.759943616720722 ], [ -91.364717777834471, 31.760141781031397 ], [ -91.364712921830275, 31.760417878468171 ], [ -91.364480987433453, 31.76061017482122 ], [ -91.364157838781836, 31.760606024806528 ], [ -91.363932773609264, 31.760407859522271 ], [ -91.363937631927598, 31.760131762192806 ] ] ], [ [ [ -91.362407261637827, 31.753572035692045 ], [ -91.362639181919036, 31.75337974246542 ], [ -91.36296230522062, 31.75338389549065 ], [ -91.36318735193062, 31.753582062057806 ], [ -91.363182492624645, 31.753858159567695 ], [ -91.362950572182427, 31.754050453767618 ], [ -91.362627446567458, 31.754046300635007 ], [ -91.362402400018482, 31.753848133094543 ], [ -91.362407261637827, 31.753572035692045 ] ] ], [ [ [ -91.360638888081994, 31.759511258485819 ], [ -91.360870827257472, 31.759318969275061 ], [ -91.361193970905347, 31.759323127477209 ], [ -91.361419027495572, 31.759521297349863 ], [ -91.361414161815887, 31.759797394357658 ], [ -91.361182222479187, 31.759989684541946 ], [ -91.360859076517244, 31.759985526232288 ], [ -91.360634020088241, 31.759787355386102 ], [ -91.360638888081994, 31.759511258485819 ] ] ], [ [ [ -91.362200452802881, 31.765548660406836 ], [ -91.36314305529325, 31.765725867442043 ], [ -91.363291107548108, 31.765971321156044 ], [ -91.36319264480656, 31.766234323828648 ], [ -91.362863926571151, 31.766362016641743 ], [ -91.361822934792642, 31.766257289094543 ], [ -91.36163876492904, 31.766179950701613 ], [ -91.361490716820327, 31.765934495209603 ], [ -91.361563999196619, 31.765699610890874 ], [ -91.361795058940942, 31.765557761100691 ], [ -91.362200452802881, 31.765548660406836 ] ] ] ] } },
{ "type": "Feature", "properties": { "depth_bin": "15-17.5 ft", "survey_id": "LM_03_KGC_20220629_CS_3784_3758", "date": "2022-06-29 00:00:00+00:00", "year": 2022, "mile": 377.0, "bin_order": 2 }, "geometry": { "type": "MultiPolygon", "coordinates": [ [ [ [ -91.388311261779194, 31.745457199134069 ], [ -91.388543109640636, 31.745264856036972 ], [ -91.388866208918088, 31.745268942439733 ], [ -91.389091294072017, 31.745467064657781 ], [ -91.389086513159938, 31.745743166070852 ], [ -91.388854665140059, 31.745935510141027 ], [ -91.388531563550046, 31.74593142363257 ], [ -91.388306478554554, 31.745733300441454 ], [ -91.388311261779194, 31.745457199134069 ] ] ], [ [ [ -91.370060968369771, 31.74637657942354 ], [ -91.370292854833707, 31.746184270915204 ], [ -91.370615954381904, 31.746188403696713 ], [ -91.370841001316208, 31.746386556916303 ], [ -91.370836166081446, 31.746662655793408 ], [ -91.370604279457268, 31.746854965274803 ], [ -91.37028117759651, 31.746850832386404 ], [ -91.370056130822405, 31.746652678193769 ], [ -91.370060968369771, 31.74637657942354 ] ] ], [ [ [ -91.364640735138835, 31.747723469624237 ], [ -91.364872635843668, 31.747531171513916 ], [ -91.365195739194647, 31.747535318194917 ], [ -91.365420777266152, 31.747733480673588 ], [ -91.365415925694279, 31.748009578745542 ], [ -91.365184024828707, 31.748201877828947 ], [ -91.364860919164997, 31.748197731040701 ], [ -91.364635881254245, 31.747999567588945 ], [ -91.364640735138835, 31.747723469624237 ] ] ], [ [ [ -91.368526801886603, 31.749044364656402 ], [ -91.36875869830078, 31.748852059348675 ], [ -91.369081806865552, 31.748856196329562 ], [ -91.369416459590639, 31.749049056038679 ], [ -91.369449538491921, 31.749388021162666 ], [ -91.369217642061045, 31.749580327715936 ], [ -91.368894530959679, 31.749576190995469 ], [ -91.368559877533329, 31.749383329902773 ], [ -91.368526801886603, 31.749044364656402 ] ] ], [ [ [ -91.367478877866631, 31.751810028858607 ], [ -91.367710783520963, 31.75161772584379 ], [ -91.36803390152167, 31.751621865802939 ], [ -91.368258955361824, 31.751820023679841 ], [ -91.368254111440649, 31.752096121965891 ], [ -91.368022205625806, 31.752288425953964 ], [ -91.367699085311912, 31.752284285887761 ], [ -91.367474031632256, 31.7520861270376 ], [ -91.367478877866631, 31.751810028858607 ] ] ], [ [ [ -91.365799457457172, 31.754439460747744 ], [ -91.366070592210022, 31.754235735264952 ], [ -91.366472188363403, 31.754266060313345 ], [ -91.366718892775424, 31.754444417980835 ], [ -91.36674573927705, 31.754719592559912 ], [ -91.366499280300019, 31.754945046267576 ], [ -91.366058461967128, 31.754926147146374 ], [ -91.365794605741812, 31.754715558581122 ], [ -91.365799457457172, 31.754439460747744 ] ] ], [ [ [ -91.365076678688837, 31.757297671710351 ], [ -91.365329546292912, 31.757125723190288 ], [ -91.365650651408714, 31.757156912170288 ], [ -91.365851896596809, 31.757372968777503 ], [ -91.36581539472472, 31.757647330641966 ], [ -91.365562526511553, 31.757819280095859 ], [ -91.365241419157769, 31.757788090820782 ], [ -91.365040174578766, 31.757572033279743 ], [ -91.365076678688837, 31.757297671710351 ] ] ], [ [ [ -91.363627736267048, 31.760055104205421 ], [ -91.363939235931198, 31.759843298722995 ], [ -91.364335182716928, 31.759916222492784 ], [ -91.364560247638082, 31.760114387069219 ], [ -91.364555391171407, 31.760390484485413 ], [ -91.364243890950547, 31.760602291443334 ], [ -91.36384794135175, 31.760529367301245 ], [ -91.363622877043227, 31.760331201495397 ], [ -91.363627736267048, 31.760055104205421 ] ] ], [ [ [ -91.362594123916793, 31.762916488918339 ], [ -91.362905635710632, 31.762704686458207 ], [ -91.363549756205956, 31.762758865791969 ], [ -91.363815751021775, 31.762915709337967 ], [ -91.363874030091409, 31.763187311322064 ], [ -91.363755225144899, 31.763370530772551 ], [ -91.36357764541566, 31.763458394113108 ], [ -91.362893175017362, 31.763412299892156 ], [ -91.362606413283487, 31.763224815978024 ], [ -91.362594123916793, 31.762916488918339 ] ] ], [ [ [ -91.360729564896246, 31.765665272701824 ], [ -91.361041090232249, 31.765453475345218 ], [ -91.361561467429041, 31.765516318709707 ], [ -91.361808190845707, 31.765694686277772 ], [ -91.361835024474829, 31.76596986104553 ], [ -91.361549298374541, 31.766206727810044 ], [ -91.360988570954589, 31.766151968749565 ], [ -91.360724696004965, 31.765941369347715 ], [ -91.360729564896246, 31.765665272701824 ] ] ], [ [ [ -91.362025717927438, 31.765751168296514 ], [ -91.362278614617992, 31.765579227019288 ], [ -91.362599747431247, 31.765610424602603 ], [ -91.362801002703591, 31.765826486134074 ], [ -91.362764487394983, 31.766100846359411 ], [ -91.362511590094812, 31.766272788570749 ], [ -91.362190455042693, 31.766241590692093 ], [ -91.361989200379952, 31.766025528226507 ], [ -91.362025717927438, 31.765751168296514 ] ] ] ] } },
{ "type": "Feature", "properties": { "depth_bin": "17.5-20 ft", "survey_id": "LM_03_KGC_20220629_CS_3784_3758", "date": "2022-06-29 00:00:00+00:00", "year": 2022, "mile": 377.0, "bin_order": 1 }, "geometry": { "type": "MultiPolygon", "coordinates": [ [ [ [ -91.369899560528836, 31.746355704746435 ], [ -91.370108272368668, 31.746144900046009 ], [ -91.370430289985947, 31.746121950971688 ], [ -91.370676981453684, 31.746300300719884 ], [ -91.370703838463697, 31.746575475116504 ], [ -91.370495126917859, 31.746786280792158 ], [ -91.370173107001179, 31.746809229951463 ], [ -91.369926415239433, 31.746630879228064 ], [ -91.369899560528836, 31.746355704746435 ] ] ], [ [ [ -91.367004928142009, 31.751707298794607 ], [ -91.367290594635719, 31.751470417304024 ], [ -91.367690637902911, 31.751509712413757 ], [ -91.368068284156763, 31.751709689376103 ], [ -91.368115900939216, 31.752015501481885 ], [ -91.367907170943724, 31.752226302136322 ], [ -91.367585131787806, 31.752249244078701 ], [ -91.367104084626845, 31.752068449439303 ], [ -91.36699178717906, 31.751882263717182 ], [ -91.367004928142009, 31.751707298794607 ] ] ], [ [ [ -91.36490147728702, 31.757309744412357 ], [ -91.365133402299577, 31.757117446891463 ], [ -91.36545653898817, 31.757121594026 ], [ -91.365681599899219, 31.757319756556658 ], [ -91.365676747289712, 31.757595854248823 ], [ -91.365444822116359, 31.757788152743196 ], [ -91.365121683113941, 31.75778400550141 ], [ -91.364896622363688, 31.757585841997308 ], [ -91.36490147728702, 31.757309744412357 ] ] ], [ [ [ -91.363454350654749, 31.760073185568004 ], [ -91.363663108850304, 31.759862393394478 ], [ -91.363985174977984, 31.759839462317263 ], [ -91.364231888695215, 31.760017824990538 ], [ -91.364258728660104, 31.760292999669275 ], [ -91.36404997075816, 31.760503792818596 ], [ -91.36372790232943, 31.760526723980472 ], [ -91.363481188318588, 31.760348360331413 ], [ -91.363454350654749, 31.760073185568004 ] ] ], [ [ [ -91.363392933474472, 31.750546547968522 ], [ -91.363624843964701, 31.75035425253623 ], [ -91.363947956917642, 31.750358402709683 ], [ -91.364172998783218, 31.750556567449461 ], [ -91.364168142974876, 31.750832665226731 ], [ -91.363936232323738, 31.751024961632215 ], [ -91.363613117057753, 31.751020811351438 ], [ -91.3633880753531, 31.750822645638468 ], [ -91.363392933474472, 31.750546547968522 ] ] ], [ [ [ -91.362441454589018, 31.762863433844128 ], [ -91.362673398872275, 31.762671141603043 ], [ -91.362996554459841, 31.762675295623488 ], [ -91.363221622827837, 31.762873462612589 ], [ -91.363216761864862, 31.763149559724209 ], [ -91.362984817420568, 31.763341852938961 ], [ -91.362661659518537, 31.763337698811117 ], [ -91.362436591311607, 31.76313953084836 ], [ -91.362441454589018, 31.762863433844128 ] ] ], [ [ [ -91.357679102729719, 31.765386149010833 ], [ -91.357887886077549, 31.765175367319976 ], [ -91.358209971427442, 31.765152451539144 ], [ -91.358456687177224, 31.765330825362327 ], [ -91.358483510794031, 31.765606000513241 ], [ -91.358274727739342, 31.765816783180146 ], [ -91.357952640087703, 31.765839699045308 ], [ -91.357705924044765, 31.765661324246082 ], [ -91.357679102729719, 31.765386149010833 ] ] ], [ [ [ -91.360406371686736, 31.76564162858816 ], [ -91.360717897641081, 31.765429832043797 ], [ -91.361065450656682, 31.765508401012006 ], [ -91.361363247770342, 31.765468564116201 ], [ -91.361629246230024, 31.765625412303216 ], [ -91.361687520197179, 31.765897015019291 ], [ -91.361568707323329, 31.766080232092737 ], [ -91.361391120371309, 31.766168092103605 ], [ -91.361003218233634, 31.766097608422573 ], [ -91.36070541897621, 31.766137444399313 ], [ -91.360418653728118, 31.765949955499885 ], [ -91.360406371686736, 31.76564162858816 ] ] ] ] } },
{ "type": "Feature", "properties": { "depth_bin": "5-6 ft", "survey_id": "LM_03_KGC_20220629_CS_3784_3758", "date": "2022-06-29 00:00:00+00:00", "year": 2022, "mile": 377.0, "bin_order": 12 }, "geometry": { "type": "MultiPolygon", "coordinates": [ [ [ [ -91.386767063195407, 31.741346627731996 ], [ -91.386950539599255, 31.74111933051848 ], [ -91.387268349849592, 31.741069477200227 ], [ -91.387534326565344, 31.741226270980803 ], [ -91.387592664715768, 31.741497864854235 ], [ -91.387409189050231, 31.741725163007096 ], [ -91.387091376603152, 31.741775016599931 ], [ -91.386825399149089, 31.741618221880024 ], [ -91.386767063195407, 31.741346627731996 ] ] ], [ [ [ -91.370764867009015, 31.746719612270436 ], [ -91.370973577807149, 31.7465088061251 ], [ -91.371295596575592, 31.746485854899223 ], [ -91.371542290713023, 31.746664203049544 ], [ -91.371569150347483, 31.746939377337959 ], [ -91.371360439843428, 31.747150184458516 ], [ -91.371038418775569, 31.74717313576944 ], [ -91.370791724344045, 31.746994786643924 ], [ -91.370764867009015, 31.746719612270436 ] ] ], [ [ [ -91.368370708121304, 31.752121009728896 ], [ -91.368579436853437, 31.75191020826809 ], [ -91.368901474701516, 31.751887263762374 ], [ -91.36925516210313, 31.752055076809256 ], [ -91.369326964543404, 31.752389639156494 ], [ -91.369118236323501, 31.752600441848106 ], [ -91.368796196025443, 31.752623386818406 ], [ -91.368442507396097, 31.752455572466381 ], [ -91.368370708121304, 31.752121009728896 ] ] ], [ [ [ -91.36717387050102, 31.754826499714461 ], [ -91.367382608212836, 31.754615700596595 ], [ -91.367704655619107, 31.754592759451587 ], [ -91.367951363343565, 31.754771114831073 ], [ -91.367978213554991, 31.755046289262449 ], [ -91.367769476137056, 31.755257089355872 ], [ -91.367447426430388, 31.755280030585752 ], [ -91.367200718412036, 31.755101674230726 ], [ -91.36717387050102, 31.754826499714461 ] ] ], [ [ [ -91.361455469785909, 31.75659624500479 ], [ -91.36166422419079, 31.756385455887632 ], [ -91.361986278492168, 31.756362529465157 ], [ -91.362232979274964, 31.75654089566498 ], [ -91.362259812773885, 31.756816070676184 ], [ -91.36205105866236, 31.75702686076902 ], [ -91.361729002060272, 31.75704978727601 ], [ -91.361482300984136, 31.756871420100509 ], [ -91.361455469785909, 31.75659624500479 ] ] ], [ [ [ -91.365978319257195, 31.757567042858618 ], [ -91.366187066029553, 31.75735624608561 ], [ -91.366509123116884, 31.757333308302726 ], [ -91.366755835472134, 31.757511666092132 ], [ -91.36678268255136, 31.757786840569619 ], [ -91.366573936072811, 31.757997638318294 ], [ -91.366251876684743, 31.758020576185988 ], [ -91.366005164035684, 31.757842217420926 ], [ -91.365978319257195, 31.757567042858618 ] ] ] ] } },
{ "type": "Feature", "properties": { "depth_bin": "6-7 ft", "survey_id": "LM_03_KGC_20220629_CS_3784_3758", "date": "2022-06-29 00:00:00+00:00", "year": 2022, "mile": 377.0, "bin_order": 11 }, "geometry": { "type": "MultiPolygon", "coordinates": [ [ [ [ -91.387475202844215, 31.745060563206561 ], [ -91.387683873118789, 31.744849728238545 ], [ -91.38800588392661, 31.744826734427036 ], [ -91.388252607329264, 31.745005051174079 ], [ -91.388279516312778, 31.745280223637042 ], [ -91.388070846333889, 31.74549105958004 ], [ -91.387748833227079, 31.745514053477674 ], [ -91.387502109528725, 31.745335735755653 ], [ -91.387475202844215, 31.745060563206561 ] ] ], [ [ [ -91.388438381021857, 31.745557516515966 ], [ -91.388647050350855, 31.745346679950199 ], [ -91.388969062757397, 31.745323683754357 ], [ -91.389215789366574, 31.745501998727146 ], [ -91.389242701286136, 31.745777171065278 ], [ -91.389034032252923, 31.745988008606027 ], [ -91.388712017547363, 31.746011004888061 ], [ -91.388465290642387, 31.745832688940279 ], [ -91.388438381021857, 31.745557516515966 ] ] ], [ [ [ -91.364475170857176, 31.747704958273268 ], [ -91.364683897752656, 31.747494163020704 ], [ -91.365005920764375, 31.747471227868711 ], [ -91.365252604805491, 31.747649587858437 ], [ -91.365279445917906, 31.747924762816506 ], [ -91.365070719315895, 31.748135559044385 ], [ -91.364748694004561, 31.748158494281032 ], [ -91.364502009669934, 31.747980133315995 ], [ -91.364475170857176, 31.747704958273268 ] ] ], [ [ [ -91.369553530045664, 31.749436925429684 ], [ -91.369762249880424, 31.749226121652651 ], [ -91.37008427824766, 31.749203173824782 ], [ -91.370330976923483, 31.749381524412328 ], [ -91.370357833377327, 31.749656698749611 ], [ -91.37014911383659, 31.749867503501978 ], [ -91.369827083169582, 31.749890451414842 ], [ -91.369580384199736, 31.749712099851958 ], [ -91.369553530045664, 31.749436925429684 ] ] ], [ [ [ -91.367018485413695, 31.75477995885187 ], [ -91.367227223356764, 31.754569159995562 ], [ -91.367549270621538, 31.754546219239241 ], [ -91.367795977914668, 31.754724574906859 ], [ -91.367822827657562, 31.754999749357033 ], [ -91.36761409000836, 31.755210549188902 ], [ -91.367292040443161, 31.755233490030072 ], [ -91.367045332856179, 31.755055133386907 ], [ -91.367018485413695, 31.75477995885187 ] ] ], [ [ [ -91.364867714562749, 31.760337974732966 ], [ -91.365076470282176, 31.760127180162733 ], [ -91.365398537146376, 31.760104245530503 ], [ -91.365645254381363, 31.760282605572876 ], [ -91.365672098584682, 31.760557780085968 ], [ -91.365463343159007, 31.760768575632 ], [ -91.365141273993729, 31.760791510348994 ], [ -91.364894556465003, 31.76061314933083 ], [ -91.364867714562749, 31.760337974732966 ] ] ], [ [ [ -91.35719826115168, 31.765353895658986 ], [ -91.357407045477828, 31.765143114790025 ], [ -91.357729130777869, 31.765120200225759 ], [ -91.357975845478833, 31.765298574947568 ], [ -91.358002667662205, 31.765573750152736 ], [ -91.357793883629157, 31.765784531997749 ], [ -91.357471796027369, 31.765807446646313 ], [ -91.357225081033306, 31.765629070948457 ], [ -91.35719826115168, 31.765353895658986 ] ] ], [ [ [ -91.363749551592832, 31.76600923840418 ], [ -91.363958323095957, 31.765798446361405 ], [ -91.364280409824104, 31.765775515247594 ], [ -91.364527139367738, 31.76595387773834 ], [ -91.364553981114156, 31.76622905219569 ], [ -91.364345209904769, 31.76643984521446 ], [ -91.36402312087489, 31.766462776412997 ], [ -91.363776391037518, 31.766284412946252 ], [ -91.363749551592832, 31.76600923840418 ] ] ] ] } },
{ "type": "Feature", "properties": { "depth_bin": "7-8 ft", "survey_id": "LM_03_KGC_20220629_CS_3784_3758", "date": "2022-06-29 00:00:00+00:00", "year": 2022, "mile": 377.0, "bin_order": 10 }, "geometry": { "type": "MultiPolygon", "coordinates": [ [ [ [ -91.386918200475904, 31.741384205941266 ], [ -91.387126863344875, 31.741173371536913 ], [ -91.387448861457557, 31.741150378702905 ], [ -91.387695574311905, 31.741328696268692 ], [ -91.387722481072885, 31.741603868911966 ], [ -91.387513818499471, 31.741814704291158 ], [ -91.387191818088198, 31.741837697211253 ], [ -91.386945104938277, 31.741659378670612 ], [ -91.386918200475904, 31.741384205941266 ] ] ], [ [ [ -91.369259112471383, 31.749323100139431 ], [ -91.369467832684052, 31.749112296855134 ], [ -91.369789860694269, 31.749089349760574 ], [ -91.370168201328056, 31.749291569441063 ], [ -91.370215824180278, 31.749597381063317 ], [ -91.370007104467618, 31.749808185578484 ], [ -91.369685073988165, 31.749831133138162 ], [ -91.369306732329562, 31.7496289120004 ], [ -91.369259112471383, 31.749323100139431 ] ] ], [ [ [ -91.3682363920325, 31.752040576928131 ], [ -91.36846829678052, 31.751848272507171 ], [ -91.368791415704067, 31.75185241057212 ], [ -91.369016471755657, 31.75205056717633 ], [ -91.36901163003914, 31.752326665556712 ], [ -91.368779725130693, 31.752518970950934 ], [ -91.368456603893918, 31.752514832778964 ], [ -91.368231548002754, 31.752316675201506 ], [ -91.3682363920325, 31.752040576928131 ] ] ], [ [ [ -91.366878162640077, 31.754703559580371 ], [ -91.367110076979529, 31.75451125802768 ], [ -91.367433204933661, 31.754515399846198 ], [ -91.367658264165243, 31.75471355889055 ], [ -91.367653417915221, 31.754989656968352 ], [ -91.367421503415201, 31.755181959494404 ], [ -91.367098373147527, 31.755177817568793 ], [ -91.366873314076528, 31.754979657551072 ], [ -91.366878162640077, 31.754703559580371 ] ] ], [ [ [ -91.365823512276506, 31.757538143011789 ], [ -91.36603225932032, 31.757327346501274 ], [ -91.36635431632736, 31.757304409107768 ], [ -91.366601028297637, 31.75748276718533 ], [ -91.366627874912695, 31.757757941680978 ], [ -91.366419128162676, 31.757968739167165 ], [ -91.366097068854884, 31.757991676645482 ], [ -91.365850356590826, 31.757813317592245 ], [ -91.365823512276506, 31.757538143011789 ] ] ], [ [ [ -91.365799342184047, 31.744759565692927 ], [ -91.366031232917308, 31.74456726505775 ], [ -91.366354326164213, 31.744571408456565 ], [ -91.366579359917694, 31.744769568818313 ], [ -91.366574512343405, 31.745045667178623 ], [ -91.366342621449505, 31.745237968786796 ], [ -91.366019525890209, 31.745233825280827 ], [ -91.365794492297354, 31.745035663946084 ], [ -91.365799342184047, 31.744759565692927 ] ] ], [ [ [ -91.364728084943522, 31.760272425800068 ], [ -91.36496001797488, 31.760080128941564 ], [ -91.365283164928812, 31.760084276860386 ], [ -91.365508232338684, 31.760282439837759 ], [ -91.365503378654537, 31.760558537377513 ], [ -91.365271445462369, 31.760750835209578 ], [ -91.364948296194271, 31.76074668718352 ], [ -91.364723228945223, 31.760548523232568 ], [ -91.364728084943522, 31.760272425800068 ] ] ], [ [ [ -91.364010492404915, 31.763142498847639 ], [ -91.364219256596172, 31.762931706049326 ], [ -91.364541333322308, 31.762908773929141 ], [ -91.364788056032594, 31.763087135752194 ], [ -91.364814898117174, 31.763362310271578 ], [ -91.364606134219642, 31.763573104045793 ], [ -91.364284055192115, 31.7635960362507 ], [ -91.364037332188104, 31.763417673451762 ], [ -91.364010492404915, 31.763142498847639 ] ] ], [ [ [ -91.363602885846888, 31.765959852126777 ], [ -91.363914405976843, 31.765748047561544 ], [ -91.364440314406821, 31.765798656956733 ], [ -91.364687044331049, 31.765977019149343 ], [ -91.364713886556046, 31.766252193588155 ], [ -91.364428166594834, 31.76648906702134 ], [ -91.363861907973686, 31.766446542841585 ], [ -91.363598025431756, 31.766235949157188 ], [ -91.363602885846888, 31.765959852126777 ] ] ] ] } },
{ "type": "Feature", "properties": { "depth_bin": "8-9 ft", "survey_id": "LM_03_KGC_20220629_CS_3784_3758", "date": "2022-06-29 00:00:00+00:00", "year": 2022, "mile": 377.0, "bin_order": 9 }, "geometry": { "type": "MultiPolygon", "coordinates": [ [ [ [ -91.387626732293597, 31.745110904271662 ], [ -91.387835402354085, 31.744900069049329 ], [ -91.388157413316705, 31.744877074859424 ], [ -91.388404137152406, 31.745055391325639 ], [ -91.388431046593496, 31.745330563769866 ], [ -91.388222376828708, 31.74554139996718 ], [ -91.387900363567084, 31.745564394243228 ], [ -91.387653639435683, 31.745386076802028 ], [ -91.387626732293597, 31.745110904271662 ] ] ], [ [ [ -91.370625732966587, 31.746649523527555 ], [ -91.370834443905053, 31.746438717613309 ], [ -91.371156462448184, 31.746415766732007 ], [ -91.371403156126647, 31.746594115138532 ], [ -91.371430015337353, 31.746869289444728 ], [ -91.371221304692966, 31.747080096334194 ], [ -91.370899283850406, 31.747103047300534 ], [ -91.370652589877849, 31.746924697918804 ], [ -91.370625732966587, 31.746649523527555 ] ] ], [ [ [ -91.366706955294489, 31.754702414105335 ], [ -91.366915693738235, 31.754491615775112 ], [ -91.367237740774129, 31.754468675799988 ], [ -91.367484447242887, 31.754647032046257 ], [ -91.367511296048818, 31.75492220653361 ], [ -91.367302557898924, 31.75513300583939 ], [ -91.366980508562605, 31.755155945899364 ], [ -91.366733801800024, 31.754977588677537 ], [ -91.366706955294489, 31.754702414105335 ] ] ], [ [ [ -91.365667749244238, 31.757495561783823 ], [ -91.365876496529438, 31.757284765535978 ], [ -91.366198553408779, 31.757261828532609 ], [ -91.366445264957036, 31.757440186899291 ], [ -91.366472111102993, 31.757715361413638 ], [ -91.366263364111575, 31.757926158637158 ], [ -91.365941304931511, 31.757949095725305 ], [ -91.365694593089458, 31.757770736382977 ], [ -91.365667749244238, 31.757495561783823 ] ] ], [ [ [ -91.358844511454834, 31.762445922715095 ], [ -91.35905328533407, 31.762235138707538 ], [ -91.359375360309514, 31.762212219614732 ], [ -91.359622070855934, 31.762390591070744 ], [ -91.359648897488583, 31.762665766185858 ], [ -91.359440123902544, 31.762876551169338 ], [ -91.35911804662571, 31.762899470346536 ], [ -91.358871335786077, 31.762721097914604 ], [ -91.358844511454834, 31.762445922715095 ] ] ], [ [ [ -91.363693210674555, 31.763091107192082 ], [ -91.363939698717687, 31.762865660148311 ], [ -91.36438258829142, 31.762882378989914 ], [ -91.364629310615115, 31.763060741108688 ], [ -91.364656152224129, 31.763335915646575 ], [ -91.364409664555268, 31.763561364077923 ], [ -91.363966771742227, 31.763544645223202 ], [ -91.363720049507393, 31.763366281833104 ], [ -91.363693210674555, 31.763091107192082 ] ] ], [ [ [ -91.363433489615858, 31.765970205024708 ], [ -91.363642261720258, 31.765759413520154 ], [ -91.363964348353804, 31.765736483203892 ], [ -91.364211077162381, 31.765914846284304 ], [ -91.364237917963848, 31.766190020778048 ], [ -91.364029146153158, 31.766400813258606 ], [ -91.363707057217866, 31.76642374365958 ], [ -91.363460328115565, 31.766245379603152 ], [ -91.363433489615858, 31.765970205024708 ] ] ] ] } },
{ "type": "Feature", "properties": { "depth_bin": "9-10 ft", "survey_id": "LM_03_KGC_20220629_CS_3784_3758", "date": "2022-06-29 00:00:00+00:00", "year": 2022, "mile": 377.0, "bin_order": 8 }, "geometry": { "type": "MultiPolygon", "coordinates": [ [ [ [ -91.387753079414964, 31.745214105950961 ], [ -91.387936561532783, 31.744986807622933 ], [ -91.388254384675733, 31.744936952294527 ], [ -91.388520373910694, 31.745093744346729 ], [ -91.388578716873525, 31.745365337786101 ], [ -91.388395235494272, 31.745592637053562 ], [ -91.388077410154168, 31.745642492656671 ], [ -91.387811420180654, 31.745485699665036 ], [ -91.387753079414964, 31.745214105950961 ] ] ], [ [ [ -91.37049194768251, 31.746574415667435 ], [ -91.370700658737775, 31.746363609974569 ], [ -91.371022677037473, 31.746340659423655 ], [ -91.371269370254865, 31.746519008076074 ], [ -91.37129622905691, 31.746794182399601 ], [ -91.371087518295695, 31.747004989067683 ], [ -91.370765497696596, 31.747027939703617 ], [ -91.370518804185139, 31.746849590075993 ], [ -91.37049194768251, 31.746574415667435 ] ] ], [ [ [ -91.369108530546526, 31.749276770632189 ], [ -91.369317250980401, 31.749065967601183 ], [ -91.369639278849306, 31.7490430208831 ], [ -91.369885976221227, 31.749221372294098 ], [ -91.369912831329401, 31.749496546686132 ], [ -91.369704111189492, 31.749707350692464 ], [ -91.369382081020845, 31.749730297495514 ], [ -91.369135383354944, 31.749551945109175 ], [ -91.369108530546526, 31.749276770632189 ] ] ], [ [ [ -91.368073746986241, 31.752010583479414 ], [ -91.368282476109854, 31.751799782516134 ], [ -91.368604513612951, 31.751776838750619 ], [ -91.368851215920159, 31.751955192269534 ], [ -91.368878068373661, 31.752230366690085 ], [ -91.368669339543985, 31.752441168628817 ], [ -91.368347299740819, 31.752464112479235 ], [ -91.368100597139673, 31.752285757984893 ], [ -91.368073746986241, 31.752010583479414 ] ] ], [ [ [ -91.366553835425975, 31.754674381579502 ], [ -91.366762574139486, 31.754463583508954 ], [ -91.367084621097916, 31.754440643918979 ], [ -91.367331327187358, 31.754619000450294 ], [ -91.367358175534306, 31.754894174955606 ], [ -91.36714943711462, 31.755104974001711 ], [ -91.366827387855778, 31.755127913676528 ], [ -91.366580681472527, 31.754949556169652 ], [ -91.366553835425975, 31.754674381579502 ] ] ], [ [ [ -91.36439956720632, 31.760226865752074 ], [ -91.364685267250479, 31.759989991514434 ], [ -91.365086587785939, 31.760028101964675 ], [ -91.365333304199083, 31.76020646258663 ], [ -91.365360147464216, 31.76048163713687 ], [ -91.365074447501286, 31.760718512878327 ], [ -91.364673124004582, 31.76068040229368 ], [ -91.364426407701117, 31.760502040405534 ], [ -91.36439956720632, 31.760226865752074 ] ] ] ] } },
{ "type": "Feature", "properties": { "depth_bin": "<5 ft", "survey_id": "LM_03_KGC_20220629_CS_3784_3758", "date": "2022-06-29 00:00:00+00:00", "year": 2022, "mile": 377.0, "bin_order": 13 }, "geometry": { "type": "MultiPolygon", "coordinates": [ [ [ [ -91.384481939045017, 31.732791343560717 ], [ -91.388632574479473, 31.734955338120976 ], [ -91.388721780649163, 31.735220736984299 ], [ -91.388565273082349, 31.735462311177052 ], [ -91.388296074450594, 31.735540809606533 ], [ -91.387958549251124, 31.735434726240918 ], [ -91.384074916016388, 31.733419553250204 ], [ -91.383908889563429, 31.733222175692692 ], [ -91.383927059483298, 31.732979583687893 ], [ -91.384158883775882, 31.732787247476306 ], [ -91.384481939045017, 31.732791343560717 ] ] ], [ [ [ -91.384376999808836, 31.73619302288413 ], [ -91.38867364456722, 31.738427305464995 ], [ -91.388762853734448, 31.738692704274929 ], [ -91.38860634002134, 31.738934278201285 ], [ -91.388378536429187, 31.739011562610767 ], [ -91.388138882571965, 31.738967662996536 ], [ -91.383969960158666, 31.736821231397016 ], [ -91.383803928193302, 31.736623853609284 ], [ -91.38382209945479, 31.736381261775147 ], [ -91.384053932751982, 31.736188926142667 ], [ -91.384376999808836, 31.73619302288413 ] ] ], [ [ [ -91.388019719015816, 31.741712601708791 ], [ -91.388330282131264, 31.741636365020319 ], [ -91.38870969807229, 31.741769309089666 ], [ -91.388857783923442, 31.742014734942401 ], [ -91.388759421067235, 31.742277761588596 ], [ -91.388430821132559, 31.74240552485487 ], [ -91.38801005662269, 31.742270319311949 ], [ -91.387860552634223, 31.741989507741071 ], [ -91.388019719015816, 31.741712601708791 ] ] ], [ [ [ -91.387407059806193, 31.744478458338229 ], [ -91.388116285702495, 31.744934189084152 ], [ -91.38814319427037, 31.745209361564804 ], [ -91.387934524158879, 31.745420197281714 ], [ -91.38753652386356, 31.745415160524896 ], [ -91.385449378755993, 31.744310130870172 ], [ -91.385296708826999, 31.744146263800275 ], [ -91.385286965817642, 31.74390331818309 ], [ -91.385495638173794, 31.743692486842033 ], [ -91.385817645251265, 31.743669498443897 ], [ -91.387407059806193, 31.744478458338229 ] ] ], [ [ [ -91.388729797970896, 31.745441067953344 ], [ -91.389040373171596, 31.745364829970057 ], [ -91.389323068305188, 31.745498586120117 ], [ -91.389412285211804, 31.745763984478465 ], [ -91.389255760415679, 31.746005558606381 ], [ -91.388945183204143, 31.746081797042415 ], [ -91.38866248691744, 31.745948040024569 ], [ -91.388573272021674, 31.74568264121346 ], [ -91.388729797970896, 31.745441067953344 ] ] ], [ [ [ -91.38559502339551, 31.746713042770359 ], [ -91.389379044667081, 31.748543742572426 ], [ -91.389527142295108, 31.748789167812323 ], [ -91.389428773273195, 31.749052194531792 ], [ -91.389141559542651, 31.749178744801377 ], [ -91.388751296945628, 31.749077928651428 ], [ -91.385226742389776, 31.747353673807151 ], [ -91.385074068113028, 31.747189806392548 ], [ -91.385064325729189, 31.746946860878619 ], [ -91.385273005716513, 31.746736030242964 ], [ -91.38559502339551, 31.746713042770359 ] ] ], [ [ [ -91.38491965610902, 31.749233434476018 ], [ -91.388784570133112, 31.750938907010454 ], [ -91.388932669688415, 31.751184332927451 ], [ -91.388834296164262, 31.751447358952873 ], [ -91.388588146310227, 31.751569231481181 ], [ -91.388344578603238, 31.751545617289391 ], [ -91.384726606317386, 31.749960827887726 ], [ -91.384436612127914, 31.749773057005022 ], [ -91.384388942200445, 31.749467249146324 ], [ -91.384597629584718, 31.749256419936472 ], [ -91.38491965610902, 31.749233434476018 ] ] ], [ [ [ -91.383885794613064, 31.751212847313088 ], [ -91.388177973740895, 31.752863415839808 ], [ -91.388297208126716, 31.753120064472068 ], [ -91.388169132161678, 31.753373583896504 ], [ -91.387951254605213, 31.753469576121617 ], [ -91.387746484910636, 31.753458380761103 ], [ -91.38460403912832, 31.752295785302717 ], [ -91.383484571965298, 31.751831960998512 ], [ -91.383351426461672, 31.751656093196448 ], [ -91.383355066776616, 31.751446657142758 ], [ -91.383563761074811, 31.751235829915842 ], [ -91.383885794613064, 31.751212847313088 ] ] ], [ [ [ -91.387207519317286, 31.754995391138827 ], [ -91.387395431622423, 31.75517790634439 ], [ -91.38739064386796, 31.755454007105541 ], [ -91.387158767352886, 31.755646346886465 ], [ -91.386874435833519, 31.75565467545438 ], [ -91.382470081684474, 31.754134088990725 ], [ -91.38228218139615, 31.753951566879902 ], [ -91.382272446413296, 31.75370862161941 ], [ -91.382481148396508, 31.753497796489345 ], [ -91.382803189937647, 31.753474816901811 ], [ -91.387207519317286, 31.754995391138827 ] ] ], [ [ [ -91.384695393243376, 31.739732125537952 ], [ -91.38739898527605, 31.741159055026529 ], [ -91.38745732299526, 31.741430648950178 ], [ -91.387273847147924, 31.741657946903803 ], [ -91.387079675178853, 31.741714561098764 ], [ -91.386840015139853, 31.741670658847656 ], [ -91.384596171163722, 31.740524111355025 ], [ -91.384212399855585, 31.740271749587912 ], [ -91.384164734115743, 31.739965941393514 ], [ -91.38437339969235, 31.739755111556629 ], [ -91.384695393243376, 31.739732125537952 ] ] ], [ [ [ -91.382445785308448, 31.755974749337842 ], [ -91.386653182171628, 31.757264098501466 ], [ -91.38682393795591, 31.757414387534055 ], [ -91.386850844619588, 31.757689559762515 ], [ -91.386642142376942, 31.75790039193766 ], [ -91.386320085962012, 31.757923380740941 ], [ -91.38233917304224, 31.756716008732958 ], [ -91.382026918570929, 31.756552221002288 ], [ -91.381944402765455, 31.756251877111819 ], [ -91.382127921712225, 31.756024588728273 ], [ -91.382445785308448, 31.755974749337842 ] ] ], [ [ [ -91.371068265684485, 31.746573392664374 ], [ -91.371459781730792, 31.74651203227009 ], [ -91.372677638353466, 31.746983022969349 ], [ -91.372878879446489, 31.747199068611984 ], [ -91.372842403590511, 31.747473433740623 ], [ -91.37262879168712, 31.74763397068428 ], [ -91.372384521333785, 31.747651382882655 ], [ -91.371126621614593, 31.747171273524255 ], [ -91.370910454396807, 31.746885660096265 ], [ -91.371068265684485, 31.746573392664374 ] ] ], [ [ [ -91.369846679455549, 31.749313937944414 ], [ -91.37007452255564, 31.749236688160462 ], [ -91.370393495880279, 31.749282406798098 ], [ -91.372523773582813, 31.750007870550867 ], [ -91.372875143024388, 31.75023916967454 ], [ -91.372887466792434, 31.750547497418609 ], [ -91.372693291184575, 31.750725152723984 ], [ -91.372411295646415, 31.750757222308451 ], [ -91.36994221496488, 31.749927434180623 ], [ -91.369779262145187, 31.749820896203058 ], [ -91.369688859061583, 31.749626203439867 ], [ -91.369846679455549, 31.749313937944414 ] ] ], [ [ [ -91.369123482314976, 31.751961802998764 ], [ -91.371441508872365, 31.752664641358862 ], [ -91.371617006556193, 31.752896503999274 ], [ -91.37154922692622, 31.753166491675437 ], [ -91.371357430904339, 31.753296933360005 ], [ -91.371073106779036, 31.753305226841515 ], [ -91.368908401354489, 31.752651487676527 ], [ -91.368700496687808, 31.752485560130509 ], [ -91.368673644722577, 31.752210385698252 ], [ -91.368882373000673, 31.751999583727418 ], [ -91.369123482314976, 31.751961802998764 ] ] ], [ [ [ -91.367733775719813, 31.754608264096166 ], [ -91.370745910260823, 31.75536473287158 ], [ -91.37092141095367, 31.755596596488967 ], [ -91.370853626992115, 31.755866583551271 ], [ -91.370661824297983, 31.75599702391558 ], [ -91.370458424444834, 31.756020150345403 ], [ -91.368369344532155, 31.755520815384209 ], [ -91.367522840735063, 31.75528459699683 ], [ -91.367372888190957, 31.755164920920748 ], [ -91.367305254969281, 31.754963592831739 ], [ -91.367433389254259, 31.754710096429502 ], [ -91.367733775719813, 31.754608264096166 ] ] ], [ [ [ -91.366588186126364, 31.757333721133211 ], [ -91.37024266046069, 31.758161589794511 ], [ -91.370390720714241, 31.758407035757642 ], [ -91.370292286808578, 31.758670045163818 ], [ -91.370125657694587, 31.758772365641828 ], [ -91.369881357731387, 31.758789772012442 ], [ -91.36656441197043, 31.75808909817458 ], [ -91.366210110008808, 31.757916857166485 ], [ -91.366120950003619, 31.757651444866475 ], [ -91.366277554596508, 31.757409902267295 ], [ -91.366588186126364, 31.757333721133211 ] ] ], [ [ [ -91.369253470922231, 31.760784847157481 ], [ -91.369536181451878, 31.760918647538084 ], [ -91.36962535402408, 31.761184057748334 ], [ -91.369468751131748, 31.761425604406245 ], [ -91.369158107810478, 31.761501792141114 ], [ -91.365301820306613, 31.760806565536207 ], [ -91.365075869883015, 31.760658842895065 ], [ -91.36501089309516, 31.760422181305401 ], [ -91.36516750550949, 31.760180640426359 ], [ -91.365478147188412, 31.760104462374052 ], [ -91.369253470922231, 31.760784847157481 ] ] ], [ [ [ -91.364539283590346, 31.762909156627153 ], [ -91.368234207903527, 31.763416255827913 ], [ -91.368459289587435, 31.763614413971371 ], [ -91.368454444035507, 31.76389051177344 ], [ -91.368296091293118, 31.764050414207873 ], [ -91.368060445356349, 31.764108204076027 ], [ -91.366270514042839, 31.763885023538943 ], [ -91.364445714485228, 31.763612320757016 ], [ -91.36424394159954, 31.763493348001063 ], [ -91.364153538311356, 31.763298651651994 ], [ -91.364251994874451, 31.763035647923743 ], [ -91.364539283590346, 31.762909156627153 ] ] ], [ [ [ -91.364432701960979, 31.765808100034295 ], [ -91.367587659842727, 31.766133113852824 ], [ -91.367763171556135, 31.766364981864911 ], [ -91.367695369206103, 31.766634966236118 ], [ -91.367341471800458, 31.766790788912889 ], [ -91.36442006858617, 31.7665261025268 ], [ -91.364164714835269, 31.766418878553313 ], [ -91.364046943656959, 31.766197594146185 ], [ -91.36414540396737, 31.765934590728765 ], [ -91.364432701960979, 31.765808100034295 ] ] ], [ [ [ -91.365471967434914, 31.744483729196173 ], [ -91.365813668801863, 31.74438416810824 ], [ -91.366278243666727, 31.744556526370648 ], [ -91.366453713777432, 31.744788395463267 ], [ -91.366385926275257, 31.745058380416335 ], [ -91.366032110636326, 31.745214202647098 ], [ -91.365526186241951, 31.745039575505032 ], [ -91.365345254727629, 31.744772609063105 ], [ -91.365471967434914, 31.744483729196173 ] ] ], [ [ [ -91.364241144208179, 31.747421348674099 ], [ -91.364551743430781, 31.74734517132622 ], [ -91.365003319794013, 31.74748282319521 ], [ -91.365151350228487, 31.747728274608857 ], [ -91.365052914383597, 31.747991280270288 ], [ -91.364724264141771, 31.748118980493704 ], [ -91.364231337140879, 31.747979059192286 ], [ -91.364081897844343, 31.747698222049902 ], [ -91.364241144208179, 31.747421348674099 ] ] ], [ [ [ -91.363085266271995, 31.750290382267419 ], [ -91.363395876003096, 31.750214208126277 ], [ -91.363870468910761, 31.750347874063252 ], [ -91.364045943127351, 31.750579746436749 ], [ -91.363978143696883, 31.750849729495116 ], [ -91.363624301848702, 31.751005544022743 ], [ -91.363108356735552, 31.750869608308435 ], [ -91.362927421749347, 31.750602638517744 ], [ -91.363085266271995, 31.750290382267419 ] ] ], [ [ [ -91.362101038982104, 31.753316213589709 ], [ -91.362411659631661, 31.753240042251772 ], [ -91.362911239167019, 31.753407908763098 ], [ -91.36305927267847, 31.753653362521149 ], [ -91.362960823944647, 31.753916365920016 ], [ -91.362632149759747, 31.754044059827933 ], [ -91.36209121683234, 31.753873922994099 ], [ -91.361941775462924, 31.753593083488351 ], [ -91.362101038982104, 31.753316213589709 ] ] ], [ [ [ -91.361307252617053, 31.75635245669692 ], [ -91.361617884087281, 31.756276287694067 ], [ -91.361976365561432, 31.756390788080544 ], [ -91.362124400940743, 31.756636242891954 ], [ -91.362025946047112, 31.756899245254239 ], [ -91.361697259954269, 31.757026936292991 ], [ -91.361297424546223, 31.75691016561354 ], [ -91.361147981160528, 31.756629325220985 ], [ -91.361307252617053, 31.75635245669692 ] ] ], [ [ [ -91.360454034892527, 31.759345742795531 ], [ -91.360723324161569, 31.759267306601792 ], [ -91.361138002830344, 31.759360951846919 ], [ -91.361286040318944, 31.759606407607972 ], [ -91.361187579549224, 31.759869409018268 ], [ -91.360900296207532, 31.759995892972924 ], [ -91.360444200559471, 31.7599034512114 ], [ -91.36029475540326, 31.75962260986876 ], [ -91.360454034892527, 31.759345742795531 ] ] ], [ [ [ -91.358667165081258, 31.762257682883394 ], [ -91.358967584968624, 31.762155872492393 ], [ -91.359357092476358, 31.762259182119461 ], [ -91.359505129428626, 31.762504639841001 ], [ -91.359406660233844, 31.762767639485666 ], [ -91.359119365513507, 31.762894118982715 ], [ -91.358688439938646, 31.762792012277767 ], [ -91.358540404764554, 31.762546553674621 ], [ -91.358667165081258, 31.762257682883394 ] ] ], [ [ [ -91.356890235578973, 31.765145445073351 ], [ -91.35715954453832, 31.765067017154816 ], [ -91.358090004703925, 31.765145239242656 ], [ -91.358315067947032, 31.765343414680558 ], [ -91.358310191947368, 31.765619511006012 ], [ -91.358151819249102, 31.765779400094051 ], [ -91.357957580530908, 31.765835967388398 ], [ -91.35698569657535, 31.765758947231603 ], [ -91.356822732454376, 31.765652392491951 ], [ -91.356732343066327, 31.765457691390438 ], [ -91.356890235578973, 31.765145445073351 ] ] ] ] } },
{ "type": "Feature", "properties": { "depth_bin": ">20 ft", "survey_id": "LM_03_KGC_20220629_CS_3784_3758", "date": "2022-06-29 00:00:00+00:00", "year": 2022, "mile": 377.0, "bin_order": 0 }, "geometry": { "type": "MultiPolygon", "coordinates": [ [ [ [ -91.36634558011427, 31.744583166653626 ], [ -91.37035630449482, 31.746091974950986 ], [ -91.370557538193509, 31.746308024045227 ], [ -91.370521055989641, 31.746582388327948 ], [ -91.370381010926124, 31.746710518956938 ], [ -91.370145410552055, 31.74676831435232 ], [ -91.369534774297591, 31.746600688593919 ], [ -91.368407322252409, 31.746099449053098 ], [ -91.367919032812793, 31.745972742696502 ], [ -91.366134661235932, 31.745259498701994 ], [ -91.365984726125973, 31.745139821414092 ], [ -91.365917102235798, 31.744938492629824 ], [ -91.366045225168506, 31.744684996904052 ], [ -91.36634558011427, 31.744583166653626 ] ] ], [ [ [ -91.365276752162345, 31.74753727339829 ], [ -91.369003085852583, 31.748833036227868 ], [ -91.369178570508694, 31.749064901916014 ], [ -91.369110787162143, 31.749334888306457 ], [ -91.368918996038659, 31.749465326544215 ], [ -91.368634683678223, 31.749473614972093 ], [ -91.365157635312229, 31.74830492323003 ], [ -91.364833642663513, 31.748085935675544 ], [ -91.364775368202856, 31.747814333736663 ], [ -91.364958910382597, 31.747587070655594 ], [ -91.365276752162345, 31.74753727339829 ] ] ], [ [ [ -91.367242501142215, 31.75136315474392 ], [ -91.367560167638402, 31.751518804493674 ], [ -91.36767934267337, 31.751775470520631 ], [ -91.367551213460175, 31.752028967440889 ], [ -91.367250835277858, 31.75213079965641 ], [ -91.363770388928941, 31.751058325640443 ], [ -91.363562497249333, 31.750892390094478 ], [ -91.363524990007576, 31.750651426038534 ], [ -91.363782114726263, 31.750391766776715 ], [ -91.36418470726953, 31.750401540749536 ], [ -91.367242501142215, 31.75136315474392 ] ] ], [ [ [ -91.362998639569327, 31.753383404310586 ], [ -91.366304378175911, 31.754267615703885 ], [ -91.366452422091768, 31.754513065832921 ], [ -91.36635398181366, 31.754776072113291 ], [ -91.366187355778806, 31.754878387586519 ], [ -91.365943065692576, 31.754895786730341 ], [ -91.363282288933931, 31.754223075528436 ], [ -91.362678200164666, 31.754017286634529 ], [ -91.362531412262214, 31.753701115317188 ], [ -91.362688018850207, 31.753459577078765 ], [ -91.362998639569327, 31.753383404310586 ] ] ], [ [ [ -91.362023804247556, 31.756367137339502 ], [ -91.365335435480006, 31.757101494419562 ], [ -91.365536679798481, 31.75731755149809 ], [ -91.365500177029503, 31.757591913243942 ], [ -91.365324249922182, 31.757737781136271 ], [ -91.365083124306679, 31.757775554082823 ], [ -91.363016854290805, 31.757331348054635 ], [ -91.361812823576372, 31.757043459069077 ], [ -91.361662875960519, 31.756923776452453 ], [ -91.361595254140809, 31.756722445757269 ], [ -91.361723406376427, 31.756468955773997 ], [ -91.362023804247556, 31.756367137339502 ] ] ], [ [ [ -91.361182659572606, 31.759356152833782 ], [ -91.363968124560259, 31.759888450137591 ], [ -91.364110706954818, 31.76009880674 ], [ -91.364042899493555, 31.760368789218145 ], [ -91.363771512538179, 31.760518729204904 ], [ -91.361047655481116, 31.760060518668869 ], [ -91.360845894694577, 31.759941540870479 ], [ -91.360754092073364, 31.75971145768748 ], [ -91.360882251061057, 31.759457968881254 ], [ -91.361182659572606, 31.759356152833782 ] ] ], [ [ [ -91.359371870502656, 31.762207555557723 ], [ -91.362871829228595, 31.762683261173482 ], [ -91.363073079128256, 31.762899322178093 ], [ -91.363036566167978, 31.763173682668263 ], [ -91.362822900762055, 31.763334200999829 ], [ -91.362457867661462, 31.76334776198166 ], [ -91.359318304914012, 31.762919834222973 ], [ -91.359103862083018, 31.762818322984476 ], [ -91.358986107338424, 31.762597034335869 ], [ -91.359084577505172, 31.762334035043768 ], [ -91.359371870502656, 31.762207555557723 ] ] ], [ [ [ -91.357917640839389, 31.765298189916361 ], [ -91.358246361450753, 31.765170509956295 ], [ -91.361044007949488, 31.765450249336787 ], [ -91.361310005788582, 31.765607098171305 ], [ -91.361368278806893, 31.765878701002432 ], [ -91.361218343802662, 31.766085296623821 ], [ -91.360949034881344, 31.766163733132046 ], [ -91.358151367384252, 31.765883990979507 ], [ -91.357847457370326, 31.76566426589693 ], [ -91.357820413155451, 31.765490471124796 ], [ -91.357917640839389, 31.765298189916361 ] ] ] ] } }
]
}
