{
"type": "FeatureCollection",
"name": "LM_08_MVF_20170711_CS_MB_48175_48225_depth_polygons",
"crs": { "type": "name", "properties": { "name": "urn:ogc:def:crs:OGC:1.3:CRS84" } },
"features": [
{ "type": "Feature", "properties": { "depth_bin": "30-35 ft", "bin_order": -32.5, "survey_id": "LM_08_MVF_20170711_CS_MB_48175_48225", "date": "2017-07-11", "year": 2017, "mile": 482.0 }, "geometry": { "type": "MultiPolygon", "coordinates": [ [ [ [ -91.132210082407695, 32.729832628280718 ], [ -91.132393452293485, 32.730135314034676 ], [ -91.132230893867018, 32.730416151747427 ], [ -91.131829564382841, 32.730531646386687 ], [ -91.131497305738861, 32.730394244245602 ], [ -91.131377536125669, 32.730123629806783 ], [ -91.131507826556003, 32.729870483288963 ], [ -91.1317698740108, 32.729770465590946 ], [ -91.132210082407695, 32.729832628280718 ] ] ], [ [ [ -91.130784563852274, 32.730214270069737 ], [ -91.130683304583812, 32.730482836411284 ], [ -91.130279395012394, 32.730678087385058 ], [ -91.129695272480589, 32.730567076251667 ], [ -91.129477692936518, 32.730281035421108 ], [ -91.129511616190896, 32.730094389195216 ], [ -91.129638071687879, 32.729955465883464 ], [ -91.130241667966885, 32.729780189609954 ], [ -91.130631792298971, 32.729888895792008 ], [ -91.130784563852274, 32.730214270069737 ] ] ] ] } },
{ "type": "Feature", "properties": { "depth_bin": "35-40 ft", "bin_order": -37.5, "survey_id": "LM_08_MVF_20170711_CS_MB_48175_48225", "date": "2017-07-11", "year": 2017, "mile": 482.0 }, "geometry": { "type": "Polygon", "coordinates": [ [ [ -91.130679764630344, 32.729681207919143 ], [ -91.132153024540614, 32.729770615757005 ], [ -91.132337879540671, 32.729895998973042 ], [ -91.132611013763679, 32.72986915446451 ], [ -91.132827417291821, 32.729971108368176 ], [ -91.132947068496108, 32.730227980073813 ], [ -91.132816781489041, 32.730481128203337 ], [ -91.132512875513754, 32.730582261448802 ], [ -91.132212474921403, 32.730471266312257 ], [ -91.131716618544289, 32.730628561669938 ], [ -91.131023811819929, 32.730463899773177 ], [ -91.130525028596765, 32.730746934176594 ], [ -91.129815937475342, 32.730805559778055 ], [ -91.129376727799723, 32.730763684924568 ], [ -91.129149892383083, 32.730565062358139 ], [ -91.129171673152996, 32.730261455982827 ], [ -91.129535257416563, 32.729904002012375 ], [ -91.130679764630344, 32.729681207919143 ] ] ] } },
{ "type": "Feature", "properties": { "depth_bin": "40-45 ft", "bin_order": -42.5, "survey_id": "LM_08_MVF_20170711_CS_MB_48175_48225", "date": "2017-07-11", "year": 2017, "mile": 482.0 }, "geometry": { "type": "Polygon", "coordinates": [ [ [ -91.132836321867856, 32.729804048986068 ], [ -91.13378796324929, 32.73011614476539 ], [ -91.133900885411109, 32.730302536462084 ], [ -91.13388706317518, 32.730477429978791 ], [ -91.133659312715054, 32.730701557370168 ], [ -91.133415507336494, 32.730738786271502 ], [ -91.133183174866247, 32.730651169172731 ], [ -91.132681227074428, 32.730988299718078 ], [ -91.13146078129418, 32.731111172232303 ], [ -91.130832156713694, 32.730973329248442 ], [ -91.130635057447947, 32.730860156140125 ], [ -91.130021717347105, 32.730954570776625 ], [ -91.129401447455578, 32.730942989132558 ], [ -91.129143735828563, 32.730835218111849 ], [ -91.12903082317564, 32.730648822476851 ], [ -91.129059213141161, 32.730413334945759 ], [ -91.129366413823135, 32.729992174526444 ], [ -91.129793947742556, 32.729814830594947 ], [ -91.130770149340961, 32.729652301869066 ], [ -91.131787750758107, 32.729689677592837 ], [ -91.132129861960891, 32.729730518607241 ], [ -91.132312978528219, 32.729829581758132 ], [ -91.132836321867856, 32.729804048986068 ] ] ] } },
{ "type": "Feature", "properties": { "depth_bin": "45-50 ft", "bin_order": -47.5, "survey_id": "LM_08_MVF_20170711_CS_MB_48175_48225", "date": "2017-07-11", "year": 2017, "mile": 482.0 }, "geometry": { "type": "Polygon", "coordinates": [ [ [ -91.133992771755317, 32.729963004392495 ], [ -91.134083535738725, 32.730157853788505 ], [ -91.134056024156123, 32.730605686585172 ], [ -91.133925739623351, 32.730858835947139 ], [ -91.133607917502417, 32.730982387616912 ], [ -91.133205631138651, 32.730961839013581 ], [ -91.132293126365113, 32.731224393310377 ], [ -91.131235009547012, 32.731318743550943 ], [ -91.129354016749119, 32.731094455396068 ], [ -91.129077815767531, 32.730983741344936 ], [ -91.128934374888388, 32.730773115121444 ], [ -91.128962887234721, 32.730551369130851 ], [ -91.129285180140272, 32.730247195158896 ], [ -91.12938891694985, 32.729937470068727 ], [ -91.129663643468021, 32.729788173831608 ], [ -91.129999444505913, 32.729785793934816 ], [ -91.130695532735345, 32.729626138497849 ], [ -91.132314733078417, 32.729656209324077 ], [ -91.132559980110372, 32.729726678573677 ], [ -91.132818837739748, 32.72966673769902 ], [ -91.133115994825886, 32.729775003031229 ], [ -91.133772851296044, 32.729829976970692 ], [ -91.133992771755317, 32.729963004392495 ] ] ] } },
{ "type": "Feature", "properties": { "depth_bin": "50-55 ft", "bin_order": -52.5, "survey_id": "LM_08_MVF_20170711_CS_MB_48175_48225", "date": "2017-07-11", "year": 2017, "mile": 482.0 }, "geometry": { "type": "Polygon", "coordinates": [ [ [ -91.134245271315436, 32.729938165968115 ], [ -91.134561817049772, 32.730340091301379 ], [ -91.134571112579494, 32.73061048268147 ], [ -91.134042013585528, 32.731046105752405 ], [ -91.133723194942817, 32.731146559901404 ], [ -91.13300293242618, 32.731087462618632 ], [ -91.132277726698547, 32.731320687393328 ], [ -91.130910709933829, 32.731417003116462 ], [ -91.129110668864286, 32.731190403537752 ], [ -91.128934704288483, 32.731097649068907 ], [ -91.128821791777128, 32.730911253256679 ], [ -91.128835623992899, 32.730736360671507 ], [ -91.129013020164351, 32.730475398776264 ], [ -91.129181742913048, 32.730373485286847 ], [ -91.129423962216251, 32.730355977407491 ], [ -91.129330275640072, 32.730158291014376 ], [ -91.129404930178666, 32.729909883821115 ], [ -91.129728306831225, 32.72974653620382 ], [ -91.129982942570535, 32.729758414237537 ], [ -91.130695288057723, 32.729598655489681 ], [ -91.132042313385199, 32.729658194042955 ], [ -91.132304778026224, 32.729588407941833 ], [ -91.132899388929047, 32.729583770282623 ], [ -91.133270969284098, 32.729748110882056 ], [ -91.13400879215591, 32.729819007824588 ], [ -91.134245271315436, 32.729938165968115 ] ], [ [ -91.130409619773346, 32.730424063266504 ], [ -91.131239904882861, 32.730549156202777 ], [ -91.132002435451383, 32.730517068603547 ], [ -91.1315958308777, 32.730368770248383 ], [ -91.130409619773346, 32.730424063266504 ] ] ] } },
{ "type": "Feature", "properties": { "depth_bin": "55-60 ft", "bin_order": -57.5, "survey_id": "LM_08_MVF_20170711_CS_MB_48175_48225", "date": "2017-07-11", "year": 2017, "mile": 482.0 }, "geometry": { "type": "Polygon", "coordinates": [ [ [ -91.136027825830439, 32.72944525189321 ], [ -91.136210776900953, 32.729753624450062 ], [ -91.136014909805525, 32.73005066484837 ], [ -91.13554936262301, 32.73015059880143 ], [ -91.135059705234582, 32.730131289220253 ], [ -91.134834183098064, 32.730020531397635 ], [ -91.134642422160752, 32.730136349626704 ], [ -91.134952620242913, 32.730483872455046 ], [ -91.13504802180266, 32.730742609245461 ], [ -91.134996032739906, 32.73101595034008 ], [ -91.134739948030045, 32.731187299380778 ], [ -91.132916107151274, 32.731277893177534 ], [ -91.132123129554216, 32.731408437271121 ], [ -91.130391316047934, 32.731516502386867 ], [ -91.129683293147352, 32.731383406339425 ], [ -91.129031089327057, 32.731383300577946 ], [ -91.128751668421828, 32.731138632681407 ], [ -91.128804699288921, 32.730754384439081 ], [ -91.128993019461888, 32.73055048155701 ], [ -91.12918202327802, 32.730478348259673 ], [ -91.129876576424479, 32.730512632285773 ], [ -91.131030565858097, 32.730697559589387 ], [ -91.132097922279684, 32.730619691590675 ], [ -91.132530256896402, 32.730485057508105 ], [ -91.132136407901143, 32.730493507463912 ], [ -91.131891547374664, 32.730366245111327 ], [ -91.131585742475664, 32.730332631551853 ], [ -91.130778820695852, 32.730322871833053 ], [ -91.13013136471406, 32.730486635470335 ], [ -91.129640577844853, 32.73044495380045 ], [ -91.129412693850981, 32.730296758318495 ], [ -91.129344850789906, 32.730081583923536 ], [ -91.129446479950062, 32.729854243279178 ], [ -91.129654873680209, 32.729740994507914 ], [ -91.130920869570076, 32.729569114240029 ], [ -91.131246328318966, 32.729402756522731 ], [ -91.131499662903465, 32.729431219412277 ], [ -91.131865284022311, 32.729613843410839 ], [ -91.133011271196239, 32.729563759825446 ], [ -91.133196799796551, 32.729471083396248 ], [ -91.133436587679896, 32.729465361017432 ], [ -91.133652991267709, 32.729567313499913 ], [ -91.133804118091206, 32.7297640088983 ], [ -91.134007541021248, 32.729501623025648 ], [ -91.134358744230155, 32.729387218748556 ], [ -91.134637348763377, 32.729411202754214 ], [ -91.134829904225626, 32.729540940335603 ], [ -91.13503364405473, 32.72943186545772 ], [ -91.13532060661403, 32.729437494714574 ], [ -91.1355866926815, 32.729333828525768 ], [ -91.136027825830439, 32.72944525189321 ] ] ] } },
{ "type": "Feature", "properties": { "depth_bin": "60-65 ft", "bin_order": -62.5, "survey_id": "LM_08_MVF_20170711_CS_MB_48175_48225", "date": "2017-07-11", "year": 2017, "mile": 482.0 }, "geometry": { "type": "Polygon", "coordinates": [ [ [ -91.135977637155818, 32.729341324195424 ], [ -91.136293872355239, 32.729568296602629 ], [ -91.13628679523508, 32.729908304910758 ], [ -91.135933539398579, 32.730121505807432 ], [ -91.135216272115741, 32.730191567710349 ], [ -91.135340045120003, 32.730672029074981 ], [ -91.135305906681154, 32.730963084344943 ], [ -91.135084230427282, 32.731231836622932 ], [ -91.134660872477923, 32.731435165786763 ], [ -91.133990913673415, 32.731449711911246 ], [ -91.133401930516214, 32.731351274244084 ], [ -91.132609340199139, 32.731374610939227 ], [ -91.130889127481012, 32.731594944400577 ], [ -91.12925400071596, 32.731606182732307 ], [ -91.128936810829927, 32.731528640027257 ], [ -91.128736753137943, 32.731289892380644 ], [ -91.128795443182042, 32.73084822958419 ], [ -91.129216003894214, 32.730643039910582 ], [ -91.130551926353235, 32.730795274301165 ], [ -91.133809610264336, 32.730490315615263 ], [ -91.133013705930878, 32.730419203122111 ], [ -91.132402330928713, 32.730279857885122 ], [ -91.131925394721051, 32.730338644076063 ], [ -91.130784657573656, 32.73029079705011 ], [ -91.130140131819445, 32.730454784092736 ], [ -91.129640333498898, 32.730417470790101 ], [ -91.129412449573124, 32.730269275309638 ], [ -91.12934752170915, 32.730032524401565 ], [ -91.129548804469749, 32.729634123589513 ], [ -91.129798869123192, 32.729478975456011 ], [ -91.130062836235183, 32.729482568313614 ], [ -91.130283991766348, 32.729614612954244 ], [ -91.130824350293778, 32.729535280300176 ], [ -91.131004390466614, 32.729386779369115 ], [ -91.131287573076477, 32.729332936010145 ], [ -91.131601860420247, 32.729405276893125 ], [ -91.131800922741562, 32.729577542059921 ], [ -91.132659142417467, 32.729562039001834 ], [ -91.132837383404421, 32.729529454349837 ], [ -91.133045652012356, 32.729205432718679 ], [ -91.133318032844869, 32.72912760330032 ], [ -91.133667610412076, 32.729191185749514 ], [ -91.13391044696759, 32.729508199967917 ], [ -91.13439965586727, 32.729313934827637 ], [ -91.135085680458445, 32.729360489969011 ], [ -91.135741858771738, 32.729277019755401 ], [ -91.135977637155818, 32.729341324195424 ] ] ] } },
{ "type": "Feature", "properties": { "depth_bin": "65-70 ft", "bin_order": -67.5, "survey_id": "LM_08_MVF_20170711_CS_MB_48175_48225", "date": "2017-07-11", "year": 2017, "mile": 482.0 }, "geometry": { "type": "MultiPolygon", "coordinates": [ [ [ [ -91.137483868544507, 32.729540703832164 ], [ -91.138176646353088, 32.729747547760439 ], [ -91.138310647858674, 32.729923682174835 ], [ -91.138306541466406, 32.730160541449898 ], [ -91.138131229558482, 32.730353170130115 ], [ -91.137582093777084, 32.730389979498632 ], [ -91.137285616478408, 32.730298754274436 ], [ -91.136987373416545, 32.730097264909638 ], [ -91.136929297672239, 32.729825600123533 ], [ -91.137115499158114, 32.729598793556306 ], [ -91.137483868544507, 32.729540703832164 ] ] ], [ [ [ -91.136443107828953, 32.730959648432034 ], [ -91.136549626069112, 32.731862113736845 ], [ -91.13633801304205, 32.732072400407766 ], [ -91.135950361630478, 32.732126077327457 ], [ -91.135680635667299, 32.732083985757313 ], [ -91.135484112312213, 32.731936857003816 ], [ -91.134791725774946, 32.731790615068931 ], [ -91.134189201682915, 32.731805745365619 ], [ -91.13271908723388, 32.731623611336708 ], [ -91.132165012936497, 32.731683863367074 ], [ -91.13180867937551, 32.731588565848668 ], [ -91.13093900230578, 32.731718307596125 ], [ -91.130100753947019, 32.731751969054471 ], [ -91.129704539382914, 32.731659398281352 ], [ -91.129099509509402, 32.73172821785451 ], [ -91.128809158376029, 32.731606910979586 ], [ -91.128690833349623, 32.731385415080126 ], [ -91.128758245168171, 32.731015782513886 ], [ -91.129055136769097, 32.730836453070779 ], [ -91.130900063481448, 32.730867628172597 ], [ -91.131778449538317, 32.730732372329037 ], [ -91.13205037488683, 32.730757417327212 ], [ -91.132541824192259, 32.730645054186553 ], [ -91.1344871256358, 32.730676807413545 ], [ -91.134420744893717, 32.730495411409336 ], [ -91.133176160133957, 32.730404424493415 ], [ -91.132916068517559, 32.730262448170556 ], [ -91.132672999989722, 32.730306395040188 ], [ -91.130800548086341, 32.730249469127934 ], [ -91.130007730340452, 32.730433298632732 ], [ -91.129595772065187, 32.730347831775667 ], [ -91.129393062435653, 32.730131373287882 ], [ -91.129386423408519, 32.729942435363697 ], [ -91.129558670518662, 32.729608985939933 ], [ -91.129814759941866, 32.729437647645462 ], [ -91.130381401813267, 32.729531252799404 ], [ -91.130674756203902, 32.729490272263611 ], [ -91.130873841765236, 32.72933264085173 ], [ -91.131140766885721, 32.729278901249451 ], [ -91.131547700337066, 32.729348459853789 ], [ -91.131808766542818, 32.729522025608489 ], [ -91.132592539052084, 32.72953091710702 ], [ -91.132756872691587, 32.729489564016589 ], [ -91.132980377185149, 32.729178364546613 ], [ -91.133210901215449, 32.729101648929081 ], [ -91.133822511530312, 32.729196532021284 ], [ -91.134033711593332, 32.729365867435646 ], [ -91.134431556074418, 32.72924501959087 ], [ -91.135059117961021, 32.729297170404031 ], [ -91.135757869912155, 32.729249432718461 ], [ -91.136173096322068, 32.729381299425313 ], [ -91.136366125763502, 32.729627138065112 ], [ -91.136297521702758, 32.72997935727274 ], [ -91.136070880861496, 32.730123286085529 ], [ -91.135387581501234, 32.730260919239356 ], [ -91.13562506256342, 32.730459773866038 ], [ -91.135981861495665, 32.730466021316595 ], [ -91.136233017178682, 32.730570807226229 ], [ -91.136443107828953, 32.730959648432034 ] ] ] ] } },
{ "type": "Feature", "properties": { "depth_bin": "70-75 ft", "bin_order": -72.5, "survey_id": "LM_08_MVF_20170711_CS_MB_48175_48225", "date": "2017-07-11", "year": 2017, "mile": 482.0 }, "geometry": { "type": "Polygon", "coordinates": [ [ [ -91.137050599502444, 32.729406905306199 ], [ -91.13825744065646, 32.729692059924545 ], [ -91.138407823236946, 32.729881831334403 ], [ -91.138414975415117, 32.730125735328137 ], [ -91.138278478016787, 32.730349983027807 ], [ -91.138098757678165, 32.730437440868315 ], [ -91.137812001201254, 32.730452173121321 ], [ -91.136817190241999, 32.73030864141684 ], [ -91.136594064679372, 32.730858164832199 ], [ -91.136964980736266, 32.730978860990412 ], [ -91.137227805411143, 32.731152290368712 ], [ -91.137407042203705, 32.731606519809169 ], [ -91.137830078536311, 32.73180739020426 ], [ -91.13827143404292, 32.73244638358797 ], [ -91.138291381866793, 32.73265511231012 ], [ -91.138151399972415, 32.732894987254433 ], [ -91.137570800403566, 32.733203030346402 ], [ -91.137246364247346, 32.733171145220084 ], [ -91.136562400797487, 32.732658320472922 ], [ -91.134842343987344, 32.731996426433064 ], [ -91.13246648078416, 32.731885450015589 ], [ -91.131452529222173, 32.731746561475411 ], [ -91.130371200022537, 32.731859341610971 ], [ -91.129051590612718, 32.731824717973787 ], [ -91.128824405422478, 32.731741176743441 ], [ -91.128690420560332, 32.731565032808149 ], [ -91.12871020017198, 32.731259364012857 ], [ -91.128851461206466, 32.731087329784167 ], [ -91.129543845460347, 32.730943289152918 ], [ -91.130195968373187, 32.73098993034278 ], [ -91.131960499641352, 32.73087514295306 ], [ -91.132519019034703, 32.73068557986317 ], [ -91.13300148139983, 32.730916600272472 ], [ -91.133788143748774, 32.730995306950135 ], [ -91.134013029060966, 32.730995108401878 ], [ -91.134149518693505, 32.730833719466347 ], [ -91.134338519357556, 32.730761578263653 ], [ -91.134820125560495, 32.730827671196259 ], [ -91.134561330287482, 32.730464681793698 ], [ -91.134144308941742, 32.730457492929546 ], [ -91.1338915007954, 32.730271099432564 ], [ -91.133324172626303, 32.730175799690166 ], [ -91.13190852454386, 32.730270040141704 ], [ -91.131371110737035, 32.730187333115616 ], [ -91.131137380096206, 32.730260361003452 ], [ -91.130816997368484, 32.730207981552176 ], [ -91.130334000281778, 32.730316128938092 ], [ -91.130062054192962, 32.730304853151857 ], [ -91.129788178319728, 32.730171495267335 ], [ -91.129522312310428, 32.729813513634497 ], [ -91.129596721653115, 32.729537623274744 ], [ -91.129976112929086, 32.729299199556714 ], [ -91.13069596215459, 32.729354922655901 ], [ -91.130992109495793, 32.729257520345485 ], [ -91.131344880235602, 32.729252743632479 ], [ -91.131568488302264, 32.729309293408704 ], [ -91.131854361812699, 32.729509781371732 ], [ -91.13207582582578, 32.729438700943248 ], [ -91.132325547533483, 32.729479454873086 ], [ -91.13270897886791, 32.729371690510206 ], [ -91.133072282230145, 32.729084434384205 ], [ -91.133691337908928, 32.729056509134047 ], [ -91.133927114051588, 32.729120817361057 ], [ -91.134107136111652, 32.729285354518431 ], [ -91.134489178606344, 32.729188835658569 ], [ -91.135042491586987, 32.729256049902375 ], [ -91.135513394075332, 32.729182285959119 ], [ -91.135913793153762, 32.729252854325097 ], [ -91.13623855715457, 32.729375191013929 ], [ -91.136513936300773, 32.729713538623947 ], [ -91.136805498698877, 32.729477099457 ], [ -91.137050599502444, 32.729406905306199 ] ] ] } },
{ "type": "Feature", "properties": { "depth_bin": "75-80 ft", "bin_order": -77.5, "survey_id": "LM_08_MVF_20170711_CS_MB_48175_48225", "date": "2017-07-11", "year": 2017, "mile": 482.0 }, "geometry": { "type": "Polygon", "coordinates": [ [ [ -91.137753100617758, 32.729488427196898 ], [ -91.138859330801353, 32.729973721417224 ], [ -91.138976210342449, 32.730265906355243 ], [ -91.138848729344531, 32.730483743005657 ], [ -91.138620358953176, 32.730585256455285 ], [ -91.138171274132247, 32.730628517570445 ], [ -91.137887449957617, 32.730575722026138 ], [ -91.137810557279863, 32.73092508558522 ], [ -91.13755750742466, 32.73128069417298 ], [ -91.13840095629125, 32.73200986018113 ], [ -91.138491731883903, 32.732204706744533 ], [ -91.138457826232852, 32.732391355925365 ], [ -91.137990949092455, 32.73319553072011 ], [ -91.137734863359455, 32.733366885808415 ], [ -91.13731622473621, 32.733373763190599 ], [ -91.136990760973575, 32.733207555182148 ], [ -91.136747261449074, 32.733176537743979 ], [ -91.136506508396224, 32.732942639159532 ], [ -91.135891034640863, 32.732649764909169 ], [ -91.135163828398589, 32.732472076778549 ], [ -91.134522876263233, 32.732177035291855 ], [ -91.131554659906996, 32.731911234977055 ], [ -91.130912190874241, 32.731916469023894 ], [ -91.129956999115194, 32.732041471370756 ], [ -91.129715537464108, 32.731973461083697 ], [ -91.129069191480895, 32.731975771329971 ], [ -91.128809368107682, 32.73187869494339 ], [ -91.128675383083831, 32.731702550989269 ], [ -91.128709721409791, 32.731336287361962 ], [ -91.12901678195766, 32.731119277116271 ], [ -91.129553712320558, 32.731035111387058 ], [ -91.130196081861826, 32.731120812400029 ], [ -91.131725211234468, 32.731006711334615 ], [ -91.132562507357378, 32.731139233962423 ], [ -91.134899365462744, 32.731228773649448 ], [ -91.135581993737901, 32.731411537773923 ], [ -91.136557577298191, 32.73182794114603 ], [ -91.136497168678105, 32.73165578338498 ], [ -91.136212958193639, 32.731613339643864 ], [ -91.136015948831258, 32.731492929403856 ], [ -91.135788672556146, 32.731154888782299 ], [ -91.135726535862162, 32.73086381119338 ], [ -91.135204621897728, 32.730849242269066 ], [ -91.134821382244894, 32.730634807451246 ], [ -91.134663987561723, 32.730261734002333 ], [ -91.134784476209049, 32.729947433781682 ], [ -91.134534298564645, 32.729921113197605 ], [ -91.134352615946099, 32.730051240638211 ], [ -91.133884544317212, 32.730201621907391 ], [ -91.133483212752168, 32.730196330976774 ], [ -91.133282331332197, 32.730106698353445 ], [ -91.131631778517018, 32.730230575831648 ], [ -91.131243071124388, 32.730058818542169 ], [ -91.131015473374276, 32.730160628752522 ], [ -91.130182556581019, 32.730176125966096 ], [ -91.129801902998935, 32.730080203960654 ], [ -91.129543493627494, 32.729793544319605 ], [ -91.12964476197692, 32.729454864440484 ], [ -91.129943231475835, 32.729258181656064 ], [ -91.130701812353252, 32.729311292156176 ], [ -91.131033390939606, 32.729225461998098 ], [ -91.13155951553091, 32.729259427892778 ], [ -91.131903639817111, 32.729136621144299 ], [ -91.132139414712938, 32.729200932696152 ], [ -91.132287359890412, 32.729354222985151 ], [ -91.132457756014063, 32.729361312816387 ], [ -91.133063059478673, 32.729059668280826 ], [ -91.133700239203279, 32.729017851565487 ], [ -91.134136567851556, 32.729224891503272 ], [ -91.134414438354867, 32.729148933031766 ], [ -91.135001241712857, 32.729226961746896 ], [ -91.135529405270447, 32.729154698950097 ], [ -91.136540116917388, 32.729426681739632 ], [ -91.137142666349547, 32.729372941235077 ], [ -91.137753100617758, 32.729488427196898 ] ] ] } },
{ "type": "Feature", "properties": { "depth_bin": "80-85 ft", "bin_order": -82.5, "survey_id": "LM_08_MVF_20170711_CS_MB_48175_48225", "date": "2017-07-11", "year": 2017, "mile": 482.0 }, "geometry": { "type": "MultiPolygon", "coordinates": [ [ [ [ -91.13722370657419, 32.729344937034362 ], [ -91.139036076774488, 32.729866182411364 ], [ -91.139208158827429, 32.730016834666849 ], [ -91.139288387343498, 32.730283569324243 ], [ -91.13921231601752, 32.730482862439182 ], [ -91.138710658323731, 32.730779728675024 ], [ -91.137937938222962, 32.730849407502518 ], [ -91.137672429540032, 32.73117140109229 ], [ -91.137933165046022, 32.73143866849427 ], [ -91.138484839341757, 32.731721399272871 ], [ -91.138597773355883, 32.731907787116931 ], [ -91.138595589173917, 32.732130951452639 ], [ -91.13843311094945, 32.732425532681496 ], [ -91.13827702659745, 32.732540945504667 ], [ -91.138042487905693, 32.732580749936595 ], [ -91.137561534169123, 32.732427515325568 ], [ -91.137325995736859, 32.732133947341318 ], [ -91.136782161564213, 32.731721639668372 ], [ -91.1366246298482, 32.731386904006833 ], [ -91.136381411638624, 32.731316265025576 ], [ -91.136093666828856, 32.731093905071106 ], [ -91.135937736840773, 32.730650135555116 ], [ -91.136264577037551, 32.730111991253352 ], [ -91.135906280288069, 32.730048680816076 ], [ -91.135726508899779, 32.72992358672365 ], [ -91.134500263712894, 32.72988645817351 ], [ -91.134265308088061, 32.730024896072393 ], [ -91.133857839199251, 32.730078957614474 ], [ -91.133548568451715, 32.730022525302644 ], [ -91.133359370367955, 32.729886137055566 ], [ -91.133103742373564, 32.730029651908623 ], [ -91.132268965565601, 32.730073338656773 ], [ -91.131908034464502, 32.730215074145825 ], [ -91.131566249461599, 32.73015884316284 ], [ -91.131184578385557, 32.729931424945889 ], [ -91.131019694602529, 32.730058749300113 ], [ -91.130762109213578, 32.730111582559985 ], [ -91.130391568923784, 32.730018421380429 ], [ -91.129888698523771, 32.730040570591399 ], [ -91.129644727163509, 32.729911968850146 ], [ -91.129552657134511, 32.729681737237748 ], [ -91.129702324429033, 32.729371637524331 ], [ -91.130032432694449, 32.729208653831286 ], [ -91.130441057172902, 32.729272916023483 ], [ -91.131473573947503, 32.729184751486898 ], [ -91.131837630291372, 32.729027103359215 ], [ -91.132130394031165, 32.729056160380459 ], [ -91.132325391254241, 32.729193540557105 ], [ -91.133349197360374, 32.728976238440573 ], [ -91.133830634849758, 32.729018811706396 ], [ -91.134138483984955, 32.729182794935184 ], [ -91.134521078702335, 32.729119920397729 ], [ -91.135083911091073, 32.729187688501177 ], [ -91.135528912958009, 32.729099732993134 ], [ -91.136396540237158, 32.729286137352609 ], [ -91.13722370657419, 32.729344937034362 ] ] ], [ [ [ -91.137965990274878, 32.732833128943334 ], [ -91.138026066505361, 32.733089180686719 ], [ -91.13789500555805, 32.733374796002273 ], [ -91.137716760263231, 32.733520244430878 ], [ -91.13747294843499, 32.73355748099651 ], [ -91.136128837736962, 32.733111788229529 ], [ -91.135719211654276, 32.73285643050103 ], [ -91.134693576360661, 32.732612506356105 ], [ -91.134472548536863, 32.73242479398327 ], [ -91.134175706834043, 32.73233670211215 ], [ -91.133795254040564, 32.732365621886473 ], [ -91.133295119353249, 32.732160210538126 ], [ -91.131925310599527, 32.732152628811995 ], [ -91.131113034459617, 32.732044443949334 ], [ -91.130227446970537, 32.732148844221982 ], [ -91.129249493653475, 32.732139535001174 ], [ -91.128779938050243, 32.731978138798191 ], [ -91.128676481396965, 32.73182622541983 ], [ -91.128662114055928, 32.731576012618554 ], [ -91.128854163841865, 32.731302808638461 ], [ -91.129148611633653, 32.731188848851055 ], [ -91.130011062480307, 32.731257733250331 ], [ -91.131189807877718, 32.731133800626615 ], [ -91.134176088312586, 32.731323519642501 ], [ -91.135087594023304, 32.731564836612385 ], [ -91.135648871377683, 32.731617243852355 ], [ -91.136121528301402, 32.731901184740593 ], [ -91.136943316275577, 32.732188321536121 ], [ -91.137596736622669, 32.732605789328886 ], [ -91.137812204796248, 32.7326689439208 ], [ -91.137965990274878, 32.732833128943334 ] ] ] ] } },
{ "type": "Feature", "properties": { "depth_bin": "85-90 ft", "bin_order": -87.5, "survey_id": "LM_08_MVF_20170711_CS_MB_48175_48225", "date": "2017-07-11", "year": 2017, "mile": 482.0 }, "geometry": { "type": "MultiPolygon", "coordinates": [ [ [ [ -91.139405224809011, 32.72987535874563 ], [ -91.139593949025183, 32.730011028358987 ], [ -91.13966169324901, 32.730212456542638 ], [ -91.139339177222837, 32.730782921617795 ], [ -91.138811001637251, 32.73101777710297 ], [ -91.138322560851265, 32.730976669706806 ], [ -91.137977457705134, 32.731028045987884 ], [ -91.137970366979346, 32.731131984002822 ], [ -91.138283833780619, 32.731431448837498 ], [ -91.138597284809762, 32.731569512039954 ], [ -91.138715635047646, 32.731790999471052 ], [ -91.138545186767104, 32.732232420195295 ], [ -91.138187080608105, 32.732387429085165 ], [ -91.137444520771268, 32.732070966142729 ], [ -91.137116099112831, 32.731759256764505 ], [ -91.136817604031137, 32.73132081493948 ], [ -91.136803213947388, 32.731070602748794 ], [ -91.136915583282317, 32.730802974438028 ], [ -91.137303543665169, 32.730326307737243 ], [ -91.137527508001156, 32.730179134606125 ], [ -91.13746161165129, 32.730150674620816 ], [ -91.13709087953923, 32.730077698851055 ], [ -91.136734479603092, 32.730148052404054 ], [ -91.13647315663728, 32.730020710820277 ], [ -91.13544691849944, 32.729841624474382 ], [ -91.135140832088027, 32.729919593600897 ], [ -91.134469808333179, 32.729850051479765 ], [ -91.134241156070289, 32.729953679361202 ], [ -91.133880101869508, 32.729966251134421 ], [ -91.133360670082368, 32.729715091651613 ], [ -91.132794113617152, 32.72994917308889 ], [ -91.131851121309069, 32.730077166386174 ], [ -91.131441746987704, 32.730048715481239 ], [ -91.1312272215918, 32.729916325235429 ], [ -91.130319699836534, 32.729988935748814 ], [ -91.129783934754172, 32.729887926178193 ], [ -91.129600574351628, 32.729585236931541 ], [ -91.129812474118793, 32.729260620973491 ], [ -91.13048629495384, 32.729054603507024 ], [ -91.130880251878978, 32.729041897397082 ], [ -91.131093890814782, 32.729141663161357 ], [ -91.131535288737439, 32.728988647622295 ], [ -91.132796404987303, 32.729051797610367 ], [ -91.133365209192689, 32.728948651697273 ], [ -91.134630738794968, 32.72910290435199 ], [ -91.134885041677052, 32.729049728976157 ], [ -91.135232136120692, 32.729110259960855 ], [ -91.135570451248924, 32.729074608730187 ], [ -91.136098033997257, 32.729194282242034 ], [ -91.136335409263253, 32.729165907076535 ], [ -91.136676572740953, 32.729257454781973 ], [ -91.137223089880109, 32.729276229615408 ], [ -91.138593779887486, 32.729726139160775 ], [ -91.139405224809011, 32.72987535874563 ] ] ], [ [ [ -91.13789669919997, 32.732921558232235 ], [ -91.137955273296981, 32.733248188522786 ], [ -91.137686858123971, 32.733733431577953 ], [ -91.13750861176203, 32.733878879664488 ], [ -91.13726479888301, 32.733916115784588 ], [ -91.136940482148006, 32.733827522535016 ], [ -91.136757878124328, 32.733545994091486 ], [ -91.136039830807391, 32.733220835847163 ], [ -91.135674595817918, 32.733224634430528 ], [ -91.135397149589608, 32.732968058973327 ], [ -91.134842726738626, 32.732927625926472 ], [ -91.134475114781111, 32.732662804277005 ], [ -91.133538519946939, 32.732537430919457 ], [ -91.133309826490461, 32.732334204646463 ], [ -91.132254577145417, 32.732257275247179 ], [ -91.131315721477932, 32.732291307129358 ], [ -91.130957796280867, 32.732163202092359 ], [ -91.130261185557174, 32.732286052531151 ], [ -91.129710499450397, 32.732235038902033 ], [ -91.12940889091999, 32.732328383399349 ], [ -91.128991076173548, 32.732333567290127 ], [ -91.128681440347094, 32.732170353229982 ], [ -91.128599645315361, 32.731864997654917 ], [ -91.128745794119297, 32.731507768289696 ], [ -91.129101181538815, 32.731340315936698 ], [ -91.129906745349004, 32.731385638184065 ], [ -91.130629047608721, 32.731289380006928 ], [ -91.131678888074021, 32.731281851911028 ], [ -91.132084092904989, 32.731364486582017 ], [ -91.134226213327736, 32.731474364425083 ], [ -91.134910059573869, 32.731694760617849 ], [ -91.135226905876209, 32.731702397461767 ], [ -91.135637152863623, 32.73197181371355 ], [ -91.136010484104261, 32.732054682515475 ], [ -91.136354830275963, 32.732249067377815 ], [ -91.13668405285955, 32.732286180099031 ], [ -91.137108903008894, 32.732600543388394 ], [ -91.137707971771135, 32.732785885993096 ], [ -91.13789669919997, 32.732921558232235 ] ] ] ] } },
{ "type": "Feature", "properties": { "depth_bin": "90-95 ft", "bin_order": -92.5, "survey_id": "LM_08_MVF_20170711_CS_MB_48175_48225", "date": "2017-07-11", "year": 2017, "mile": 482.0 }, "geometry": { "type": "MultiPolygon", "coordinates": [ [ [ [ -91.139162170673572, 32.729758502794425 ], [ -91.139585606888375, 32.729954643850192 ], [ -91.13965715582755, 32.730289284540234 ], [ -91.139466288206251, 32.730495413446285 ], [ -91.139434223772696, 32.73068103626315 ], [ -91.139031530855732, 32.73138860640443 ], [ -91.138791269054437, 32.731555443851803 ], [ -91.138803604672447, 32.731758572902301 ], [ -91.138657138550926, 32.732025567037105 ], [ -91.138462888241023, 32.732155549745009 ], [ -91.13818522821839, 32.732181306984941 ], [ -91.137916801462879, 32.732103473618217 ], [ -91.137279979563175, 32.731607843641378 ], [ -91.137044350106819, 32.731223164685126 ], [ -91.137048706638637, 32.73101378855872 ], [ -91.137337785813045, 32.730518480794736 ], [ -91.137629921809349, 32.730320149346426 ], [ -91.137909142232331, 32.730280470117982 ], [ -91.137430953923428, 32.730096159635259 ], [ -91.135458784292169, 32.729807418361922 ], [ -91.135221627416783, 32.729864107736887 ], [ -91.134452822093394, 32.729814700907738 ], [ -91.133895990899433, 32.729924922842216 ], [ -91.133360459850081, 32.729680008120212 ], [ -91.132460191160902, 32.729904067038618 ], [ -91.131973878988973, 32.729895461960531 ], [ -91.131606645996982, 32.730010011903026 ], [ -91.131225380443169, 32.729867409021296 ], [ -91.130303197773188, 32.729961556090224 ], [ -91.129816083161572, 32.729846495094236 ], [ -91.129679551943681, 32.729714561260501 ], [ -91.129632600554274, 32.729530064387113 ], [ -91.12984462227395, 32.729219189870527 ], [ -91.130502307680743, 32.729027016215625 ], [ -91.130838575474939, 32.728994861291945 ], [ -91.131096792923231, 32.729103120386753 ], [ -91.131551301135289, 32.728961061102744 ], [ -91.132792245155045, 32.729009302264537 ], [ -91.133462507579097, 32.728920546163415 ], [ -91.133956858436093, 32.729012733039895 ], [ -91.135570205080739, 32.72904712575103 ], [ -91.136084733246207, 32.729155723824583 ], [ -91.137239100560933, 32.729248642395127 ], [ -91.138268688821412, 32.729577151065676 ], [ -91.139162170673572, 32.729758502794425 ] ] ], [ [ [ -91.137588412704957, 32.732992247849054 ], [ -91.137737493698694, 32.733544528490711 ], [ -91.137616665427458, 32.733846229729899 ], [ -91.137382735904609, 32.733987547639863 ], [ -91.137102833512216, 32.733985865677603 ], [ -91.136748774597024, 32.733888934688331 ], [ -91.135895561908711, 32.733416487973884 ], [ -91.135426441602689, 32.733292741785561 ], [ -91.135248956316119, 32.733131970633188 ], [ -91.134876718666106, 32.733092315808371 ], [ -91.134446583646124, 32.732858072315807 ], [ -91.134124836095992, 32.732858239669149 ], [ -91.133595550537677, 32.732728476627052 ], [ -91.133145111182401, 32.732483840569415 ], [ -91.131528421779592, 32.732441118064472 ], [ -91.13076674182328, 32.732297462672655 ], [ -91.130457259245631, 32.732394744169852 ], [ -91.12978866177221, 32.732368149928412 ], [ -91.129442542569691, 32.732529230448101 ], [ -91.129074563643115, 32.732580399294697 ], [ -91.128603017712251, 32.732443439330268 ], [ -91.128482442123939, 32.732300828267327 ], [ -91.128455397534836, 32.732099532272784 ], [ -91.128666335658664, 32.731714406613051 ], [ -91.129053873376435, 32.731505523607019 ], [ -91.129959955478085, 32.73152004494402 ], [ -91.130980537040756, 32.731368752022817 ], [ -91.131893072915531, 32.731511123758267 ], [ -91.1334789684676, 32.731547847639305 ], [ -91.134220372559597, 32.73178635740058 ], [ -91.13505988149511, 32.731938067357994 ], [ -91.135318213115227, 32.732110847631439 ], [ -91.135734838994054, 32.732138900843715 ], [ -91.136879790463297, 32.732690335870842 ], [ -91.137374595450623, 32.732822916504794 ], [ -91.137588412704957, 32.732992247849054 ] ] ] ] } },
{ "type": "Feature", "properties": { "depth_bin": "95-100 ft", "bin_order": -97.5, "survey_id": "LM_08_MVF_20170711_CS_MB_48175_48225", "date": "2017-07-11", "year": 2017, "mile": 482.0 }, "geometry": { "type": "MultiPolygon", "coordinates": [ [ [ [ -91.137206339173403, 32.729221367929988 ], [ -91.139381440458934, 32.729766555555557 ], [ -91.139617627015269, 32.729899468823504 ], [ -91.139706934528178, 32.730165012370108 ], [ -91.139515792595915, 32.730447590295149 ], [ -91.139243412396681, 32.730525433222851 ], [ -91.138460127665283, 32.730398085978891 ], [ -91.137450154632077, 32.730057459433155 ], [ -91.136264985397247, 32.729869644661285 ], [ -91.135470707776079, 32.729779282566909 ], [ -91.135146958620609, 32.7298207323851 ], [ -91.134896636256059, 32.729745106712485 ], [ -91.133813106900689, 32.729746802481436 ], [ -91.133351906826448, 32.72964489906537 ], [ -91.132791116305754, 32.729741360967481 ], [ -91.132475582936436, 32.729692878630473 ], [ -91.132157931948257, 32.729841593054665 ], [ -91.131765268236563, 32.729716817452683 ], [ -91.131061675845672, 32.72987174685349 ], [ -91.130728275790176, 32.7298318561268 ], [ -91.130286573450448, 32.729920434924445 ], [ -91.129798783108868, 32.729783582846096 ], [ -91.12964861364101, 32.729502478111925 ], [ -91.129860635236383, 32.729191603562931 ], [ -91.130550835081351, 32.728999223056888 ], [ -91.130870967785654, 32.728980912936336 ], [ -91.1311008109939, 32.729063100491267 ], [ -91.131615963012308, 32.728919422517428 ], [ -91.132166549404133, 32.728969605363417 ], [ -91.132600745135065, 32.728912301155461 ], [ -91.132830354097337, 32.7289733614029 ], [ -91.133429624688901, 32.728879529194728 ], [ -91.133962652938365, 32.728988090502511 ], [ -91.135553701590311, 32.729019746807218 ], [ -91.137206339173403, 32.729221367929988 ] ] ], [ [ [ -91.138925970899209, 32.730728453546632 ], [ -91.139078091648898, 32.731080162798172 ], [ -91.139059774631676, 32.731317173160399 ], [ -91.13875320274289, 32.731860042658838 ], [ -91.138558952936378, 32.731990025536952 ], [ -91.138320796791163, 32.732012903188085 ], [ -91.13809360162908, 32.731929378440071 ], [ -91.137593571956273, 32.731551529547055 ], [ -91.137366166217035, 32.731199750323597 ], [ -91.137389366251057, 32.730768328173014 ], [ -91.137815763784772, 32.730455798270668 ], [ -91.138428425366257, 32.730459795049526 ], [ -91.138925970899209, 32.730728453546632 ] ] ], [ [ [ -91.137584267579115, 32.733403074296426 ], [ -91.137676361912582, 32.733633300761646 ], [ -91.137590790011799, 32.733898955155837 ], [ -91.13740272869768, 32.73413035394578 ], [ -91.137088548617768, 32.734205833483081 ], [ -91.136171259799639, 32.733780478886501 ], [ -91.135738670807626, 32.733661784840528 ], [ -91.135097653141557, 32.73327282676037 ], [ -91.134754667483577, 32.733257021324611 ], [ -91.134219158262653, 32.733002345114699 ], [ -91.133760833590429, 32.733029752265374 ], [ -91.132744172415428, 32.732618055956188 ], [ -91.132521998627524, 32.732640922971861 ], [ -91.132281092587618, 32.732546502804048 ], [ -91.13190710443989, 32.732529191063577 ], [ -91.13144173591634, 32.732622946607698 ], [ -91.130978002008291, 32.732474220294222 ], [ -91.13067675271104, 32.732531618512994 ], [ -91.130077819766072, 32.732469586021686 ], [ -91.129854788870816, 32.732494048582438 ], [ -91.129485258006696, 32.732663722257932 ], [ -91.128978358575409, 32.732732174976029 ], [ -91.128508067271952, 32.732488328729936 ], [ -91.128391219866955, 32.732196135256295 ], [ -91.128618294323573, 32.731797165070653 ], [ -91.128883626406832, 32.731662080285069 ], [ -91.129429648931918, 32.731680683989381 ], [ -91.12978633076537, 32.731597068053333 ], [ -91.13104691452088, 32.731519494705452 ], [ -91.13176576674978, 32.73165366849345 ], [ -91.133300992009836, 32.731645179450489 ], [ -91.133622399848164, 32.731728586145778 ], [ -91.133859937210516, 32.731887178910576 ], [ -91.134300805265894, 32.731982487965702 ], [ -91.134604906352337, 32.731968460909179 ], [ -91.13520614851835, 32.732306189289851 ], [ -91.13597182861912, 32.732562342881465 ], [ -91.136308055357446, 32.732602468469935 ], [ -91.136566789764586, 32.732787376722477 ], [ -91.13709919493138, 32.732934620799412 ], [ -91.137584267579115, 32.733403074296426 ] ] ] ] } },
{ "type": "Feature", "properties": { "depth_bin": "100-105 ft", "bin_order": -102.5, "survey_id": "LM_08_MVF_20170711_CS_MB_48175_48225", "date": "2017-07-11", "year": 2017, "mile": 482.0 }, "geometry": { "type": "MultiPolygon", "coordinates": [ [ [ [ -91.137676623355674, 32.729295543102921 ], [ -91.138108709922307, 32.729475154955189 ], [ -91.139490544663616, 32.729780807059143 ], [ -91.139693278788968, 32.729997250073126 ], [ -91.139655686636232, 32.730285209130237 ], [ -91.139399612527754, 32.730456568112459 ], [ -91.138924505589998, 32.730442403144231 ], [ -91.13802827249188, 32.7302539735457 ], [ -91.137094734687864, 32.729933039227774 ], [ -91.135960080370765, 32.729843013849411 ], [ -91.135554212638795, 32.72973812674455 ], [ -91.135155859411867, 32.729782074734047 ], [ -91.13381286127327, 32.729719318593055 ], [ -91.133361677053244, 32.729615319094286 ], [ -91.132888293080399, 32.729699513507583 ], [ -91.13168297175379, 32.729661865055199 ], [ -91.131052297168068, 32.729834890794223 ], [ -91.130654350720505, 32.729732347047076 ], [ -91.130394872820958, 32.729848503429963 ], [ -91.130041977455974, 32.729839535861146 ], [ -91.129784268100693, 32.72973176622736 ], [ -91.129664626718025, 32.729474891834691 ], [ -91.129740718039386, 32.72927560522561 ], [ -91.129983501511987, 32.729117843277365 ], [ -91.130592116557608, 32.728967164847973 ], [ -91.131104360930138, 32.72903246361529 ], [ -91.131625060092944, 32.728891033435751 ], [ -91.132161793768262, 32.72894469727224 ], [ -91.132616757188998, 32.72888471450409 ], [ -91.132838237653161, 32.728939062721359 ], [ -91.133487420733573, 32.728854301846297 ], [ -91.134251516289268, 32.72897064060605 ], [ -91.136545893182813, 32.729068362717911 ], [ -91.137676623355674, 32.729295543102921 ] ] ], [ [ [ -91.137516695956563, 32.733573209813692 ], [ -91.137538855548542, 32.733951718091674 ], [ -91.137334483302055, 32.734326610436369 ], [ -91.137095965750916, 32.734564954285226 ], [ -91.136815855942089, 32.734619850378238 ], [ -91.136530549509686, 32.734485452496159 ], [ -91.136444346130872, 32.734204166598118 ], [ -91.136300167304185, 32.734064063754609 ], [ -91.135562045712888, 32.733910276929066 ], [ -91.134937707120628, 32.733449355706654 ], [ -91.134325095426803, 32.733434137396209 ], [ -91.133822518112353, 32.733168402061843 ], [ -91.133600062462634, 32.733197479690418 ], [ -91.133241311112684, 32.733115521926457 ], [ -91.133018070528138, 32.732972839292593 ], [ -91.132663083262173, 32.733032476712822 ], [ -91.132370765895416, 32.732838621787131 ], [ -91.131909187538156, 32.732762796459063 ], [ -91.131385038965391, 32.732771846403253 ], [ -91.130955980346727, 32.732670053360302 ], [ -91.13053275497569, 32.732793637540325 ], [ -91.129867682993719, 32.732649000178476 ], [ -91.129486601767482, 32.732814878786364 ], [ -91.128922010433172, 32.732863881814218 ], [ -91.128426498000138, 32.732705662269815 ], [ -91.128279122079206, 32.732389238030279 ], [ -91.128474046726311, 32.732031699739238 ], [ -91.128901349122884, 32.731826876069874 ], [ -91.129205665243035, 32.731869006457437 ], [ -91.129697251918955, 32.731739367817674 ], [ -91.13030354146828, 32.731744259350187 ], [ -91.130706601978403, 32.731645340338453 ], [ -91.131539536710122, 32.731798585674852 ], [ -91.132202936987596, 32.731704524853441 ], [ -91.132616576993826, 32.731812030376013 ], [ -91.133155897935282, 32.73178352893936 ], [ -91.133885155996566, 32.732135824776805 ], [ -91.134802706271543, 32.732269527319225 ], [ -91.135111352377493, 32.732474024816788 ], [ -91.136163335115882, 32.732782045812328 ], [ -91.137516695956563, 32.733573209813692 ] ] ], [ [ [ -91.130665957039739, 32.740732156021643 ], [ -91.13074076812218, 32.741058685322827 ], [ -91.130475503468944, 32.74143490777314 ], [ -91.130139038070737, 32.741536240452561 ], [ -91.129839505661309, 32.741426109171407 ], [ -91.129652978556649, 32.740963524837824 ], [ -91.129814709755209, 32.740586501310915 ], [ -91.130035259416374, 32.740491063346688 ], [ -91.130299313605477, 32.740492927627955 ], [ -91.130665957039739, 32.740732156021643 ] ] ] ] } },
{ "type": "Feature", "properties": { "depth_bin": "105-110 ft", "bin_order": -107.5, "survey_id": "LM_08_MVF_20170711_CS_MB_48175_48225", "date": "2017-07-11", "year": 2017, "mile": 482.0 }, "geometry": { "type": "MultiPolygon", "coordinates": [ [ [ [ -91.137701636054487, 32.729278621336213 ], [ -91.13836200400813, 32.729497583345932 ], [ -91.139506431037617, 32.729739478083346 ], [ -91.139725546316441, 32.729969557972915 ], [ -91.139671820462013, 32.730271363088541 ], [ -91.139493584362839, 32.730416814440694 ], [ -91.139249781619, 32.730454054813634 ], [ -91.137864956532795, 32.730172568093934 ], [ -91.137147348717292, 32.729919887412755 ], [ -91.135537705483188, 32.72971074699003 ], [ -91.133796235396531, 32.729678197915405 ], [ -91.133372206555705, 32.729582870095875 ], [ -91.132764903451985, 32.72967366240713 ], [ -91.131705339128089, 32.729611563758979 ], [ -91.131125972505686, 32.729788884020451 ], [ -91.13089446370968, 32.729786815138326 ], [ -91.130691734874915, 32.729695709268242 ], [ -91.130057990480339, 32.729811949533314 ], [ -91.129800281181858, 32.729704179934217 ], [ -91.129680639785292, 32.729447305555432 ], [ -91.129756608853626, 32.729234277428098 ], [ -91.129966999702475, 32.729090463575126 ], [ -91.130624386571782, 32.728939475050439 ], [ -91.131111774615107, 32.728976957734517 ], [ -91.131657084790206, 32.728835860370928 ], [ -91.132069387811043, 32.728896541746252 ], [ -91.133624343991841, 32.728837059450925 ], [ -91.134652292038666, 32.728945085530746 ], [ -91.135195178214033, 32.72892584372218 ], [ -91.136619471152741, 32.729046480222699 ], [ -91.137701636054487, 32.729278621336213 ] ] ], [ [ [ -91.137136521370664, 32.733470330800294 ], [ -91.137453144095517, 32.733738525608125 ], [ -91.137479439058822, 32.734013693543446 ], [ -91.137110660050524, 32.734688162824753 ], [ -91.136915688829873, 32.734844642183305 ], [ -91.136671873110842, 32.734881877040017 ], [ -91.136353802935389, 32.734720204171659 ], [ -91.136085508845966, 32.734207858929778 ], [ -91.13581328101057, 32.734185707103435 ], [ -91.135610545865845, 32.734029465606099 ], [ -91.135357074120535, 32.734095868842772 ], [ -91.134949992050778, 32.734012580962094 ], [ -91.13476126709665, 32.733876904384239 ], [ -91.134694275022483, 32.733695426036931 ], [ -91.133977225231519, 32.733591804360486 ], [ -91.133694408938808, 32.733413604545738 ], [ -91.133173577655484, 32.733276229795081 ], [ -91.132722983137313, 32.733299271495305 ], [ -91.132250301843357, 32.733204295065349 ], [ -91.132006408571797, 32.733032614961438 ], [ -91.13173649400396, 32.733052123649557 ], [ -91.131488399840919, 32.732918662037704 ], [ -91.130846698035143, 32.732890448084362 ], [ -91.130388021553927, 32.732973208324999 ], [ -91.129832971140928, 32.732826998684061 ], [ -91.129488922840537, 32.733075968228469 ], [ -91.129096746802972, 32.733020139092041 ], [ -91.128582664779699, 32.733099654564477 ], [ -91.128260563819069, 32.732870555102046 ], [ -91.12821494401831, 32.732485840925222 ], [ -91.128426005048013, 32.732114458124357 ], [ -91.128675202518039, 32.731993218449702 ], [ -91.129074610341164, 32.73207446700539 ], [ -91.129349021732978, 32.731914221860364 ], [ -91.129967245798525, 32.731829538122099 ], [ -91.130478824092208, 32.731933409540339 ], [ -91.13074774612079, 32.731838317928904 ], [ -91.131197980861089, 32.731857048575627 ], [ -91.131439999763586, 32.731939320089303 ], [ -91.131937170728349, 32.731860010345081 ], [ -91.132897949826855, 32.731993102352227 ], [ -91.133331971367383, 32.732206982146607 ], [ -91.13363164274385, 32.732222040023387 ], [ -91.133904003566215, 32.732356103892819 ], [ -91.134870320771114, 32.732557682708268 ], [ -91.135477399229799, 32.732808042066807 ], [ -91.135750715650161, 32.732826896553625 ], [ -91.135943072274173, 32.732933279190682 ], [ -91.136049577409935, 32.733096249054839 ], [ -91.136459429862398, 32.733164933555251 ], [ -91.137136521370664, 32.733470330800294 ] ] ], [ [ [ -91.130270833512085, 32.740289119785814 ], [ -91.130808622627811, 32.740903816311608 ], [ -91.130746257225084, 32.741267323955768 ], [ -91.130374826730957, 32.741633866487525 ], [ -91.129956253762586, 32.741627966391974 ], [ -91.129788679324733, 32.741494340706303 ], [ -91.129601889090324, 32.741171243449308 ], [ -91.129538331099312, 32.740821873524098 ], [ -91.129271689209801, 32.740609907230066 ], [ -91.129296031525541, 32.740302161475178 ], [ -91.129512475730294, 32.740142159532631 ], [ -91.129799892180714, 32.74013452285277 ], [ -91.130270833512085, 32.740289119785814 ] ] ] ] } },
{ "type": "Feature", "properties": { "depth_bin": "110-115 ft", "bin_order": -112.5, "survey_id": "LM_08_MVF_20170711_CS_MB_48175_48225", "date": "2017-07-11", "year": 2017, "mile": 482.0 }, "geometry": { "type": "MultiPolygon", "coordinates": [ [ [ [ -91.136512762384683, 32.72899986360779 ], [ -91.13953882221972, 32.729725527505956 ], [ -91.139741556347303, 32.729941970443328 ], [ -91.139703840662861, 32.73021618804767 ], [ -91.139431632964587, 32.730401393150366 ], [ -91.139021557606725, 32.730386810389597 ], [ -91.136376898970056, 32.72974401356948 ], [ -91.133795989782982, 32.729650714928304 ], [ -91.133556579265047, 32.72955842468798 ], [ -91.132732143260739, 32.729646386743674 ], [ -91.132479543331655, 32.729581811854722 ], [ -91.132146874040757, 32.729650117272001 ], [ -91.131691822525696, 32.729583331170282 ], [ -91.131271677716228, 32.72971924441768 ], [ -91.13073650869211, 32.729657210149988 ], [ -91.130394139107111, 32.729766054395974 ], [ -91.13007388125871, 32.729770621697703 ], [ -91.129816172055897, 32.729662852134247 ], [ -91.129697846815006, 32.729441357123648 ], [ -91.129798158089329, 32.729178636756281 ], [ -91.13014509709339, 32.729006877099359 ], [ -91.130591749598182, 32.728925940330306 ], [ -91.131093820712195, 32.728949616784938 ], [ -91.131631240500013, 32.72880938697211 ], [ -91.132831938711433, 32.728869848848305 ], [ -91.133266315254318, 32.728798117690516 ], [ -91.134153725332581, 32.728822562671468 ], [ -91.134706230429032, 32.728912765549879 ], [ -91.13516229453748, 32.728884827219403 ], [ -91.136512762384683, 32.72899986360779 ] ] ], [ [ [ -91.13687756237006, 32.733548755574887 ], [ -91.137175875208513, 32.733916230516826 ], [ -91.13718660123493, 32.734558638059113 ], [ -91.136874220176239, 32.73502699180176 ], [ -91.136397452307094, 32.735103511520791 ], [ -91.136139719798521, 32.734995754222339 ], [ -91.135781107384773, 32.734583069300712 ], [ -91.135472203875906, 32.734362284404995 ], [ -91.135220443849278, 32.734396447441625 ], [ -91.134855148472496, 32.734315518149359 ], [ -91.134307692936034, 32.734014968434764 ], [ -91.134138579965921, 32.733817512424551 ], [ -91.133824777261239, 32.733849602128572 ], [ -91.133106230771944, 32.733583365201397 ], [ -91.132700873584199, 32.733623154304155 ], [ -91.131570356113485, 32.733192710786845 ], [ -91.131048786865918, 32.733119657731173 ], [ -91.130478012381161, 32.733162401807412 ], [ -91.130021488521706, 32.733041594451777 ], [ -91.12970174532947, 32.733239523770017 ], [ -91.12871504832701, 32.733359917962375 ], [ -91.128418692397432, 32.733282413308444 ], [ -91.128267515507119, 32.733162424362611 ], [ -91.128200027676513, 32.732637101447359 ], [ -91.128298869346807, 32.732445079994115 ], [ -91.128574895571717, 32.732260615415527 ], [ -91.129153124845288, 32.732274750285839 ], [ -91.129301503934343, 32.732136008329569 ], [ -91.129764238579241, 32.731958819603825 ], [ -91.130158453952518, 32.731973598845428 ], [ -91.130541438874005, 32.732096705268653 ], [ -91.13098604471945, 32.731987120375877 ], [ -91.132166394460512, 32.732121938179148 ], [ -91.132426991795867, 32.732090507581681 ], [ -91.132758616570001, 32.732286426511287 ], [ -91.134122698830566, 32.732589945417111 ], [ -91.134358460665439, 32.732749678514864 ], [ -91.134845941335911, 32.732735507005572 ], [ -91.135294180828353, 32.732904954608472 ], [ -91.135710355675201, 32.733243850116338 ], [ -91.136095707299717, 32.733223214415865 ], [ -91.13687756237006, 32.733548755574887 ] ] ], [ [ [ -91.130480039232879, 32.740237813536467 ], [ -91.130880175830441, 32.741062175717609 ], [ -91.130811662722763, 32.741308135523724 ], [ -91.130428364145757, 32.741726036116169 ], [ -91.130033951763522, 32.741766106275442 ], [ -91.129756893577692, 32.741576996206305 ], [ -91.129425021864407, 32.740883106399963 ], [ -91.128977918167038, 32.74041052399371 ], [ -91.12895164855594, 32.740135355418644 ], [ -91.129077414196132, 32.739959038589063 ], [ -91.129305573719734, 32.739830060618573 ], [ -91.129846591898158, 32.739900607633963 ], [ -91.130480039232879, 32.740237813536467 ] ] ] ] } },
{ "type": "Feature", "properties": { "depth_bin": "115-120 ft", "bin_order": -117.5, "survey_id": "LM_08_MVF_20170711_CS_MB_48175_48225", "date": "2017-07-11", "year": 2017, "mile": 482.0 }, "geometry": { "type": "MultiPolygon", "coordinates": [ [ [ [ -91.136545153773497, 32.728985912898011 ], [ -91.139386741236109, 32.729628116710145 ], [ -91.139710657453307, 32.729848696141829 ], [ -91.139722284106284, 32.730170718747772 ], [ -91.139525481038348, 32.730347897977786 ], [ -91.139249163384108, 32.730385347446081 ], [ -91.136415256189679, 32.729714955163693 ], [ -91.135067202351365, 32.729604844136354 ], [ -91.133779241123477, 32.729595852753896 ], [ -91.133556220093283, 32.729530944721468 ], [ -91.132699260451204, 32.729605369573541 ], [ -91.132472945615532, 32.729546046128661 ], [ -91.13203258067638, 32.729595876341079 ], [ -91.131707660972594, 32.729548372870617 ], [ -91.131287445494678, 32.729664174930527 ], [ -91.130727965509635, 32.72963209813922 ], [ -91.130090016499906, 32.729756776871668 ], [ -91.129832307314999, 32.729649007341898 ], [ -91.129713982049964, 32.729427512345296 ], [ -91.129830184012803, 32.729123463252918 ], [ -91.13012859525611, 32.728979497418365 ], [ -91.130607639956494, 32.728884612420707 ], [ -91.131090905198462, 32.728908315239252 ], [ -91.131842095339906, 32.728753074958114 ], [ -91.135129533906721, 32.728857552198775 ], [ -91.136545153773497, 32.728985912898011 ] ] ], [ [ [ -91.137023248818494, 32.734299921594975 ], [ -91.137106172996027, 32.734655349647852 ], [ -91.136854008536773, 32.735140486609481 ], [ -91.136585512097767, 32.735468595447649 ], [ -91.136238809669706, 32.73554428099937 ], [ -91.1355883936439, 32.735408492421868 ], [ -91.135380767768012, 32.7350639777653 ], [ -91.134864814357016, 32.734575048988894 ], [ -91.13452284291489, 32.734605247990707 ], [ -91.1341479448093, 32.734317146877238 ], [ -91.133690718922921, 32.734280749068951 ], [ -91.1334849406297, 32.734158722505612 ], [ -91.133287863316042, 32.734261106716119 ], [ -91.133023881676309, 32.734257520179604 ], [ -91.132083050449353, 32.733731819866769 ], [ -91.131741314276752, 32.733623078692055 ], [ -91.131204628826069, 32.733577717131908 ], [ -91.130257590617745, 32.733363371929109 ], [ -91.129997080660317, 32.733539978264851 ], [ -91.129584769555862, 32.733552500381606 ], [ -91.129400225689778, 32.733796643877618 ], [ -91.129086041063402, 32.73387210314614 ], [ -91.12821087387735, 32.733682258099925 ], [ -91.128038804367435, 32.733531591236897 ], [ -91.127994770433716, 32.733325517447994 ], [ -91.128168156869975, 32.733058031395004 ], [ -91.128236863872502, 32.73272313574671 ], [ -91.128453290857948, 32.732563134854828 ], [ -91.129199501900459, 32.732508450286616 ], [ -91.129350064406538, 32.732307230120924 ], [ -91.12971729794549, 32.73216525199468 ], [ -91.130021887691271, 32.732190063487892 ], [ -91.130442045168422, 32.732353940981724 ], [ -91.131094698025919, 32.73219519018167 ], [ -91.131988175475996, 32.732397251011058 ], [ -91.132316220638231, 32.732395338365983 ], [ -91.132661441913385, 32.732667483046875 ], [ -91.133391088707938, 32.732594616932658 ], [ -91.133616334884806, 32.732739671103744 ], [ -91.133968499512264, 32.732796083342564 ], [ -91.134198447102946, 32.732929079763394 ], [ -91.135157920368286, 32.733077068602149 ], [ -91.135444244613225, 32.733342408239096 ], [ -91.136054702511274, 32.733359917694052 ], [ -91.136319324071138, 32.733589731510868 ], [ -91.136544787595753, 32.733617882380408 ], [ -91.136709162639548, 32.733724758812819 ], [ -91.13679993603759, 32.733919606481415 ], [ -91.136760592930059, 32.734124191964106 ], [ -91.137023248818494, 32.734299921594975 ] ] ], [ [ [ -91.131499026546166, 32.741454392625165 ], [ -91.131638355213241, 32.74162742644647 ], [ -91.131665776625866, 32.741869946219829 ], [ -91.131566930608727, 32.742061969940771 ], [ -91.131358509649843, 32.742175220730189 ], [ -91.131071584557418, 32.742159014825006 ], [ -91.130858055279333, 32.74201121677082 ], [ -91.130717650908935, 32.74172048522064 ], [ -91.130782536254586, 32.741499234253915 ], [ -91.130354382112174, 32.741813227734603 ], [ -91.129905922610519, 32.741774236664092 ], [ -91.129489415189028, 32.7412455547449 ], [ -91.129320629772934, 32.740883669024029 ], [ -91.128938387165562, 32.740662263881113 ], [ -91.128668501011319, 32.740357517734452 ], [ -91.128572864093485, 32.740071294573724 ], [ -91.128647530269163, 32.739822888576001 ], [ -91.128857948456556, 32.739679077676776 ], [ -91.129184167610333, 32.739625548852729 ], [ -91.130120463103822, 32.739836580206997 ], [ -91.130577106045621, 32.7401822271217 ], [ -91.130864234571447, 32.740519228713715 ], [ -91.130943592310103, 32.740767345596808 ], [ -91.130881431132835, 32.741406687186625 ], [ -91.131224900487467, 32.741332986934339 ], [ -91.131499026546166, 32.741454392625165 ] ] ], [ [ [ -91.131043746119147, 32.742883019745676 ], [ -91.130913678442653, 32.74316364750154 ], [ -91.13055167597777, 32.743262517117209 ], [ -91.130266352774683, 32.743128104485912 ], [ -91.130160313515063, 32.74280769275147 ], [ -91.130335497275539, 32.742552717559917 ], [ -91.130649711861906, 32.742477256322736 ], [ -91.130935033659, 32.742611668039672 ], [ -91.131043746119147, 32.742883019745676 ] ] ], [ [ [ -91.128278618909277, 32.733842890485377 ], [ -91.128742882254713, 32.734261335566799 ], [ -91.128735897248703, 32.734615083657182 ], [ -91.128593931637255, 32.734742859997958 ], [ -91.128293032487022, 32.73483656427404 ], [ -91.127668087856605, 32.734812567849978 ], [ -91.127516909537988, 32.734692577968779 ], [ -91.127449190101984, 32.734491144221508 ], [ -91.127646407620844, 32.733977428312116 ], [ -91.127918649719746, 32.733792250066223 ], [ -91.128278618909277, 32.733842890485377 ] ] ] ] } },
{ "type": "Feature", "properties": { "depth_bin": "120-125 ft", "bin_order": -122.5, "survey_id": "LM_08_MVF_20170711_CS_MB_48175_48225", "date": "2017-07-11", "year": 2017, "mile": 482.0 }, "geometry": { "type": "MultiPolygon", "coordinates": [ [ [ [ -91.136887387694912, 32.729040483335091 ], [ -91.139516924276364, 32.729641021855237 ], [ -91.139760162596843, 32.729853263321957 ], [ -91.139754427965528, 32.730129285168914 ], [ -91.139577907531887, 32.730316390218356 ], [ -91.139297812394346, 32.730371292430995 ], [ -91.136472844266549, 32.729702935703457 ], [ -91.134072110867734, 32.729518568848434 ], [ -91.131983440768764, 32.729554962549102 ], [ -91.131749568494826, 32.729491653965091 ], [ -91.131270698360481, 32.729609312393372 ], [ -91.13067442654436, 32.72961091061363 ], [ -91.130122042472536, 32.729701603300278 ], [ -91.129864333401216, 32.729593833839857 ], [ -91.129746008121387, 32.729372338871435 ], [ -91.129820660761268, 32.729123931338464 ], [ -91.130079456527895, 32.728938582880794 ], [ -91.131646885394758, 32.728740575932193 ], [ -91.135113030585927, 32.728830173193494 ], [ -91.136887387694912, 32.729040483335091 ] ] ], [ [ [ -91.136190615987786, 32.734026130407884 ], [ -91.136875723983735, 32.734893857629118 ], [ -91.136871366399717, 32.73510323360518 ], [ -91.136351242264283, 32.735970655583813 ], [ -91.136034977405316, 32.736124542965634 ], [ -91.135693594787057, 32.736015540458688 ], [ -91.135574525248344, 32.735751121432294 ], [ -91.135281770823852, 32.735797768758239 ], [ -91.135007656263014, 32.735676371655337 ], [ -91.134812972539194, 32.735090626599018 ], [ -91.134260842023565, 32.735130112064368 ], [ -91.134072115895762, 32.734994434423768 ], [ -91.134004564524972, 32.734797921859958 ], [ -91.133552654810458, 32.734665203941866 ], [ -91.133284764229103, 32.734487110559186 ], [ -91.132912881444014, 32.734635358214724 ], [ -91.132419634713656, 32.735169786132026 ], [ -91.132157961329099, 32.735269761643515 ], [ -91.13195108074548, 32.735502586550822 ], [ -91.131730545522686, 32.735598028479551 ], [ -91.131121614121724, 32.735538894064298 ], [ -91.130401251101006, 32.735576645149294 ], [ -91.129956997896656, 32.735696923562507 ], [ -91.129452783324695, 32.735537819602499 ], [ -91.129194254950903, 32.735534997310701 ], [ -91.127729570600565, 32.735711058719318 ], [ -91.127379850642967, 32.735633717882422 ], [ -91.127197802896006, 32.735366404563884 ], [ -91.127229898405034, 32.734841746526776 ], [ -91.127766600768808, 32.733728423191415 ], [ -91.127683314794325, 32.733390276215673 ], [ -91.127784952290924, 32.733162937322447 ], [ -91.128147716195954, 32.733013494525046 ], [ -91.128892359213708, 32.732976231577148 ], [ -91.129067762981592, 32.73283466429563 ], [ -91.129466645435571, 32.732754783562065 ], [ -91.129666989701249, 32.732569754919922 ], [ -91.129973235543034, 32.732502872568254 ], [ -91.130413357127367, 32.732615663998125 ], [ -91.131046631146631, 32.732537273299322 ], [ -91.131594661260777, 32.732582864717415 ], [ -91.132825455193071, 32.733093427039776 ], [ -91.133092764101519, 32.733031854240423 ], [ -91.133590482397835, 32.733074324617917 ], [ -91.133850201723234, 32.733273641207717 ], [ -91.134063227717164, 32.733248162344601 ], [ -91.134471001673447, 32.733357288895661 ], [ -91.135100791881101, 32.733669371662046 ], [ -91.135364477442707, 32.733567879110105 ], [ -91.135904057576056, 32.733609225996716 ], [ -91.136131961074142, 32.733757410289797 ], [ -91.136190615987786, 32.734026130407884 ] ] ], [ [ [ -91.133515687421152, 32.739557590637865 ], [ -91.133826547897741, 32.739642369950481 ], [ -91.13397542835618, 32.739888091015928 ], [ -91.133875115577638, 32.740150814312258 ], [ -91.133584370074274, 32.740276639625897 ], [ -91.133273507684223, 32.740191859648995 ], [ -91.133124628732574, 32.73994613781197 ], [ -91.13322494342458, 32.739683415179918 ], [ -91.133515687421152, 32.739557590637865 ] ] ], [ [ [ -91.131767328266946, 32.741759652677267 ], [ -91.131764263615239, 32.742081257169048 ], [ -91.131473430333244, 32.742298169310352 ], [ -91.131067543170317, 32.742253043290084 ], [ -91.130744550971428, 32.741971375271518 ], [ -91.130798163904842, 32.742345016656472 ], [ -91.131092842862557, 32.742805127160338 ], [ -91.131105587542834, 32.743110589928925 ], [ -91.130979698677692, 32.743273166321671 ], [ -91.130759142930344, 32.743368605696837 ], [ -91.130325194787261, 32.743261427392376 ], [ -91.12988489744825, 32.742585451494463 ], [ -91.129846363575496, 32.742246255011388 ], [ -91.129982656802994, 32.741844361605487 ], [ -91.129741489652957, 32.741673289866753 ], [ -91.129301787300633, 32.741034916309928 ], [ -91.12879302876388, 32.740773124497188 ], [ -91.128390748037759, 32.740285682984847 ], [ -91.128352976912595, 32.739898417511831 ], [ -91.128544210998385, 32.739643749388307 ], [ -91.128527557679149, 32.739416330051505 ], [ -91.128664215792185, 32.739205835857895 ], [ -91.12915615579594, 32.739092403857377 ], [ -91.129772815456533, 32.739335318113042 ], [ -91.130193547357891, 32.739689277421917 ], [ -91.131006060184887, 32.740578827180123 ], [ -91.131106602153807, 32.740898684925114 ], [ -91.131417078724013, 32.74108467530246 ], [ -91.131767328266946, 32.741759652677267 ] ], [ [ -91.130667340830158, 32.741843140800846 ], [ -91.130653419161234, 32.741777922117933 ], [ -91.13059058473651, 32.741780357447105 ], [ -91.130667340830158, 32.741843140800846 ] ] ] ] } },
{ "type": "Feature", "properties": { "depth_bin": "125-130 ft", "bin_order": -127.5, "survey_id": "LM_08_MVF_20170711_CS_MB_48175_48225", "date": "2017-07-11", "year": 2017, "mile": 482.0 }, "geometry": { "type": "MultiPolygon", "coordinates": [ [ [ [ -91.136584286166695, 32.728941809236026 ], [ -91.139451152502232, 32.729558991180241 ], [ -91.139758811190887, 32.729779675028126 ], [ -91.139770438020165, 32.730101697638517 ], [ -91.139593793975877, 32.730275061239098 ], [ -91.13931369897692, 32.730329963492608 ], [ -91.13646231548428, 32.729676915881058 ], [ -91.134049526883572, 32.729492381362661 ], [ -91.131817256244744, 32.72945517080452 ], [ -91.130137933202704, 32.729660275456581 ], [ -91.129880224227065, 32.729552506031808 ], [ -91.129761898956602, 32.729331011077562 ], [ -91.129878100627849, 32.729026962829508 ], [ -91.130241173942323, 32.728841358990785 ], [ -91.131614003394418, 32.72869955847316 ], [ -91.132783484664287, 32.728754566916074 ], [ -91.133184047064788, 32.728688704366419 ], [ -91.136584286166695, 32.728941809236026 ] ] ], [ [ [ -91.136125685090761, 32.734974719185978 ], [ -91.136538090514534, 32.735542874675176 ], [ -91.136472155149647, 32.735784697293226 ], [ -91.135967440137037, 32.7366877122248 ], [ -91.135651172070212, 32.736841598505507 ], [ -91.135360152888325, 32.736783706925699 ], [ -91.135001549359501, 32.736503164254117 ], [ -91.134637607739393, 32.736528435804622 ], [ -91.134334810668079, 32.736324760795746 ], [ -91.133871605488721, 32.736327195127515 ], [ -91.133512546603612, 32.73608612844437 ], [ -91.132999104371294, 32.736067381263936 ], [ -91.132503357019047, 32.735868993754274 ], [ -91.131140265258637, 32.736059593315588 ], [ -91.129997919296102, 32.735970730891758 ], [ -91.12888734916848, 32.736088500949201 ], [ -91.128362358895927, 32.735991413660408 ], [ -91.127684451846065, 32.73612361372615 ], [ -91.127171900397315, 32.736019818550361 ], [ -91.126973472193541, 32.735738866377105 ], [ -91.127265833333354, 32.735065480689379 ], [ -91.127514540939188, 32.734877792783998 ], [ -91.128070794942673, 32.734857593072768 ], [ -91.12856217678214, 32.734724343035346 ], [ -91.12886723437552, 32.734781109935255 ], [ -91.129504676392926, 32.734663391153255 ], [ -91.129998794280809, 32.734757574602966 ], [ -91.130438385188839, 32.734685336477412 ], [ -91.130402103081011, 32.734525664403854 ], [ -91.129912650490766, 32.734561636588644 ], [ -91.12936834842715, 32.734332431097769 ], [ -91.129001904622356, 32.734325321403261 ], [ -91.128813188505418, 32.734189636173525 ], [ -91.128730157776673, 32.733982461015202 ], [ -91.128798792242549, 32.73375024451267 ], [ -91.129164126856381, 32.733339083166953 ], [ -91.129635498899745, 32.733192386103653 ], [ -91.129952818395822, 32.732979625928309 ], [ -91.130350715686347, 32.732898999996252 ], [ -91.130804912145095, 32.733024576101293 ], [ -91.131061629329565, 32.733256428915723 ], [ -91.132055319053151, 32.733399206841561 ], [ -91.132468289805757, 32.733709466295913 ], [ -91.132820890569008, 32.733825951568605 ], [ -91.133299021067231, 32.733634349099241 ], [ -91.133585919564197, 32.733650548948717 ], [ -91.134049992998087, 32.733976614717093 ], [ -91.134679400017504, 32.734110801463395 ], [ -91.134886286469765, 32.734273141370174 ], [ -91.135242192416527, 32.734361970456831 ], [ -91.135619946731595, 32.734681422099221 ], [ -91.135718649487544, 32.734938255153793 ], [ -91.136125685090761, 32.734974719185978 ] ] ], [ [ [ -91.13432196130789, 32.738921545700279 ], [ -91.13443489478999, 32.739107937109388 ], [ -91.134406269284824, 32.739315942938475 ], [ -91.13357125004751, 32.74078208242058 ], [ -91.133315133858844, 32.740953427185858 ], [ -91.132946669159907, 32.740910261589903 ], [ -91.132464218273824, 32.740609290303276 ], [ -91.131947045754131, 32.74013533299776 ], [ -91.131558423498802, 32.739586045428297 ], [ -91.131563138760754, 32.738847344179966 ], [ -91.131683774931005, 32.738664432937298 ], [ -91.13186351800374, 32.738576985233543 ], [ -91.132111253145126, 32.738580678241085 ], [ -91.132581255990388, 32.738820368204514 ], [ -91.133043921936775, 32.738888201732308 ], [ -91.133314763461811, 32.738675591510798 ], [ -91.133753208178305, 32.738582151951377 ], [ -91.13432196130789, 32.738921545700279 ] ] ], [ [ [ -91.133310751264759, 32.743738606024898 ], [ -91.133357931216764, 32.744044450940564 ], [ -91.13313014337173, 32.74426857574219 ], [ -91.13275576013632, 32.744291098313248 ], [ -91.13247417498134, 32.744084954757064 ], [ -91.132447894072769, 32.743809786639858 ], [ -91.132675682338913, 32.743585663082619 ], [ -91.133050062621507, 32.743563140643637 ], [ -91.133310751264759, 32.743738606024898 ] ] ], [ [ [ -91.131863226437872, 32.741894196321461 ], [ -91.131788934771876, 32.742183828827386 ], [ -91.131490180133824, 32.742353031672792 ], [ -91.131170734921767, 32.742337033045906 ], [ -91.130858106622142, 32.742137541096518 ], [ -91.131189259162312, 32.742901675803473 ], [ -91.131154734651346, 32.743151503870884 ], [ -91.131012708319133, 32.743327925269597 ], [ -91.130666965233246, 32.743426691717289 ], [ -91.130213240194507, 32.743223972502399 ], [ -91.129908745293321, 32.742763398766442 ], [ -91.129811589234166, 32.742455552015265 ], [ -91.129777412819408, 32.741742682685839 ], [ -91.129273161457462, 32.741076504879445 ], [ -91.128710540451124, 32.740833610096658 ], [ -91.128357258263122, 32.740556679443472 ], [ -91.12804795797031, 32.740136691948912 ], [ -91.128035497620587, 32.739742748839546 ], [ -91.127955293062257, 32.739598192782132 ], [ -91.127509843428726, 32.739207892888352 ], [ -91.127118841739204, 32.739010982395151 ], [ -91.126816082134127, 32.73866521451508 ], [ -91.126738191510412, 32.738308188953546 ], [ -91.126802059777603, 32.737936472500991 ], [ -91.126911810960252, 32.73778774463144 ], [ -91.127298848553494, 32.737694799821583 ], [ -91.127593227766923, 32.737892519106062 ], [ -91.128128940896076, 32.738000349613351 ], [ -91.128557486212884, 32.738314980073312 ], [ -91.129100536081779, 32.738510057161392 ], [ -91.129557168299868, 32.738855707953924 ], [ -91.131415853712184, 32.740947260504598 ], [ -91.131863226437872, 32.741894196321461 ] ], [ [ -91.130139277344867, 32.740845013200044 ], [ -91.130176481879843, 32.740845244215343 ], [ -91.130109060538842, 32.740761614899959 ], [ -91.130139277344867, 32.740845013200044 ] ], [ [ -91.129567371635957, 32.740233016193073 ], [ -91.129295487059238, 32.740084195198527 ], [ -91.12927959613728, 32.74009105669456 ], [ -91.129567371635957, 32.740233016193073 ] ] ] ] } },
{ "type": "Feature", "properties": { "depth_bin": "130-135 ft", "bin_order": -132.5, "survey_id": "LM_08_MVF_20170711_CS_MB_48175_48225", "date": "2017-07-11", "year": 2017, "mile": 482.0 }, "geometry": { "type": "MultiPolygon", "coordinates": [ [ [ [ -91.13394813980382, 32.72868382689866 ], [ -91.137008784822783, 32.728947788167297 ], [ -91.139542035751802, 32.729545646514623 ], [ -91.139790831153377, 32.729724499957925 ], [ -91.139817256507811, 32.730013409262426 ], [ -91.139625937934127, 32.730233627699143 ], [ -91.139313328008072, 32.730288739072016 ], [ -91.136480150066802, 32.729649743801687 ], [ -91.13314675621092, 32.729410353164518 ], [ -91.13284447346436, 32.729480763079486 ], [ -91.131709595902606, 32.729417476509923 ], [ -91.130169836870209, 32.729591361268895 ], [ -91.129912128047039, 32.729483591914423 ], [ -91.129793802778536, 32.72926209698845 ], [ -91.129910126457432, 32.728971790207709 ], [ -91.130305714079256, 32.72878597957002 ], [ -91.131662407783807, 32.728658023387005 ], [ -91.132190675677577, 32.728710531910565 ], [ -91.13394813980382, 32.72868382689866 ] ] ], [ [ [ -91.13604346630602, 32.736369614920989 ], [ -91.1360499960781, 32.736544811312477 ], [ -91.135903636933165, 32.736825544267596 ], [ -91.135747541516423, 32.736940953467197 ], [ -91.135529249029233, 32.736980648717037 ], [ -91.134188647641338, 32.736603894681473 ], [ -91.13369555266334, 32.736604959393397 ], [ -91.133333742110594, 32.736497992084892 ], [ -91.13195445084402, 32.736329279384549 ], [ -91.131402479778629, 32.736344849763675 ], [ -91.131030003849986, 32.736458821680024 ], [ -91.130660469459514, 32.73632247252182 ], [ -91.130322797972411, 32.736310375360205 ], [ -91.129849177306383, 32.736370980821484 ], [ -91.128144623292741, 32.736356615705681 ], [ -91.127787026032934, 32.736447620869406 ], [ -91.127271760509728, 32.736467158738073 ], [ -91.126883601275296, 32.736318981907964 ], [ -91.12676383875143, 32.736048363483363 ], [ -91.127057662634883, 32.735489993439387 ], [ -91.127333822700948, 32.735319273291665 ], [ -91.127631066407091, 32.735256764870648 ], [ -91.128738009270393, 32.735162134644611 ], [ -91.129313161305404, 32.735272829397061 ], [ -91.130770688054497, 32.735190446654542 ], [ -91.131033772695176, 32.735271365527232 ], [ -91.132077179394457, 32.73505929436012 ], [ -91.133032353244417, 32.735122402358677 ], [ -91.133119515578329, 32.734819854937811 ], [ -91.132781463535267, 32.734931701024699 ], [ -91.132574536584357, 32.734920015597204 ], [ -91.132370987486368, 32.734800623308871 ], [ -91.132278905950287, 32.734570393434176 ], [ -91.132474795801869, 32.734273359886778 ], [ -91.133053561985065, 32.734104004167285 ], [ -91.133289350722862, 32.73416831401012 ], [ -91.133425893923743, 32.734300244259444 ], [ -91.133413834435487, 32.734646988248251 ], [ -91.13357635715407, 32.734550652928299 ], [ -91.133814521994864, 32.7345277845249 ], [ -91.134096035853077, 32.734658528187239 ], [ -91.134514317765451, 32.734731977807087 ], [ -91.134634906339855, 32.73487458347816 ], [ -91.134665125602496, 32.735081784769555 ], [ -91.134470170862386, 32.735574927555263 ], [ -91.13552922751046, 32.735866572376956 ], [ -91.13604346630602, 32.736369614920989 ] ] ], [ [ [ -91.134794599660921, 32.738535145935586 ], [ -91.134775434757458, 32.738777634093864 ], [ -91.134247657302524, 32.739496302856011 ], [ -91.134017106834264, 32.739573019324382 ], [ -91.133610959643605, 32.739535029438436 ], [ -91.133122819998334, 32.739661198372907 ], [ -91.133406689207291, 32.739917638563682 ], [ -91.133719824855092, 32.74039818792027 ], [ -91.133507808802634, 32.740961137679044 ], [ -91.133219295677989, 32.74114643128091 ], [ -91.132932373322674, 32.741130229742971 ], [ -91.132222596251353, 32.740811275322415 ], [ -91.131704820225139, 32.740309876934901 ], [ -91.131094323111839, 32.740103863009757 ], [ -91.130604793181291, 32.739717200356061 ], [ -91.130418982252536, 32.739454175330835 ], [ -91.130212872939396, 32.739442536135478 ], [ -91.130861011357311, 32.740298887110576 ], [ -91.131481014252245, 32.740960587848662 ], [ -91.131730492056562, 32.741371869492149 ], [ -91.131912250631729, 32.74192136849895 ], [ -91.131860489603611, 32.742222191216797 ], [ -91.131718515653276, 32.742349970676358 ], [ -91.131482388018483, 32.74241578502194 ], [ -91.131031721675583, 32.742341206170664 ], [ -91.131561575489698, 32.743160416954503 ], [ -91.133080495474857, 32.743329327297502 ], [ -91.133420070111143, 32.743530970670868 ], [ -91.133556313227558, 32.74371015685594 ], [ -91.133520654675436, 32.744057154427466 ], [ -91.133151342379421, 32.744742539721493 ], [ -91.132817749712871, 32.745157889982949 ], [ -91.132513793043444, 32.745259021202322 ], [ -91.132277976110146, 32.745194708969983 ], [ -91.132141418851475, 32.745062777146337 ], [ -91.131962012987415, 32.744502244594621 ], [ -91.132039572209891, 32.744236777003046 ], [ -91.131861239861891, 32.744067619142285 ], [ -91.131501915977523, 32.743927310690296 ], [ -91.13120970406186, 32.743572552500261 ], [ -91.130667240474509, 32.743493606991954 ], [ -91.130301758440623, 32.743359490694509 ], [ -91.129965337480456, 32.74307357991141 ], [ -91.129752374013833, 32.742311447668953 ], [ -91.129741584773583, 32.741753271421196 ], [ -91.129262031070297, 32.741108605161301 ], [ -91.128288251686229, 32.740693873303016 ], [ -91.127540515797492, 32.739633737547329 ], [ -91.127187880820117, 32.739354867851766 ], [ -91.126695210090332, 32.739161770019145 ], [ -91.12630531710748, 32.738736747790263 ], [ -91.125877625857228, 32.738644734066845 ], [ -91.125757046891735, 32.738502120368558 ], [ -91.125677097458478, 32.738185293770897 ], [ -91.125982789874783, 32.737358945602878 ], [ -91.126206469165098, 32.737091350694307 ], [ -91.126468543536831, 32.736991345177451 ], [ -91.126748209492604, 32.737055866250209 ], [ -91.127128483219025, 32.737013805790838 ], [ -91.12757323001189, 32.737126557830329 ], [ -91.128092114929203, 32.737475972874677 ], [ -91.128687775783632, 32.737751162169637 ], [ -91.12896668181132, 32.737980753116865 ], [ -91.129171226238626, 32.738330080543101 ], [ -91.129434866484914, 32.738484776258026 ], [ -91.12973557988505, 32.738969764552358 ], [ -91.12974735289518, 32.738625110596281 ], [ -91.129525991517326, 32.738501659865996 ], [ -91.129433914081773, 32.738271428156025 ], [ -91.129792519944857, 32.737685155769746 ], [ -91.12996125586983, 32.737583241802128 ], [ -91.130208223782347, 32.73756639832272 ], [ -91.130518153419644, 32.737795377887309 ], [ -91.131236787901543, 32.737455805603268 ], [ -91.131530703457429, 32.737518902636289 ], [ -91.13173432566731, 32.737771364173568 ], [ -91.132137308665421, 32.737814039028606 ], [ -91.132502571340893, 32.73775792598498 ], [ -91.13280211314806, 32.737965272793502 ], [ -91.133126010999391, 32.737801064944271 ], [ -91.133812684188356, 32.737923935885881 ], [ -91.134105081458202, 32.738060227280457 ], [ -91.134236970702673, 32.738206954593188 ], [ -91.134594388035765, 32.738282666457359 ], [ -91.134794599660921, 32.738535145935586 ] ], [ [ -91.13026084209335, 32.74091443333154 ], [ -91.129508942462422, 32.74000488176091 ], [ -91.128824272245339, 32.739325400492632 ], [ -91.1290248529005, 32.739623377052361 ], [ -91.128939531102446, 32.74002002533031 ], [ -91.129169872926028, 32.740225551565018 ], [ -91.129556094998193, 32.740315457677312 ], [ -91.129941713218656, 32.740625353918659 ], [ -91.130222141182088, 32.740995977863435 ], [ -91.13026084209335, 32.74091443333154 ] ] ] ] } },
{ "type": "Feature", "properties": { "depth_bin": "135-140 ft", "bin_order": -137.5, "survey_id": "LM_08_MVF_20170711_CS_MB_48175_48225", "date": "2017-07-11", "year": 2017, "mile": 482.0 }, "geometry": { "type": "MultiPolygon", "coordinates": [ [ [ [ -91.135606506958524, 32.728686967223155 ], [ -91.136528160523866, 32.72886050661053 ], [ -91.137008168302941, 32.728879080740363 ], [ -91.137322820064981, 32.729019732623712 ], [ -91.13959722174566, 32.729530567273379 ], [ -91.139824078798, 32.729729171696881 ], [ -91.139818468125696, 32.730018935035275 ], [ -91.139621665589459, 32.730196114439323 ], [ -91.139312833384139, 32.730233773177424 ], [ -91.136513796267664, 32.729608271068429 ], [ -91.133957907840326, 32.729404773317185 ], [ -91.132161170603013, 32.729430149688717 ], [ -91.131717117680566, 32.729377719345997 ], [ -91.13020198499909, 32.7295499300849 ], [ -91.129944276250626, 32.729442160798797 ], [ -91.129825950950604, 32.729220665900897 ], [ -91.129900603224854, 32.728972258302583 ], [ -91.130175777938547, 32.728800547833352 ], [ -91.131727191884679, 32.728630126249378 ], [ -91.132184267426922, 32.728676923233316 ], [ -91.133346128812278, 32.728632701008237 ], [ -91.135223953537874, 32.728733141008462 ], [ -91.135606506958524, 32.728686967223155 ] ] ], [ [ [ -91.135763809861942, 32.736323780854697 ], [ -91.135933979249828, 32.736501605765561 ], [ -91.135954168377225, 32.736737817516527 ], [ -91.135801395458586, 32.736962165925398 ], [ -91.13553933061597, 32.73706219134943 ], [ -91.133903275241195, 32.736663528510661 ], [ -91.133201906835481, 32.736734416868643 ], [ -91.132067969003515, 32.736617860082838 ], [ -91.132937423109439, 32.736955030952991 ], [ -91.133207574361649, 32.737195440676352 ], [ -91.133870880304585, 32.737380298265826 ], [ -91.134126211640634, 32.737728490985603 ], [ -91.134493144071911, 32.737871044888358 ], [ -91.134830299835826, 32.738161803766864 ], [ -91.134955278417436, 32.738433049381037 ], [ -91.134665109952621, 32.738902716831085 ], [ -91.134118881552141, 32.739032109363905 ], [ -91.133823865391378, 32.738994485690355 ], [ -91.133471668329832, 32.738761643316273 ], [ -91.132955099230927, 32.739002622763493 ], [ -91.13189092500015, 32.7388021548688 ], [ -91.131235147965796, 32.738898091946567 ], [ -91.131302177166774, 32.739128881846753 ], [ -91.131663553354329, 32.739435542827323 ], [ -91.132102386125766, 32.739631573916526 ], [ -91.132797283352261, 32.74020313039837 ], [ -91.133297235568364, 32.740456544336254 ], [ -91.13353887215203, 32.740735250778449 ], [ -91.133389809030191, 32.741184176507026 ], [ -91.133233702640325, 32.741299582105682 ], [ -91.132999138935361, 32.741339376296807 ], [ -91.131967424786012, 32.741051735034723 ], [ -91.131468474116701, 32.740640427647548 ], [ -91.131203901185927, 32.740649933075844 ], [ -91.131488936977433, 32.740904099266793 ], [ -91.131731994595384, 32.74126464479496 ], [ -91.131978024910978, 32.742003403861005 ], [ -91.131903978664567, 32.742320519387377 ], [ -91.131683319466163, 32.742491303142572 ], [ -91.131363281889747, 32.74253035448254 ], [ -91.131433925703078, 32.742628165885776 ], [ -91.131978362251729, 32.743077165297358 ], [ -91.132444983304012, 32.743226421112567 ], [ -91.133254777320644, 32.743356910897212 ], [ -91.133463415205043, 32.743502543184483 ], [ -91.133630935586154, 32.743757965304887 ], [ -91.133363931978948, 32.744585894614353 ], [ -91.132953998655324, 32.745185961186159 ], [ -91.132678900333019, 32.745371417846521 ], [ -91.132358946336637, 32.745379267849557 ], [ -91.132032968701992, 32.745176732001845 ], [ -91.131686202950391, 32.744398341747065 ], [ -91.131407784909428, 32.744312693934056 ], [ -91.130402398298514, 32.743427726622734 ], [ -91.130179589348003, 32.743344806662222 ], [ -91.129916802354344, 32.743101372882286 ], [ -91.129703839232633, 32.742339240558032 ], [ -91.129696642345962, 32.741741543185817 ], [ -91.129409991565296, 32.741313632851117 ], [ -91.129154322351837, 32.741079528896741 ], [ -91.127943472422857, 32.740569318986253 ], [ -91.126709853568371, 32.739460410019227 ], [ -91.125833713711316, 32.739194704185202 ], [ -91.125581236795071, 32.738846789247383 ], [ -91.125538720981254, 32.738494154895584 ], [ -91.12583906317154, 32.737922592774872 ], [ -91.126069615563168, 32.737845891439754 ], [ -91.126459791339954, 32.737878049086142 ], [ -91.126063427700259, 32.737642629498708 ], [ -91.126016275089555, 32.737336782566025 ], [ -91.126396967405256, 32.736847496007144 ], [ -91.126416174136068, 32.736592169582359 ], [ -91.126823927727187, 32.735876665194148 ], [ -91.127398090502055, 32.735595790365359 ], [ -91.12841625535053, 32.735548960470467 ], [ -91.128649126209893, 32.735602684719325 ], [ -91.12992781302593, 32.735484394537188 ], [ -91.131100280340306, 32.735597635015424 ], [ -91.132360220016139, 32.735540250570949 ], [ -91.132605603456824, 32.7356382178301 ], [ -91.13349257439252, 32.735731492731524 ], [ -91.134998870381025, 32.736019919289141 ], [ -91.135763809861942, 32.736323780854697 ] ], [ [ -91.130621307681437, 32.741376274583949 ], [ -91.130786468126431, 32.741392482121036 ], [ -91.130139174841361, 32.740681318214378 ], [ -91.1297485128744, 32.740109060909781 ], [ -91.128271665721783, 32.738519838508807 ], [ -91.127972980779845, 32.738397849878943 ], [ -91.12784019689245, 32.738224726955266 ], [ -91.127417795309086, 32.738266474719182 ], [ -91.127136222625296, 32.738165152694393 ], [ -91.12731419067255, 32.738539328833696 ], [ -91.127753656861884, 32.738760273470746 ], [ -91.12818864860624, 32.739138573599192 ], [ -91.128845680634683, 32.740132199101879 ], [ -91.129736659771467, 32.740506703094688 ], [ -91.130015821620546, 32.740763774584444 ], [ -91.130230974817167, 32.741160788713103 ], [ -91.130621307681437, 32.741376274583949 ] ], [ [ -91.126993527559989, 32.737928240013801 ], [ -91.12683507780666, 32.737901934331525 ], [ -91.127006117833631, 32.737987558904173 ], [ -91.126993527559989, 32.737928240013801 ] ] ] ] } },
{ "type": "Feature", "properties": { "depth_bin": "140-145 ft", "bin_order": -142.5, "survey_id": "LM_08_MVF_20170711_CS_MB_48175_48225", "date": "2017-07-11", "year": 2017, "mile": 482.0 }, "geometry": { "type": "MultiPolygon", "coordinates": [ [ [ [ -91.137222614123061, 32.728888378921212 ], [ -91.137345592835842, 32.728970010947229 ], [ -91.139650892297212, 32.729532414923447 ], [ -91.139853626291114, 32.729748857679773 ], [ -91.139815911059586, 32.730023075341201 ], [ -91.139599509767578, 32.730183096880786 ], [ -91.139312586072677, 32.730206290229944 ], [ -91.136527856032245, 32.729580735909202 ], [ -91.133973215149538, 32.729368035398679 ], [ -91.131839430613638, 32.729341117515531 ], [ -91.130217875666759, 32.729508602231064 ], [ -91.129960167013962, 32.729400832980595 ], [ -91.129841841723305, 32.729179338096877 ], [ -91.129910346904154, 32.728933379134254 ], [ -91.130126761536431, 32.728773374818786 ], [ -91.13062918596431, 32.728668909966231 ], [ -91.131596888806328, 32.728603471472553 ], [ -91.132264806254042, 32.72864009442398 ], [ -91.133248094343102, 32.728578357460592 ], [ -91.134786081521128, 32.728693783309467 ], [ -91.135018287353162, 32.728599692006398 ], [ -91.135426692594493, 32.72857817961404 ], [ -91.136014131354642, 32.728624346116888 ], [ -91.137222614123061, 32.728888378921212 ] ] ], [ [ [ -91.134755482326852, 32.736076444699144 ], [ -91.135812140058732, 32.736465887224284 ], [ -91.135930489133287, 32.736687377107536 ], [ -91.135807808602351, 32.737018549444677 ], [ -91.135573867846972, 32.737159863506115 ], [ -91.13530987734795, 32.737156281503104 ], [ -91.133941400961163, 32.736702047893125 ], [ -91.133520780668348, 32.736800246682684 ], [ -91.133125829166374, 32.736776031053743 ], [ -91.133688716454117, 32.737010419517162 ], [ -91.13397745123477, 32.737280018076945 ], [ -91.13524363870178, 32.738050691097094 ], [ -91.135311501269811, 32.738265862727815 ], [ -91.135235413524384, 32.738465152622041 ], [ -91.134645120265759, 32.738759909635135 ], [ -91.134397384270173, 32.738756221617393 ], [ -91.13415817204347, 32.73861074837059 ], [ -91.133912712783072, 32.738565714432447 ], [ -91.133486424144508, 32.738297125870268 ], [ -91.133361397557636, 32.738105662422996 ], [ -91.133090639047737, 32.738091193174391 ], [ -91.132549810180393, 32.737837206443373 ], [ -91.132317352956434, 32.737808517967885 ], [ -91.132036951382432, 32.73757142567883 ], [ -91.131268939061513, 32.737428213718985 ], [ -91.131061998164668, 32.738717440831245 ], [ -91.131087110159328, 32.738974007871803 ], [ -91.130991596404016, 32.739442124729791 ], [ -91.130856801946081, 32.739611288639829 ], [ -91.131286768355892, 32.73965903911143 ], [ -91.131491836120432, 32.739842104804389 ], [ -91.1319269663108, 32.740017475899897 ], [ -91.132480643227794, 32.740397357065746 ], [ -91.133018356134343, 32.740554994296723 ], [ -91.133330101244354, 32.740741861934175 ], [ -91.133448449176285, 32.740963354001615 ], [ -91.133325875984013, 32.741308265778251 ], [ -91.133051118823772, 32.741457568727888 ], [ -91.131813685100568, 32.741241348477871 ], [ -91.132058338231857, 32.74212854905943 ], [ -91.131867145529952, 32.742411113407428 ], [ -91.131552019090705, 32.742489087133215 ], [ -91.131605796011101, 32.742651499867627 ], [ -91.132033336277473, 32.742773308280192 ], [ -91.132214749507952, 32.743087076265859 ], [ -91.133371494353753, 32.743361380404032 ], [ -91.133668747405125, 32.743779115978398 ], [ -91.133380314955517, 32.744599532289534 ], [ -91.132896797198882, 32.745310413730408 ], [ -91.132631429402522, 32.745445505583305 ], [ -91.13213154732037, 32.745408201800949 ], [ -91.131702026807844, 32.745101917869192 ], [ -91.13167509480472, 32.744914364076486 ], [ -91.131782664610697, 32.744601487309268 ], [ -91.131530607602159, 32.744610698585205 ], [ -91.131344704468191, 32.744532971532756 ], [ -91.130778734656246, 32.744059321326588 ], [ -91.130297273841904, 32.743437161885574 ], [ -91.129814852444966, 32.743098695972989 ], [ -91.129658114770635, 32.742683088290335 ], [ -91.129700136841123, 32.742013141809409 ], [ -91.129595610963221, 32.741713876031902 ], [ -91.129709396105298, 32.741287620885551 ], [ -91.12940514667406, 32.741276361124626 ], [ -91.128861239278422, 32.741002776146395 ], [ -91.128603591147012, 32.740829961978271 ], [ -91.128518242149681, 32.740670208917258 ], [ -91.128546881868829, 32.740462204987985 ], [ -91.128707430302669, 32.740302703217196 ], [ -91.128903910801185, 32.740246577065669 ], [ -91.129173657600276, 32.740288683668552 ], [ -91.12965480895312, 32.740499169913683 ], [ -91.129934401948447, 32.740750549810649 ], [ -91.130002131070086, 32.740951982398265 ], [ -91.129901823967387, 32.741177856599542 ], [ -91.130206073187964, 32.741189115144294 ], [ -91.130554257285311, 32.741451594160978 ], [ -91.13094379844199, 32.741531839250037 ], [ -91.130675875620582, 32.741183043975397 ], [ -91.130631832694746, 32.740976970995384 ], [ -91.130759349516126, 32.740759144317551 ], [ -91.131050157333434, 32.740658365947588 ], [ -91.130880915099226, 32.740533238671972 ], [ -91.130613847875765, 32.7407232774843 ], [ -91.130289387978735, 32.740691373478413 ], [ -91.130105310695626, 32.740530368655456 ], [ -91.129796996928491, 32.740016202937817 ], [ -91.129891908340426, 32.739718383416452 ], [ -91.130248406940453, 32.739582326380535 ], [ -91.130149321214887, 32.73940930345244 ], [ -91.130186101989977, 32.739052355852849 ], [ -91.130105181848137, 32.738789369855404 ], [ -91.13021706395466, 32.738548522180622 ], [ -91.130277296375411, 32.738001995527931 ], [ -91.129975622275936, 32.737866658139282 ], [ -91.12985091217989, 32.737561642227675 ], [ -91.129513683383706, 32.737616855615123 ], [ -91.129581366031545, 32.73787045549718 ], [ -91.129422326776449, 32.738111585284493 ], [ -91.129152255909375, 32.738211717408468 ], [ -91.128906144109621, 32.73818751407137 ], [ -91.128327927847636, 32.737616892630797 ], [ -91.128111445878488, 32.737643675682129 ], [ -91.127884247154753, 32.73756013231614 ], [ -91.127653042313739, 32.737234343969391 ], [ -91.127293644103332, 32.737087476736157 ], [ -91.127049863441798, 32.737114452501487 ], [ -91.126822667125779, 32.737030907288066 ], [ -91.126688678921298, 32.736854761208164 ], [ -91.126692938852045, 32.736631645009375 ], [ -91.126882501629254, 32.736404338863125 ], [ -91.127192819850151, 32.736284205995617 ], [ -91.127544265566613, 32.736227860725499 ], [ -91.127807469151108, 32.736302962010171 ], [ -91.128314516372413, 32.736209438819017 ], [ -91.128815882061787, 32.735957843104984 ], [ -91.130067854816645, 32.735827908573548 ], [ -91.131833494513103, 32.735857053841357 ], [ -91.133342858020555, 32.736012421044009 ], [ -91.134038659526112, 32.735955551379874 ], [ -91.134755482326852, 32.736076444699144 ] ] ], [ [ [ -91.12848510466327, 32.740020993934515 ], [ -91.128522387784585, 32.740275725408814 ], [ -91.128336141575957, 32.740502517242845 ], [ -91.128056008612859, 32.740557392829963 ], [ -91.127682410598254, 32.740414118829783 ], [ -91.12703500116406, 32.739862151149516 ], [ -91.125754041187733, 32.739129555821648 ], [ -91.125558979240594, 32.738847480592646 ], [ -91.125611252552972, 32.738481630324294 ], [ -91.125845211660305, 32.738340335593307 ], [ -91.126157859824673, 32.738329887619223 ], [ -91.126415495673868, 32.738463356457878 ], [ -91.126535336339316, 32.7386575087775 ], [ -91.127201145045717, 32.738851916755721 ], [ -91.127838086341285, 32.739361338896302 ], [ -91.12848510466327, 32.740020993934515 ] ] ] ] } },
{ "type": "Feature", "properties": { "depth_bin": "145-150 ft", "bin_order": -147.5, "survey_id": "LM_08_MVF_20170711_CS_MB_48175_48225", "date": "2017-07-11", "year": 2017, "mile": 482.0 }, "geometry": { "type": "MultiPolygon", "coordinates": [ [ [ [ -91.137463989306113, 32.728944869101326 ], [ -91.138798507078704, 32.729302082144656 ], [ -91.139029832679199, 32.72951186480045 ], [ -91.139261978472462, 32.729433935887371 ], [ -91.13955297680053, 32.729491817856903 ], [ -91.139755710462651, 32.729708260761157 ], [ -91.139717994955987, 32.729982478384585 ], [ -91.139501593599306, 32.730142499753228 ], [ -91.139222132040743, 32.730159571394054 ], [ -91.138899079560503, 32.729925116187665 ], [ -91.138472802931062, 32.729999477855259 ], [ -91.137394702247519, 32.729698777032709 ], [ -91.136403907987429, 32.729545509463009 ], [ -91.136151562406255, 32.729411026956775 ], [ -91.135486745625812, 32.729298774349402 ], [ -91.134762360504027, 32.729413548451127 ], [ -91.133257856770101, 32.72929930374179 ], [ -91.13216055782992, 32.729361442188811 ], [ -91.131848599118442, 32.729303880652985 ], [ -91.130716681518706, 32.729365036653419 ], [ -91.130266158904092, 32.729453326186892 ], [ -91.130008450343894, 32.729345557038521 ], [ -91.129888808766964, 32.729088682840327 ], [ -91.130019101674321, 32.7288355379292 ], [ -91.130320663443683, 32.72871209861534 ], [ -91.130612477415951, 32.728724424945426 ], [ -91.131092912576804, 32.728606679591863 ], [ -91.133052883551045, 32.728565859725926 ], [ -91.134696351487065, 32.728657696869 ], [ -91.134961900674227, 32.72855451371241 ], [ -91.135972698661277, 32.72860479562835 ], [ -91.136959104117224, 32.728878250856837 ], [ -91.137463989306113, 32.728944869101326 ] ] ], [ [ [ -91.133983148893449, 32.73616084365689 ], [ -91.134073918458569, 32.736355693103832 ], [ -91.134039878810498, 32.736528599135113 ], [ -91.133668021442105, 32.736773519535404 ], [ -91.133355256133768, 32.736770244859052 ], [ -91.133148459625247, 32.736647019460378 ], [ -91.132936254351037, 32.736764447150748 ], [ -91.132469068736256, 32.736799102249726 ], [ -91.132252649529931, 32.736697147249373 ], [ -91.132149181786261, 32.736545236436299 ], [ -91.132186924153601, 32.73627102230256 ], [ -91.132443028528684, 32.736099679315984 ], [ -91.132868897776547, 32.736059214045383 ], [ -91.133152944562767, 32.736192404136261 ], [ -91.133345986981197, 32.73606377528769 ], [ -91.133656054643595, 32.736024079877112 ], [ -91.133983148893449, 32.73616084365689 ] ] ], [ [ [ -91.133192360071817, 32.743407492459006 ], [ -91.133561343510124, 32.743543144730921 ], [ -91.133667764430612, 32.743904779230938 ], [ -91.133403146270339, 32.744495981570509 ], [ -91.133086845836431, 32.744649860037235 ], [ -91.132809165999717, 32.744586662182137 ], [ -91.13265537119284, 32.744422470732104 ], [ -91.132627823811063, 32.744166208853258 ], [ -91.13272117373117, 32.743890909983435 ], [ -91.132174149285703, 32.743837031862 ], [ -91.13172802696144, 32.743700305683625 ], [ -91.131483118934398, 32.743418040346469 ], [ -91.131186300999275, 32.743230721732907 ], [ -91.131125533202905, 32.74297278302064 ], [ -91.131054030475937, 32.742970788154537 ], [ -91.13109279521619, 32.743261565096326 ], [ -91.130949382653057, 32.743520719830848 ], [ -91.130687293316598, 32.743620734112625 ], [ -91.130409618602528, 32.74355753110482 ], [ -91.129843962105937, 32.743172017048245 ], [ -91.129668550542306, 32.742827502597272 ], [ -91.129617765985529, 32.742489142405027 ], [ -91.129699177643488, 32.742021172778777 ], [ -91.12957827971637, 32.741706082986141 ], [ -91.129685802090989, 32.741382917261269 ], [ -91.129880085173326, 32.741252949532139 ], [ -91.13012706325803, 32.741236106589682 ], [ -91.130371065410586, 32.741364708315324 ], [ -91.130476572713505, 32.741588454524233 ], [ -91.130780263181023, 32.741548024314177 ], [ -91.13104944013233, 32.741687143147509 ], [ -91.130943457814638, 32.741277318854451 ], [ -91.131136574901817, 32.741015606401156 ], [ -91.131490541625297, 32.740966327520582 ], [ -91.131759079494941, 32.741123992155089 ], [ -91.131771996858134, 32.740794878120155 ], [ -91.13206891622319, 32.740615542755755 ], [ -91.132794970275853, 32.740712798593108 ], [ -91.132988013197973, 32.740958642483477 ], [ -91.132893233172993, 32.741270206094519 ], [ -91.132684815676697, 32.741383459231926 ], [ -91.132453791784044, 32.741395196896072 ], [ -91.132046351374839, 32.741327288383488 ], [ -91.131814212282109, 32.741198288088313 ], [ -91.131969423684495, 32.741611024717791 ], [ -91.132006825640971, 32.742060436240266 ], [ -91.131757004642694, 32.742285280955322 ], [ -91.13136232622908, 32.742248622096227 ], [ -91.131532010618884, 32.742466383249116 ], [ -91.131554769463946, 32.742675125809157 ], [ -91.131931958255436, 32.742719459751029 ], [ -91.132319835774865, 32.743068670663206 ], [ -91.132814285208028, 32.743194814462434 ], [ -91.133049969778526, 32.743439174327825 ], [ -91.133192360071817, 32.743407492459006 ] ], [ [ -91.130709865535621, 32.742753031739859 ], [ -91.130676512257722, 32.742626430149194 ], [ -91.130543759349237, 32.742452097965923 ], [ -91.130709865535621, 32.742753031739859 ] ], [ [ -91.130535234429502, 32.742272726064819 ], [ -91.130539528145803, 32.742267022948738 ], [ -91.130529896137489, 32.742259379067029 ], [ -91.130535234429502, 32.742272726064819 ] ] ] ] } },
{ "type": "Feature", "properties": { "depth_bin": "150-155 ft", "bin_order": -152.5, "survey_id": "LM_08_MVF_20170711_CS_MB_48175_48225", "date": "2017-07-11", "year": 2017, "mile": 482.0 }, "geometry": { "type": "Polygon", "coordinates": [ [ [ -91.131578966354112, 32.743252160885888 ], [ -91.131738009776271, 32.743011028668128 ], [ -91.132052224987248, 32.742935563933187 ], [ -91.132337550480401, 32.743069972575029 ], [ -91.132426969958445, 32.743349261948865 ], [ -91.132267927701562, 32.743590395074584 ], [ -91.131953710317021, 32.743665860266525 ], [ -91.131668383589641, 32.743531450714478 ], [ -91.131578966354112, 32.743252160885888 ] ] ] } }
]
}
