{
"type": "FeatureCollection",
"name": "LM_05_VGG_20220715_CS_4304_4076_depth_polygons",
"crs": { "type": "name", "properties": { "name": "urn:ogc:def:crs:OGC:1.3:CRS84" } },
"features": [
{ "type": "Feature", "properties": { "depth_bin": "10-11 ft", "survey_id": "LM_05_VGG_20220715_CS_4304_4076", "date": "2022-07-15 00:00:00+00:00", "year": 2022, "mile": 425.0, "bin_order": 7 }, "geometry": { "type": "MultiPolygon", "coordinates": [ [ [ [ -91.054739550123699, 32.04342333939249 ], [ -91.05501221777395, 32.043220344632104 ], [ -91.055413827524077, 32.043252834218755 ], [ -91.055660643894655, 32.043431794711196 ], [ -91.055686600516296, 32.043706991269794 ], [ -91.05543860608519, 32.043931773902386 ], [ -91.054997616024338, 32.04391060759739 ], [ -91.054733710034157, 32.043699377666705 ], [ -91.054739550123699, 32.04342333939249 ] ] ], [ [ [ -91.05972672704587, 32.048103430349165 ], [ -91.059960020149418, 32.047911749917304 ], [ -91.060284120377446, 32.047916711043506 ], [ -91.060509175870735, 32.048115407657562 ], [ -91.060503352037401, 32.048391446673321 ], [ -91.06027005874121, 32.048583128088865 ], [ -91.059945956167269, 32.04857816683505 ], [ -91.059720900866608, 32.048379469237318 ], [ -91.05972672704587, 32.048103430349165 ] ] ], [ [ [ -90.987607677616936, 32.230502981199912 ], [ -90.987841600645893, 32.230311463650168 ], [ -90.988166332461816, 32.230316635130826 ], [ -90.98839165124464, 32.230515466352379 ], [ -90.9883855681651, 32.230791485382227 ], [ -90.988151644935115, 32.230983003922397 ], [ -90.987826910752361, 32.230977832309144 ], [ -90.987601592170577, 32.230779000097151 ], [ -90.987607677616936, 32.230502981199912 ] ] ], [ [ [ -90.986643388056436, 32.236722257648665 ], [ -90.986877329685996, 32.236530742785177 ], [ -90.987202083429466, 32.236535917628935 ], [ -90.987427414622417, 32.236734750920455 ], [ -90.987421327165848, 32.237010769514697 ], [ -90.987187385335105, 32.237202285368838 ], [ -90.986862629224078, 32.237197110392422 ], [ -90.986637298232296, 32.236998276110235 ], [ -90.986643388056436, 32.236722257648665 ] ] ], [ [ [ -90.981872538903701, 32.238777029917507 ], [ -90.982106495568971, 32.238585524567824 ], [ -90.982431255667393, 32.238590711964527 ], [ -90.982656580812076, 32.238789553495046 ], [ -90.982650478446629, 32.239065571188092 ], [ -90.982416521579694, 32.239257077528521 ], [ -90.982091759113501, 32.239251889998826 ], [ -90.981866434170485, 32.239053047477576 ], [ -90.981872538903701, 32.238777029917507 ] ] ], [ [ [ -90.984753702345373, 32.242980215490007 ], [ -90.984987664533151, 32.242788705111565 ], [ -90.985312440163412, 32.242793885703136 ], [ -90.985537781751276, 32.242992722638327 ], [ -90.985531687108335, 32.243268740637888 ], [ -90.985297724719146, 32.243460252007246 ], [ -90.984972946720617, 32.243455071282881 ], [ -90.984747605334164, 32.243256233356774 ], [ -90.984753702345373, 32.242980215490007 ] ] ], [ [ [ -90.981605877732221, 32.255614915648032 ], [ -90.981860842758593, 32.255443825282327 ], [ -90.982183500053097, 32.255476045111465 ], [ -90.982384842964208, 32.255692701425517 ], [ -90.982346927078453, 32.255966880563278 ], [ -90.982091961391831, 32.256137971875361 ], [ -90.981769301812477, 32.256105751722352 ], [ -90.981567959561602, 32.255889094461914 ], [ -90.981605877732221, 32.255614915648032 ] ] ], [ [ [ -90.980816867947098, 32.25884145943909 ], [ -90.981071843730177, 32.258670371172421 ], [ -90.981394511992718, 32.258702593451787 ], [ -90.981595859658512, 32.258919251131985 ], [ -90.981557939528727, 32.259193429751626 ], [ -90.981302963085213, 32.25936451896478 ], [ -90.980980292537481, 32.259332296361457 ], [ -90.980778945532109, 32.25911563773478 ], [ -90.980816867947098, 32.25884145943909 ] ] ], [ [ [ -90.975389207523733, 32.252408581638072 ], [ -90.975703280209018, 32.252197844690642 ], [ -90.976099083655399, 32.252273725561764 ], [ -90.976324426507759, 32.252472578797267 ], [ -90.97631830175969, 32.252748594812253 ], [ -90.976004228441823, 32.252959333253457 ], [ -90.975608422145967, 32.252883451975563 ], [ -90.975383079961503, 32.252684597496071 ], [ -90.975389207523733, 32.252408581638072 ] ] ], [ [ [ -90.978711051753322, 32.25411473665806 ], [ -90.97894505589008, 32.253923239458949 ], [ -90.979269869941078, 32.253928437172476 ], [ -90.979615920844353, 32.25416785817206 ], [ -90.979626903622332, 32.254476152490476 ], [ -90.979392899363134, 32.254667650938394 ], [ -90.979068082655544, 32.254662453435529 ], [ -90.978722031469957, 32.254423030933935 ], [ -90.978711051753322, 32.25411473665806 ] ] ], [ [ [ -90.97743922515312, 32.25702982469079 ], [ -90.977673239656824, 32.256838330342198 ], [ -90.977998063831905, 32.256843531742362 ], [ -90.978223421757718, 32.257042382075873 ], [ -90.978217301674732, 32.257318398215268 ], [ -90.977983286968808, 32.25750989355528 ], [ -90.977658460423839, 32.257504692021811 ], [ -90.97743310270026, 32.25730584069688 ], [ -90.97743922515312, 32.25702982469079 ] ] ], [ [ [ -90.971427546871908, 32.257192545891357 ], [ -90.971661573819759, 32.257001063220663 ], [ -90.971986397365029, 32.257006280100974 ], [ -90.972211741956002, 32.257205140649091 ], [ -90.972205603644113, 32.257481155753972 ], [ -90.971971576493431, 32.257672639416064 ], [ -90.971646750578302, 32.257667422402058 ], [ -90.971421406190132, 32.257468560862549 ], [ -90.971427546871908, 32.257192545891357 ] ] ], [ [ [ -90.974554837817649, 32.258905673212404 ], [ -90.974788863120125, 32.258714184704232 ], [ -90.975113693395372, 32.258719393789178 ], [ -90.975339049149497, 32.258918249150319 ], [ -90.97533291989491, 32.259194264715134 ], [ -90.975098894389902, 32.25938575421479 ], [ -90.974774061744569, 32.259380544996347 ], [ -90.974548706192962, 32.259181688643736 ], [ -90.974554837817649, 32.258905673212404 ] ] ], [ [ [ -90.969228065457798, 32.259399904335403 ], [ -90.969483063307351, 32.259228840436798 ], [ -90.969805727779644, 32.259261092253801 ], [ -90.970007048018601, 32.259477767339007 ], [ -90.96996909289085, 32.259751941035304 ], [ -90.969714094379754, 32.259923005880253 ], [ -90.969391427622497, 32.259890753738546 ], [ -90.969190108045083, 32.259674077706997 ], [ -90.969228065457798, 32.259399904335403 ] ] ], [ [ [ -90.972789992815606, 32.261549936124105 ], [ -90.973044990624516, 32.261378865056606 ], [ -90.973367664437973, 32.261411108116192 ], [ -90.973568997928211, 32.261627777985282 ], [ -90.973531052199647, 32.261901953062377 ], [ -90.973276053729464, 32.262073025076354 ], [ -90.972953377630702, 32.262040781692278 ], [ -90.972752044801751, 32.261824110876717 ], [ -90.972789992815606, 32.261549936124105 ] ] ] ] } },
{ "type": "Feature", "properties": { "depth_bin": "11-12 ft", "survey_id": "LM_05_VGG_20220715_CS_4304_4076", "date": "2022-07-15 00:00:00+00:00", "year": 2022, "mile": 425.0, "bin_order": 6 }, "geometry": { "type": "MultiPolygon", "coordinates": [ [ [ [ -91.062517455570301, 32.038933893353651 ], [ -91.062727537906639, 32.038723654182064 ], [ -91.063050615691338, 32.038701526487792 ], [ -91.063297435992524, 32.03888047232676 ], [ -91.063323415015361, 32.039155668352954 ], [ -91.063113332947879, 32.039365908513844 ], [ -91.062790252825849, 32.039388036274993 ], [ -91.062543432255808, 32.039209089446722 ], [ -91.062517455570301, 32.038933893353651 ] ] ], [ [ [ -91.061185060571873, 32.041649932781446 ], [ -91.061418333669536, 32.041458248718477 ], [ -91.06174241143809, 32.041463205229668 ], [ -91.061967455174226, 32.041661898948128 ], [ -91.061961637173397, 32.041937938483741 ], [ -91.061728363883276, 32.04212962353013 ], [ -91.061404283769562, 32.042124666891453 ], [ -91.061179240225869, 32.04192597218956 ], [ -91.061185060571873, 32.041649932781446 ] ] ], [ [ [ -91.060110829317935, 32.044376667612106 ], [ -91.060344111777482, 32.044184985964193 ], [ -91.060668198946729, 32.044189945596059 ], [ -91.060893246615805, 32.044388641312821 ], [ -91.060887424776197, 32.044664680553822 ], [ -91.060654142124079, 32.044856363185261 ], [ -91.060330052609359, 32.044851403425838 ], [ -91.060105005132854, 32.04465270672555 ], [ -91.060110829317935, 32.044376667612106 ] ] ], [ [ [ -91.059555783451799, 32.048119898974505 ], [ -91.059765894432431, 32.047909666090732 ], [ -91.060089004935165, 32.047887547273589 ], [ -91.060335842863154, 32.048066499379011 ], [ -91.060361814095913, 32.048341695390434 ], [ -91.060151703383994, 32.048551929263873 ], [ -91.059828590542821, 32.048574048147756 ], [ -91.059581752346119, 32.048395095052669 ], [ -91.059555783451799, 32.048119898974505 ] ] ], [ [ [ -90.981959170927027, 32.230236252478861 ], [ -90.982193104514621, 32.230044745835237 ], [ -90.982517834251965, 32.230049931790347 ], [ -90.982743139536552, 32.230248772576047 ], [ -90.982737039445823, 32.230524790657135 ], [ -90.982503105656633, 32.230716298291156 ], [ -90.982178373552529, 32.230711112203082 ], [ -90.981953068469537, 32.230512270426971 ], [ -90.981959170927027, 32.230236252478861 ] ] ], [ [ [ -90.986956225001919, 32.236795625138136 ], [ -90.987190166203632, 32.236604109678275 ], [ -90.987514920270613, 32.236609283728583 ], [ -90.987740252348942, 32.236808116494338 ], [ -90.987734165820982, 32.237084135138517 ], [ -90.987500224418113, 32.237275651589044 ], [ -90.987175467983562, 32.237270477406113 ], [ -90.986950136106373, 32.237071643649678 ], [ -90.986956225001919, 32.236795625138136 ] ] ], [ [ [ -90.977290104613175, 32.249990692630995 ], [ -90.977500886607586, 32.249780628952323 ], [ -90.977824721443667, 32.24975875040694 ], [ -90.978071912737278, 32.249937873105743 ], [ -90.978097659367691, 32.250213070106845 ], [ -90.977886877637161, 32.250423134783638 ], [ -90.977563040438085, 32.250445013391655 ], [ -90.977315848880622, 32.250265889694731 ], [ -90.977290104613175, 32.249990692630995 ] ] ], [ [ [ -90.975823792804576, 32.252594548301964 ], [ -90.976057798626684, 32.252403056499347 ], [ -90.976382606685576, 32.252408261418211 ], [ -90.976607950500906, 32.25260711418202 ], [ -90.976601826578786, 32.252883130239546 ], [ -90.976367820554316, 32.253074623033413 ], [ -90.976043010126062, 32.253069417981138 ], [ -90.975817666513095, 32.2528705642261 ], [ -90.975823792804576, 32.252594548301964 ] ] ], [ [ [ -90.973372460048097, 32.25478220713488 ], [ -90.973606476639191, 32.254590720374061 ], [ -90.973931291993694, 32.254595931908334 ], [ -90.974276651788273, 32.254835370669795 ], [ -90.974287616434978, 32.255143664696014 ], [ -90.974053599719454, 32.255335152704383 ], [ -90.973728781708331, 32.255329941378619 ], [ -90.973383421635717, 32.255090501118183 ], [ -90.973372460048097, 32.25478220713488 ] ] ], [ [ [ -90.971560756707319, 32.2572713652239 ], [ -90.971794783600799, 32.257079882305334 ], [ -90.972156921120813, 32.257100834905273 ], [ -90.972472701938742, 32.257368220539725 ], [ -90.972448045642096, 32.257675942552126 ], [ -90.972193057530831, 32.257847012881463 ], [ -90.971870396850164, 32.25781476732913 ], [ -90.971571711985433, 32.257579659014709 ], [ -90.971560756707319, 32.2572713652239 ] ] ], [ [ [ -90.969340362923319, 32.259515254563631 ], [ -90.969574400277892, 32.259323776248081 ], [ -90.969899231673807, 32.259328998828302 ], [ -90.970124576960728, 32.259527863082269 ], [ -90.970118431782225, 32.259803877728181 ], [ -90.969884394224607, 32.259995357035223 ], [ -90.969559560458563, 32.259990134321164 ], [ -90.969334215374701, 32.259791269075706 ], [ -90.969340362923319, 32.259515254563631 ] ] ] ] } },
{ "type": "Feature", "properties": { "depth_bin": "12-13 ft", "survey_id": "LM_05_VGG_20220715_CS_4304_4076", "date": "2022-07-15 00:00:00+00:00", "year": 2022, "mile": 425.0, "bin_order": 5 }, "geometry": { "type": "MultiPolygon", "coordinates": [ [ [ [ -91.063708604261237, 32.036212290360737 ], [ -91.063918677424326, 32.036002048778599 ], [ -91.064241745485816, 32.035979917652178 ], [ -91.064488561209359, 32.036158861047831 ], [ -91.06451454348165, 32.036434057050748 ], [ -91.064304470587487, 32.036644299622068 ], [ -91.063981400188993, 32.036666430815437 ], [ -91.063734584196538, 32.036487486430602 ], [ -91.063708604261237, 32.036212290360737 ] ] ], [ [ [ -91.053880014009735, 32.05079066999302 ], [ -91.053988993432014, 32.050641963313545 ], [ -91.054207905653357, 32.050546587645748 ], [ -91.054707380722434, 32.050627972971149 ], [ -91.054954214674495, 32.050806935368222 ], [ -91.054980170059324, 32.051082131768275 ], [ -91.054732153092402, 32.05130691192084 ], [ -91.05411451331031, 32.051375559590639 ], [ -91.053850588939895, 32.051164327291517 ], [ -91.053880014009735, 32.05079066999302 ] ] ], [ [ [ -90.987304429910978, 32.233661832184424 ], [ -90.98753836201432, 32.233470315637675 ], [ -90.987863105003953, 32.233475488347118 ], [ -90.988088430514679, 32.233674320303479 ], [ -90.988082345776078, 32.233950339143753 ], [ -90.987848413471653, 32.234141856681056 ], [ -90.987523668114818, 32.23413668383899 ], [ -90.987298342805175, 32.23393785089209 ], [ -90.987304429910978, 32.233661832184424 ] ] ], [ [ [ -90.979556566240745, 32.244336984877592 ], [ -90.979767329426778, 32.24412691650025 ], [ -90.980091143887606, 32.244105031290673 ], [ -90.980338325174117, 32.244284149263464 ], [ -90.980364078027733, 32.244559346245026 ], [ -90.98015331510571, 32.244769415620247 ], [ -90.979829498282598, 32.244791300892572 ], [ -90.979582316732078, 32.244612181921902 ], [ -90.979556566240745, 32.244336984877592 ] ] ], [ [ [ -90.978132824142918, 32.247056601830657 ], [ -90.978343597112968, 32.246846536301156 ], [ -90.978667421406513, 32.246824655155741 ], [ -90.978914606814854, 32.247003776028336 ], [ -90.978940355664818, 32.247278973046733 ], [ -90.978729582958678, 32.247489039574226 ], [ -90.978405756302507, 32.247510920782318 ], [ -90.978158570630256, 32.247331798911731 ], [ -90.978132824142918, 32.247056601830657 ] ] ], [ [ [ -90.973626791200786, 32.254968747659568 ], [ -90.973837593448124, 32.254758691059699 ], [ -90.974161446389687, 32.254736822678517 ], [ -90.974408643035829, 32.254915952673009 ], [ -90.974434379130216, 32.255191149827716 ], [ -90.974223577146475, 32.255401207425919 ], [ -90.973899721841306, 32.25542307586953 ], [ -90.973652524931566, 32.25524394487671 ], [ -90.973626791200786, 32.254968747659568 ] ] ], [ [ [ -90.969470650128926, 32.259596757409582 ], [ -90.969704687442217, 32.259405278852142 ], [ -90.970066833355958, 32.259426237796276 ], [ -90.97038807077243, 32.2596873885294 ], [ -90.970363406393062, 32.259995109718268 ], [ -90.970108407871436, 32.260166175356098 ], [ -90.969785740061894, 32.260133924183087 ], [ -90.969481598164549, 32.25990505100031 ], [ -90.969470650128926, 32.259596757409582 ] ] ] ] } },
{ "type": "Feature", "properties": { "depth_bin": "13-14 ft", "survey_id": "LM_05_VGG_20220715_CS_4304_4076", "date": "2022-07-15 00:00:00+00:00", "year": 2022, "mile": 425.0, "bin_order": 4 }, "geometry": { "type": "MultiPolygon", "coordinates": [ [ [ [ -91.062363279197797, 32.038902839026349 ], [ -91.062573361798158, 32.038692600120498 ], [ -91.062896439489194, 32.038670472816463 ], [ -91.063143259393911, 32.038849418941609 ], [ -91.063169237949694, 32.039124614982271 ], [ -91.062959155618174, 32.039334854877424 ], [ -91.062636075589808, 32.039356982248329 ], [ -91.062389255416264, 32.03917803513388 ], [ -91.062363279197797, 32.038902839026349 ] ] ], [ [ [ -91.061029195873672, 32.041618116416359 ], [ -91.061262469196535, 32.041426432649047 ], [ -91.061586546823051, 32.041431389554255 ], [ -91.061811590133118, 32.041630083534294 ], [ -91.061805771671715, 32.041906123045784 ], [ -91.061572498156366, 32.042097807796516 ], [ -91.06124841818469, 32.042092850763794 ], [ -91.061023375067094, 32.041894155800343 ], [ -91.061029195873672, 32.041618116416359 ] ] ], [ [ [ -91.059408664620776, 32.048062014398162 ], [ -91.059641958246317, 32.047870334572785 ], [ -91.05996605826725, 32.047875296506405 ], [ -91.060191112945631, 32.048073993655862 ], [ -91.060185288166934, 32.048350032621343 ], [ -91.059951994348708, 32.048541713430389 ], [ -91.059627891981876, 32.048536751369141 ], [ -91.059402837496165, 32.048338053236023 ], [ -91.059408664620776, 32.048062014398162 ] ] ], [ [ [ -90.987152440109867, 32.233590355040576 ], [ -90.987386372324977, 32.233398838778847 ], [ -90.987711115030024, 32.233404011868643 ], [ -90.987936440026488, 32.233602844077907 ], [ -90.987930354845204, 32.233878862895509 ], [ -90.987696422428996, 32.234070380147791 ], [ -90.987371677356762, 32.234065206925372 ], [ -90.987146352561396, 32.233866373725547 ], [ -90.987152440109867, 32.233590355040576 ] ] ], [ [ [ -90.982525552528685, 32.236000337143913 ], [ -90.982759500442825, 32.235808830162945 ], [ -90.98308425079432, 32.235814015485332 ], [ -90.983309570905647, 32.236012855713554 ], [ -90.983303471168938, 32.236288873639147 ], [ -90.983069523053217, 32.23648038161074 ], [ -90.982744770334293, 32.236475196155425 ], [ -90.982519450424547, 32.236276354936578 ], [ -90.982525552528685, 32.236000337143913 ] ] ], [ [ [ -90.982028284975584, 32.238816664785077 ], [ -90.982262241436246, 32.238625159138842 ], [ -90.982587001706861, 32.238630346140965 ], [ -90.982812327299698, 32.238829187409983 ], [ -90.982806225395848, 32.239105205127807 ], [ -90.982572268733549, 32.239296711764787 ], [ -90.982247506095135, 32.239291524629699 ], [ -90.98202218070395, 32.239092682369943 ], [ -90.982028284975584, 32.238816664785077 ] ] ], [ [ [ -90.982215844724337, 32.24900810610773 ], [ -90.982449828154174, 32.24881660144159 ], [ -90.982774624728989, 32.248821789415921 ], [ -90.982999974695375, 32.249020631079752 ], [ -90.982993870956676, 32.249296648384018 ], [ -90.98275988732513, 32.249488154041302 ], [ -90.982435088381337, 32.249482965933993 ], [ -90.982209738616675, 32.249284123279018 ], [ -90.982215844724337, 32.24900810610773 ] ] ], [ [ [ -90.980855448192571, 32.241644818201507 ], [ -90.981066201938987, 32.241434747200231 ], [ -90.981390006678168, 32.241412858252502 ], [ -90.981637183655636, 32.241591973562635 ], [ -90.981662940136999, 32.241867170516684 ], [ -90.981452186654693, 32.242077242515734 ], [ -90.981128379553525, 32.242099131526274 ], [ -90.980881202311991, 32.241920015218369 ], [ -90.980855448192571, 32.241644818201507 ] ] ], [ [ [ -90.975682509832438, 32.25252635710963 ], [ -90.97591651575361, 32.252334865571903 ], [ -90.97627863609172, 32.252355805637983 ], [ -90.976826743721787, 32.252712865763868 ], [ -90.976892561262346, 32.252878987253318 ], [ -90.976839938446005, 32.253083566327589 ], [ -90.976584971411384, 32.253254646497787 ], [ -90.976262324715037, 32.2532224127444 ], [ -90.975714216480668, 32.252865350160306 ], [ -90.975682509832438, 32.25252635710963 ] ] ], [ [ [ -90.97377291698362, 32.255017666108877 ], [ -90.97400693340721, 32.254826178602741 ], [ -90.97433174968063, 32.254831389141202 ], [ -90.974681110873078, 32.255064428973178 ], [ -90.974692076874007, 32.25537272301019 ], [ -90.974458060351182, 32.255564211772459 ], [ -90.974133241443099, 32.255559001453761 ], [ -90.973783879911423, 32.255325960102518 ], [ -90.97377291698362, 32.255017666108877 ] ] ], [ [ [ -90.977303718448638, 32.256956135626922 ], [ -90.977537733025159, 32.256764641531319 ], [ -90.977862556910637, 32.256769843269353 ], [ -90.978087914354049, 32.256968693827702 ], [ -90.978081793878459, 32.257244709947187 ], [ -90.97784777909969, 32.25743620503421 ], [ -90.977522952844367, 32.257431003162871 ], [ -90.977297595603176, 32.257232151613103 ], [ -90.977303718448638, 32.256956135626922 ] ] ] ] } },
{ "type": "Feature", "properties": { "depth_bin": "14-15 ft", "survey_id": "LM_05_VGG_20220715_CS_4304_4076", "date": "2022-07-15 00:00:00+00:00", "year": 2022, "mile": 425.0, "bin_order": 3 }, "geometry": { "type": "MultiPolygon", "coordinates": [ [ [ [ -91.059249314268442, 32.048039562464183 ], [ -91.059482608150986, 32.047847882942456 ], [ -91.059806708062155, 32.047852845280367 ], [ -91.060031762328293, 32.048051542697934 ], [ -91.060025937076361, 32.04832758163829 ], [ -91.059792643001117, 32.048519262143699 ], [ -91.059468540744049, 32.048514299678153 ], [ -91.059243486670596, 32.048315601276919 ], [ -91.059249314268442, 32.048039562464183 ] ] ], [ [ [ -90.982117883534258, 32.230263172023761 ], [ -90.982391283360016, 32.230060368264176 ], [ -90.982799724430507, 32.230069736322285 ], [ -90.983046874836404, 32.230248848047445 ], [ -90.983072634293222, 32.230524045220072 ], [ -90.982823937625199, 32.230748651765595 ], [ -90.98237602673376, 32.230750580470875 ], [ -90.982111781550159, 32.230539189997735 ], [ -90.982117883534258, 32.230263172023761 ] ] ], [ [ [ -90.986799344383172, 32.236750862795546 ], [ -90.987033285778082, 32.236559347633722 ], [ -90.987358039654481, 32.236564522080791 ], [ -90.987583371270091, 32.236763355109638 ], [ -90.987577284278316, 32.237039373729132 ], [ -90.987343342682252, 32.237230889881637 ], [ -90.98701858643831, 32.237225715301911 ], [ -90.986793255023841, 32.237026881282382 ], [ -90.986799344383172, 32.236750862795546 ] ] ], [ [ [ -90.978280546758285, 32.247104132551023 ], [ -90.978514532937197, 32.246912635260948 ], [ -90.97883932194604, 32.246917833079046 ], [ -90.979064658463273, 32.247116681288183 ], [ -90.979058543270312, 32.247392698005065 ], [ -90.978824556889322, 32.247584196286176 ], [ -90.978499765511742, 32.247578998334859 ], [ -90.978274429196603, 32.247380149134678 ], [ -90.978280546758285, 32.247104132551023 ] ] ], [ [ [ -90.977434585797923, 32.250041126623657 ], [ -90.977668581548855, 32.249849631361144 ], [ -90.977993380841639, 32.249854831773789 ], [ -90.978218722330766, 32.250053681624628 ], [ -90.978212603885112, 32.250329698068775 ], [ -90.977978607932002, 32.250521194322445 ], [ -90.977653806270169, 32.250515993776531 ], [ -90.97742846498322, 32.25031714293452 ], [ -90.977434585797923, 32.250041126623657 ] ] ], [ [ [ -90.976209474760921, 32.252849837845609 ], [ -90.976443480498148, 32.252658345329024 ], [ -90.976768289543415, 32.252663549292905 ], [ -90.976993634838578, 32.25286240142011 ], [ -90.976987512022902, 32.253138417532327 ], [ -90.976753506083341, 32.253329911040183 ], [ -90.976428694668698, 32.253324706942927 ], [ -90.976203349575854, 32.253125853824457 ], [ -90.976209474760921, 32.252849837845609 ] ] ], [ [ [ -90.974423289867104, 32.258824677117957 ], [ -90.974657315214827, 32.258633188854155 ], [ -90.974982145175161, 32.258638398265745 ], [ -90.975207500438714, 32.258837253844462 ], [ -90.975201370805223, 32.25911326939034 ], [ -90.974967345254953, 32.259304758645612 ], [ -90.974642512924518, 32.259299549100533 ], [ -90.974417157863527, 32.259100692530332 ], [ -90.974423289867104, 32.258824677117957 ] ] ], [ [ [ -90.971825186234554, 32.25742659578043 ], [ -90.97205921301682, 32.257235112369649 ], [ -90.972384037475607, 32.257240328261133 ], [ -90.972722950327352, 32.257433276658787 ], [ -90.972754646611648, 32.257772269829701 ], [ -90.972520619775722, 32.257963754517938 ], [ -90.972195792713308, 32.257958538873879 ], [ -90.971856879165941, 32.257765589041938 ], [ -90.971825186234554, 32.25742659578043 ] ] ], [ [ [ -90.969742315895786, 32.259745468225397 ], [ -90.969976353065945, 32.259553989160807 ], [ -90.970338499674938, 32.259574947351446 ], [ -90.971129520804865, 32.260056090161619 ], [ -90.9712195108755, 32.260251038873932 ], [ -90.971166870273933, 32.260455614671805 ], [ -90.970911871832485, 32.26062668193012 ], [ -90.970589202001932, 32.260594432735871 ], [ -90.969798179401081, 32.260113286504151 ], [ -90.969708192547444, 32.25991833690307 ], [ -90.969742315895786, 32.259745468225397 ] ] ], [ [ [ -90.972526349923513, 32.261399847191107 ], [ -90.972760385976713, 32.261208362946363 ], [ -90.973085224726475, 32.261213577604607 ], [ -90.973310581714856, 32.261412436584266 ], [ -90.97330444573106, 32.261688451693196 ], [ -90.973070409475113, 32.26187993692951 ], [ -90.972745568354981, 32.261874722137634 ], [ -90.972520211569361, 32.261675862166406 ], [ -90.972526349923513, 32.261399847191107 ] ] ] ] } },
{ "type": "Feature", "properties": { "depth_bin": "15-17.5 ft", "survey_id": "LM_05_VGG_20220715_CS_4304_4076", "date": "2022-07-15 00:00:00+00:00", "year": 2022, "mile": 425.0, "bin_order": 2 }, "geometry": { "type": "MultiPolygon", "coordinates": [ [ [ [ -91.063564256598212, 32.036147742324296 ], [ -91.063797510388838, 32.035956052982421 ], [ -91.064121569232171, 32.035961002657125 ], [ -91.064346605510636, 32.036159691986114 ], [ -91.064340795888441, 32.036435732150423 ], [ -91.064107541905628, 32.036627422475519 ], [ -91.063783480717746, 32.0366224726735 ], [ -91.063558444631482, 32.036423782361275 ], [ -91.063564256598212, 32.036147742324296 ] ] ], [ [ [ -91.06224118368398, 32.038799451655429 ], [ -91.062495381514083, 32.038628163487147 ], [ -91.062817319100162, 32.038660149639838 ], [ -91.063018411370152, 32.038876673283085 ], [ -91.062980860742769, 32.039150898467632 ], [ -91.062726662266556, 32.039322187575472 ], [ -91.062404722418208, 32.039290201105963 ], [ -91.062203630794329, 32.039073676523145 ], [ -91.06224118368398, 32.038799451655429 ] ] ], [ [ [ -91.056152863685668, 32.040694433567204 ], [ -91.056407077631903, 32.040523158314436 ], [ -91.056729018863763, 32.04055516010682 ], [ -91.05693010017356, 32.040771692952688 ], [ -91.056892530399892, 32.041045915512001 ], [ -91.056638315806921, 32.041217191704327 ], [ -91.056316372312722, 32.041185189594721 ], [ -91.056115291649661, 32.040968655809294 ], [ -91.056152863685668, 32.040694433567204 ] ] ], [ [ [ -91.060714412450892, 32.041564150183511 ], [ -91.060987061862264, 32.041361141772676 ], [ -91.061389909009335, 32.041391598561503 ], [ -91.061636732843539, 32.041570547720632 ], [ -91.061662707201236, 32.041845743812161 ], [ -91.061414732022314, 32.04207053897624 ], [ -91.060972505999956, 32.042051407389735 ], [ -91.060708590711883, 32.041840189518318 ], [ -91.060714412450892, 32.041564150183511 ] ] ], [ [ [ -91.055073805153071, 32.043440616364514 ], [ -91.055328028865972, 32.043269343724667 ], [ -91.055649979141265, 32.043301348609454 ], [ -91.05585106347398, 32.04351788321577 ], [ -91.055813488931776, 32.043792105172393 ], [ -91.055559264571954, 32.043963378751876 ], [ -91.055237312034052, 32.043931373549775 ], [ -91.055036228348257, 32.043714838003815 ], [ -91.055073805153071, 32.043440616364514 ] ] ], [ [ [ -91.059946984936204, 32.044352427773646 ], [ -91.060180267656918, 32.044160746437754 ], [ -91.060504354709252, 32.044165706485103 ], [ -91.060729401951846, 32.044364402477434 ], [ -91.060723579625986, 32.044640441692692 ], [ -91.060490296712672, 32.044832124012103 ], [ -91.06016620731485, 32.044827163837176 ], [ -91.059941160264856, 32.044628466861319 ], [ -91.059946984936204, 32.044352427773646 ] ] ], [ [ [ -91.05910554004312, 32.047994418899378 ], [ -91.059359769736844, 32.047823138483906 ], [ -91.059681737838986, 32.047855133781397 ], [ -91.059882841402271, 32.048071662604734 ], [ -91.059845276229524, 32.048345885970434 ], [ -91.059591045889121, 32.048517167325784 ], [ -91.059269075523758, 32.048485171711199 ], [ -91.059067972607139, 32.048268641947999 ], [ -91.05910554004312, 32.047994418899378 ] ] ], [ [ [ -91.054527020456263, 32.050819378045986 ], [ -91.054781266288828, 32.050648107534109 ], [ -91.055103242012393, 32.050680114782025 ], [ -91.055304340215329, 32.050896650602439 ], [ -91.055266759840109, 32.051170871913079 ], [ -91.055012513360339, 32.051342143364842 ], [ -91.054690535373325, 32.051310135799525 ], [ -91.054489437817594, 32.05109359903922 ], [ -91.054527020456263, 32.050819378045986 ] ] ], [ [ [ -90.987446964043158, 32.230508623334217 ], [ -90.987680887408047, 32.230317106096507 ], [ -90.988005619211918, 32.230322277990879 ], [ -90.988230937641788, 32.230521109485522 ], [ -90.988224854075142, 32.230797128487836 ], [ -90.987990930509199, 32.230988646715971 ], [ -90.987666196338495, 32.230983474688998 ], [ -90.987440878109695, 32.230784642203929 ], [ -90.987446964043158, 32.230508623334217 ] ] ], [ [ [ -90.982702145860742, 32.236001048629561 ], [ -90.982957052060627, 32.235829953259433 ], [ -90.983279640884717, 32.235862167601482 ], [ -90.983480945788983, 32.236078821159872 ], [ -90.983443044624337, 32.236353001887124 ], [ -90.983188137764884, 32.236524098202914 ], [ -90.982865546658161, 32.236491883537234 ], [ -90.982664242413463, 32.236275229033176 ], [ -90.982702145860742, 32.236001048629561 ] ] ], [ [ [ -90.986034202157185, 32.239915473080316 ], [ -90.986289113830665, 32.239744371271463 ], [ -90.986611718073988, 32.239776577686108 ], [ -90.986813039311102, 32.239993226472045 ], [ -90.986775145825504, 32.240267408377576 ], [ -90.986520233492669, 32.240438511132311 ], [ -90.986197626966188, 32.240406304394213 ], [ -90.985996306388415, 32.240189654662409 ], [ -90.986034202157185, 32.239915473080316 ] ] ], [ [ [ -90.981182769250452, 32.251907684711711 ], [ -90.981416762525768, 32.251716182430172 ], [ -90.98174156921516, 32.25172137347402 ], [ -90.981966923640442, 32.251920217094252 ], [ -90.981960816092965, 32.25219623409582 ], [ -90.981726822615812, 32.252387737368608 ], [ -90.98140201355713, 32.252382546191711 ], [ -90.981176659333656, 32.252183701580236 ], [ -90.981182769250452, 32.251907684711711 ] ] ], [ [ [ -90.979738513232377, 32.244324881197983 ], [ -90.979993448796606, 32.244153793185362 ], [ -90.98031606543131, 32.244186016204587 ], [ -90.980517380302004, 32.244402674677048 ], [ -90.98047946542097, 32.244676853676829 ], [ -90.980224529196647, 32.244847942635381 ], [ -90.979901910278443, 32.244815719292255 ], [ -90.979700596067858, 32.244599059873877 ], [ -90.979738513232377, 32.244324881197983 ] ] ], [ [ [ -90.9784254490867, 32.247152866107342 ], [ -90.978680395170201, 32.246981781236634 ], [ -90.979003021103921, 32.247014007982763 ], [ -90.979204338606323, 32.24723066858401 ], [ -90.979166418147983, 32.247504846867528 ], [ -90.978911471404174, 32.247675932684274 ], [ -90.978588843186657, 32.247643705614124 ], [ -90.978387526344548, 32.247427044066868 ], [ -90.9784254490867, 32.247152866107342 ] ] ], [ [ [ -90.977571229823212, 32.250112473329715 ], [ -90.977805225492773, 32.249920977811747 ], [ -90.978130025066974, 32.249926177883324 ], [ -90.978479094817359, 32.250160445991426 ], [ -90.978490074019192, 32.250468740417766 ], [ -90.978256078246972, 32.250660237190935 ], [ -90.977931276034454, 32.250655037338419 ], [ -90.977582205953695, 32.250420767713067 ], [ -90.977571229823212, 32.250112473329715 ] ] ], [ [ [ -90.978587007938856, 32.254017871116048 ], [ -90.978841973656756, 32.253846786855902 ], [ -90.979164623831494, 32.253879014138541 ], [ -90.979365955982047, 32.254095674888021 ], [ -90.979328031998165, 32.254369852844832 ], [ -90.979073065619787, 32.254540938051264 ], [ -90.978750413160455, 32.254508710444568 ], [ -90.978549081670394, 32.254292048748816 ], [ -90.978587007938856, 32.254017871116048 ] ] ], [ [ [ -90.974055206042223, 32.25515075601902 ], [ -90.974289222259415, 32.254959267983153 ], [ -90.974614039063496, 32.254964477814916 ], [ -90.974839384851478, 32.25516333375991 ], [ -90.974833254973788, 32.255439349403517 ], [ -90.974599238554021, 32.25563083843069 ], [ -90.974274419380308, 32.25562562846541 ], [ -90.974049073794873, 32.255426771529088 ], [ -90.974055206042223, 32.25515075601902 ] ] ], [ [ [ -90.972134693328485, 32.257522441752073 ], [ -90.972389680600472, 32.2573513715001 ], [ -90.972712339907801, 32.25738361566826 ], [ -90.97291366341986, 32.257600286289573 ], [ -90.9728757180862, 32.257874461321776 ], [ -90.972620730152997, 32.258045532520036 ], [ -90.972298068560846, 32.258013288027392 ], [ -90.97209674570999, 32.257796616459778 ], [ -90.972134693328485, 32.257522441752073 ] ] ], [ [ [ -90.974314259931106, 32.258705548824118 ], [ -90.974569246792896, 32.25853447416749 ], [ -90.974891911348564, 32.258566712958689 ], [ -90.975093242693234, 32.258783380380436 ], [ -90.975055303188327, 32.259057556264786 ], [ -90.974800315665505, 32.259228631867806 ], [ -90.974477648824831, 32.259196392752216 ], [ -90.974276318141207, 32.258979724384098 ], [ -90.974314259931106, 32.258705548824118 ] ] ], [ [ [ -90.969898880710133, 32.259785192556798 ], [ -90.970194471769631, 32.259606177526592 ], [ -90.970511864096821, 32.259665146039723 ], [ -90.970677867351327, 32.259863051572331 ], [ -90.970665485320339, 32.260089721773092 ], [ -90.971039668720621, 32.260041653191962 ], [ -90.971516161114266, 32.260306825715119 ], [ -90.97160615224503, 32.260501774187979 ], [ -90.971531424265223, 32.260736361751107 ], [ -90.971337995047236, 32.260866125492576 ], [ -90.971133403747416, 32.260888562492298 ], [ -90.970666318387899, 32.260680839819557 ], [ -90.970500313769179, 32.260482934236499 ], [ -90.970512696318366, 32.260256264083985 ], [ -90.970219806457692, 32.260319434860115 ], [ -90.969936224718907, 32.260184717224305 ], [ -90.969846237502438, 32.259989767708888 ], [ -90.969898880710133, 32.259785192556798 ] ] ], [ [ [ -90.97266226292723, 32.261464795873046 ], [ -90.972917260714269, 32.261293725061506 ], [ -90.973239934164454, 32.261325968434036 ], [ -90.973441267162784, 32.26154263848975 ], [ -90.973403321101841, 32.261816813517804 ], [ -90.973148322653515, 32.261987885275815 ], [ -90.972825646918039, 32.261955641578787 ], [ -90.972624314580997, 32.261738970576616 ], [ -90.97266226292723, 32.261464795873046 ] ] ] ] } },
{ "type": "Feature", "properties": { "depth_bin": "17.5-20 ft", "survey_id": "LM_05_VGG_20220715_CS_4304_4076", "date": "2022-07-15 00:00:00+00:00", "year": 2022, "mile": 425.0, "bin_order": 1 }, "geometry": { "type": "MultiPolygon", "coordinates": [ [ [ [ -91.060003058816662, 32.035272533203226 ], [ -91.060257250466805, 32.035101249216659 ], [ -91.060579174681905, 32.035133240558544 ], [ -91.060780254222109, 32.035349767358802 ], [ -91.060742698962997, 32.035623991818689 ], [ -91.060488506666644, 32.035795276744665 ], [ -91.06016658018973, 32.035763285085842 ], [ -91.059965501295721, 32.035546757346182 ], [ -91.060003058816662, 32.035272533203226 ] ] ], [ [ [ -91.062084035543094, 32.038763961751464 ], [ -91.062338233547294, 32.038592673905214 ], [ -91.062660170933498, 32.038624660450395 ], [ -91.062861262746736, 32.038841184326678 ], [ -91.062823711673261, 32.0391154094483 ], [ -91.06256951302295, 32.039286698234108 ], [ -91.062247573374478, 32.039254711372095 ], [ -91.062046482207364, 32.039038186556255 ], [ -91.062084035543094, 32.038763961751464 ] ] ], [ [ [ -91.060575579205164, 32.041505868943602 ], [ -91.060829787715846, 32.041334584601373 ], [ -91.061151733922131, 32.041366575322549 ], [ -91.061352827702578, 32.041583101600601 ], [ -91.061315270590882, 32.041857325942928 ], [ -91.061061061433861, 32.042028611224794 ], [ -91.060739112965024, 32.041996620186687 ], [ -91.060538019830929, 32.041780092968985 ], [ -91.060575579205164, 32.041505868943602 ] ] ], [ [ [ -91.055232652705371, 32.043474071587738 ], [ -91.055527366725613, 32.043294817107224 ], [ -91.055931243895046, 32.043341054537883 ], [ -91.056156278887912, 32.043539758211239 ], [ -91.056150443023753, 32.043815796712934 ], [ -91.055877775916983, 32.044018793934633 ], [ -91.055433405028054, 32.043980537707114 ], [ -91.055208370640031, 32.043781832781683 ], [ -91.055232652705371, 32.043474071587738 ] ] ], [ [ [ -91.058944559799571, 32.047990420074996 ], [ -91.059198789764437, 32.047819139993841 ], [ -91.059520757774479, 32.047851135697769 ], [ -91.059721860936364, 32.048067664761589 ], [ -91.059684295288065, 32.048341888060939 ], [ -91.059430064676505, 32.048513169081971 ], [ -91.059108094403243, 32.048481173060935 ], [ -91.058906991888037, 32.048264643057244 ], [ -91.058944559799571, 32.047990420074996 ] ] ], [ [ [ -91.054169799144759, 32.050929959179435 ], [ -91.054424045921564, 32.050758689425628 ], [ -91.054746021856928, 32.050790697591395 ], [ -91.054947119415147, 32.051007233951786 ], [ -91.054909537916359, 32.05128145510826 ], [ -91.054655290492349, 32.051452725801973 ], [ -91.054333312293537, 32.051420717318777 ], [ -91.054132215382538, 32.05120418001848 ], [ -91.054169799144759, 32.050929959179435 ] ] ], [ [ [ -90.982460381438543, 32.230257699721164 ], [ -90.982715271415586, 32.230086604064532 ], [ -90.983037839923881, 32.230118818229855 ], [ -90.983239132319625, 32.230335471824795 ], [ -90.983201233781145, 32.230609652780302 ], [ -90.98294634314469, 32.230780749382397 ], [ -90.982623772354415, 32.230748534893472 ], [ -90.982422480618084, 32.230531880353091 ], [ -90.982460381438543, 32.230257699721164 ] ] ], [ [ [ -90.982044874806462, 32.232962341219682 ], [ -90.982299773355777, 32.232791246806592 ], [ -90.982622351168018, 32.232823462399942 ], [ -90.982823648149491, 32.233040116770901 ], [ -90.982785746792175, 32.233314297395907 ], [ -90.98253084758332, 32.233485392754545 ], [ -90.982208267488815, 32.233453176837557 ], [ -90.982006971166868, 32.23323652152105 ], [ -90.982044874806462, 32.232962341219682 ] ] ], [ [ [ -90.982853419914619, 32.236049087800964 ], [ -90.983108325987047, 32.235877992120642 ], [ -90.983430915055067, 32.235910206084981 ], [ -90.983632220431758, 32.236126859419393 ], [ -90.983594319691264, 32.236401040207582 ], [ -90.983339412959282, 32.23657213683358 ], [ -90.983016821608629, 32.236539922545631 ], [ -90.982815516891478, 32.236323268265551 ], [ -90.982853419914619, 32.236049087800964 ] ] ], [ [ [ -90.982205536501581, 32.238813661747734 ], [ -90.982460451732123, 32.238642567806018 ], [ -90.982783050202457, 32.238674783797123 ], [ -90.982984359718131, 32.238891438259252 ], [ -90.982946455428646, 32.239165618615623 ], [ -90.982691539538422, 32.2393367135031 ], [ -90.982368938785143, 32.2393044971883 ], [ -90.982167629929151, 32.239087841780403 ], [ -90.982205536501581, 32.238813661747734 ] ] ], [ [ [ -90.981039804076303, 32.241626515655916 ], [ -90.981376620054178, 32.241442936143699 ], [ -90.981915367710783, 32.241596557779687 ], [ -90.982116681150316, 32.241813213708049 ], [ -90.982078772562303, 32.242087393530824 ], [ -90.981741955440739, 32.242270974859693 ], [ -90.981203204196618, 32.242117352350277 ], [ -90.981001892377549, 32.241900695035561 ], [ -90.981039804076303, 32.241626515655916 ] ] ], [ [ [ -90.979885348646675, 32.244383914232117 ], [ -90.980140284123181, 32.24421282592003 ], [ -90.980462901038422, 32.244245048574264 ], [ -90.980664216393563, 32.244461706829995 ], [ -90.980626301917155, 32.244735885888296 ], [ -90.980371365780556, 32.244906975146307 ], [ -90.980048746581787, 32.24487475216818 ], [ -90.979847431886739, 32.244658092966525 ], [ -90.979885348646675, 32.244383914232117 ] ] ], [ [ [ -90.978568236058379, 32.247219755270258 ], [ -90.97870960339101, 32.247092117458116 ], [ -90.978946710758976, 32.247035112573045 ], [ -90.979145808324063, 32.247080896502105 ], [ -90.979314521486955, 32.247228451079643 ], [ -90.979580723140046, 32.247270367715558 ], [ -90.979782042598771, 32.247487027465496 ], [ -90.979744123718348, 32.247761205977888 ], [ -90.979602756679512, 32.247888844952392 ], [ -90.97936564740283, 32.24794585098941 ], [ -90.979166547843391, 32.247900067332282 ], [ -90.978997833748949, 32.247752512531228 ], [ -90.978731631037121, 32.247710594623214 ], [ -90.978530313704169, 32.247493933286151 ], [ -90.978568236058379, 32.247219755270258 ] ] ], [ [ [ -90.982137031249408, 32.248839709426264 ], [ -90.982391975680002, 32.248668617012207 ], [ -90.982714609390868, 32.248700834558178 ], [ -90.982915939544924, 32.248917489691614 ], [ -90.9828780292018, 32.249191669442752 ], [ -90.982623084111225, 32.24936276280296 ], [ -90.982300448116277, 32.249330544933201 ], [ -90.982099118622202, 32.249113888853621 ], [ -90.982137031249408, 32.248839709426264 ] ] ], [ [ [ -90.976359832907178, 32.252895907321708 ], [ -90.976501212440112, 32.252768272570556 ], [ -90.976738335918995, 32.252711272533304 ], [ -90.977226485404628, 32.252880324287418 ], [ -90.977427810702409, 32.253096987885435 ], [ -90.977389881504536, 32.253371165082179 ], [ -90.977248502178, 32.253498800829703 ], [ -90.977011376888342, 32.25355580174881 ], [ -90.976523224300806, 32.253386749049859 ], [ -90.976321900632357, 32.253170084079407 ], [ -90.976359832907178, 32.252895907321708 ] ] ], [ [ [ -90.974212562285615, 32.255188904500855 ], [ -90.974467539118749, 32.255017829570406 ], [ -90.974790191243613, 32.25505006813394 ], [ -90.974991515036834, 32.255266735507512 ], [ -90.974953577283429, 32.2555409115513 ], [ -90.974698599789349, 32.255711987428015 ], [ -90.974375945379876, 32.255679748540125 ], [ -90.974174622247602, 32.255463080220302 ], [ -90.974212562285615, 32.255188904500855 ] ] ], [ [ [ -90.976498640602969, 32.256489710275815 ], [ -90.976753617179071, 32.256318630734121 ], [ -90.977076275018547, 32.25635086366637 ], [ -90.977892552620077, 32.256797944106331 ], [ -90.977982554600175, 32.256992888545355 ], [ -90.97792993131371, 32.257197467951869 ], [ -90.977674954262, 32.257368549837345 ], [ -90.977352292542477, 32.257336318286427 ], [ -90.976536013112209, 32.256889234300715 ], [ -90.976446014373835, 32.25669428895624 ], [ -90.976498640602969, 32.256489710275815 ] ] ], [ [ [ -90.972274790414474, 32.257591495021238 ], [ -90.972570369761982, 32.257412473891769 ], [ -90.97288775640078, 32.257471436202685 ], [ -90.973160801043363, 32.257780091950899 ], [ -90.973100769476218, 32.258084278992825 ], [ -90.972827275857014, 32.258233289443019 ], [ -90.972509886640253, 32.258174326880976 ], [ -90.972250133349107, 32.257899216955302 ], [ -90.972274790414474, 32.257591495021238 ] ] ], [ [ [ -90.974028678306553, 32.258575087080821 ], [ -90.974283665293399, 32.258404013004728 ], [ -90.974606329247848, 32.25843625250387 ], [ -90.974807659617213, 32.258652920346279 ], [ -90.974769719334191, 32.258927096117588 ], [ -90.974514731686284, 32.259098171140053 ], [ -90.974192065446829, 32.25906593131652 ], [ -90.973990735738539, 32.25884926252774 ], [ -90.974028678306553, 32.258575087080821 ] ] ], [ [ [ -90.970666216875117, 32.260293461615809 ], [ -90.970807616080336, 32.26016583416903 ], [ -90.971044762027219, 32.260108845813058 ], [ -90.971535329299257, 32.260277165463364 ], [ -90.971736655914626, 32.260493838014348 ], [ -90.971698705367047, 32.260768012382854 ], [ -90.971557306372233, 32.260895640829204 ], [ -90.971320158616763, 32.260952630071671 ], [ -90.970829588222671, 32.260784309470836 ], [ -90.970628263242133, 32.260567635543644 ], [ -90.970666216875117, 32.260293461615809 ] ] ], [ [ [ -90.972321134747659, 32.26115787619851 ], [ -90.972594638178208, 32.261008867298237 ], [ -90.972912037231467, 32.261067830023769 ], [ -90.973192157469299, 32.261316446970447 ], [ -90.973145413994814, 32.261654180871183 ], [ -90.972871909402059, 32.261803190908815 ], [ -90.972554507845672, 32.261744227986284 ], [ -90.972274388177155, 32.261495609657366 ], [ -90.972321134747659, 32.26115787619851 ] ] ] ] } },
{ "type": "Feature", "properties": { "depth_bin": "5-6 ft", "survey_id": "LM_05_VGG_20220715_CS_4304_4076", "date": "2022-07-15 00:00:00+00:00", "year": 2022, "mile": 425.0, "bin_order": 12 }, "geometry": { "type": "MultiPolygon", "coordinates": [ [ [ [ -91.061501561596387, 32.041708945422684 ], [ -91.061734834221852, 32.04151726075861 ], [ -91.062058912259104, 32.04152221646892 ], [ -91.062283956847423, 32.041720909655879 ], [ -91.062278139783075, 32.041996949240684 ], [ -91.062044866965167, 32.042188634888184 ], [ -91.06172078658274, 32.042183679050396 ], [ -91.061495742186835, 32.04198498488001 ], [ -91.061501561596387, 32.041708945422684 ] ] ], [ [ [ -91.060897290027782, 32.044525455453297 ], [ -91.061130571319666, 32.044333772311845 ], [ -91.061454659164312, 32.044338729953786 ], [ -91.061679708956191, 32.04453742434989 ], [ -91.061673889443355, 32.044813463713133 ], [ -91.061440607958971, 32.045005147838118 ], [ -91.061116517768824, 32.045000190068642 ], [ -91.060891468169444, 32.044801494689004 ], [ -91.060897290027782, 32.044525455453297 ] ] ], [ [ [ -91.060369302560218, 32.048161401879845 ], [ -91.060602594540995, 32.047969720219413 ], [ -91.060926695096853, 32.047974679710862 ], [ -91.061151752176514, 32.048173375241568 ], [ -91.061145930258874, 32.048449414359986 ], [ -91.060912638085497, 32.048641097004079 ], [ -91.06058853518374, 32.048636137385074 ], [ -91.060363478296651, 32.0484374408707 ], [ -91.060369302560218, 32.048161401879845 ] ] ], [ [ [ -91.054577098226062, 32.050724047461117 ], [ -91.054810408508743, 32.050532377271672 ], [ -91.055134516981596, 32.050537351924056 ], [ -91.0553595669559, 32.050736057424864 ], [ -91.055353727072344, 32.051012095482228 ], [ -91.05512041659648, 32.051203766655426 ], [ -91.054796305777444, 32.051198791875095 ], [ -91.054571255996308, 32.051000085390534 ], [ -91.054577098226062, 32.050724047461117 ] ] ], [ [ [ -90.981568777892704, 32.238684143249678 ], [ -90.98180273491522, 32.238492638476295 ], [ -90.982127494622318, 32.238497826640376 ], [ -90.982352818856327, 32.238696668679793 ], [ -90.982346715594275, 32.23897268632517 ], [ -90.982112758370064, 32.239164192089262 ], [ -90.981787996295211, 32.239159003792203 ], [ -90.981562672262896, 32.238960160762055 ], [ -90.981568777892704, 32.238684143249678 ] ] ], [ [ [ -90.980574553894968, 32.241499246824112 ], [ -90.980808520454161, 32.241307744348532 ], [ -90.981133289977706, 32.241312935469644 ], [ -90.98135861855782, 32.241511779393171 ], [ -90.981352511625573, 32.241787796746145 ], [ -90.981118544864572, 32.241979300212556 ], [ -90.980793772972945, 32.241974108958381 ], [ -90.980568444594653, 32.241775264044016 ], [ -90.980574553894968, 32.241499246824112 ] ] ], [ [ [ -90.977703639798605, 32.246854332457566 ], [ -90.977937626459052, 32.24666283625271 ], [ -90.978262414463003, 32.246668035517985 ], [ -90.978487749077559, 32.246866884688565 ], [ -90.978481632198637, 32.247142901317936 ], [ -90.978247645336054, 32.247334398513836 ], [ -90.97792285496341, 32.247329199115292 ], [ -90.97769752055099, 32.247130348953675 ], [ -90.977703639798605, 32.246854332457566 ] ] ], [ [ [ -90.976742838560781, 32.249690644996299 ], [ -90.976976834752321, 32.249499151028395 ], [ -90.97730163265858, 32.249504353169122 ], [ -90.977526971746244, 32.249703204169272 ], [ -90.97752085129089, 32.249979220510674 ], [ -90.977286854897102, 32.250170715469707 ], [ -90.976962054621822, 32.25016551319564 ], [ -90.976736715736408, 32.249966661204368 ], [ -90.976742838560781, 32.249690644996299 ] ] ], [ [ [ -90.977576317560732, 32.257103505520007 ], [ -90.977810331988422, 32.256912010915364 ], [ -90.978135156453419, 32.256917211973587 ], [ -90.978360514865216, 32.257116062079561 ], [ -90.978354395179636, 32.257392078239121 ], [ -90.978120380549726, 32.257583573835191 ], [ -90.977795553714856, 32.257578372643678 ], [ -90.97757019550528, 32.257379521546277 ], [ -90.977576317560732, 32.257103505520007 ] ] ], [ [ [ -90.974839101725735, 32.252119188616525 ], [ -90.975073108238078, 32.251927698660069 ], [ -90.975397914406713, 32.251932906042327 ], [ -90.975623254858547, 32.252131760443774 ], [ -90.975617128069871, 32.25240777635387 ], [ -90.975383121355065, 32.252599267301548 ], [ -90.97505831281714, 32.252594059785835 ], [ -90.974832972567768, 32.25239520439316 ], [ -90.974839101725735, 32.252119188616525 ] ] ], [ [ [ -90.972697637586364, 32.254403526808566 ], [ -90.972931654508301, 32.254212041306069 ], [ -90.973256468378707, 32.254217254521009 ], [ -90.973481809313057, 32.254416112717266 ], [ -90.973475675504858, 32.254692128161395 ], [ -90.973241658380246, 32.254883614655192 ], [ -90.972916842140293, 32.254878401306641 ], [ -90.972691501408633, 32.254679542119085 ], [ -90.972697637586364, 32.254403526808566 ] ] ], [ [ [ -90.970479159151836, 32.256666804706313 ], [ -90.970713186581733, 32.256475323805084 ], [ -90.971038008063843, 32.25648054304839 ], [ -90.97138798516346, 32.256714303850671 ], [ -90.971398939894954, 32.257022597655606 ], [ -90.97116491236477, 32.257214079814169 ], [ -90.970840088245083, 32.257208860791877 ], [ -90.97049011080793, 32.256975098467606 ], [ -90.970479159151836, 32.256666804706313 ] ] ], [ [ [ -90.968249953185975, 32.258924326053226 ], [ -90.96848399113091, 32.258732849774105 ], [ -90.968846133903909, 32.258753812103187 ], [ -90.969276205711054, 32.259071221471473 ], [ -90.969268632922322, 32.25941122141019 ], [ -90.969013634165009, 32.259582284833968 ], [ -90.968690968955798, 32.259550030958835 ], [ -90.968281632976314, 32.2592633196194 ], [ -90.968249953185975, 32.258924326053226 ] ] ], [ [ [ -90.973074708667085, 32.261680404933905 ], [ -90.973329706352501, 32.261509333287634 ], [ -90.973652380766879, 32.261541575641431 ], [ -90.973853715230433, 32.261758245091151 ], [ -90.973815770277454, 32.262032420280974 ], [ -90.973560771930778, 32.262203492873724 ], [ -90.973238095231096, 32.262171250195443 ], [ -90.973036761428787, 32.261954579799252 ], [ -90.973074708667085, 32.261680404933905 ] ] ] ] } },
{ "type": "Feature", "properties": { "depth_bin": "6-7 ft", "survey_id": "LM_05_VGG_20220715_CS_4304_4076", "date": "2022-07-15 00:00:00+00:00", "year": 2022, "mile": 425.0, "bin_order": 11 }, "geometry": { "type": "MultiPolygon", "coordinates": [ [ [ [ -91.064018109592439, 32.036274306944939 ], [ -91.064228182224767, 32.036064064829397 ], [ -91.064551250473087, 32.036041932919566 ], [ -91.064798066991571, 32.036220875740739 ], [ -91.064824050201324, 32.036496071714595 ], [ -91.064613977837951, 32.036706314819313 ], [ -91.064290907252655, 32.036728446796097 ], [ -91.064044090465202, 32.036549502985743 ], [ -91.064018109592439, 32.036274306944939 ] ] ], [ [ [ -91.055964212441182, 32.040731648049444 ], [ -91.056174313509771, 32.040521420550853 ], [ -91.056497398310157, 32.040499309884254 ], [ -91.05674420980101, 32.040678268131266 ], [ -91.056770169347999, 32.040953464677528 ], [ -91.056560068547654, 32.041163693165558 ], [ -91.05623698140964, 32.041185803898607 ], [ -91.05599016965057, 32.041006844662178 ], [ -91.055964212441182, 32.040731648049444 ] ] ], [ [ [ -91.060727560976176, 32.044523117399308 ], [ -91.06093766071281, 32.044312882031974 ], [ -91.061260758401815, 32.044290759707479 ], [ -91.061507589452177, 32.044469709336269 ], [ -91.061533563772244, 32.044744905352459 ], [ -91.06132346430438, 32.044955141709323 ], [ -91.061000364277376, 32.044977264100602 ], [ -91.060753532958259, 32.044798313482303 ], [ -91.060727560976176, 32.044523117399308 ] ] ], [ [ [ -91.06019719026645, 32.048180983975449 ], [ -91.060407299984305, 32.047970749977615 ], [ -91.060730410636651, 32.047948629526964 ], [ -91.06097725003896, 32.048127580436272 ], [ -91.061003223207166, 32.048402776389629 ], [ -91.060793113758081, 32.048613011377121 ], [ -91.06047000076731, 32.048635131894557 ], [ -91.060223161096246, 32.04845617999559 ], [ -91.06019719026645, 32.048180983975449 ] ] ], [ [ [ -90.982196226735056, 32.235971445495892 ], [ -90.982406963679338, 32.235761371426598 ], [ -90.982730748070907, 32.235739478197203 ], [ -90.982977913074123, 32.235918590520114 ], [ -90.983003672969033, 32.236193787531107 ], [ -90.982792936288888, 32.236403862597932 ], [ -90.982469149536044, 32.236425755890188 ], [ -90.982221984268691, 32.236246642569746 ], [ -90.982196226735056, 32.235971445495892 ] ] ], [ [ [ -90.972962603796134, 32.254575474167787 ], [ -90.973173406551709, 32.254365418689993 ], [ -90.973497258154595, 32.254343551961561 ], [ -90.973744452399302, 32.254522683171324 ], [ -90.973770186436141, 32.254797880391983 ], [ -90.973559383944078, 32.255007936868118 ], [ -90.973235529977615, 32.255029803658928 ], [ -90.972988335469395, 32.254850671450832 ], [ -90.972962603796134, 32.254575474167787 ] ] ], [ [ [ -90.970735140060867, 32.256848642405309 ], [ -90.970983939965791, 32.256624064627907 ], [ -90.971308762032109, 32.256629283196403 ], [ -90.971649066859712, 32.256872135449981 ], [ -90.971660022464675, 32.257180429261538 ], [ -90.971425995032035, 32.25737191190548 ], [ -90.9711011702977, 32.257366693531836 ], [ -90.970781601508733, 32.257154539426232 ], [ -90.970735140060867, 32.256848642405309 ] ] ], [ [ [ -90.96878111429514, 32.259235640120181 ], [ -90.969015152015544, 32.259044162852177 ], [ -90.969339982302884, 32.259049386830235 ], [ -90.96956532565622, 32.259248252013521 ], [ -90.969559178851725, 32.259524266575816 ], [ -90.96932514092822, 32.259715744835297 ], [ -90.969000308270793, 32.25971052072336 ], [ -90.968774965120573, 32.259511654548611 ], [ -90.96878111429514, 32.259235640120181 ] ] ] ] } },
{ "type": "Feature", "properties": { "depth_bin": "7-8 ft", "survey_id": "LM_05_VGG_20220715_CS_4304_4076", "date": "2022-07-15 00:00:00+00:00", "year": 2022, "mile": 425.0, "bin_order": 10 }, "geometry": { "type": "MultiPolygon", "coordinates": [ [ [ [ -91.062986893639675, 32.039031467766556 ], [ -91.063196975179395, 32.038821227786265 ], [ -91.063520053259907, 32.038799098904207 ], [ -91.063766874776078, 32.038978043872049 ], [ -91.063792855221351, 32.039253239854091 ], [ -91.063582773950515, 32.039463480823677 ], [ -91.063259693532686, 32.039485609772647 ], [ -91.063012871747617, 32.039306663815509 ], [ -91.062986893639675, 32.039031467766556 ] ] ], [ [ [ -91.061340779041814, 32.041683727501002 ], [ -91.061574051919763, 32.041492043142888 ], [ -91.061898129837289, 32.041496999260715 ], [ -91.062123174003801, 32.041695692717987 ], [ -91.06211735646265, 32.041971732277595 ], [ -91.061884083392243, 32.042163417619122 ], [ -91.061560003129543, 32.04215846137383 ], [ -91.06133495915546, 32.041959766933118 ], [ -91.061340779041814, 32.041683727501002 ] ] ], [ [ [ -91.060052569398209, 32.048128940475095 ], [ -91.060285861922111, 32.047937259419733 ], [ -91.060609962302678, 32.047942219716447 ], [ -91.06083501859132, 32.048140915780898 ], [ -91.060829195730292, 32.048416954848868 ], [ -91.060595903013777, 32.048608636887913 ], [ -91.060271800287282, 32.048603676463621 ], [ -91.060046744191254, 32.048404979415501 ], [ -91.060052569398209, 32.048128940475095 ] ] ], [ [ [ -90.987471174510517, 32.233644201920178 ], [ -90.987705106233705, 32.233452685048142 ], [ -90.98802984919395, 32.23345785732662 ], [ -90.988255175043264, 32.233656688998806 ], [ -90.9882490908129, 32.233932707868178 ], [ -90.988015158888629, 32.234124225730774 ], [ -90.987690413561197, 32.234119053319688 ], [ -90.987465087912952, 32.233920220656948 ], [ -90.987471174510517, 32.233644201920178 ] ] ], [ [ [ -90.981719245509467, 32.238732078749237 ], [ -90.981953202360174, 32.238540573690649 ], [ -90.982277962267958, 32.238545761474874 ], [ -90.982503286957595, 32.238744603262347 ], [ -90.98249718413922, 32.23902062093125 ], [ -90.982263227086818, 32.239212126980583 ], [ -90.981938464811265, 32.239206939063344 ], [ -90.981713140323336, 32.239008096285154 ], [ -90.981719245509467, 32.238732078749237 ] ] ], [ [ [ -90.977847400384803, 32.246917231502692 ], [ -90.978081386927002, 32.246725735027475 ], [ -90.978406175183693, 32.246730933932234 ], [ -90.9786315102739, 32.246929782863283 ], [ -90.978625393814951, 32.247205799514433 ], [ -90.978391407070632, 32.247397296980679 ], [ -90.978066616445233, 32.247392097942665 ], [ -90.977841281557161, 32.247193248020594 ], [ -90.977847400384803, 32.246917231502692 ] ] ], [ [ [ -90.978975612495105, 32.254274321772499 ], [ -90.979209616531861, 32.2540828240816 ], [ -90.979534431204144, 32.254088021137747 ], [ -90.9797597861577, 32.254286868670128 ], [ -90.979753671374226, 32.254562885192087 ], [ -90.979519667135406, 32.254754383874307 ], [ -90.979194850093563, 32.254749186684961 ], [ -90.978969495342071, 32.254550338161259 ], [ -90.978975612495105, 32.254274321772499 ] ] ], [ [ [ -90.981297926156444, 32.255524417466688 ], [ -90.981531928910286, 32.255332915438863 ], [ -90.981856748499297, 32.255338106702915 ], [ -90.982082111689195, 32.255536950380836 ], [ -90.982076003637104, 32.255812967243905 ], [ -90.981842000681453, 32.256004470263107 ], [ -90.981517178722697, 32.255999278866014 ], [ -90.981291815734622, 32.255800434196701 ], [ -90.981297926156444, 32.255524417466688 ] ] ], [ [ [ -90.97688287350752, 32.249752272669603 ], [ -90.977116869584833, 32.249560778438386 ], [ -90.977478979407323, 32.249581714635923 ], [ -90.97779993394947, 32.24984551480518 ], [ -90.977775299034519, 32.250153239010515 ], [ -90.977520342153156, 32.250324321546181 ], [ -90.97719770530604, 32.250292090574931 ], [ -90.97689384733151, 32.250060567033564 ], [ -90.97688287350752, 32.249752272669603 ] ] ], [ [ [ -90.974974471309224, 32.252193100286163 ], [ -90.975208477749661, 32.252001610077023 ], [ -90.975533284208652, 32.252006817121867 ], [ -90.975758625142987, 32.252205671298789 ], [ -90.97575249874636, 32.252481687228794 ], [ -90.975518492103461, 32.252673178429141 ], [ -90.97519368327518, 32.252667971250851 ], [ -90.974968342543292, 32.2524691160827 ], [ -90.974974471309224, 32.252193100286163 ] ] ], [ [ [ -90.97284773753907, 32.254460434783901 ], [ -90.973081754314066, 32.254268948997904 ], [ -90.973406568417289, 32.254274161835113 ], [ -90.973631909827873, 32.254473019780647 ], [ -90.973625776460324, 32.254749035247961 ], [ -90.973391759482666, 32.254940522025265 ], [ -90.973066943009869, 32.254935309054467 ], [ -90.972841601801974, 32.254736450117626 ], [ -90.97284773753907, 32.254460434783901 ] ] ], [ [ [ -90.974693393944278, 32.258975831778102 ], [ -90.974927419158405, 32.258784343010547 ], [ -90.975252249711374, 32.258789551749281 ], [ -90.975477605946594, 32.258988406880171 ], [ -90.975471477094686, 32.259264422465591 ], [ -90.975237451678026, 32.259455912224645 ], [ -90.974912618754971, 32.259450703352428 ], [ -90.974687262722256, 32.25925184723004 ], [ -90.974693393944278, 32.258975831778102 ] ] ], [ [ [ -90.96863962420106, 32.259166342000505 ], [ -90.96887366201787, 32.258974864997725 ], [ -90.969198492029903, 32.258980089329647 ], [ -90.969423834897427, 32.259178954748137 ], [ -90.969417687681229, 32.259454969289223 ], [ -90.969183649661275, 32.25964644728348 ], [ -90.968858817279184, 32.259641222817677 ], [ -90.968633474614776, 32.25944235640771 ], [ -90.96863962420106, 32.259166342000505 ] ] ], [ [ [ -90.97290870752839, 32.261652085210777 ], [ -90.97314274349533, 32.261460600257891 ], [ -90.973467583220454, 32.261465813969089 ], [ -90.973692941674472, 32.261664672317522 ], [ -90.973686806788081, 32.261940687480823 ], [ -90.973452770618422, 32.262132173425286 ], [ -90.973127928522899, 32.262126959580492 ], [ -90.9729025702716, 32.261928100240468 ], [ -90.97290870752839, 32.261652085210777 ] ] ] ] } },
{ "type": "Feature", "properties": { "depth_bin": "8-9 ft", "survey_id": "LM_05_VGG_20220715_CS_4304_4076", "date": "2022-07-15 00:00:00+00:00", "year": 2022, "mile": 425.0, "bin_order": 9 }, "geometry": { "type": "MultiPolygon", "coordinates": [ [ [ [ -91.063863553108874, 32.036239545562424 ], [ -91.064073625997111, 32.036029303712787 ], [ -91.064396694138765, 32.036007172193621 ], [ -91.064643510250491, 32.036186115301369 ], [ -91.064669492991655, 32.036461311289862 ], [ -91.064459420372359, 32.036671554128674 ], [ -91.064136349893701, 32.036693685714788 ], [ -91.063889533513048, 32.03651474161785 ], [ -91.063863553108874, 32.036239545562424 ] ] ], [ [ [ -91.057363593784089, 32.037827208547434 ], [ -91.05759686433781, 32.037635531343902 ], [ -91.057920927905172, 32.037640497096419 ], [ -91.058145954101448, 32.037839197024852 ], [ -91.058140125496394, 32.038115236101234 ], [ -91.057906854749859, 32.038306914288036 ], [ -91.057582788837777, 32.038301948407771 ], [ -91.057357762834329, 32.038103247496068 ], [ -91.057363593784089, 32.037827208547434 ] ] ], [ [ [ -91.06284903497486, 32.038963803735697 ], [ -91.063082297648393, 32.038772116129223 ], [ -91.063406366273654, 32.038777068018426 ], [ -91.063631407503138, 32.038975758743881 ], [ -91.063625595100788, 32.039251798668623 ], [ -91.063392332234997, 32.039443487258431 ], [ -91.06306826126486, 32.039438535241828 ], [ -91.062843220227634, 32.039239843533061 ], [ -91.06284903497486, 32.038963803735697 ] ] ], [ [ [ -91.060424069934399, 32.044422205689301 ], [ -91.060696728773294, 32.044219198347243 ], [ -91.061101526120837, 32.044253960393696 ], [ -91.06134835674942, 32.044432910317724 ], [ -91.061374330586446, 32.044708106348963 ], [ -91.061126346631184, 32.044932900522461 ], [ -91.060682169119687, 32.044909463534061 ], [ -91.06041824667912, 32.04469824485205 ], [ -91.060424069934399, 32.044422205689301 ] ] ], [ [ [ -91.059887984494111, 32.048113941387768 ], [ -91.060121277305186, 32.04792226064707 ], [ -91.060445377601269, 32.047927221362464 ], [ -91.060670433483239, 32.048125917704382 ], [ -91.060664610131568, 32.04840195674609 ], [ -91.060431317127865, 32.048593638470464 ], [ -91.060107214485868, 32.048588677627471 ], [ -91.059882158796526, 32.048389980301884 ], [ -91.059887984494111, 32.048113941387768 ] ] ], [ [ [ -90.981318288229005, 32.251983733273029 ], [ -90.981552281437757, 32.251792230738836 ], [ -90.981877088425037, 32.251797421445154 ], [ -90.982102443338178, 32.251996264840685 ], [ -90.982096336182735, 32.252272281862005 ], [ -90.981862342772175, 32.252463785387434 ], [ -90.981537533415576, 32.252458594548081 ], [ -90.981312178704229, 32.252259750161322 ], [ -90.981318288229005, 32.251983733273029 ] ] ], [ [ [ -90.980657606598868, 32.258800553371628 ], [ -90.980891619427709, 32.258609053017167 ], [ -90.981216450554257, 32.258614246395275 ], [ -90.981441819985974, 32.25881309138957 ], [ -90.981435709223533, 32.25908910800031 ], [ -90.98120169619277, 32.259280609346263 ], [ -90.980876862696107, 32.259275415835077 ], [ -90.980651493466311, 32.259076569849277 ], [ -90.980657606598868, 32.258800553371628 ] ] ], [ [ [ -90.979422936041601, 32.244248104677268 ], [ -90.97965691227536, 32.244056604796128 ], [ -90.979981691349323, 32.244061799269716 ], [ -90.980207023761409, 32.244260645339999 ], [ -90.980200912697896, 32.244536662376539 ], [ -90.979966936262187, 32.244728163248631 ], [ -90.979642154819828, 32.244722968641881 ], [ -90.979416822609693, 32.244524121580667 ], [ -90.979422936041601, 32.244248104677268 ] ] ], [ [ [ -90.975111585593837, 32.252266536712263 ], [ -90.975345591957634, 32.252075046247008 ], [ -90.975670398705631, 32.252080252949874 ], [ -90.976016045426107, 32.25231979550982 ], [ -90.976027016137763, 32.252628089725633 ], [ -90.975793009650047, 32.252819581438828 ], [ -90.975468200245345, 32.252814374945316 ], [ -90.975122553245797, 32.252574830885237 ], [ -90.975111585593837, 32.252266536712263 ] ] ], [ [ [ -90.973108775776538, 32.254621891565399 ], [ -90.973342792463754, 32.254430405294627 ], [ -90.973667607194386, 32.254435617483857 ], [ -90.973892949580005, 32.254634474997786 ], [ -90.973886816964011, 32.254910490502688 ], [ -90.973652800074134, 32.255101977764767 ], [ -90.973327982973927, 32.255096765441962 ], [ -90.973102640790955, 32.254897906936726 ], [ -90.973108775776538, 32.254621891565399 ] ] ], [ [ [ -90.971031851823554, 32.256954114766664 ], [ -90.971265878921301, 32.25676263283173 ], [ -90.971590701537835, 32.256767850695219 ], [ -90.971941978656389, 32.256997452445191 ], [ -90.971952935244929, 32.257305746266283 ], [ -90.971718908060723, 32.257497229461634 ], [ -90.971394082821121, 32.257492011823139 ], [ -90.971042805331962, 32.257262408543937 ], [ -90.971031851823554, 32.256954114766664 ] ] ], [ [ [ -90.968930551793534, 32.259294150387497 ], [ -90.969164589372653, 32.259102672837422 ], [ -90.969489419898494, 32.259107896439637 ], [ -90.969714763730423, 32.259306761373466 ], [ -90.969708617364262, 32.259582775958805 ], [ -90.969474579582041, 32.259774254500357 ], [ -90.969149746686099, 32.259769030764268 ], [ -90.968924403057272, 32.259570164838976 ], [ -90.968930551793534, 32.259294150387497 ] ] ] ] } },
{ "type": "Feature", "properties": { "depth_bin": "9-10 ft", "survey_id": "LM_05_VGG_20220715_CS_4304_4076", "date": "2022-07-15 00:00:00+00:00", "year": 2022, "mile": 425.0, "bin_order": 8 }, "geometry": { "type": "MultiPolygon", "coordinates": [ [ [ [ -91.062674197933447, 32.038967021364492 ], [ -91.062884280005122, 32.038756781922942 ], [ -91.063207357890519, 32.038734653832137 ], [ -91.063454178598803, 32.038913599380308 ], [ -91.063480158096652, 32.039188795391738 ], [ -91.063270076293833, 32.039399035822576 ], [ -91.062946996071105, 32.039421163980251 ], [ -91.062700175093966, 32.039242217442805 ], [ -91.062674197933447, 32.038967021364492 ] ] ], [ [ [ -91.060268800877452, 32.044396789802718 ], [ -91.060502083076571, 32.044205107853564 ], [ -91.060826170347084, 32.044210067084371 ], [ -91.061051218419792, 32.044408762535213 ], [ -91.061045397049753, 32.044684801801225 ], [ -91.060812114658063, 32.044876484733919 ], [ -91.060488025042062, 32.044871525375527 ], [ -91.060262977161926, 32.04467282894116 ], [ -91.060268800877452, 32.044396789802718 ] ] ], [ [ [ -91.054099352994939, 32.05123262195783 ], [ -91.054412540102319, 32.051021648766543 ], [ -91.054656775748867, 32.051045928696787 ], [ -91.054819858240947, 32.051152872436404 ], [ -91.054891351974817, 32.051485472897674 ], [ -91.055095058691336, 32.051765158063027 ], [ -91.05493562517853, 32.052076958646403 ], [ -91.054623771601669, 32.052152327095982 ], [ -91.054340682980609, 32.052017815203392 ], [ -91.054269190947281, 32.05168521451975 ], [ -91.05408021437691, 32.051475120189458 ], [ -91.054099352994939, 32.05123262195783 ] ] ], [ [ [ -90.982369463099801, 32.235966229968497 ], [ -90.982603411234052, 32.235774723285445 ], [ -90.982928161432966, 32.235779909004052 ], [ -90.983153481108374, 32.235978749494734 ], [ -90.983147380907795, 32.236254767395231 ], [ -90.982913432571962, 32.236446275068914 ], [ -90.98258868000562, 32.236441089217351 ], [ -90.982363360531778, 32.236242247736051 ], [ -90.982369463099801, 32.235966229968497 ] ] ], [ [ [ -90.986482702312671, 32.236701593709199 ], [ -90.986716644207632, 32.236510079154286 ], [ -90.987041397845459, 32.236515254408019 ], [ -90.987266728623652, 32.236714087970761 ], [ -90.987260640686088, 32.236990106538613 ], [ -90.987026698589943, 32.237181622084201 ], [ -90.986701942584546, 32.237176446697802 ], [ -90.986476612007564, 32.236977612144379 ], [ -90.986482702312671, 32.236701593709199 ] ] ], [ [ [ -90.981422658430503, 32.255628760015092 ], [ -90.98163344504961, 32.255418689753405 ], [ -90.981957299591386, 32.255396801391839 ], [ -90.982204514128796, 32.255575916791258 ], [ -90.982230273925566, 32.255851113285779 ], [ -90.982019487570852, 32.25606118454575 ], [ -90.981695630665484, 32.256083072970242 ], [ -90.98144841586371, 32.255903956572546 ], [ -90.981422658430503, 32.255628760015092 ] ] ], [ [ [ -90.980718695266887, 32.241562002778274 ], [ -90.980952661706667, 32.241370500031671 ], [ -90.981277431482411, 32.24137569079128 ], [ -90.981502760538589, 32.24157453447463 ], [ -90.981496654027424, 32.241850551849424 ], [ -90.981262687385865, 32.242042055586872 ], [ -90.980937915242038, 32.242036864694192 ], [ -90.980712586387654, 32.241838020020012 ], [ -90.980718695266887, 32.241562002778274 ] ] ], [ [ [ -90.978005306637328, 32.246958838726137 ], [ -90.9782392929759, 32.24676734195036 ], [ -90.978564081412372, 32.246772540455176 ], [ -90.978789416960481, 32.246971389121185 ], [ -90.978783300969326, 32.247247405797452 ], [ -90.978549314428648, 32.247438903564259 ], [ -90.978224523623453, 32.247433704926216 ], [ -90.977999188277465, 32.247234855269163 ], [ -90.978005306637328, 32.246958838726137 ] ] ], [ [ [ -90.977159783118282, 32.249894839571517 ], [ -90.97739377902532, 32.249703344822365 ], [ -90.977718577742181, 32.249708545920498 ], [ -90.977943918260721, 32.249907396227428 ], [ -90.977937799018363, 32.250183412631067 ], [ -90.977703802909119, 32.250374908371363 ], [ -90.977379001823209, 32.250369707139932 ], [ -90.977153661506875, 32.250170855841858 ], [ -90.977159783118282, 32.249894839571517 ] ] ], [ [ [ -90.973242277483905, 32.254701202786755 ], [ -90.973476294117475, 32.254509716267627 ], [ -90.97380110915735, 32.254514928124998 ], [ -90.974026452033968, 32.254713785417955 ], [ -90.974020319803117, 32.254989800942212 ], [ -90.9737863029669, 32.255181288452668 ], [ -90.973461485557436, 32.25517607646173 ], [ -90.973236142883451, 32.254977218177451 ], [ -90.973242277483905, 32.254701202786755 ] ] ], [ [ [ -90.971306367619562, 32.257099427069093 ], [ -90.971540394559327, 32.256907944621069 ], [ -90.971865217748615, 32.256913161799588 ], [ -90.972090561844212, 32.257112022546785 ], [ -90.972084423187709, 32.257388037634996 ], [ -90.971850396045085, 32.257579521074426 ], [ -90.971525570485952, 32.257574303762205 ], [ -90.971300226593215, 32.257375442023609 ], [ -90.971306367619562, 32.257099427069093 ] ] ], [ [ [ -90.969073390595568, 32.25935742094336 ], [ -90.969307428059366, 32.25916594312465 ], [ -90.969632258839354, 32.259171166368681 ], [ -90.969857603145982, 32.259370031064563 ], [ -90.969851457197066, 32.259646045671623 ], [ -90.969617419530181, 32.259837524481824 ], [ -90.969292586380078, 32.259832301103948 ], [ -90.969067242276523, 32.259633435416561 ], [ -90.969073390595568, 32.25935742094336 ] ] ] ] } },
{ "type": "Feature", "properties": { "depth_bin": "<5 ft", "survey_id": "LM_05_VGG_20220715_CS_4304_4076", "date": "2022-07-15 00:00:00+00:00", "year": 2022, "mile": 425.0, "bin_order": 13 }, "geometry": { "type": "MultiPolygon", "coordinates": [ [ [ [ -91.059872056199879, 32.03510303292326 ], [ -91.060215135613561, 32.035004351047768 ], [ -91.060523335922653, 32.035157333032323 ], [ -91.06064196911305, 32.035414257788389 ], [ -91.060512580300866, 32.035667387663331 ], [ -91.060169498650083, 32.035766070249977 ], [ -91.059861296990334, 32.03561308736159 ], [ -91.059742665794673, 32.035356161957672 ], [ -91.059872056199879, 32.03510303292326 ] ] ], [ [ [ -91.064282903806912, 32.036164630794275 ], [ -91.064625983153931, 32.036065936960135 ], [ -91.06512327840079, 32.036224093592828 ], [ -91.065298488359147, 32.036456360861784 ], [ -91.065229571782893, 32.036726132126475 ], [ -91.064874149020568, 32.036881047675593 ], [ -91.064335386180559, 32.03672051949674 ], [ -91.064154818375542, 32.036453147083513 ], [ -91.064282903806912, 32.036164630794275 ] ] ], [ [ [ -91.063255883088033, 32.038920671420904 ], [ -91.063557508341546, 32.038819610102678 ], [ -91.064349745056234, 32.038974134051237 ], [ -91.064574788874779, 32.039172823193816 ], [ -91.064568979258738, 32.039448863264134 ], [ -91.064409623048221, 32.039608342686286 ], [ -91.064214642898236, 32.039664429991305 ], [ -91.063380861628417, 32.039511007554999 ], [ -91.063133149775965, 32.039244290193913 ], [ -91.063255883088033, 32.038920671420904 ] ] ], [ [ [ -91.055729970898753, 32.040525191042349 ], [ -91.056031608817918, 32.040424148197715 ], [ -91.056449672794741, 32.040521601140924 ], [ -91.056624867792237, 32.040753879717933 ], [ -91.056555922111599, 32.041023644966472 ], [ -91.056242008693047, 32.041177434679625 ], [ -91.055782402420334, 32.041081080994196 ], [ -91.055601852273426, 32.040813697204747 ], [ -91.055729970898753, 32.040525191042349 ] ] ], [ [ [ -91.061752154235521, 32.041611657977697 ], [ -91.062095256576157, 32.041512971979635 ], [ -91.063322341577262, 32.041750545953334 ], [ -91.06354738955045, 32.041949237018002 ], [ -91.063541576226072, 32.042225276799442 ], [ -91.063382213229019, 32.042384754605123 ], [ -91.063145686290085, 32.042441942486256 ], [ -91.061877125763672, 32.04220199512374 ], [ -91.061629411602809, 32.041935274816069 ], [ -91.061752154235521, 32.041611657977697 ] ] ], [ [ [ -91.061144749542038, 32.044438852360983 ], [ -91.061487863164601, 32.044340168488645 ], [ -91.06326631048158, 32.044667134571597 ], [ -91.063513146619428, 32.044846080475068 ], [ -91.063539127012945, 32.045121276303909 ], [ -91.063365057287896, 32.045313864739313 ], [ -91.063128522703011, 32.045371052267924 ], [ -91.061308594301039, 32.045041712177252 ], [ -91.061133993496455, 32.044948906432722 ], [ -91.061022000488691, 32.044762468242844 ], [ -91.061144749542038, 32.044438852360983 ] ] ], [ [ [ -91.055335213463636, 32.047515735548707 ], [ -91.055636875127277, 32.047414694667943 ], [ -91.055934068436983, 32.047524923611768 ], [ -91.056052702658974, 32.047781852315588 ], [ -91.055923282205512, 32.048034975857171 ], [ -91.055621618746599, 32.048136017343033 ], [ -91.055324423914669, 32.048025787613234 ], [ -91.055205791487964, 32.047768858304295 ], [ -91.055335213463636, 32.047515735548707 ] ] ], [ [ [ -91.060654971523519, 32.048047421472553 ], [ -91.06092533734838, 32.047969665618623 ], [ -91.062648094703746, 32.048150091407443 ], [ -91.062894938562479, 32.048329038741883 ], [ -91.062920917519662, 32.048604234520887 ], [ -91.062780662442009, 32.048776247903255 ], [ -91.06255183872841, 32.048852905563933 ], [ -91.060787525456732, 32.048673579525982 ], [ -91.060612918514479, 32.048580772863616 ], [ -91.060500922560536, 32.048394334181801 ], [ -91.060529416207203, 32.048186321732622 ], [ -91.060654971523519, 32.048047421472553 ] ] ], [ [ [ -91.05488413289298, 32.050381743733062 ], [ -91.055168860700107, 32.050398041426853 ], [ -91.055376819305025, 32.050564478761544 ], [ -91.055413599868416, 32.050805497180946 ], [ -91.055262503590285, 32.051011679446141 ], [ -91.054950653901216, 32.051087048865107 ], [ -91.054673899544241, 32.050958707374221 ], [ -91.054300343141264, 32.051121918835257 ], [ -91.053975787578807, 32.050985032253074 ], [ -91.053887296098168, 32.05071943567421 ], [ -91.054045233733078, 32.050478338284165 ], [ -91.054374612323784, 32.050395366315627 ], [ -91.054651364573019, 32.05052370838807 ], [ -91.05488413289298, 32.050381743733062 ] ] ], [ [ [ -91.054117166973739, 32.051244507985643 ], [ -91.054418842284051, 32.051143470595612 ], [ -91.054716045796198, 32.051253702752639 ], [ -91.054834680800099, 32.051510632510009 ], [ -91.0547052512497, 32.051763754328356 ], [ -91.054403574143706, 32.051864792323528 ], [ -91.054106369109121, 32.051754559380356 ], [ -91.053987735900932, 32.051497629017845 ], [ -91.054117166973739, 32.051244507985643 ] ] ], [ [ [ -90.988527095784235, 32.230374476948882 ], [ -90.988743100860859, 32.230660719310066 ], [ -90.988614475523235, 32.230949130342808 ], [ -90.988312132269456, 32.231049981426693 ], [ -90.988026742525079, 32.231027588132406 ], [ -90.987851877016254, 32.23093467257484 ], [ -90.987733228607183, 32.230677685067619 ], [ -90.987863120059401, 32.230424656079094 ], [ -90.988123836391424, 32.230324880316964 ], [ -90.988527095784235, 32.230374476948882 ] ] ], [ [ [ -90.981890473124295, 32.23013706403885 ], [ -90.982192819537772, 32.230036228480571 ], [ -90.982490496000125, 32.230146647242599 ], [ -90.982609128759478, 32.230403639073359 ], [ -90.982479223070172, 32.230656662072533 ], [ -90.982176874840576, 32.230757498237111 ], [ -90.981879196847231, 32.230647078680732 ], [ -90.981760565903997, 32.230390086243681 ], [ -90.981890473124295, 32.23013706403885 ] ] ], [ [ [ -90.981991199582467, 32.232870119039227 ], [ -90.98230372745536, 32.232794958821479 ], [ -90.982587246103023, 32.232929646524035 ], [ -90.982675674958216, 32.233195284551989 ], [ -90.98251721212597, 32.233436266062213 ], [ -90.982204682172906, 32.233511426719687 ], [ -90.981921162377802, 32.233376738119695 ], [ -90.981832735602794, 32.233111099651993 ], [ -90.981991199582467, 32.232870119039227 ] ] ], [ [ [ -90.987767621404075, 32.233449809763144 ], [ -90.988080147326556, 32.233374635143413 ], [ -90.988363676979063, 32.233509310280105 ], [ -90.988452123348239, 32.233774944939135 ], [ -90.988293674279817, 32.234015934251062 ], [ -90.987981146277392, 32.234091109310889 ], [ -90.987697615476918, 32.233956433276894 ], [ -90.9876091711877, 32.233690798177797 ], [ -90.987767621404075, 32.233449809763144 ] ] ], [ [ [ -90.981830834425466, 32.235736032280258 ], [ -90.982133199799605, 32.235635197699544 ], [ -90.982650514280465, 32.235732913702485 ], [ -90.982851817366338, 32.235949568196339 ], [ -90.982813914396459, 32.236223748665964 ], [ -90.982477120957981, 32.236407333048149 ], [ -90.981918174976002, 32.236310688357712 ], [ -90.981702179575535, 32.236024434885707 ], [ -90.981830834425466, 32.235736032280258 ] ] ], [ [ [ -90.987208378807651, 32.236711519157112 ], [ -90.987510742248048, 32.236610671604424 ], [ -90.987808446856818, 32.236721078844191 ], [ -90.987927102394934, 32.236978066374419 ], [ -90.987797200773116, 32.237231094814263 ], [ -90.987494835516401, 32.237331942973697 ], [ -90.98719712937573, 32.237221534939614 ], [ -90.987078475653931, 32.236964546802668 ], [ -90.987208378807651, 32.236711519157112 ] ] ], [ [ [ -90.980850793895399, 32.238361432783044 ], [ -90.981194721076392, 32.238263002216755 ], [ -90.982015809094975, 32.238463693446491 ], [ -90.982217116281873, 32.23868034904649 ], [ -90.982179209821837, 32.238954529091707 ], [ -90.982037860379592, 32.239082171647574 ], [ -90.98180077557582, 32.239139183316993 ], [ -90.980972214746956, 32.238953946110463 ], [ -90.980727467092663, 32.238684939570149 ], [ -90.980850793895399, 32.238361432783044 ] ] ], [ [ [ -90.980057586829844, 32.240912217700711 ], [ -90.981021989081512, 32.241274236377187 ], [ -90.981210008175623, 32.241457347281248 ], [ -90.981203900806818, 32.241733364611285 ], [ -90.980969933895139, 32.241924867796882 ], [ -90.980684106328781, 32.241932225816996 ], [ -90.979604168248372, 32.241541641169391 ], [ -90.979356194978948, 32.241274755611848 ], [ -90.979425549488028, 32.241005055686493 ], [ -90.979698979867592, 32.240856028038195 ], [ -90.980057586829844, 32.240912217700711 ] ] ], [ [ [ -90.984987966786136, 32.242938234327816 ], [ -90.985290353413689, 32.242837393115117 ], [ -90.985588074949661, 32.242947806197577 ], [ -90.98570673123956, 32.243204795650804 ], [ -90.98557681375317, 32.243457820967542 ], [ -90.985274425308603, 32.243558662787024 ], [ -90.984976702240388, 32.243448248909971 ], [ -90.984858047767545, 32.243191258849976 ], [ -90.984987966786136, 32.242938234327816 ] ] ], [ [ [ -90.98387060784637, 32.245952865516664 ], [ -90.984214561315554, 32.245854427856948 ], [ -90.984708186123683, 32.246020897664948 ], [ -90.984883558414836, 32.246253276983438 ], [ -90.984814215024414, 32.246522980186164 ], [ -90.984457833690271, 32.246677626841134 ], [ -90.983922650045997, 32.246508755472377 ], [ -90.983741943115191, 32.246241269442059 ], [ -90.98387060784637, 32.245952865516664 ] ] ], [ [ [ -90.9824938326948, 32.248920032728023 ], [ -90.982806415968327, 32.248844873644885 ], [ -90.983089984001026, 32.248979561937517 ], [ -90.983178427297275, 32.249245199665708 ], [ -90.983019935501602, 32.249486180162187 ], [ -90.982707350146299, 32.249561339685407 ], [ -90.982423780965163, 32.249426650494819 ], [ -90.982335339750705, 32.249161012326525 ], [ -90.9824938326948, 32.248920032728023 ] ] ], [ [ [ -90.981560574474287, 32.251924456473361 ], [ -90.981862994794298, 32.251823624957829 ], [ -90.982284910565113, 32.251957892794394 ], [ -90.982889843437377, 32.252426309409799 ], [ -90.98293336888365, 32.252632426997565 ], [ -90.982834802974125, 32.252824356393731 ], [ -90.98262736787018, 32.2529374054469 ], [ -90.982380982194243, 32.252933469450561 ], [ -90.981579619271088, 32.252458729509648 ], [ -90.981431893085116, 32.252212857154554 ], [ -90.981560574474287, 32.251924456473361 ] ] ], [ [ [ -90.979664383524806, 32.254167920862628 ], [ -90.981074713217424, 32.254977070847694 ], [ -90.981527626892628, 32.255139597663536 ], [ -90.981845888610394, 32.255356180213418 ], [ -90.981954157517166, 32.255528708617227 ], [ -90.982168637389023, 32.255502465587753 ], [ -90.982394501663379, 32.255586226113884 ], [ -90.982542235468685, 32.255832097543838 ], [ -90.982442100713314, 32.256094722893728 ], [ -90.982274135478505, 32.256196474652178 ], [ -90.982028473350596, 32.256213078684851 ], [ -90.98181335729511, 32.256110908541324 ], [ -90.981705088031475, 32.25593838001457 ], [ -90.981449524120791, 32.255958770784716 ], [ -90.981187519289435, 32.255862039847983 ], [ -90.980985344726321, 32.255690594693178 ], [ -90.980626489430662, 32.255588698378823 ], [ -90.980048050418787, 32.255198819551993 ], [ -90.979377150079316, 32.2548849297985 ], [ -90.979161463988277, 32.2547220378829 ], [ -90.979071461410797, 32.254527094207432 ], [ -90.979171603754708, 32.254264471792268 ], [ -90.979460948168722, 32.254138942070725 ], [ -90.979664383524806, 32.254167920862628 ] ] ], [ [ [ -90.979369150769941, 32.257631104068039 ], [ -90.981037608917759, 32.258475134802595 ], [ -90.981315051216498, 32.258716667601938 ], [ -90.981642085758835, 32.258826338437672 ], [ -90.981760748891787, 32.259083331377646 ], [ -90.981630795590632, 32.259336350683967 ], [ -90.981411302571942, 32.2594315746571 ], [ -90.981166540448427, 32.259407132464545 ], [ -90.980945782848082, 32.259216994010607 ], [ -90.980717390392186, 32.259171964941821 ], [ -90.979877906382129, 32.258755162391545 ], [ -90.978972759605668, 32.258233685599322 ], [ -90.978863819895238, 32.257906464964449 ], [ -90.979049371477885, 32.257679854067391 ], [ -90.979369150769941, 32.257631104068039 ] ] ], [ [ [ -90.978126637139468, 32.243527329791313 ], [ -90.978520486094027, 32.24346727880706 ], [ -90.979872107360819, 32.24401932542613 ], [ -90.9800734207912, 32.244235984554486 ], [ -90.980035504679989, 32.244510163376695 ], [ -90.979820041335728, 32.244669955712219 ], [ -90.979574410203966, 32.244686556231478 ], [ -90.978419419281138, 32.244270887942982 ], [ -90.97808395172477, 32.244060615297883 ], [ -90.97798126811594, 32.243908598325582 ], [ -90.977985908652926, 32.243699225754959 ], [ -90.978126637139468, 32.243527329791313 ] ] ], [ [ [ -90.976789881749013, 32.246033359233138 ], [ -90.977935978183083, 32.246464032947131 ], [ -90.978340451556235, 32.246749978702319 ], [ -90.978366198637772, 32.247025175775399 ], [ -90.978155425281727, 32.247235241322485 ], [ -90.977831599474897, 32.247257121089426 ], [ -90.977415008794836, 32.247032038010047 ], [ -90.9768792772322, 32.246872312917226 ], [ -90.976517795248441, 32.246643120707084 ], [ -90.976400420637134, 32.246421504534929 ], [ -90.976500560348398, 32.246158883873598 ], [ -90.976789881749013, 32.246033359233138 ] ] ], [ [ [ -90.977807745730942, 32.257061718209954 ], [ -90.978110187063081, 32.256960896617336 ], [ -90.978407944130296, 32.257071327910744 ], [ -90.978526595964723, 32.257328323498541 ], [ -90.978396636644916, 32.257581339279966 ], [ -90.978094193494016, 32.257682161479387 ], [ -90.977796434894017, 32.257571729390698 ], [ -90.977677784878338, 32.25731473319609 ], [ -90.977807745730942, 32.257061718209954 ] ] ], [ [ [ -90.976357135176713, 32.259398854355041 ], [ -90.97992684297121, 32.261419013353667 ], [ -90.980179682376246, 32.261739192419604 ], [ -90.980084869349426, 32.262036920646409 ], [ -90.979836815730124, 32.262157916921709 ], [ -90.979554729830994, 32.262117737431758 ], [ -90.978264981284525, 32.261298193662775 ], [ -90.977230081359338, 32.260804093084644 ], [ -90.976973075615803, 32.260590813454726 ], [ -90.976416946676565, 32.260352912596495 ], [ -90.9759680225213, 32.260039141747789 ], [ -90.975601448114958, 32.25990506374837 ], [ -90.97489558646663, 32.259403019996746 ], [ -90.974805589121033, 32.259208073596874 ], [ -90.974839702535604, 32.259035203121158 ], [ -90.97507372761693, 32.258843714077756 ], [ -90.97539855841076, 32.258848922448792 ], [ -90.976023539175216, 32.259282556212291 ], [ -90.976357135176713, 32.259398854355041 ] ] ], [ [ [ -90.974779336126147, 32.24844965961654 ], [ -90.975008733337901, 32.24837318605762 ], [ -90.975249464895199, 32.248417906507548 ], [ -90.976003805929025, 32.248887765943216 ], [ -90.977223419479458, 32.249481460194083 ], [ -90.977398778276722, 32.249713849289812 ], [ -90.977329409770448, 32.249983547243303 ], [ -90.977096536125714, 32.250124616091277 ], [ -90.976811211944636, 32.250108118678632 ], [ -90.974943752411619, 32.24914045968346 ], [ -90.974624587665133, 32.24879643072029 ], [ -90.97465336314491, 32.248588454181721 ], [ -90.974779336126147, 32.24844965961654 ] ] ], [ [ [ -90.972249390963, 32.250250441013691 ], [ -90.97544617135793, 32.251999591267108 ], [ -90.97550352858562, 32.252271319385855 ], [ -90.975317980240632, 32.25249792534126 ], [ -90.975122491908763, 32.252553853098775 ], [ -90.974881749618802, 32.252509131995261 ], [ -90.9723597255893, 32.251201178201207 ], [ -90.971746450951869, 32.250804527865753 ], [ -90.971656467927062, 32.250609579587461 ], [ -90.971690583135057, 32.250436709853446 ], [ -90.97192459141732, 32.250245225778571 ], [ -90.972249390963, 32.250250441013691 ] ] ], [ [ [ -90.974352663545986, 32.262002278316544 ], [ -90.974919747578497, 32.262221283948392 ], [ -90.97526098996704, 32.262529999598613 ], [ -90.975318351509088, 32.262801727621799 ], [ -90.975132779813507, 32.26302833206578 ], [ -90.974733815260123, 32.26305527141632 ], [ -90.974424600927662, 32.262806727581896 ], [ -90.97384132601951, 32.262577109695371 ], [ -90.97324911979247, 32.262156748580026 ], [ -90.973160695398718, 32.261891105066994 ], [ -90.973319235975964, 32.261650139318071 ], [ -90.9736318697922, 32.261575005165447 ], [ -90.974352663545986, 32.262002278316544 ] ] ], [ [ [ -90.969952057800143, 32.252748148968116 ], [ -90.970171545189842, 32.252652944660433 ], [ -90.970453596718087, 32.25269314382524 ], [ -90.970621134791728, 32.252838977141067 ], [ -90.971121885262164, 32.253037895744953 ], [ -90.97318170515922, 32.254193159461991 ], [ -90.973357061730255, 32.254425553959592 ], [ -90.973287677024288, 32.254695248874924 ], [ -90.973054785096636, 32.254836309428399 ], [ -90.972769447457821, 32.254819802324882 ], [ -90.970746090070875, 32.253683671791741 ], [ -90.970090938745017, 32.253402446031593 ], [ -90.969828670603974, 32.253071642064604 ], [ -90.969952057800143, 32.252748148968116 ] ] ], [ [ [ -90.967541277759167, 32.254494145641523 ], [ -90.971070615196112, 32.256507780586894 ], [ -90.971159029071245, 32.256773425318798 ], [ -90.971000492140504, 32.257014388640989 ], [ -90.970771069820529, 32.257090853801365 ], [ -90.970530318271742, 32.257046124030275 ], [ -90.968543140616177, 32.255880970142343 ], [ -90.968057292283476, 32.255671814715797 ], [ -90.967065669718593, 32.255074884195182 ], [ -90.966953639391676, 32.254888365891347 ], [ -90.966982434977808, 32.25468039207685 ], [ -90.967216464055184, 32.254488917693358 ], [ -90.967541277759167, 32.254494145641523 ] ] ], [ [ [ -90.964790612762528, 32.256631562078852 ], [ -90.965010114618778, 32.256536367399264 ], [ -90.965292175143802, 32.256576578469321 ], [ -90.966380507684008, 32.257308420660856 ], [ -90.966848979719359, 32.257497192568692 ], [ -90.967923896149912, 32.258187184624553 ], [ -90.968402660149607, 32.258390884250964 ], [ -90.968897434068055, 32.258806090699863 ], [ -90.968940929839547, 32.259012211760627 ], [ -90.96886777144006, 32.259176101675841 ], [ -90.96859426803718, 32.25932510251662 ], [ -90.968312197202081, 32.259284898438153 ], [ -90.967877034289856, 32.258955222405589 ], [ -90.967525528019067, 32.258834453515448 ], [ -90.966415182353188, 32.258114751879496 ], [ -90.965916981433722, 32.257911916191837 ], [ -90.964751845046024, 32.257114895771018 ], [ -90.964663449822822, 32.256849247308743 ], [ -90.964790612762528, 32.256631562078852 ] ] ] ] } },
{ "type": "Feature", "properties": { "depth_bin": ">20 ft", "survey_id": "LM_05_VGG_20220715_CS_4304_4076", "date": "2022-07-15 00:00:00+00:00", "year": 2022, "mile": 425.0, "bin_order": 0 }, "geometry": { "type": "MultiPolygon", "coordinates": [ [ [ [ -91.060243548899294, 32.035202361211525 ], [ -91.060627619479817, 32.035109500529778 ], [ -91.063927805546484, 32.035916113603228 ], [ -91.06417462046133, 32.036095057581555 ], [ -91.064200601782645, 32.036370253613974 ], [ -91.064026550955958, 32.036562843912058 ], [ -91.063748575019119, 32.036617662996782 ], [ -91.060560051530658, 32.035859624177604 ], [ -91.060296006522407, 32.035758250687834 ], [ -91.060143477725887, 32.035594003653998 ], [ -91.060123778891395, 32.035385253302259 ], [ -91.060243548899294, 32.035202361211525 ] ] ], [ [ [ -91.057915738653364, 32.037644714459873 ], [ -91.062467436655368, 32.038583019318445 ], [ -91.062692475312872, 32.03878171161935 ], [ -91.062686660136933, 32.039057751399035 ], [ -91.062527301503081, 32.039217228361473 ], [ -91.062249316737407, 32.039272043785594 ], [ -91.0579636391424, 32.038421800668374 ], [ -91.057603339018641, 32.038255815813827 ], [ -91.057484711237322, 32.0379988885106 ], [ -91.057614111848565, 32.037745762271904 ], [ -91.057915738653364, 32.037644714459873 ] ] ], [ [ [ -91.056733986935498, 32.040533445172713 ], [ -91.060994249418428, 32.041337930020561 ], [ -91.061195342755326, 32.041554456532545 ], [ -91.061157785192606, 32.041828680811399 ], [ -91.060980834738686, 32.041974082464591 ], [ -91.060738866183684, 32.042011243435184 ], [ -91.056594817126168, 32.041244199427574 ], [ -91.056352751565598, 32.04111551660025 ], [ -91.056264261083399, 32.040849921395328 ], [ -91.056422174278651, 32.040608819776061 ], [ -91.056733986935498, 32.040533445172713 ] ] ], [ [ [ -91.055964425389107, 32.043347991451043 ], [ -91.06045459012465, 32.044188721095601 ], [ -91.060602228647596, 32.04443450386357 ], [ -91.060502578586508, 32.044697217207045 ], [ -91.060255226834258, 32.044818402551108 ], [ -91.059812211839784, 32.044780450244318 ], [ -91.055825244233418, 32.044058744161461 ], [ -91.055583172630406, 32.043930059668547 ], [ -91.055494682131936, 32.043664464018185 ], [ -91.055652602529904, 32.043423363728586 ], [ -91.055964425389107, 32.043347991451043 ] ] ], [ [ [ -91.055718151010169, 32.047435310907005 ], [ -91.05928811923728, 32.047807830770367 ], [ -91.059534955315442, 32.047986784369016 ], [ -91.059560924131077, 32.048261980452978 ], [ -91.059386840058792, 32.04845456277171 ], [ -91.05910882555257, 32.04850937006001 ], [ -91.055703188395, 32.048142773601846 ], [ -91.05548845915699, 32.04804074169499 ], [ -91.055376474444671, 32.047854298901498 ], [ -91.055445429763481, 32.047584534906534 ], [ -91.055718151010169, 32.047435310907005 ] ] ], [ [ [ -91.054871909344953, 32.050764310287654 ], [ -91.055169112256422, 32.05087454136099 ], [ -91.055284961066391, 32.051166790412658 ], [ -91.055085719224692, 32.051839663303333 ], [ -91.054908739485981, 32.051985055123389 ], [ -91.054666742522002, 32.05202220330802 ], [ -91.054359500042992, 32.051858883036523 ], [ -91.054311800141036, 32.051556233756642 ], [ -91.054147196688533, 32.051408751146347 ], [ -91.054103580394766, 32.051202649359595 ], [ -91.054295343865547, 32.050940980311175 ], [ -91.054871909344953, 32.050764310287654 ] ] ], [ [ [ -90.982957710812286, 32.230083376717715 ], [ -90.987844889659698, 32.23031203269035 ], [ -90.988070207699238, 32.230510864456974 ], [ -90.988064123649153, 32.23078688343243 ], [ -90.987904287825828, 32.230946243269571 ], [ -90.987708853058322, 32.231002192865141 ], [ -90.984596703026497, 32.230904642654892 ], [ -90.982900777087679, 32.2307953231768 ], [ -90.982685718337464, 32.230693156509545 ], [ -90.982568346779871, 32.230471545769575 ], [ -90.982668448928891, 32.23020891817162 ], [ -90.982957710812286, 32.230083376717715 ] ] ], [ [ [ -90.985197863746649, 32.233037315751602 ], [ -90.987088491816948, 32.233362202014881 ], [ -90.987553069651057, 32.233376435850026 ], [ -90.987778394222573, 32.233575268325545 ], [ -90.987772308569987, 32.23385128711751 ], [ -90.98753837591218, 32.234042804067272 ], [ -90.987046381894544, 32.23408196060327 ], [ -90.985848123318945, 32.233903668902656 ], [ -90.985587818385525, 32.233796957508957 ], [ -90.984764304996816, 32.233805867564797 ], [ -90.983987728488799, 32.233641188600338 ], [ -90.983479914965088, 32.233674441683611 ], [ -90.982869840122987, 32.233502029937959 ], [ -90.982407571221231, 32.233474894529976 ], [ -90.982220089731655, 32.233339028184375 ], [ -90.982153012874988, 32.233137528150785 ], [ -90.982228948895056, 32.232938312341822 ], [ -90.982384327172866, 32.232823058837582 ], [ -90.982911408528636, 32.232782240840969 ], [ -90.983618082157506, 32.232963546245088 ], [ -90.984075452947465, 32.232912618785001 ], [ -90.984325104134797, 32.232981596056725 ], [ -90.984599593963893, 32.23295737608175 ], [ -90.984853036569007, 32.23308329637824 ], [ -90.985197863746649, 32.233037315751602 ] ] ], [ [ [ -90.984920531295117, 32.236066220508796 ], [ -90.986951539596816, 32.236540337496173 ], [ -90.987126900892051, 32.236772713522761 ], [ -90.987057572837145, 32.237042418894291 ], [ -90.986864216537896, 32.237172209797137 ], [ -90.986659681147103, 32.237194674334461 ], [ -90.984826940020483, 32.236779112892343 ], [ -90.984445338069065, 32.236793712580059 ], [ -90.983290214179391, 32.236612786468356 ], [ -90.983047757598783, 32.236483950498787 ], [ -90.98295650052512, 32.236253628449674 ], [ -90.983086413754648, 32.236000605437781 ], [ -90.983388778801839, 32.235899767833736 ], [ -90.984496878585645, 32.236074995752702 ], [ -90.984920531295117, 32.236066220508796 ] ] ], [ [ [ -90.985810421669612, 32.239525619620515 ], [ -90.986588977619419, 32.23981161743027 ], [ -90.986677423840774, 32.240077253121513 ], [ -90.9865189583318, 32.240318239351822 ], [ -90.986165330882372, 32.240387559389134 ], [ -90.984998926585831, 32.240016787799568 ], [ -90.983161908143046, 32.23956617660653 ], [ -90.982458347672036, 32.2392923869591 ], [ -90.982338624700049, 32.239149659651865 ], [ -90.982319085783004, 32.2389409088699 ], [ -90.982504587835294, 32.238714290354345 ], [ -90.982824298687476, 32.238665528710904 ], [ -90.985810421669612, 32.239525619620515 ] ] ], [ [ [ -90.981652236503848, 32.241494940868222 ], [ -90.985276264319893, 32.24278289123167 ], [ -90.985423987262308, 32.243028759235052 ], [ -90.985323876797736, 32.243291388270251 ], [ -90.985034574965297, 32.243416933342957 ], [ -90.984558764484717, 32.243317429715233 ], [ -90.981685019367532, 32.242300483190405 ], [ -90.981228551100301, 32.242070864546974 ], [ -90.98114700417085, 32.241770315446978 ], [ -90.981332515187134, 32.24154369909818 ], [ -90.981652236503848, 32.241494940868222 ] ] ], [ [ [ -90.980529285711214, 32.244281453597409 ], [ -90.984140017106938, 32.245755248919927 ], [ -90.984424730792355, 32.246001537049523 ], [ -90.984418632074608, 32.246277554728252 ], [ -90.984184659390138, 32.246469063544495 ], [ -90.983939023714456, 32.246485672388182 ], [ -90.983256381083152, 32.246266109747133 ], [ -90.982042899924579, 32.245680827764623 ], [ -90.980329061264584, 32.24501094445597 ], [ -90.980020459854714, 32.244788606039798 ], [ -90.979994708015951, 32.244513409036728 ], [ -90.980205470663932, 32.244303339909173 ], [ -90.980529285711214, 32.244281453597409 ] ] ], [ [ [ -90.982154245811245, 32.248495140863525 ], [ -90.982585679561168, 32.24861386786413 ], [ -90.982773716238384, 32.248796976975932 ], [ -90.982767611868013, 32.249072994251442 ], [ -90.982533628384786, 32.249264499499688 ], [ -90.982287985027469, 32.249281104808595 ], [ -90.981743780508594, 32.249123493037231 ], [ -90.981234723212083, 32.248816856398086 ], [ -90.979574899643211, 32.248124390289227 ], [ -90.978784362676805, 32.247703943869055 ], [ -90.978672316004719, 32.247517435158471 ], [ -90.978701081735665, 32.247309457268642 ], [ -90.978935067625883, 32.247117959190575 ], [ -90.979259857449918, 32.247123155957077 ], [ -90.981586781139981, 32.248163426694241 ], [ -90.982154245811245, 32.248495140863525 ] ] ], [ [ [ -90.978755173060165, 32.250183600866762 ], [ -90.981704459732796, 32.251711537558549 ], [ -90.981852185934741, 32.251957409609879 ], [ -90.981752054100767, 32.252220034654961 ], [ -90.981379525119962, 32.252344240321676 ], [ -90.980775856822945, 32.252132069161014 ], [ -90.979938636640412, 32.251627003310197 ], [ -90.97873209636586, 32.2510598368914 ], [ -90.978413846093758, 32.250840488469898 ], [ -90.977994521122937, 32.250697164156364 ], [ -90.977812564694219, 32.25039428926241 ], [ -90.97794251424034, 32.250141273464109 ], [ -90.978244932052476, 32.250040450512465 ], [ -90.978755173060165, 32.250183600866762 ] ] ], [ [ [ -90.977000192183979, 32.252800082964384 ], [ -90.979171422521219, 32.253933393520803 ], [ -90.979235678588211, 32.254170210369942 ], [ -90.97907716735611, 32.254411184974416 ], [ -90.978764562179606, 32.254486333867405 ], [ -90.976626915173398, 32.253439290797552 ], [ -90.97647420065735, 32.253274939635972 ], [ -90.976465555181392, 32.253032020786705 ], [ -90.976676346423204, 32.252821958940444 ], [ -90.977000192183979, 32.252800082964384 ] ] ], [ [ [ -90.974426973885599, 32.255176513570312 ], [ -90.974646463026787, 32.255081301563308 ], [ -90.97489121114252, 32.255105755875483 ], [ -90.976312473509083, 32.255900208700361 ], [ -90.977068926724684, 32.256422248494758 ], [ -90.977136006450877, 32.256623750770281 ], [ -90.977060036855235, 32.256822961569419 ], [ -90.976827144755589, 32.256964029054835 ], [ -90.976541799316777, 32.256947530187581 ], [ -90.974607331640172, 32.255817759910727 ], [ -90.97431295563554, 32.255534503860623 ], [ -90.974306724375523, 32.255359299928095 ], [ -90.974426973885599, 32.255176513570312 ] ] ], [ [ [ -90.972622664674489, 32.257672827385264 ], [ -90.972893724736679, 32.25759529009256 ], [ -90.973210087646507, 32.257676268870419 ], [ -90.974789040822685, 32.258512022230356 ], [ -90.974964409310616, 32.258744414847307 ], [ -90.974895025308228, 32.259014110532512 ], [ -90.974662124291683, 32.259155173615717 ], [ -90.974376772680259, 32.25913866959803 ], [ -90.972643252043653, 32.258251989986071 ], [ -90.972462557760579, 32.25798448867225 ], [ -90.972622664674489, 32.257672827385264 ] ] ], [ [ [ -90.971201793963729, 32.260384900686795 ], [ -90.971595719732846, 32.260324874589038 ], [ -90.971977888459037, 32.260595319529131 ], [ -90.97257055663313, 32.26082276858498 ], [ -90.97293818036519, 32.261145252339681 ], [ -90.972964589456183, 32.261319093711265 ], [ -90.972865992570703, 32.261511013847901 ], [ -90.972658525642942, 32.261624045074257 ], [ -90.972412118022334, 32.261620088692538 ], [ -90.971422164576396, 32.261140356270651 ], [ -90.9710563655877, 32.260766158032332 ], [ -90.971061025043255, 32.260556786918798 ], [ -90.971201793963729, 32.260384900686795 ] ] ] ] } }
]
}
