{
"type": "FeatureCollection",
"name": "LM_07_FMB_20190622_CS_MB_4710_4715_depth_polygons",
"crs": { "type": "name", "properties": { "name": "urn:ogc:def:crs:OGC:1.3:CRS84" } },
"features": [
{ "type": "Feature", "properties": { "depth_bin": "55-60 ft", "bin_order": -57.5, "survey_id": "LM_07_FMB_20190622_CS_MB_4710_4715", "date": "2019-06-22", "year": 2019, "mile": 471.0 }, "geometry": { "type": "Polygon", "coordinates": [ [ [ -91.120584233343791, 32.672138709831572 ], [ -91.120778093809662, 32.67220067479861 ], [ -91.120931748894932, 32.672364877311708 ], [ -91.120885380853935, 32.672716399911302 ], [ -91.120336329655203, 32.673137178139605 ], [ -91.120010347977541, 32.673190686966535 ], [ -91.11977472824006, 32.67312635774018 ], [ -91.119558572680603, 32.672887700367355 ], [ -91.119618344660196, 32.672569712373438 ], [ -91.120048978963794, 32.672273944831943 ], [ -91.120584233343791, 32.672138709831572 ] ] ] } },
{ "type": "Feature", "properties": { "depth_bin": "60-65 ft", "bin_order": -62.5, "survey_id": "LM_07_FMB_20190622_CS_MB_4710_4715", "date": "2019-06-22", "year": 2019, "mile": 471.0 }, "geometry": { "type": "Polygon", "coordinates": [ [ [ -91.120768367864045, 32.671956278210025 ], [ -91.12118477269901, 32.672148943067732 ], [ -91.121249644641424, 32.672385697961452 ], [ -91.120928933040517, 32.672797127082454 ], [ -91.120475976052376, 32.673132031783751 ], [ -91.120183673336911, 32.673231673986784 ], [ -91.119911541709499, 32.673237579139098 ], [ -91.119581195833931, 32.673095095275748 ], [ -91.119464204822421, 32.672775411416112 ], [ -91.119688162532924, 32.6724470471109 ], [ -91.1204748848523, 32.672009584441312 ], [ -91.120768367864045, 32.671956278210025 ] ] ] } },
{ "type": "Feature", "properties": { "depth_bin": "65-70 ft", "bin_order": -67.5, "survey_id": "LM_07_FMB_20190622_CS_MB_4710_4715", "date": "2019-06-22", "year": 2019, "mile": 471.0 }, "geometry": { "type": "MultiPolygon", "coordinates": [ [ [ [ -91.121261540330309, 32.6719415234477 ], [ -91.121397896859676, 32.672148204830854 ], [ -91.121404520308545, 32.672337144138233 ], [ -91.120979148960274, 32.672874886855105 ], [ -91.120456312416977, 32.673190811924165 ], [ -91.120143263963485, 32.673280890109943 ], [ -91.119783481593842, 32.673243646626062 ], [ -91.119504901508506, 32.67306875609394 ], [ -91.119414221253365, 32.672873897720557 ], [ -91.119464144614128, 32.672659667364897 ], [ -91.11999393926574, 32.672202145569351 ], [ -91.120756912233745, 32.671845563381595 ], [ -91.12104528772231, 32.671839554262469 ], [ -91.121261540330309, 32.6719415234477 ] ] ], [ [ [ -91.114982480757902, 32.669232303302081 ], [ -91.115149268496054, 32.669675363307711 ], [ -91.115050475265321, 32.669867377711235 ], [ -91.114881854824134, 32.669969276682743 ], [ -91.114635072488653, 32.669986096829732 ], [ -91.114015577369756, 32.66962618667371 ], [ -91.113932914936754, 32.669284486323278 ], [ -91.114119039305606, 32.669057709378095 ], [ -91.114569847486408, 32.668966637404949 ], [ -91.114982480757902, 32.669232303302081 ] ] ] ] } },
{ "type": "Feature", "properties": { "depth_bin": "70-75 ft", "bin_order": -72.5, "survey_id": "LM_07_FMB_20190622_CS_MB_4710_4715", "date": "2019-06-22", "year": 2019, "mile": 471.0 }, "geometry": { "type": "MultiPolygon", "coordinates": [ [ [ [ -91.12104227734055, 32.671693452077022 ], [ -91.12134156915819, 32.671803596661775 ], [ -91.121541643091078, 32.672093296029423 ], [ -91.121492448967587, 32.672389978271767 ], [ -91.121185285000124, 32.672797380063464 ], [ -91.120330501188633, 32.673299465289844 ], [ -91.119879769631027, 32.673320232806311 ], [ -91.119563441165724, 32.673174599559808 ], [ -91.119410220184903, 32.673004702198128 ], [ -91.119380173786297, 32.672811238370294 ], [ -91.119562029378883, 32.672473460078287 ], [ -91.120415511515631, 32.671904287999389 ], [ -91.12104227734055, 32.671693452077022 ] ] ], [ [ [ -91.115391279350746, 32.669334706369163 ], [ -91.115567762412255, 32.669566932773577 ], [ -91.115520681558635, 32.669820402056438 ], [ -91.115099908606084, 32.670091016996373 ], [ -91.114833032734609, 32.670130985214321 ], [ -91.114515832813012, 32.670025927321042 ], [ -91.114076217019303, 32.669721338669234 ], [ -91.113825405682775, 32.669314101420099 ], [ -91.114052409791555, 32.668977912812331 ], [ -91.11445324223196, 32.668834984680217 ], [ -91.114884044987122, 32.668925592654865 ], [ -91.115224683259527, 32.669276572463907 ], [ -91.115391279350746, 32.669334706369163 ] ] ] ] } },
{ "type": "Feature", "properties": { "depth_bin": "75-80 ft", "bin_order": -77.5, "survey_id": "LM_07_FMB_20190622_CS_MB_4710_4715", "date": "2019-06-22", "year": 2019, "mile": 471.0 }, "geometry": { "type": "MultiPolygon", "coordinates": [ [ [ [ -91.121603577415499, 32.671734039194973 ], [ -91.121701427063869, 32.67202555642325 ], [ -91.121539842300834, 32.67253122897224 ], [ -91.12123811322661, 32.672850155781369 ], [ -91.120576462727399, 32.673275944962057 ], [ -91.120250348981543, 32.673423649736797 ], [ -91.119913347957947, 32.673443704085315 ], [ -91.11942402632576, 32.673110490026446 ], [ -91.119333346211747, 32.672915631600695 ], [ -91.119366902281158, 32.672687761399807 ], [ -91.119927987567451, 32.672092619677251 ], [ -91.120965712952554, 32.671569404487187 ], [ -91.121375851782716, 32.671585833708455 ], [ -91.121603577415499, 32.671734039194973 ] ] ], [ [ [ -91.115829411937639, 32.669216343940029 ], [ -91.115989336146086, 32.669468107035676 ], [ -91.115942256540521, 32.669721576522832 ], [ -91.115738836847569, 32.669876647714283 ], [ -91.115444946091955, 32.670387133150861 ], [ -91.115070822578446, 32.670511668423899 ], [ -91.114843804205407, 32.6704281072304 ], [ -91.114477860413061, 32.670041461047717 ], [ -91.11403993680878, 32.669761457881343 ], [ -91.1137743647419, 32.669835239349887 ], [ -91.113408546604262, 32.669744223503862 ], [ -91.112544376064918, 32.669194904089295 ], [ -91.112410929912258, 32.668847831947218 ], [ -91.112569881415752, 32.668606718404014 ], [ -91.112883846256224, 32.668531291939573 ], [ -91.113232489114566, 32.668598644703707 ], [ -91.113571476653334, 32.668795123156784 ], [ -91.114755039755892, 32.668810036047404 ], [ -91.115266993657286, 32.669128659020146 ], [ -91.11552971135886, 32.669111824507112 ], [ -91.115829411937639, 32.669216343940029 ] ] ] ] } },
{ "type": "Feature", "properties": { "depth_bin": "80-85 ft", "bin_order": -82.5, "survey_id": "LM_07_FMB_20190622_CS_MB_4710_4715", "date": "2019-06-22", "year": 2019, "mile": 471.0 }, "geometry": { "type": "MultiPolygon", "coordinates": [ [ [ [ -91.121504138299244, 32.671392633151534 ], [ -91.121731863681717, 32.671540838399203 ], [ -91.12189726876872, 32.671884925300695 ], [ -91.121664280941218, 32.67260156953585 ], [ -91.121401336077028, 32.672844751238138 ], [ -91.120441631620437, 32.673369555468007 ], [ -91.120054707746533, 32.673478152597887 ], [ -91.119728514650504, 32.673415239032146 ], [ -91.119391772501217, 32.673138176915735 ], [ -91.119289890373295, 32.672937295674615 ], [ -91.119303485771994, 32.672734919633861 ], [ -91.119487283194402, 32.672446850922881 ], [ -91.119975885766749, 32.67199612246629 ], [ -91.120850806617284, 32.671516768116049 ], [ -91.121297360043371, 32.671380934387841 ], [ -91.121504138299244, 32.671392633151534 ] ] ], [ [ [ -91.115709963023122, 32.668942717858627 ], [ -91.116169607724331, 32.669645634194822 ], [ -91.116175021598409, 32.670032076520258 ], [ -91.115855445451501, 32.670254784513673 ], [ -91.115848307627886, 32.670544169645026 ], [ -91.115692599814977, 32.67083909055065 ], [ -91.115484330369796, 32.670952321471567 ], [ -91.115260946335056, 32.670957912883495 ], [ -91.114951687906199, 32.670774726238179 ], [ -91.114487524339353, 32.670094464845576 ], [ -91.114146705431835, 32.670342241320171 ], [ -91.113753833942525, 32.670269981496283 ], [ -91.113308335329023, 32.66973337722267 ], [ -91.112640940427497, 32.669342409593526 ], [ -91.112124526182654, 32.668895844620451 ], [ -91.112025505917558, 32.668540501447971 ], [ -91.112177581959358, 32.668334304266068 ], [ -91.112466037335594, 32.66825641251053 ], [ -91.113771982008075, 32.668651484071482 ], [ -91.114713435866079, 32.668663408858031 ], [ -91.115061799361072, 32.66881454591595 ], [ -91.115214597868373, 32.668960154917386 ], [ -91.115451790175953, 32.668898325002544 ], [ -91.115709963023122, 32.668942717858627 ] ] ], [ [ [ -91.112901176738276, 32.670621861249408 ], [ -91.112867229690352, 32.670940395221372 ], [ -91.112725288138776, 32.671116799648807 ], [ -91.112463396284653, 32.671216783905599 ], [ -91.11218595822541, 32.671153548495226 ], [ -91.112015836368087, 32.670961953335237 ], [ -91.111786225400735, 32.670352577157622 ], [ -91.111845784273996, 32.670007110244271 ], [ -91.112120349267116, 32.669857845460363 ], [ -91.112439282524491, 32.669916510688999 ], [ -91.112722875823309, 32.670157485702539 ], [ -91.112901176738276, 32.670621861249408 ] ] ], [ [ [ -91.111968508880793, 32.669273793077096 ], [ -91.111962702107448, 32.669549813196681 ], [ -91.111711714270157, 32.669755358164927 ], [ -91.111385378498809, 32.669750445553959 ], [ -91.111158732114646, 32.669551795701892 ], [ -91.111164422295943, 32.669262034012235 ], [ -91.111399282445817, 32.669070332559109 ], [ -91.111741862301244, 32.669075144261527 ], [ -91.111968508880793, 32.669273793077096 ] ] ], [ [ [ -91.111361719597241, 32.670578206803043 ], [ -91.111619180751077, 32.671391748255466 ], [ -91.111590532198932, 32.671599749857357 ], [ -91.111271792083159, 32.67204218434911 ], [ -91.111082900861604, 32.672114295254666 ], [ -91.110836976359593, 32.672090063008838 ], [ -91.110610325595644, 32.671891412063012 ], [ -91.110383092719687, 32.67101114762368 ], [ -91.109967176840186, 32.670432560760155 ], [ -91.109971467495299, 32.670209444155333 ], [ -91.110176615976954, 32.669826515118871 ], [ -91.110480334895016, 32.669725428492917 ], [ -91.110795971716783, 32.669849238645888 ], [ -91.110984368779185, 32.670076959305092 ], [ -91.111060304411055, 32.67037734909281 ], [ -91.111361719597241, 32.670578206803043 ] ] ], [ [ [ -91.109767792113857, 32.669319648689822 ], [ -91.109887422887965, 32.669590281092717 ], [ -91.10974104100282, 32.669857250641577 ], [ -91.109437320889811, 32.6699583354278 ], [ -91.109121685738401, 32.669834521898863 ], [ -91.109001938283285, 32.669550146241995 ], [ -91.109132193933789, 32.669297019757977 ], [ -91.109452158658087, 32.669195835144819 ], [ -91.109767792113857, 32.669319648689822 ] ] ] ] } },
{ "type": "Feature", "properties": { "depth_bin": "85-90 ft", "bin_order": -87.5, "survey_id": "LM_07_FMB_20190622_CS_MB_4710_4715", "date": "2019-06-22", "year": 2019, "mile": 471.0 }, "geometry": { "type": "MultiPolygon", "coordinates": [ [ [ [ -91.1217449548259, 32.671287601761371 ], [ -91.122439954970773, 32.672039324947328 ], [ -91.122434179779106, 32.672315346609082 ], [ -91.121692108272384, 32.672849547815623 ], [ -91.121109174447938, 32.673115077442297 ], [ -91.121276660170622, 32.67337300815872 ], [ -91.121160750761248, 32.673704535605133 ], [ -91.120862753233723, 32.673875966860479 ], [ -91.12042537204924, 32.673952501163427 ], [ -91.120024387268103, 32.673858833141011 ], [ -91.119871164276717, 32.673688936305709 ], [ -91.119827937640068, 32.673490512275364 ], [ -91.119337967379209, 32.673151588753129 ], [ -91.119225142126993, 32.672965186053183 ], [ -91.119384139820014, 32.672504877835117 ], [ -91.119737497261156, 32.672101314278883 ], [ -91.120073841066272, 32.67185146016503 ], [ -91.121312280051285, 32.671229674068059 ], [ -91.1217449548259, 32.671287601761371 ] ] ], [ [ [ -91.118416248696676, 32.668986254996874 ], [ -91.118475318475703, 32.669380018532401 ], [ -91.118300090880169, 32.669572624022024 ], [ -91.118027185632883, 32.669628903565496 ], [ -91.118059585288108, 32.669904561036496 ], [ -91.117960797891826, 32.67009657794528 ], [ -91.117637890778369, 32.670236319909939 ], [ -91.117327285057371, 32.670151508889099 ], [ -91.117176802665568, 32.6699342316643 ], [ -91.1170958079299, 32.66949203925499 ], [ -91.117223246384953, 32.669274221486823 ], [ -91.117492878515776, 32.669174021280377 ], [ -91.117363325995072, 32.668852287829324 ], [ -91.117479953868028, 32.668487435053422 ], [ -91.117728983754517, 32.668366210061478 ], [ -91.118047916157479, 32.66842486097827 ], [ -91.118416248696676, 32.668986254996874 ] ] ], [ [ [ -91.116301713401967, 32.669293590955498 ], [ -91.116419311556811, 32.669747922581003 ], [ -91.11637095896134, 32.669945284928588 ], [ -91.11657032830945, 32.670296678318678 ], [ -91.116470053499683, 32.670559391426714 ], [ -91.116301433232124, 32.670661292307962 ], [ -91.116004194524621, 32.67069859805509 ], [ -91.115648691698851, 32.671087109195796 ], [ -91.115287776400478, 32.671169954237392 ], [ -91.114962006335801, 32.670993072963114 ], [ -91.11468759273815, 32.670412100825651 ], [ -91.114804929716499, 32.670939838940477 ], [ -91.114770884435629, 32.671112740997572 ], [ -91.114525907154786, 32.67134515575033 ], [ -91.114224729898837, 32.671376639278613 ], [ -91.114008487240611, 32.671274658291964 ], [ -91.113836446427896, 32.6710605827557 ], [ -91.113738942382383, 32.670474488934438 ], [ -91.113499548743434, 32.669948750408288 ], [ -91.113103755401809, 32.669620083929622 ], [ -91.112756650712086, 32.669514652826621 ], [ -91.112022577739694, 32.668978264089688 ], [ -91.111670779535814, 32.668564048100919 ], [ -91.1116336839154, 32.668323053255314 ], [ -91.111785760439091, 32.668116856561383 ], [ -91.112057969040819, 32.668039066515874 ], [ -91.113474706810663, 32.668487088961683 ], [ -91.113756798450098, 32.668511856894469 ], [ -91.114009125934814, 32.668380742529273 ], [ -91.114272150307272, 32.66836382234456 ], [ -91.114533666347512, 32.668507705110414 ], [ -91.115068222292123, 32.668573479420218 ], [ -91.115311077572287, 32.668772730885841 ], [ -91.115547474231377, 32.668691591161348 ], [ -91.115805646545454, 32.668735983803693 ], [ -91.116128768761172, 32.668990868522776 ], [ -91.116301713401967, 32.669293590955498 ] ] ], [ [ [ -91.113031713942405, 32.670455176647899 ], [ -91.113043452137205, 32.671235009645486 ], [ -91.112897846311157, 32.671598169006572 ], [ -91.112606929671671, 32.67181117196327 ], [ -91.112243078272073, 32.671790560443533 ], [ -91.11205393284834, 32.671607612971115 ], [ -91.111913732395919, 32.670795186176562 ], [ -91.111788079492811, 32.670464765799331 ], [ -91.111504796278822, 32.670113090873627 ], [ -91.111478140380129, 32.669938771106118 ], [ -91.111241396216826, 32.669731257591216 ], [ -91.110896492662533, 32.669821678617808 ], [ -91.111410596466925, 32.670514076104034 ], [ -91.111599955285044, 32.671048305648014 ], [ -91.111642497551784, 32.671503352792975 ], [ -91.111544054635743, 32.671861144405931 ], [ -91.111288478571538, 32.672183885832283 ], [ -91.111026582093444, 32.672283866898752 ], [ -91.11076840248603, 32.672239464180009 ], [ -91.110516528002705, 32.67195457323578 ], [ -91.11045645658622, 32.671381210869939 ], [ -91.110240643940529, 32.671335730390247 ], [ -91.11004049523801, 32.671174799715402 ], [ -91.109821549414534, 32.670865611209493 ], [ -91.109791439152076, 32.670642737119415 ], [ -91.109481682548136, 32.670436164024075 ], [ -91.108522874688504, 32.669037034774853 ], [ -91.108476111971001, 32.668866272572856 ], [ -91.108545693644487, 32.668628219676087 ], [ -91.10919898600622, 32.668273150581818 ], [ -91.109615806499846, 32.668262959575976 ], [ -91.110055207719853, 32.668482640738034 ], [ -91.110330170400502, 32.668779555915556 ], [ -91.110574053314778, 32.6686246037751 ], [ -91.110898243997184, 32.668656549372649 ], [ -91.111070164520356, 32.668807235633835 ], [ -91.111121751110076, 32.669036861457805 ], [ -91.111372395397638, 32.668880763548465 ], [ -91.111729080440625, 32.668912505567818 ], [ -91.111995047938365, 32.669169222223957 ], [ -91.112103850688825, 32.669389860964444 ], [ -91.112847985699389, 32.67009841425871 ], [ -91.113031713942405, 32.670455176647899 ] ], [ [ -91.110525963010289, 32.669574343295793 ], [ -91.11042635724769, 32.669254193171213 ], [ -91.110110387795089, 32.669455019630178 ], [ -91.110113185696179, 32.669533998676783 ], [ -91.110525963010289, 32.669574343295793 ] ] ] ] } },
{ "type": "Feature", "properties": { "depth_bin": "90-95 ft", "bin_order": -92.5, "survey_id": "LM_07_FMB_20190622_CS_MB_4710_4715", "date": "2019-06-22", "year": 2019, "mile": 471.0 }, "geometry": { "type": "MultiPolygon", "coordinates": [ [ [ [ -91.121865021651601, 32.671405902170669 ], [ -91.121909018211895, 32.671611978419229 ], [ -91.121810236833397, 32.671803998543723 ], [ -91.120882486396141, 32.672269056 ], [ -91.120706150592923, 32.672467800279044 ], [ -91.121183085513181, 32.672275713613828 ], [ -91.121521035350042, 32.671979802966284 ], [ -91.121992723178266, 32.67182575397473 ], [ -91.122213398329748, 32.671854435698165 ], [ -91.12239919722316, 32.671975602579018 ], [ -91.122538403825828, 32.672148646052044 ], [ -91.122558308593696, 32.6723573773602 ], [ -91.122307812956109, 32.672653284180818 ], [ -91.121273578468191, 32.673127107491368 ], [ -91.121389032857635, 32.673456733260906 ], [ -91.121181204316912, 32.67377125699948 ], [ -91.120856081739817, 32.673942063269479 ], [ -91.120326274837666, 32.674013252790857 ], [ -91.119992927450056, 32.673922051948757 ], [ -91.119773548800893, 32.673671640304605 ], [ -91.119625274318125, 32.673687817769249 ], [ -91.119424529451379, 32.673755151788789 ], [ -91.119425802250007, 32.674019016979358 ], [ -91.119234560235654, 32.67423920849955 ], [ -91.118818028809699, 32.674338778854846 ], [ -91.118518732098906, 32.674228628092692 ], [ -91.118405907346641, 32.674042224698617 ], [ -91.118434421046459, 32.673820479401257 ], [ -91.118689826249025, 32.673570817003672 ], [ -91.118945714554712, 32.673493445734429 ], [ -91.118950497854868, 32.673245600549542 ], [ -91.11920259779842, 32.672906165935821 ], [ -91.119235240480037, 32.672496191354625 ], [ -91.119667822442821, 32.671979931431501 ], [ -91.121254057221478, 32.671100350997101 ], [ -91.121578262022325, 32.671132269437713 ], [ -91.121865021651601, 32.671405902170669 ] ] ], [ [ [ -91.11863816026478, 32.66843028261048 ], [ -91.118930573483382, 32.66893516300442 ], [ -91.118877976426731, 32.669139791777113 ], [ -91.118734914851402, 32.669268141232138 ], [ -91.118904213109275, 32.669636193871284 ], [ -91.118836931929096, 32.67001956610477 ], [ -91.11862064533581, 32.670179556785939 ], [ -91.118286705362976, 32.670177527333273 ], [ -91.118135784953111, 32.670438637089369 ], [ -91.117925517815934, 32.670582436240551 ], [ -91.117703768755575, 32.670605177950655 ], [ -91.117203638814715, 32.670495365157663 ], [ -91.117031704468005, 32.670344686847621 ], [ -91.116925215066928, 32.670079913029866 ], [ -91.116978861141448, 32.669831439908513 ], [ -91.116865200817386, 32.669487551706062 ], [ -91.116963201220841, 32.669172537660785 ], [ -91.116767961893615, 32.668816588821549 ], [ -91.116815038585273, 32.66856311889957 ], [ -91.116993181747958, 32.668417695296384 ], [ -91.117197399759831, 32.668378260368144 ], [ -91.117358513279953, 32.668109646684982 ], [ -91.117621262136439, 32.668019009089107 ], [ -91.117863187410407, 32.66806349901335 ], [ -91.118073571215518, 32.668244388380685 ], [ -91.1184123529153, 32.66825026713407 ], [ -91.11863816026478, 32.66843028261048 ] ] ], [ [ [ -91.116619716235107, 32.669780801689591 ], [ -91.116645242499189, 32.670635394462771 ], [ -91.116365831507565, 32.670972957226894 ], [ -91.116264836367137, 32.671247795367549 ], [ -91.116015796452132, 32.671369017033335 ], [ -91.115736858272939, 32.671330975849067 ], [ -91.115416094762864, 32.671537665240194 ], [ -91.115193070500709, 32.671526057685313 ], [ -91.115004624853455, 32.671421091039498 ], [ -91.114824763995841, 32.671628198860375 ], [ -91.114544841744618, 32.671683052378405 ], [ -91.114317821001819, 32.67159949015663 ], [ -91.113821767943179, 32.671161755676579 ], [ -91.113659028362605, 32.670849415908641 ], [ -91.113504640560848, 32.670048784714581 ], [ -91.113304542373385, 32.669850800756151 ], [ -91.11288901021112, 32.669788679342915 ], [ -91.11256791886305, 32.669444946199292 ], [ -91.112419706927255, 32.669503539604008 ], [ -91.113191794353483, 32.670179332209905 ], [ -91.113171072439684, 32.670424420408395 ], [ -91.113309015687278, 32.670695941884489 ], [ -91.113205303571007, 32.670925179159951 ], [ -91.113165182133685, 32.671438806122467 ], [ -91.112662633579347, 32.671947667070661 ], [ -91.112386488477412, 32.671985062719138 ], [ -91.112159469195902, 32.671901496639222 ], [ -91.111966818423028, 32.671622448096159 ], [ -91.111886871027608, 32.670815951956527 ], [ -91.111502370474795, 32.670232407028713 ], [ -91.111503845846883, 32.670543652233476 ], [ -91.111747131858166, 32.671157332238302 ], [ -91.111730901984956, 32.671641690160854 ], [ -91.111402208404172, 32.672183180689565 ], [ -91.111197719982655, 32.672314643972847 ], [ -91.110934683709985, 32.672331557282831 ], [ -91.110633834193266, 32.672146840215383 ], [ -91.110374556996589, 32.671499057897357 ], [ -91.110090662904511, 32.671339398388348 ], [ -91.109176851050009, 32.669853496879917 ], [ -91.109004349954375, 32.669724506927921 ], [ -91.108177426297971, 32.668544439476136 ], [ -91.108123500730201, 32.668234835702201 ], [ -91.108275584942788, 32.668028643553832 ], [ -91.10854779592475, 32.667950861229166 ], [ -91.108845366821186, 32.667995872622022 ], [ -91.109048088192793, 32.668201971749646 ], [ -91.109310810465786, 32.66805258003118 ], [ -91.109750148454197, 32.667957170020223 ], [ -91.110075436222786, 32.668013558199988 ], [ -91.110410434360077, 32.668181371489965 ], [ -91.110619545068701, 32.668117545086389 ], [ -91.111202488535682, 32.668157563159795 ], [ -91.111329201756391, 32.668078419102322 ], [ -91.111430073791269, 32.667810486081379 ], [ -91.11172060750846, 32.667684703332043 ], [ -91.111962528379209, 32.667729204501853 ], [ -91.112462741752864, 32.668052111675188 ], [ -91.112924642517896, 32.668135505074787 ], [ -91.113095913863674, 32.668274819386731 ], [ -91.113223907962876, 32.668266101712817 ], [ -91.113273717370504, 32.667923130838297 ], [ -91.113548273592201, 32.66777386255945 ], [ -91.114845820975532, 32.668052346127965 ], [ -91.115125224194117, 32.667810352274842 ], [ -91.115567195625033, 32.667819799168669 ], [ -91.115816044506587, 32.667935317264245 ], [ -91.116020444863366, 32.668213015931038 ], [ -91.116057791918607, 32.668481493294472 ], [ -91.115928719011649, 32.668670686540352 ], [ -91.116040091974185, 32.668830357206133 ], [ -91.116352443975856, 32.66902175029368 ], [ -91.116619716235107, 32.669780801689591 ] ], [ [ -91.11542317279951, 32.670045612488003 ], [ -91.115329822368437, 32.669683503567306 ], [ -91.115045888699655, 32.66964004439108 ], [ -91.11542317279951, 32.670045612488003 ] ], [ [ -91.114110396332038, 32.669439664170042 ], [ -91.114115271148691, 32.669451933626625 ], [ -91.114133726292124, 32.66944295066272 ], [ -91.114110396332038, 32.669439664170042 ] ], [ [ -91.114876089747227, 32.669505626980467 ], [ -91.114857101691129, 32.669499556530674 ], [ -91.114882105671455, 32.669512748875917 ], [ -91.114876089747227, 32.669505626980467 ] ], [ [ -91.114750780196289, 32.66944781826588 ], [ -91.114747799475808, 32.669446865330826 ], [ -91.114752048968214, 32.669448644119178 ], [ -91.114750780196289, 32.66944781826588 ] ], [ [ -91.114597135910586, 32.669364103347256 ], [ -91.114493078693897, 32.669372903472514 ], [ -91.114677808324217, 32.6694177922897 ], [ -91.114597135910586, 32.669364103347256 ] ] ] ] } },
{ "type": "Feature", "properties": { "depth_bin": "95-100 ft", "bin_order": -97.5, "survey_id": "LM_07_FMB_20190622_CS_MB_4710_4715", "date": "2019-06-22", "year": 2019, "mile": 471.0 }, "geometry": { "type": "MultiPolygon", "coordinates": [ [ [ [ -91.121463327294677, 32.67099556716844 ], [ -91.121764337638709, 32.671321355700805 ], [ -91.121704815626742, 32.671666828404 ], [ -91.120480458564387, 32.67235570947215 ], [ -91.12006988494386, 32.672756216515268 ], [ -91.120941140756315, 32.672467336251742 ], [ -91.122065918457849, 32.671939546646328 ], [ -91.122464789414877, 32.672043902185003 ], [ -91.12262048499305, 32.672244326711407 ], [ -91.122640389962442, 32.672453058011271 ], [ -91.122389652725147, 32.672721481674429 ], [ -91.121414661970761, 32.673115910571553 ], [ -91.121488585989496, 32.673338352912381 ], [ -91.121387022275542, 32.673631584228858 ], [ -91.120863838327665, 32.673999642707422 ], [ -91.12034156229781, 32.674100656876099 ], [ -91.119928058291862, 32.673936201027118 ], [ -91.119734184194527, 32.673747723122645 ], [ -91.119494844382842, 32.674166622500394 ], [ -91.118926845899793, 32.674435142055032 ], [ -91.118533639209943, 32.674461616668665 ], [ -91.1180739027985, 32.674365322493557 ], [ -91.11749814432909, 32.674567760457272 ], [ -91.117016953647521, 32.674624889730353 ], [ -91.116551942396683, 32.674568407782878 ], [ -91.116359732513033, 32.674461999141251 ], [ -91.116242751572202, 32.674142312646346 ], [ -91.116341547476125, 32.673950297506352 ], [ -91.116593474490188, 32.673796888535122 ], [ -91.116461462505825, 32.673607932287922 ], [ -91.116444580112585, 32.673420518773632 ], [ -91.116593832483233, 32.67306920618455 ], [ -91.116821076372318, 32.672898810254551 ], [ -91.117089921804563, 32.672865156101054 ], [ -91.1171078203094, 32.672619438266324 ], [ -91.117368561642039, 32.67233194933862 ], [ -91.117733051965857, 32.672322282557133 ], [ -91.118102321500757, 32.67259402326102 ], [ -91.118440262157733, 32.672189782555002 ], [ -91.11812365802777, 32.672208629215483 ], [ -91.11765923380014, 32.671967167381887 ], [ -91.117569921574159, 32.671687868609673 ], [ -91.117732455950474, 32.671444578163118 ], [ -91.117601535673231, 32.671243795767573 ], [ -91.117622163734566, 32.671039699536657 ], [ -91.117361774643413, 32.671019583280454 ], [ -91.117172725034123, 32.671163740324118 ], [ -91.116900644962769, 32.67119693854238 ], [ -91.116968123774683, 32.671436795358268 ], [ -91.116812846903386, 32.671761831045686 ], [ -91.117101447845855, 32.671871380635665 ], [ -91.117219672603639, 32.672092885555337 ], [ -91.117059243186404, 32.672404702617293 ], [ -91.116493011102449, 32.672503126463255 ], [ -91.116276763014923, 32.672401149211623 ], [ -91.116171394881704, 32.672241938316056 ], [ -91.115926940286101, 32.672359027832904 ], [ -91.115448602717464, 32.672325359452579 ], [ -91.115349772570809, 32.672517807702178 ], [ -91.115100727898337, 32.672639027352702 ], [ -91.114828593242663, 32.672603833225487 ], [ -91.114504830267634, 32.672686501428402 ], [ -91.11422781683396, 32.672559859798461 ], [ -91.113975471717367, 32.672881805812459 ], [ -91.113669541402004, 32.672982775776525 ], [ -91.113616347275126, 32.673171675626293 ], [ -91.113361883347991, 32.673342561653996 ], [ -91.113329554668439, 32.673526638768934 ], [ -91.113122244944265, 32.673794113202121 ], [ -91.112901846564895, 32.673889527702762 ], [ -91.112637989734267, 32.673887630151569 ], [ -91.11234899088592, 32.673699518734537 ], [ -91.112341320968511, 32.673384842459349 ], [ -91.111996713458367, 32.673358729118497 ], [ -91.111845656549661, 32.673238723777956 ], [ -91.111778940075695, 32.673062355342445 ], [ -91.111658858536742, 32.672998809424222 ], [ -91.111371398223255, 32.673006511669627 ], [ -91.111168015540684, 32.672887090000188 ], [ -91.111076128942429, 32.672640538955143 ], [ -91.11088063562498, 32.672502615249464 ], [ -91.110086275130968, 32.67133610102713 ], [ -91.110042187147116, 32.671116279925904 ], [ -91.110140992408091, 32.670924269948856 ], [ -91.110422753062295, 32.670752964866665 ], [ -91.110687002602731, 32.670736330070177 ], [ -91.110483779349238, 32.670390692092703 ], [ -91.110229331096718, 32.670177352576765 ], [ -91.109661541401763, 32.670129977278606 ], [ -91.109374468397661, 32.669815092048367 ], [ -91.109242787478934, 32.669218838710904 ], [ -91.109430251953697, 32.668848354013399 ], [ -91.108879428501623, 32.669077105874557 ], [ -91.108560500993732, 32.669018431779655 ], [ -91.108029310853922, 32.668325473960707 ], [ -91.10799210656414, 32.668070736681727 ], [ -91.108177198023057, 32.667832476344181 ], [ -91.108494707766198, 32.667695242441788 ], [ -91.109319393251468, 32.667929824790143 ], [ -91.110395649167856, 32.667697227710697 ], [ -91.110809121832844, 32.667758508845765 ], [ -91.111130067807281, 32.667619426413296 ], [ -91.111291580554294, 32.667336600360763 ], [ -91.111563787127253, 32.667258811307597 ], [ -91.111848362024631, 32.667350336282865 ], [ -91.112215978784548, 32.667664064801947 ], [ -91.112349412533618, 32.667449340184817 ], [ -91.112569795276613, 32.667353926003024 ], [ -91.113214875825676, 32.667361124917861 ], [ -91.113627656765701, 32.667475697797599 ], [ -91.114096107811989, 32.667248241564415 ], [ -91.114759283117891, 32.667347772443023 ], [ -91.114941490037438, 32.667234313593966 ], [ -91.115188264750358, 32.667217492557235 ], [ -91.115404499311012, 32.667319471262296 ], [ -91.115561926379925, 32.66754741851809 ], [ -91.115864334199074, 32.6674957984457 ], [ -91.116091346337072, 32.667579357591393 ], [ -91.116211819794671, 32.667721978070304 ], [ -91.116237702102211, 32.667943322271626 ], [ -91.116299651987646, 32.667916903520776 ], [ -91.116283184646349, 32.667600652252801 ], [ -91.116356450824441, 32.667436689019617 ], [ -91.116550586422406, 32.667306735357172 ], [ -91.11681360740593, 32.667289809716415 ], [ -91.116999340027249, 32.667367552927288 ], [ -91.117126578210247, 32.667527102310714 ], [ -91.117421537089427, 32.667589582269464 ], [ -91.117633186657315, 32.667524206052001 ], [ -91.117853849553526, 32.667552895067658 ], [ -91.118126255170523, 32.667824830467872 ], [ -91.118482555451294, 32.667907980611908 ], [ -91.118741090107605, 32.668486687126062 ], [ -91.119229287536996, 32.669141190139776 ], [ -91.119275221135226, 32.669368480311505 ], [ -91.119491996188728, 32.669239771478836 ], [ -91.119697494999812, 32.669217128282881 ], [ -91.120064526893188, 32.669433498097405 ], [ -91.120157120400592, 32.669732444002427 ], [ -91.120054063663005, 32.670092412800066 ], [ -91.120277714254598, 32.670515008009687 ], [ -91.120095670272349, 32.670810305810058 ], [ -91.1204209798303, 32.671013134597594 ], [ -91.12058230737793, 32.670741756290184 ], [ -91.120896274072507, 32.670666309815346 ], [ -91.121463327294677, 32.67099556716844 ] ], [ [ -91.114254032244631, 32.669634052437566 ], [ -91.114540813678531, 32.669562789478178 ], [ -91.114854878114997, 32.669635169059966 ], [ -91.115259713064006, 32.669944516784703 ], [ -91.115573259131637, 32.6703560403163 ], [ -91.115742272613105, 32.670294465613516 ], [ -91.115637756606588, 32.66966665232362 ], [ -91.115488502253882, 32.669501643302141 ], [ -91.114989393751472, 32.669411972271469 ], [ -91.114674605224764, 32.669183199955633 ], [ -91.114384556264554, 32.669204335800863 ], [ -91.114133475689428, 32.669090777446328 ], [ -91.113731214666501, 32.669198943572383 ], [ -91.114254032244631, 32.669634052437566 ] ], [ [ -91.11900120766731, 32.670071472690438 ], [ -91.119147997036762, 32.670083154809205 ], [ -91.119158388993853, 32.669595338541193 ], [ -91.119035604125685, 32.669684109092138 ], [ -91.11900120766731, 32.670071472690438 ] ], [ [ -91.118081963694209, 32.67344173277008 ], [ -91.118054625945817, 32.673460074780209 ], [ -91.118047912815172, 32.673469177564726 ], [ -91.118081963694209, 32.67344173277008 ] ], [ [ -91.118326006972097, 32.670913954485343 ], [ -91.118585657048342, 32.670893488956089 ], [ -91.118690791190019, 32.670742205976246 ], [ -91.118580230007737, 32.670444979885644 ], [ -91.118277125661692, 32.670398551269876 ], [ -91.117971213495466, 32.670690377712162 ], [ -91.117939289859493, 32.670812196075758 ], [ -91.118326006972097, 32.670913954485343 ] ], [ [ -91.113618407141303, 32.671420977119269 ], [ -91.113550549232031, 32.670370786834901 ], [ -91.113267238222036, 32.670090321240437 ], [ -91.113536237360222, 32.670782823521577 ], [ -91.113513539609087, 32.671108405861936 ], [ -91.113409085075261, 32.671282752191232 ], [ -91.113618407141303, 32.671420977119269 ] ] ], [ [ [ -91.115200220907425, 32.673287304514467 ], [ -91.115427939937931, 32.673435520963189 ], [ -91.115495712635962, 32.673650702073338 ], [ -91.115394119668167, 32.673878034370844 ], [ -91.115145071180152, 32.673999253948281 ], [ -91.114826121420407, 32.673940595040499 ], [ -91.11464485288802, 32.673677325667462 ], [ -91.114412022401638, 32.673783939403258 ], [ -91.11416609211058, 32.673759713491933 ], [ -91.113916587208621, 32.673493050180241 ], [ -91.113945231224136, 32.673285047930527 ], [ -91.114227144715301, 32.672933199064452 ], [ -91.114566106041622, 32.672714815384118 ], [ -91.114948723303314, 32.672819295774907 ], [ -91.115061539303468, 32.673005701994505 ], [ -91.115038682568141, 32.673270925062013 ], [ -91.115200220907425, 32.673287304514467 ] ] ], [ [ [ -91.112744075892664, 32.674081489255947 ], [ -91.113043364323232, 32.67419165352657 ], [ -91.113162891544818, 32.674448541493277 ], [ -91.113032638826297, 32.674701672110707 ], [ -91.112728905329277, 32.674802764329748 ], [ -91.112429615322768, 32.674692599258009 ], [ -91.112310089947883, 32.674435710666906 ], [ -91.11244034424233, 32.674182580850591 ], [ -91.112744075892664, 32.674081489255947 ] ] ] ] } },
{ "type": "Feature", "properties": { "depth_bin": "100-105 ft", "bin_order": -102.5, "survey_id": "LM_07_FMB_20190622_CS_MB_4710_4715", "date": "2019-06-22", "year": 2019, "mile": 471.0 }, "geometry": { "type": "MultiPolygon", "coordinates": [ [ [ [ -91.120652904728857, 32.670154201322219 ], [ -91.12163612383462, 32.671164861522421 ], [ -91.121611906827695, 32.67148635039571 ], [ -91.120710525125858, 32.672086134443731 ], [ -91.119876468013928, 32.672438744214006 ], [ -91.119945785428527, 32.67267322622159 ], [ -91.120047105449018, 32.672785469490321 ], [ -91.122189498790505, 32.672030654193705 ], [ -91.122563238302163, 32.672153222355462 ], [ -91.122712854899447, 32.672486440935394 ], [ -91.12250374536535, 32.672761991438321 ], [ -91.121611515420867, 32.673085423656261 ], [ -91.121667306171105, 32.67333723019636 ], [ -91.12159125097115, 32.673536514664598 ], [ -91.120934379347105, 32.674032376167347 ], [ -91.120649056405995, 32.674340281472666 ], [ -91.1204203424723, 32.674410345818764 ], [ -91.119995098844782, 32.674395702337584 ], [ -91.119802885000681, 32.67428929886065 ], [ -91.119681169936641, 32.674103255656682 ], [ -91.118911199747117, 32.674503952103372 ], [ -91.117405584956316, 32.674663393701366 ], [ -91.116340007327167, 32.675008744137834 ], [ -91.114793355582947, 32.675160830577617 ], [ -91.113970718602616, 32.675353325643634 ], [ -91.113082126182533, 32.67541456505522 ], [ -91.112739837431221, 32.675170859106906 ], [ -91.110678050834167, 32.672207069345482 ], [ -91.110683862149372, 32.671931049547666 ], [ -91.111026201507073, 32.671551315849499 ], [ -91.111093579272236, 32.670961332247359 ], [ -91.111060199884804, 32.670797356027663 ], [ -91.110611840424554, 32.670326075538846 ], [ -91.109950625929415, 32.669870621795965 ], [ -91.10977859644558, 32.669656539916225 ], [ -91.109758602946329, 32.669434065905435 ], [ -91.109935363593166, 32.669178132314784 ], [ -91.110063798155011, 32.668679510663985 ], [ -91.109819572431377, 32.668538454396433 ], [ -91.108975617487346, 32.669002722039359 ], [ -91.10859553227624, 32.668982200793977 ], [ -91.108406400201119, 32.668799248233434 ], [ -91.108393082292366, 32.668541720141974 ], [ -91.108069206079065, 32.668370579272249 ], [ -91.107716834748871, 32.667887643513204 ], [ -91.107641190517768, 32.667530321103499 ], [ -91.107949475455953, 32.667237025740228 ], [ -91.108388069532495, 32.667198636106704 ], [ -91.108678304823016, 32.667333725901713 ], [ -91.108810336537957, 32.667565400552171 ], [ -91.109470453382883, 32.66769977721259 ], [ -91.110988240892837, 32.667413714176419 ], [ -91.111100028286259, 32.667221606302626 ], [ -91.111308293988714, 32.667108382484955 ], [ -91.111911256161036, 32.667194352736217 ], [ -91.112161235626786, 32.667004236135625 ], [ -91.112693087449173, 32.666977066286066 ], [ -91.112890783445479, 32.666898430865963 ], [ -91.114176086975149, 32.666857794013012 ], [ -91.114658497263818, 32.666911452324669 ], [ -91.114812115267853, 32.666751284384887 ], [ -91.115042489882455, 32.666674596164931 ], [ -91.115284410031592, 32.666719090893459 ], [ -91.115468519494513, 32.666892602818201 ], [ -91.115930193829229, 32.666791896986126 ], [ -91.116573367331554, 32.66687048866914 ], [ -91.11678051025153, 32.666758260094035 ], [ -91.117060537128168, 32.666761772764993 ], [ -91.117490585241228, 32.667109540802159 ], [ -91.117729750378345, 32.667114895647124 ], [ -91.117905580332831, 32.66720766173701 ], [ -91.118171978078962, 32.667649124708099 ], [ -91.118431941511986, 32.667749077813568 ], [ -91.118694910996496, 32.667986844917912 ], [ -91.118809216899038, 32.668458611412341 ], [ -91.119352085578171, 32.669250700058519 ], [ -91.119622884886141, 32.669173743876797 ], [ -91.119891661004417, 32.669259659413918 ], [ -91.120203668448738, 32.669585260285324 ], [ -91.120270889873098, 32.669774841290604 ], [ -91.120496219465849, 32.669898701919145 ], [ -91.120652904728857, 32.670154201322219 ] ], [ [ -91.115578371821201, 32.670503708836847 ], [ -91.115885328675958, 32.670448770906944 ], [ -91.115905251646822, 32.669949467714815 ], [ -91.115678607939998, 32.669426548515759 ], [ -91.115457907464489, 32.669219563702832 ], [ -91.115140351590938, 32.669203910873435 ], [ -91.114880030751877, 32.669042154904986 ], [ -91.114797207002368, 32.668848712570693 ], [ -91.114825931251659, 32.668656739548247 ], [ -91.114412746476148, 32.668709431781608 ], [ -91.114148136441671, 32.668556151733704 ], [ -91.114043492246125, 32.668815068009877 ], [ -91.113816976259201, 32.668958961297456 ], [ -91.113523618654924, 32.66902599393169 ], [ -91.113022296399421, 32.66892157250939 ], [ -91.113385725349858, 32.669242280577251 ], [ -91.11382581948763, 32.669472457561426 ], [ -91.114330708875073, 32.670078776678075 ], [ -91.11442074798488, 32.670489292699031 ], [ -91.114537447329937, 32.670154882730905 ], [ -91.114902307306551, 32.670027782029507 ], [ -91.115171080902414, 32.670113707601857 ], [ -91.115578371821201, 32.670503708836847 ] ] ], [ [ [ -91.123027584211854, 32.672837963565946 ], [ -91.123312677279571, 32.672972385566489 ], [ -91.123401887732285, 32.67323793919865 ], [ -91.123242955799057, 32.673479067069152 ], [ -91.122928980812105, 32.673554519100257 ], [ -91.122643886558208, 32.673420096192572 ], [ -91.122554678223509, 32.673154542103774 ], [ -91.122713611342917, 32.672913415140414 ], [ -91.123027584211854, 32.672837963565946 ] ] ], [ [ [ -91.108235113900776, 32.666514277681635 ], [ -91.108064408408794, 32.666928177061301 ], [ -91.107692382355381, 32.66715541205344 ], [ -91.107284707240197, 32.66713724861841 ], [ -91.107058076621513, 32.666938591853601 ], [ -91.107065150101008, 32.666507273760431 ], [ -91.107540200347515, 32.66620828272162 ], [ -91.10800138514324, 32.666214563604044 ], [ -91.108235113900776, 32.666514277681635 ] ] ] ] } },
{ "type": "Feature", "properties": { "depth_bin": "105-110 ft", "bin_order": -107.5, "survey_id": "LM_07_FMB_20190622_CS_MB_4710_4715", "date": "2019-06-22", "year": 2019, "mile": 471.0 }, "geometry": { "type": "MultiPolygon", "coordinates": [ [ [ [ -91.122734448771396, 32.672348664374312 ], [ -91.122778447696476, 32.672554740378324 ], [ -91.122679667002942, 32.672746761190467 ], [ -91.121876527959458, 32.673064090817178 ], [ -91.121923625691295, 32.673274723182814 ], [ -91.121808836437609, 32.673494328618624 ], [ -91.12105487314858, 32.674021394538187 ], [ -91.120812216618376, 32.674309529338331 ], [ -91.120510491657498, 32.674469102953651 ], [ -91.120012430259848, 32.674519275416543 ], [ -91.119771232881476, 32.674385694144824 ], [ -91.119658274546111, 32.674198442943236 ], [ -91.118943936376454, 32.674531231983615 ], [ -91.117519768817971, 32.674754443938703 ], [ -91.116284132578372, 32.675097554320402 ], [ -91.113971555218029, 32.675449517399706 ], [ -91.113060060921811, 32.675498140197796 ], [ -91.112751084466169, 32.675176322413989 ], [ -91.112756770734663, 32.674886560735786 ], [ -91.113110283385666, 32.674505994986866 ], [ -91.11366594519113, 32.674422102972855 ], [ -91.113628783198592, 32.674130839467132 ], [ -91.113878449116754, 32.673906023297931 ], [ -91.114242309692017, 32.673926630394277 ], [ -91.114454438178072, 32.674178442486962 ], [ -91.114772297249331, 32.673927944457802 ], [ -91.115246435616157, 32.673895965465427 ], [ -91.11583939393239, 32.674305585836926 ], [ -91.116043107657433, 32.674282804359414 ], [ -91.115894999338977, 32.674144696919619 ], [ -91.115850895957294, 32.67392487742768 ], [ -91.115949692420926, 32.673732862612127 ], [ -91.116157967954251, 32.67361963118087 ], [ -91.116405521433322, 32.673623348696424 ], [ -91.116608913143878, 32.673742762174086 ], [ -91.116699587982581, 32.673937622359681 ], [ -91.116665116093017, 32.674125204436777 ], [ -91.117225444875501, 32.673962535044744 ], [ -91.118593348954192, 32.673811536958603 ], [ -91.119006315701782, 32.673655790909521 ], [ -91.1192249592238, 32.673275051337583 ], [ -91.118463443644572, 32.672424589597718 ], [ -91.118419454758765, 32.672218512440502 ], [ -91.118535925055767, 32.672010572014607 ], [ -91.118366296855129, 32.67201176874417 ], [ -91.118216992124118, 32.672293360570293 ], [ -91.117983199450819, 32.672434648324241 ], [ -91.117590375116009, 32.67236243910564 ], [ -91.117301297545396, 32.672493880128727 ], [ -91.117094156781803, 32.672499373176123 ], [ -91.116764382450469, 32.672260006736742 ], [ -91.116016016183593, 32.672431496892543 ], [ -91.115683941883233, 32.672342639664144 ], [ -91.115456490769944, 32.672444415537022 ], [ -91.115137083070024, 32.672406254491825 ], [ -91.114915243491055, 32.672567921992275 ], [ -91.114755612762281, 32.672817600624725 ], [ -91.114299632862981, 32.672979840919083 ], [ -91.114019586962982, 32.67297632148253 ], [ -91.113706973628894, 32.67283435694732 ], [ -91.113583486402604, 32.673064758694736 ], [ -91.113375209162896, 32.673177985787149 ], [ -91.112641331156425, 32.673195086909693 ], [ -91.111971689546053, 32.673428059513583 ], [ -91.111688252596181, 32.673388127727833 ], [ -91.111316146318885, 32.67310605143382 ], [ -91.11089497202984, 32.672501926836411 ], [ -91.11104034626203, 32.671818901143503 ], [ -91.11152443889047, 32.671245744734165 ], [ -91.111285200510821, 32.671021454861666 ], [ -91.111283573702366, 32.670660752426457 ], [ -91.111060035958616, 32.670597091036264 ], [ -91.110645519738739, 32.670246983929012 ], [ -91.110652558811978, 32.669893235687198 ], [ -91.110956888864393, 32.669680402415928 ], [ -91.111349083696012, 32.669730880808793 ], [ -91.111714861330256, 32.670081287974909 ], [ -91.111725001017263, 32.670433576375999 ], [ -91.112145024200544, 32.670383442032659 ], [ -91.112454156097868, 32.670552893747832 ], [ -91.112628763782439, 32.670828726505952 ], [ -91.112679054514871, 32.671126270333048 ], [ -91.112885758935363, 32.670731414485957 ], [ -91.113041855043775, 32.670596732956909 ], [ -91.112961110713997, 32.670294038980593 ], [ -91.112559881923161, 32.669996604081362 ], [ -91.112564613436149, 32.669596908650696 ], [ -91.112887500870002, 32.669352346328147 ], [ -91.113508952714412, 32.669381230519441 ], [ -91.113810289696403, 32.669555008782353 ], [ -91.113981681328383, 32.669888695449906 ], [ -91.114300023469966, 32.670207534198077 ], [ -91.114362790845817, 32.670428280217124 ], [ -91.114326819031959, 32.670998174445259 ], [ -91.114491302717255, 32.670998803299646 ], [ -91.114566165636745, 32.670814750552339 ], [ -91.114754421898652, 32.670671677653097 ], [ -91.115079302627791, 32.670633972960992 ], [ -91.115364376023862, 32.670768412384952 ], [ -91.115434239546474, 32.671120561514513 ], [ -91.115563591427346, 32.671110460211651 ], [ -91.116016362398184, 32.670604557128414 ], [ -91.116012914183969, 32.670144693248083 ], [ -91.116103396479403, 32.66994280882912 ], [ -91.115910152451733, 32.669791570465605 ], [ -91.115646481422189, 32.669157595138337 ], [ -91.115426695054538, 32.668961827686978 ], [ -91.11539813697479, 32.668581886578352 ], [ -91.115496882640343, 32.668389921551118 ], [ -91.115342344349671, 32.668082145376594 ], [ -91.115074996364172, 32.667825064374 ], [ -91.114844677521006, 32.668117124537034 ], [ -91.114572470784978, 32.668194920710903 ], [ -91.114255277981783, 32.668089862292241 ], [ -91.114085211128966, 32.667881036103161 ], [ -91.112937423781219, 32.667847325553552 ], [ -91.11299389689178, 32.668086831187196 ], [ -91.112939977153957, 32.668256077435011 ], [ -91.112554662874714, 32.668496903651615 ], [ -91.112116865024845, 32.66847940985847 ], [ -91.111765053949043, 32.668132903061334 ], [ -91.111667685882395, 32.668390067187225 ], [ -91.111433894008414, 32.668531342808194 ], [ -91.111130963486929, 32.668515200554282 ], [ -91.110900572989536, 32.668313037741669 ], [ -91.110674518077289, 32.668356550991277 ], [ -91.110363663944312, 32.668289137129634 ], [ -91.109838874382817, 32.668416188559668 ], [ -91.109250146134741, 32.668808629783058 ], [ -91.108808764400109, 32.668867868961591 ], [ -91.108519789666346, 32.668679749466634 ], [ -91.108519998044642, 32.668351632397275 ], [ -91.108074251126183, 32.668259260070911 ], [ -91.10788570228749, 32.668123548230483 ], [ -91.107440517110774, 32.667366227806674 ], [ -91.107074559650513, 32.66696597511946 ], [ -91.107029747761672, 32.666470388688083 ], [ -91.107190193806829, 32.666310909245951 ], [ -91.109276201585629, 32.665171144524528 ], [ -91.110390740738097, 32.664644194773388 ], [ -91.110715065711815, 32.664351434022635 ], [ -91.111228318713671, 32.664168834459495 ], [ -91.111460894921919, 32.664214242277659 ], [ -91.111669316543058, 32.664359909001313 ], [ -91.111759972031692, 32.664554772292632 ], [ -91.11172592397952, 32.6647276735631 ], [ -91.111290618700536, 32.66504003131584 ], [ -91.110832160347044, 32.665207763951464 ], [ -91.110613263480275, 32.665509229104494 ], [ -91.109739218027443, 32.666019875220222 ], [ -91.10964623175694, 32.66672768214675 ], [ -91.109478540739303, 32.667001893615009 ], [ -91.109305289444322, 32.667123859659071 ], [ -91.109361891304502, 32.667370091149358 ], [ -91.110219965657521, 32.667338960417055 ], [ -91.110709676203101, 32.667140590348751 ], [ -91.110979486586132, 32.666853168846998 ], [ -91.111199869165389, 32.666757757063912 ], [ -91.111683172172008, 32.666846980424459 ], [ -91.111882328020172, 32.666767267215384 ], [ -91.112367648235391, 32.666756484697075 ], [ -91.113098880293279, 32.66653983444931 ], [ -91.113367939179909, 32.666573752115688 ], [ -91.11383083491269, 32.666518292070855 ], [ -91.114104944631478, 32.666396153495292 ], [ -91.114765469429841, 32.66637734511194 ], [ -91.115768894972874, 32.666134112947418 ], [ -91.116079485308745, 32.666218927315967 ], [ -91.116338458716655, 32.666517724523906 ], [ -91.116567958497185, 32.666235298535987 ], [ -91.116948670002429, 32.666225531720094 ], [ -91.118776863998647, 32.668068786588542 ], [ -91.118905787569489, 32.6684295370993 ], [ -91.119221531070437, 32.668753125075483 ], [ -91.119425038172537, 32.669171993442674 ], [ -91.119673188004484, 32.669154640550367 ], [ -91.119905799574937, 32.669270251685901 ], [ -91.120021238300907, 32.669473640063167 ], [ -91.120244926805071, 32.669624760928379 ], [ -91.120999506807323, 32.670444574019001 ], [ -91.12122348417455, 32.670788797415447 ], [ -91.121205030102402, 32.671113735177542 ], [ -91.120884420442593, 32.671535344471067 ], [ -91.120105605025671, 32.671869966724444 ], [ -91.119863668249238, 32.671825480735727 ], [ -91.119699561201145, 32.671686319020964 ], [ -91.119341747296843, 32.671701080479423 ], [ -91.119108094886457, 32.67197814901148 ], [ -91.119443552298279, 32.672145321110889 ], [ -91.119770116338955, 32.672640804842985 ], [ -91.12002316699035, 32.672809317223454 ], [ -91.122213590965345, 32.67210352731189 ], [ -91.122513276855116, 32.67214333315119 ], [ -91.122734448771396, 32.672348664374312 ] ], [ [ -91.117473494337887, 32.670039474568412 ], [ -91.117650272033643, 32.670054477274782 ], [ -91.117843138676704, 32.669558938459176 ], [ -91.118063521368839, 32.669463514628433 ], [ -91.118316129883667, 32.669475152980546 ], [ -91.118423317549841, 32.669283195407054 ], [ -91.118094782716099, 32.668845848003414 ], [ -91.117666429014449, 32.668702523916423 ], [ -91.117427495978731, 32.668737930494125 ], [ -91.117100077931269, 32.668625367739551 ], [ -91.117089557599158, 32.668838983002772 ], [ -91.116942645781549, 32.669047918665669 ], [ -91.11717464345196, 32.668970029363962 ], [ -91.117416571000788, 32.669014520229311 ], [ -91.117588503585992, 32.669165197972212 ], [ -91.117678507220845, 32.669402589520359 ], [ -91.117634107109794, 32.669665662283037 ], [ -91.117416589062728, 32.669858443904594 ], [ -91.117473494337887, 32.670039474568412 ] ] ], [ [ [ -91.122952969409226, 32.67279458114443 ], [ -91.123252267410919, 32.672904721370152 ], [ -91.123419734444539, 32.673180880784152 ], [ -91.123319596699474, 32.673457341525463 ], [ -91.123029058760963, 32.673583150950996 ], [ -91.12268594121808, 32.673498557134522 ], [ -91.122520825356361, 32.673239185866692 ], [ -91.122620602745712, 32.672921500875681 ], [ -91.122952969409226, 32.67279458114443 ] ] ] ] } },
{ "type": "Feature", "properties": { "depth_bin": "110-115 ft", "bin_order": -112.5, "survey_id": "LM_07_FMB_20190622_CS_MB_4710_4715", "date": "2019-06-22", "year": 2019, "mile": 471.0 }, "geometry": { "type": "MultiPolygon", "coordinates": [ [ [ [ -91.122710912084997, 32.672317202455844 ], [ -91.122830586106033, 32.672587823859878 ], [ -91.122709371410522, 32.672832852528352 ], [ -91.123019642017269, 32.672789116064912 ], [ -91.123263451896136, 32.672917725804986 ], [ -91.123436223617347, 32.673208261791181 ], [ -91.123336085887871, 32.673484722545119 ], [ -91.122987590666739, 32.673625487104047 ], [ -91.12262318058761, 32.673502013341555 ], [ -91.12250266040175, 32.673135200194622 ], [ -91.122623876102466, 32.672890171772721 ], [ -91.122108511290421, 32.673052134508005 ], [ -91.122100351565635, 32.67328762622968 ], [ -91.121938935689926, 32.673507253464464 ], [ -91.121459132476815, 32.673772432329507 ], [ -91.120796692497251, 32.674392081269495 ], [ -91.120575844276672, 32.674509920203619 ], [ -91.12029180835296, 32.674576060993353 ], [ -91.119980176116627, 32.674546962457001 ], [ -91.11975546699648, 32.674440762613479 ], [ -91.119632548082024, 32.674263628242237 ], [ -91.118927928340568, 32.674558817044009 ], [ -91.115108297549384, 32.675373728065409 ], [ -91.113272002325559, 32.675596452150906 ], [ -91.113003214597938, 32.675510522042785 ], [ -91.112849763820691, 32.675313133617109 ], [ -91.112874133190317, 32.67500538942847 ], [ -91.113194842963708, 32.674806191981027 ], [ -91.116111851685929, 32.674390638417314 ], [ -91.117153258811456, 32.674094403223222 ], [ -91.118617842260932, 32.673839179791081 ], [ -91.119035037887883, 32.673694679552703 ], [ -91.1193166679965, 32.673432253026938 ], [ -91.119230016452221, 32.673044339224674 ], [ -91.119337817390146, 32.672845910074685 ], [ -91.119506438650973, 32.672744005167907 ], [ -91.119769475360172, 32.672727073853444 ], [ -91.120004819167789, 32.672831840672906 ], [ -91.120723532833296, 32.672571464425332 ], [ -91.12226293603382, 32.672171929150188 ], [ -91.122525112068629, 32.672196036920674 ], [ -91.122710912084997, 32.672317202455844 ] ] ], [ [ [ -91.119908458997216, 32.669271034337847 ], [ -91.119991294256323, 32.669464473627158 ], [ -91.119967536556956, 32.669666382167051 ], [ -91.11975235537372, 32.669909214540368 ], [ -91.119597274572797, 32.670347033653307 ], [ -91.119272118522304, 32.670566932133724 ], [ -91.118963659770685, 32.670936093913056 ], [ -91.118543421474882, 32.671006128353973 ], [ -91.118221564397444, 32.670777008585027 ], [ -91.118156372991393, 32.670358999945286 ], [ -91.118226290895777, 32.670162166224266 ], [ -91.118434394895829, 32.669981226192171 ], [ -91.118584654976516, 32.669344649335358 ], [ -91.118171770962775, 32.668798407124513 ], [ -91.11800868514409, 32.668317232461312 ], [ -91.117783738962487, 32.668214031888184 ], [ -91.117438798701144, 32.667833280170832 ], [ -91.11711176259206, 32.66774223482868 ], [ -91.116844399121248, 32.667501145457685 ], [ -91.116524183823827, 32.667494815206801 ], [ -91.116388846440572, 32.667583818322051 ], [ -91.116569838722214, 32.667788456168971 ], [ -91.116589729105655, 32.667997188018106 ], [ -91.116436912311272, 32.668207775179326 ], [ -91.116216531188584, 32.668303196219078 ], [ -91.115933107932747, 32.668263274522133 ], [ -91.115711109805943, 32.668039310040918 ], [ -91.115716784965088, 32.667749547571468 ], [ -91.115934731517655, 32.667542817055654 ], [ -91.115776351569792, 32.667377036363369 ], [ -91.115498914939252, 32.667430689368658 ], [ -91.115138075452109, 32.667287173950832 ], [ -91.114968752781564, 32.667529804627364 ], [ -91.114748371931981, 32.667625223100465 ], [ -91.114033787289031, 32.66742861078707 ], [ -91.113359976710072, 32.667388736801989 ], [ -91.1129525903727, 32.667546201932893 ], [ -91.112365427841496, 32.667599806930184 ], [ -91.111971324319811, 32.667766167294324 ], [ -91.111560269156612, 32.667687056366674 ], [ -91.110981861472624, 32.668028331901041 ], [ -91.10952776607192, 32.668333539655706 ], [ -91.109038624905864, 32.66817585171826 ], [ -91.108544567679033, 32.668160158509743 ], [ -91.108331367979716, 32.668026067295095 ], [ -91.108177517460774, 32.66773944594528 ], [ -91.107898377713283, 32.667793908474955 ], [ -91.107622515970434, 32.667696893776991 ], [ -91.107239036221486, 32.667198583392462 ], [ -91.107231891690418, 32.666923558362335 ], [ -91.107041022711968, 32.666764929643882 ], [ -91.107003821679584, 32.666510192130779 ], [ -91.107206084533971, 32.666269583902029 ], [ -91.111555793521205, 32.663878979025242 ], [ -91.113258680863083, 32.663081398752873 ], [ -91.113754417511828, 32.663007479268217 ], [ -91.11400535936923, 32.663112305833444 ], [ -91.114125823774515, 32.663254928070742 ], [ -91.114189303269285, 32.663558124605345 ], [ -91.114113241093108, 32.663757404527281 ], [ -91.112349400455344, 32.664709841990437 ], [ -91.110903257410072, 32.665698348255773 ], [ -91.110664232560367, 32.666250051546207 ], [ -91.110351362783547, 32.666450797499955 ], [ -91.110149992044782, 32.666995768429842 ], [ -91.11044459368739, 32.66693220826216 ], [ -91.111035961994119, 32.666516486212231 ], [ -91.111728025465951, 32.666479383625365 ], [ -91.112362749327502, 32.666347527460786 ], [ -91.112576600196377, 32.666190851611134 ], [ -91.113210300284962, 32.66610256864395 ], [ -91.113483991477025, 32.665910363945031 ], [ -91.113759671327486, 32.665900134667901 ], [ -91.113953930893786, 32.665770017070507 ], [ -91.114207732784493, 32.665739944650369 ], [ -91.114511962698074, 32.665358922379745 ], [ -91.114720219941134, 32.665245692546947 ], [ -91.114927343878449, 32.665240202806217 ], [ -91.115566420114135, 32.665426412179571 ], [ -91.116089793828138, 32.66536610015919 ], [ -91.116330961682635, 32.665499688021718 ], [ -91.116702672275181, 32.665867747223047 ], [ -91.117946546431085, 32.667262986957269 ], [ -91.118440968786018, 32.667712116511062 ], [ -91.118548488398531, 32.667944049821969 ], [ -91.118801754429654, 32.668094647788664 ], [ -91.119908458997216, 32.669271034337847 ] ], [ [ -91.108617669490954, 32.666413927370392 ], [ -91.108363165110447, 32.666569816906794 ], [ -91.108174288224035, 32.666657939368775 ], [ -91.108442962319614, 32.666578359104548 ], [ -91.108617669490954, 32.666413927370392 ] ] ], [ [ [ -91.118088331789082, 32.671013054705163 ], [ -91.118012656256852, 32.671222727374207 ], [ -91.117818513895912, 32.671352682990538 ], [ -91.11698899478084, 32.671405899102147 ], [ -91.116746816828254, 32.671212240356212 ], [ -91.116709302032291, 32.670901926461703 ], [ -91.11649691069502, 32.670873015666665 ], [ -91.116308343173927, 32.670737315875193 ], [ -91.116225513828894, 32.670543874409141 ], [ -91.116259556054175, 32.670370971831559 ], [ -91.116575163959808, 32.670123786813086 ], [ -91.116901502064792, 32.670128685977673 ], [ -91.117137854898218, 32.670351584848419 ], [ -91.117376376369307, 32.670337121092075 ], [ -91.117562115694852, 32.670414863682637 ], [ -91.11771284580044, 32.670606431568253 ], [ -91.117980002635136, 32.670738341248097 ], [ -91.118088331789082, 32.671013054705163 ] ] ], [ [ [ -91.1168228747444, 32.668936359313818 ], [ -91.116867458384149, 32.669211145371349 ], [ -91.1167460513159, 32.669444121557817 ], [ -91.116519657711351, 32.669601761488281 ], [ -91.116256629900221, 32.669618686271392 ], [ -91.116038280377225, 32.669527402830795 ], [ -91.115902170797128, 32.669376021857758 ], [ -91.115747864561513, 32.668737227282818 ], [ -91.115933983274203, 32.668510447415109 ], [ -91.116287668094529, 32.668461202146055 ], [ -91.116536639583856, 32.66859045966828 ], [ -91.1168228747444, 32.668936359313818 ] ] ] ] } },
{ "type": "Feature", "properties": { "depth_bin": "115-120 ft", "bin_order": -117.5, "survey_id": "LM_07_FMB_20190622_CS_MB_4710_4715", "date": "2019-06-22", "year": 2019, "mile": 471.0 }, "geometry": { "type": "MultiPolygon", "coordinates": [ [ [ [ -91.122590583689416, 32.672250594787521 ], [ -91.122947717213989, 32.672580944509861 ], [ -91.122994561053147, 32.672763581349692 ], [ -91.123219531149488, 32.67287744261975 ], [ -91.123408208133128, 32.673132628252745 ], [ -91.123435108014277, 32.673320184526666 ], [ -91.123336327773472, 32.673512205854493 ], [ -91.123013536791532, 32.67366570311934 ], [ -91.122672696906164, 32.673593267323028 ], [ -91.121983920263574, 32.673616097151857 ], [ -91.121462806011991, 32.673821944825619 ], [ -91.120861802992252, 32.67440541505556 ], [ -91.120608700868729, 32.674550941308915 ], [ -91.120275922271901, 32.674617387871251 ], [ -91.119972085438675, 32.674583959139476 ], [ -91.119753719992502, 32.674492681779093 ], [ -91.119626192164276, 32.67433244496776 ], [ -91.118912161899729, 32.674613885426226 ], [ -91.114622181833298, 32.675527922464994 ], [ -91.113263097384433, 32.675635109976305 ], [ -91.113036068140644, 32.675551545160417 ], [ -91.112899222966504, 32.675395280865914 ], [ -91.112904908804538, 32.675105519174728 ], [ -91.113179431184506, 32.674902484738027 ], [ -91.115399189441533, 32.674587321674061 ], [ -91.118634878427045, 32.673878072042243 ], [ -91.119049163325045, 32.673733206818042 ], [ -91.119386620982183, 32.673490900679319 ], [ -91.11926973145431, 32.673301783255255 ], [ -91.119262631247224, 32.673057877361778 ], [ -91.119539294120486, 32.672785027463441 ], [ -91.119818578137227, 32.672767994245959 ], [ -91.120015212535932, 32.672854381888051 ], [ -91.120779548488272, 32.67257377133221 ], [ -91.122344654552265, 32.672226384984597 ], [ -91.122590583689416, 32.672250594787521 ] ] ], [ [ [ -91.118655320932476, 32.668149118093893 ], [ -91.118982147872288, 32.668285912564635 ], [ -91.119619455480148, 32.669088660909402 ], [ -91.119645315229548, 32.669400177512479 ], [ -91.119395676296008, 32.669625006305516 ], [ -91.119148895302502, 32.669641835402437 ], [ -91.118883790633276, 32.669526426275695 ], [ -91.118250949337224, 32.66864185960943 ], [ -91.118297444925247, 32.66830407973012 ], [ -91.118655320932476, 32.668149118093893 ] ] ], [ [ [ -91.116706459245506, 32.665887184364678 ], [ -91.116844335588411, 32.666312320296377 ], [ -91.117040592804003, 32.66645803096695 ], [ -91.117124850950077, 32.666700593281703 ], [ -91.11699462157064, 32.666953729132842 ], [ -91.116676548767174, 32.667099653622259 ], [ -91.116204245783251, 32.667123149877526 ], [ -91.115830768202756, 32.666743718912123 ], [ -91.115413056442051, 32.666690267641791 ], [ -91.115082266163554, 32.666862231238916 ], [ -91.114563803899628, 32.666952991783674 ], [ -91.114103339898818, 32.666887491215917 ], [ -91.113865575288017, 32.666998563801236 ], [ -91.113251914912922, 32.667034253300393 ], [ -91.112957577429071, 32.667210345501765 ], [ -91.112705751084391, 32.667183641462685 ], [ -91.111974870598786, 32.667344441275752 ], [ -91.111494701715429, 32.667306697487241 ], [ -91.110984774317885, 32.667697911834054 ], [ -91.110176646074962, 32.667946511737931 ], [ -91.109078087652776, 32.667854526950421 ], [ -91.108889538037033, 32.667718816586508 ], [ -91.108696862383809, 32.667382531910178 ], [ -91.10875985091684, 32.667087739285634 ], [ -91.109300006440563, 32.666399764607625 ], [ -91.109513326359945, 32.665914971474088 ], [ -91.109734989939085, 32.665739547668828 ], [ -91.107576525803637, 32.666908762785816 ], [ -91.107177191330379, 32.666869401223423 ], [ -91.106995334506564, 32.666602063109622 ], [ -91.107029155669295, 32.666401680098254 ], [ -91.107189601586313, 32.666242200650736 ], [ -91.10872680347299, 32.665440844465607 ], [ -91.110585100116552, 32.66435223905097 ], [ -91.113580108447763, 32.662918260184618 ], [ -91.113906930908541, 32.663002978485636 ], [ -91.114505862661517, 32.663600190845251 ], [ -91.114596523732658, 32.663795052306362 ], [ -91.114562481470344, 32.663967954578027 ], [ -91.114127548197288, 32.664321546547761 ], [ -91.113085512079962, 32.664768448451419 ], [ -91.112655986598483, 32.665114014676824 ], [ -91.112216292518724, 32.665277125164366 ], [ -91.112075894288466, 32.665404858614458 ], [ -91.112185340915048, 32.665585566529195 ], [ -91.112417462040227, 32.66536787468533 ], [ -91.113265392813631, 32.665059689468798 ], [ -91.113522538325313, 32.665045236659154 ], [ -91.11375109512062, 32.66486427562738 ], [ -91.115221484764291, 32.664572659362236 ], [ -91.115642047863261, 32.664748148367302 ], [ -91.116706459245506, 32.665887184364678 ] ] ] ] } },
{ "type": "Feature", "properties": { "depth_bin": "120-125 ft", "bin_order": -122.5, "survey_id": "LM_07_FMB_20190622_CS_MB_4710_4715", "date": "2019-06-22", "year": 2019, "mile": 471.0 }, "geometry": { "type": "MultiPolygon", "coordinates": [ [ [ [ -91.12267743932054, 32.672334695309388 ], [ -91.123421850214058, 32.673193645126922 ], [ -91.123428840782523, 32.673423809405669 ], [ -91.123308282763091, 32.673606717088184 ], [ -91.123087894774784, 32.673702149909133 ], [ -91.122384936078845, 32.673711592690388 ], [ -91.121518742303365, 32.673864297767409 ], [ -91.120975294208506, 32.674377217872937 ], [ -91.12062530997359, 32.674592064347969 ], [ -91.120086420295934, 32.674651954385503 ], [ -91.119787249795877, 32.67455549320961 ], [ -91.119619729970225, 32.674398698520307 ], [ -91.11892889051569, 32.674668750365484 ], [ -91.118605026993251, 32.674670473650579 ], [ -91.11464591123115, 32.675559571965515 ], [ -91.113279464529072, 32.675648750664031 ], [ -91.113085602507255, 32.675586774052334 ], [ -91.112931957061434, 32.67542256232835 ], [ -91.112937642799722, 32.6751328006333 ], [ -91.113212165195947, 32.674929766126105 ], [ -91.114507489874853, 32.674812755515397 ], [ -91.115344246016249, 32.674658277913238 ], [ -91.118667767617595, 32.673920983133698 ], [ -91.119087227218941, 32.673771080803789 ], [ -91.119407698581355, 32.673574471050074 ], [ -91.119272245526773, 32.67312017523912 ], [ -91.119371033829623, 32.672928157403902 ], [ -91.119539655214396, 32.672826252457995 ], [ -91.119777656672071, 32.672803405832738 ], [ -91.119997953548491, 32.6728825768541 ], [ -91.120812163344439, 32.672587309063736 ], [ -91.122419252681581, 32.672290316369207 ], [ -91.12267743932054, 32.672334695309388 ] ], [ [ -91.120453916430961, 32.673576198908279 ], [ -91.120433344128884, 32.673673444865649 ], [ -91.12061114419933, 32.67351234076397 ], [ -91.120595051882717, 32.673516940442994 ], [ -91.120453916430961, 32.673576198908279 ] ] ], [ [ [ -91.11444558528116, 32.66354626410245 ], [ -91.115698431020945, 32.664820633583247 ], [ -91.115887457254715, 32.665236061760709 ], [ -91.115887258256151, 32.665692835950786 ], [ -91.115701145639008, 32.665919616055575 ], [ -91.11550482323598, 32.66597572778705 ], [ -91.115262904941233, 32.66593123354825 ], [ -91.11489304765675, 32.665550869767976 ], [ -91.114203801903827, 32.66561127289738 ], [ -91.113294271550629, 32.666103194507983 ], [ -91.113035720196905, 32.666138288777233 ], [ -91.112991049518001, 32.666355175146215 ], [ -91.112830613319602, 32.666514662385417 ], [ -91.112329468285694, 32.666555683991433 ], [ -91.111663176189637, 32.666867082629949 ], [ -91.111295047762653, 32.66684816086476 ], [ -91.11101102173906, 32.667004985920634 ], [ -91.11088447012267, 32.66722722103696 ], [ -91.110676203637908, 32.667340444118885 ], [ -91.110156119400742, 32.667451909901054 ], [ -91.109914200345813, 32.667407405304878 ], [ -91.109676092321919, 32.667197272825703 ], [ -91.10967115727307, 32.666837281157036 ], [ -91.109891505288232, 32.666500739577799 ], [ -91.110087709962642, 32.666390964267443 ], [ -91.110132339291511, 32.666103535466327 ], [ -91.110594608351889, 32.665662980893977 ], [ -91.110668770674465, 32.665424422950544 ], [ -91.111412177472758, 32.664785942799696 ], [ -91.107630559630479, 32.666852876254808 ], [ -91.107249845811765, 32.666862614646362 ], [ -91.107009822837512, 32.666630422751531 ], [ -91.107029037251081, 32.666387938380176 ], [ -91.107189483142449, 32.666228458931599 ], [ -91.110422998839795, 32.664394470291846 ], [ -91.113448632198484, 32.662876155254438 ], [ -91.113696155670212, 32.662879877032843 ], [ -91.113921067800888, 32.663013571273737 ], [ -91.114033870333216, 32.663199978162915 ], [ -91.114015271633406, 32.663385510991347 ], [ -91.11444558528116, 32.66354626410245 ] ], [ [ -91.112041136010163, 32.664460605642738 ], [ -91.112099345349591, 32.664425687226768 ], [ -91.112104517765076, 32.664421029229246 ], [ -91.112041136010163, 32.664460605642738 ] ] ] ] } },
{ "type": "Feature", "properties": { "depth_bin": "125-130 ft", "bin_order": -127.5, "survey_id": "LM_07_FMB_20190622_CS_MB_4710_4715", "date": "2019-06-22", "year": 2019, "mile": 471.0 }, "geometry": { "type": "MultiPolygon", "coordinates": [ [ [ [ -91.122652748111037, 32.672738577951002 ], [ -91.122978091319894, 32.672716383281987 ], [ -91.12322219064707, 32.672878225413996 ], [ -91.123431904485329, 32.673296836384495 ], [ -91.12333717437572, 32.673608397436261 ], [ -91.123072010134663, 32.67374347712569 ], [ -91.121541949952487, 32.673932242900804 ], [ -91.120863638966327, 32.674524705701849 ], [ -91.120537521125115, 32.674672411160614 ], [ -91.120038039036857, 32.674693484972089 ], [ -91.119628982317622, 32.674466554155913 ], [ -91.118929251332702, 32.674709975360521 ], [ -91.118565435374705, 32.6747277209628 ], [ -91.114662398191967, 32.675586954147143 ], [ -91.113296070507317, 32.67568987470959 ], [ -91.113069041093723, 32.675606309947895 ], [ -91.112918679940151, 32.675402769466338 ], [ -91.112978596771015, 32.67509852731061 ], [ -91.113261027423363, 32.674943204829248 ], [ -91.11450784867715, 32.67485398054972 ], [ -91.115399473998664, 32.674683672514568 ], [ -91.119080188082776, 32.673829648127871 ], [ -91.119419905837674, 32.673671769516375 ], [ -91.119361077369788, 32.673167200034577 ], [ -91.119481642607795, 32.672984296407741 ], [ -91.119661261700784, 32.672896860970404 ], [ -91.119977484983863, 32.672920339448495 ], [ -91.120724135558334, 32.672640172732208 ], [ -91.121019545578619, 32.6726092931982 ], [ -91.121325781225423, 32.672829646657199 ], [ -91.121352556028839, 32.673003461577558 ], [ -91.121272026915094, 32.673175415375496 ], [ -91.122428784771841, 32.672991052226159 ], [ -91.122652748111037, 32.672738577951002 ] ], [ [ -91.120401601406456, 32.673813614458552 ], [ -91.1205917591397, 32.673582003373305 ], [ -91.120878110499774, 32.673384720037653 ], [ -91.120378426163413, 32.67357609797974 ], [ -91.120401601406456, 32.673813614458552 ] ] ], [ [ [ -91.113658245024737, 32.664192054866483 ], [ -91.113943152512903, 32.664160672903748 ], [ -91.114159378359446, 32.664262653480549 ], [ -91.114288667583395, 32.664476442509603 ], [ -91.114260147734072, 32.664698186951107 ], [ -91.114025305346601, 32.664889894533452 ], [ -91.113725852848262, 32.664893578280505 ], [ -91.113694889224448, 32.665086492579498 ], [ -91.113534456615298, 32.665245980878929 ], [ -91.113133724796469, 32.665273291540522 ], [ -91.112842595422549, 32.665052445240192 ], [ -91.112831182007454, 32.664744162289125 ], [ -91.113108755694412, 32.66452529006154 ], [ -91.113426608967643, 32.664501418496158 ], [ -91.113502253626962, 32.664307441200044 ], [ -91.113658245024737, 32.664192054866483 ] ] ], [ [ [ -91.113622901542229, 32.662829644313639 ], [ -91.113855488750232, 32.662945266002787 ], [ -91.113973694704953, 32.663166773555638 ], [ -91.113921329417082, 32.66339888355337 ], [ -91.113666339799792, 32.663596064407699 ], [ -91.110883407357022, 32.664996131152918 ], [ -91.107824684944745, 32.666755481197782 ], [ -91.107412310720278, 32.66687878637034 ], [ -91.107061182689534, 32.666713159974265 ], [ -91.107003111196235, 32.666427741824073 ], [ -91.107189246254976, 32.666200975493233 ], [ -91.110373904947195, 32.664353546941655 ], [ -91.113305626754709, 32.662874969354 ], [ -91.113622901542229, 32.662829644313639 ] ] ], [ [ [ -91.11230676805323, 32.665051901307137 ], [ -91.112670592227104, 32.665072511659822 ], [ -91.112889486176712, 32.665302633254484 ], [ -91.112852203236002, 32.66563181027999 ], [ -91.11256389900494, 32.665817064506044 ], [ -91.112204212212987, 32.665766388748636 ], [ -91.112020586026034, 32.665527517455402 ], [ -91.112058348674907, 32.66525330759837 ], [ -91.11230676805323, 32.665051901307137 ] ] ] ] } },
{ "type": "Feature", "properties": { "depth_bin": "130-135 ft", "bin_order": -132.5, "survey_id": "LM_07_FMB_20190622_CS_MB_4710_4715", "date": "2019-06-22", "year": 2019, "mile": 471.0 }, "geometry": { "type": "MultiPolygon", "coordinates": [ [ [ [ -91.122716346715634, 32.672946390068354 ], [ -91.123003048354477, 32.672962607152989 ], [ -91.123371197305275, 32.673193363806078 ], [ -91.123436438571218, 32.673471342735269 ], [ -91.123309008397044, 32.673689167013535 ], [ -91.122780282902397, 32.673827767322585 ], [ -91.121881858878069, 32.673879903687521 ], [ -91.121421581275882, 32.674076757612788 ], [ -91.121009384148792, 32.674468821218362 ], [ -91.120521634075331, 32.674713738076299 ], [ -91.119989537298252, 32.674721273880657 ], [ -91.119627272949046, 32.67451978531124 ], [ -91.118897357580792, 32.674778887126664 ], [ -91.118371883501567, 32.674820514553758 ], [ -91.114581636969731, 32.675642426696434 ], [ -91.113328924251306, 32.675730897753319 ], [ -91.113101894702183, 32.675647333046697 ], [ -91.112951652770832, 32.675457534280227 ], [ -91.112989298955569, 32.675169582923147 ], [ -91.1132776332785, 32.674984328875361 ], [ -91.11452433547089, 32.674881362747342 ], [ -91.118387465046439, 32.674017974992282 ], [ -91.11870974687605, 32.674016703858655 ], [ -91.11944244983134, 32.673754473894974 ], [ -91.119538549825492, 32.673438396594591 ], [ -91.119794491396476, 32.673267072166887 ], [ -91.120042044421254, 32.67327078247294 ], [ -91.120261808279224, 32.673403829975186 ], [ -91.120372388346155, 32.673927833463139 ], [ -91.120657111142492, 32.673622820562819 ], [ -91.121162708807887, 32.673283898477699 ], [ -91.122508441550309, 32.673059307603296 ], [ -91.122716346715634, 32.672946390068354 ] ] ], [ [ [ -91.113850305794003, 32.662944630361558 ], [ -91.11394096482789, 32.663139492239303 ], [ -91.11390704107869, 32.663326136021489 ], [ -91.11355261984356, 32.663596771441789 ], [ -91.110853233929433, 32.664956432049372 ], [ -91.107905322938493, 32.666686270356067 ], [ -91.107395827606979, 32.666851403141415 ], [ -91.107044699713612, 32.666685776703581 ], [ -91.106986628286677, 32.666400358547044 ], [ -91.107154839322178, 32.666180325803175 ], [ -91.110373667102124, 32.664326063515823 ], [ -91.113289023246097, 32.662833845200574 ], [ -91.113590171894202, 32.662802362912281 ], [ -91.113850305794003, 32.662944630361558 ] ] ] ] } },
{ "type": "Feature", "properties": { "depth_bin": "135-140 ft", "bin_order": -137.5, "survey_id": "LM_07_FMB_20190622_CS_MB_4710_4715", "date": "2019-06-22", "year": 2019, "mile": 471.0 }, "geometry": { "type": "MultiPolygon", "coordinates": [ [ [ [ -91.12315048245415, 32.673099103352492 ], [ -91.123347348766359, 32.673219530780116 ], [ -91.123432630245887, 32.673379286316987 ], [ -91.123419164938198, 32.673595404724608 ], [ -91.123261863593967, 32.673781281181427 ], [ -91.122966608061589, 32.673872134650829 ], [ -91.12189990811622, 32.673899619866724 ], [ -91.121357315455356, 32.674159615718963 ], [ -91.121058126632562, 32.674468515232945 ], [ -91.120521875108025, 32.674741221395642 ], [ -91.119989778167891, 32.674748757200199 ], [ -91.119639974409182, 32.674562400364287 ], [ -91.118913845679387, 32.67480626873656 ], [ -91.118307249269719, 32.674862147425543 ], [ -91.114695611401146, 32.675669201855413 ], [ -91.113345410853597, 32.675758281013231 ], [ -91.113118381219579, 32.675674716333695 ], [ -91.112968139201456, 32.675484916683523 ], [ -91.11300590472284, 32.675210707000687 ], [ -91.113261863319423, 32.675039396596382 ], [ -91.114680129070209, 32.674896036536374 ], [ -91.118144713940552, 32.674129433856621 ], [ -91.118661062716555, 32.674085981623833 ], [ -91.119462173724941, 32.673808482696067 ], [ -91.119545534442182, 32.673532139601043 ], [ -91.119795454646564, 32.673377005472382 ], [ -91.120043007974644, 32.673380715787559 ], [ -91.120262772096325, 32.673513763294771 ], [ -91.120356930843997, 32.673991420890694 ], [ -91.120915232485515, 32.673501898471855 ], [ -91.121574058357723, 32.673212019609977 ], [ -91.122783457939718, 32.673057601617572 ], [ -91.12315048245415, 32.673099103352492 ] ] ], [ [ [ -91.113862774667226, 32.662976829916197 ], [ -91.113888987271466, 32.663252002342595 ], [ -91.113699433609682, 32.66346555250832 ], [ -91.110826457248464, 32.664938318207732 ], [ -91.108005986645054, 32.666599507167241 ], [ -91.107437418194422, 32.66682281360071 ], [ -91.107233007413157, 32.666794006243201 ], [ -91.107044462877411, 32.666658293268164 ], [ -91.106979276938219, 32.666380307196988 ], [ -91.107138237972379, 32.666139200825377 ], [ -91.110341175710346, 32.664326264696982 ], [ -91.113272658471686, 32.662820204458633 ], [ -91.113614212072889, 32.662797931851919 ], [ -91.113862774667226, 32.662976829916197 ] ] ] ] } },
{ "type": "Feature", "properties": { "depth_bin": "140-145 ft", "bin_order": -142.5, "survey_id": "LM_07_FMB_20190622_CS_MB_4710_4715", "date": "2019-06-22", "year": 2019, "mile": 471.0 }, "geometry": { "type": "MultiPolygon", "coordinates": [ [ [ [ -91.123183581548531, 32.673167607079264 ], [ -91.123347832560228, 32.67327449740089 ], [ -91.12343852186666, 32.673469353244656 ], [ -91.123404612853619, 32.673655999807835 ], [ -91.123244180766662, 32.673815500394589 ], [ -91.122899266305225, 32.673870781582913 ], [ -91.122649724622377, 32.673769357368592 ], [ -91.122334235499864, 32.673891550299039 ], [ -91.121785094335038, 32.67396296839334 ], [ -91.121386549211749, 32.674162348593597 ], [ -91.120945358816627, 32.674579162448524 ], [ -91.120489741553484, 32.674782650228515 ], [ -91.120022514139748, 32.674776036795123 ], [ -91.119641800770211, 32.674591417059339 ], [ -91.118962709718886, 32.674819706123884 ], [ -91.118252768718662, 32.67489820045941 ], [ -91.114712218029112, 32.675710325705495 ], [ -91.113361897458262, 32.675785663369048 ], [ -91.113134867739348, 32.675702098716613 ], [ -91.113000992729766, 32.675525940706038 ], [ -91.113038638796098, 32.67523798933275 ], [ -91.113310725621744, 32.675052836180569 ], [ -91.114696735551405, 32.674937160388161 ], [ -91.11808008461945, 32.674171065344851 ], [ -91.118672625469657, 32.674118449157817 ], [ -91.119823229284307, 32.673740142099447 ], [ -91.120142182256373, 32.673798788391217 ], [ -91.120322615117061, 32.674029560994114 ], [ -91.120915594219426, 32.673543123445491 ], [ -91.121606673562454, 32.673225557128134 ], [ -91.122371089728404, 32.673141802019231 ], [ -91.122662387293758, 32.673245588802054 ], [ -91.122937649690385, 32.673143398345104 ], [ -91.123183581548531, 32.673167607079264 ] ] ], [ [ [ -91.11322587273186, 32.66297899858197 ], [ -91.113401689820407, 32.66307177057643 ], [ -91.113514491316764, 32.663258177894214 ], [ -91.113390970932343, 32.663581790170589 ], [ -91.112361555021081, 32.664130655216823 ], [ -91.112107448891891, 32.664167330918104 ], [ -91.111849947737468, 32.664059531033921 ], [ -91.111730436653602, 32.663802642059544 ], [ -91.111860675574434, 32.663549511932175 ], [ -91.112900563840157, 32.66300116918805 ], [ -91.11322587273186, 32.66297899858197 ] ] ], [ [ [ -91.110734320756947, 32.66421574756707 ], [ -91.110961319498287, 32.664299315560434 ], [ -91.111095174769758, 32.664475475284348 ], [ -91.111090768820972, 32.664684850517055 ], [ -91.110949585871481, 32.66485686903615 ], [ -91.107726614366484, 32.666687373246951 ], [ -91.107353362508732, 32.666766584884613 ], [ -91.107068314461984, 32.666632128076863 ], [ -91.106979158521085, 32.666366564577274 ], [ -91.107170374715878, 32.666097774404719 ], [ -91.109310252301341, 32.664940591341562 ], [ -91.109774951861723, 32.664604618304736 ], [ -91.110490690362184, 32.664252938514508 ], [ -91.110734320756947, 32.66421574756707 ] ] ] ] } },
{ "type": "Feature", "properties": { "depth_bin": "145-150 ft", "bin_order": -147.5, "survey_id": "LM_07_FMB_20190622_CS_MB_4710_4715", "date": "2019-06-22", "year": 2019, "mile": 471.0 }, "geometry": { "type": "Polygon", "coordinates": [ [ [ -91.121736075507073, 32.67323340949622 ], [ -91.121982007166139, 32.673257620583954 ], [ -91.122170588809965, 32.673393312299069 ], [ -91.122238257064083, 32.673594748644028 ], [ -91.122162202867401, 32.673794033489202 ], [ -91.121968060434213, 32.673923995496203 ], [ -91.121725360427206, 32.673941405482807 ], [ -91.121139605324927, 32.674495488533879 ], [ -91.12052235717438, 32.674796188033966 ], [ -91.120071497687121, 32.674803214511407 ], [ -91.119720777734685, 32.674617207607433 ], [ -91.118979318125795, 32.674860829389068 ], [ -91.116884003157836, 32.675202735521665 ], [ -91.115119566584596, 32.675709482983621 ], [ -91.114371851429979, 32.675808642653649 ], [ -91.113418101554359, 32.675779241759464 ], [ -91.113201849527059, 32.675677259093597 ], [ -91.113098480059577, 32.67552533490408 ], [ -91.113136245207841, 32.675251125169673 ], [ -91.113392203688434, 32.675079814495419 ], [ -91.114574154943455, 32.67500473430237 ], [ -91.115335457380823, 32.674865568859239 ], [ -91.118064077461341, 32.674198650295544 ], [ -91.118661057221388, 32.674145520796372 ], [ -91.119661476900731, 32.673823610401925 ], [ -91.120010029684551, 32.673876858556582 ], [ -91.120261704651497, 32.67407866389911 ], [ -91.120441475331802, 32.674002761644736 ], [ -91.120917512836073, 32.673563973194781 ], [ -91.121209574521856, 32.673436845914509 ], [ -91.121428872246639, 32.673430667829081 ], [ -91.121736075507073, 32.67323340949622 ] ] ] } },
{ "type": "Feature", "properties": { "depth_bin": "150-155 ft", "bin_order": -152.5, "survey_id": "LM_07_FMB_20190622_CS_MB_4710_4715", "date": "2019-06-22", "year": 2019, "mile": 471.0 }, "geometry": { "type": "MultiPolygon", "coordinates": [ [ [ [ -91.121303951526187, 32.673541993698123 ], [ -91.121520208456587, 32.673643962571788 ], [ -91.121638446451954, 32.673865463750353 ], [ -91.121585852048668, 32.674070093626746 ], [ -91.12137727584269, 32.674307844137878 ], [ -91.120756495631184, 32.674728665337653 ], [ -91.120414501842433, 32.674809760417318 ], [ -91.120145708807186, 32.67472384544633 ], [ -91.11999696627953, 32.674478110854842 ], [ -91.120097235871825, 32.674215394864014 ], [ -91.120536133301329, 32.673962464939478 ], [ -91.120934121906544, 32.673605096184552 ], [ -91.121303951526187, 32.673541993698123 ] ] ], [ [ [ -91.119682466073243, 32.673923212389617 ], [ -91.119898721914311, 32.674025184020223 ], [ -91.120016956281631, 32.67424668658704 ], [ -91.119942209186206, 32.67448134944533 ], [ -91.119748062173414, 32.674611307829522 ], [ -91.119011813270092, 32.67486062592571 ], [ -91.118075411497472, 32.674955700363135 ], [ -91.11755978054012, 32.675138550779792 ], [ -91.117248854898776, 32.675114736922339 ], [ -91.11702218204023, 32.674916096856457 ], [ -91.117027974450465, 32.674640076168039 ], [ -91.117262837302775, 32.674448363944684 ], [ -91.119682466073243, 32.673923212389617 ] ] ], [ [ [ -91.11397008437892, 32.675101046726233 ], [ -91.114529041083856, 32.675134181638761 ], [ -91.114680104810901, 32.675254183961052 ], [ -91.114712399151756, 32.675593146029549 ], [ -91.114437877875773, 32.675796183851226 ], [ -91.113956077178969, 32.675767418370263 ], [ -91.113729410342884, 32.67556877257811 ], [ -91.113735213023958, 32.675292752442161 ], [ -91.11397008437892, 32.675101046726233 ] ] ] ] } }
]
}
