{
"type": "FeatureCollection",
"name": "LM_02_GCG_20250724_CS_3484_3454_depth_polygons",
"crs": { "type": "name", "properties": { "name": "urn:ogc:def:crs:OGC:1.3:CRS84" } },
"features": [
{ "type": "Feature", "properties": { "depth_bin": "10-11 ft", "survey_id": "LM_02_GCG_20250724_CS_3484_3454", "date": "2025-07-24 00:00:00+00:00", "year": 2025, "mile": 346.0, "bin_order": 7 }, "geometry": { "type": "MultiPolygon", "coordinates": [ [ [ [ -91.472075007190298, 31.367404890918738 ], [ -91.472384930905037, 31.367192758201547 ], [ -91.47273248930648, 31.3672718728338 ], [ -91.472865293318876, 31.367447645436712 ], [ -91.472869902018715, 31.367631239972901 ], [ -91.473079421160222, 31.367693574145719 ], [ -91.473231666061494, 31.367857330760213 ], [ -91.473258843623427, 31.36803111471605 ], [ -91.473162296548537, 31.368223516265267 ], [ -91.47287637546124, 31.368350303344275 ], [ -91.472569713605793, 31.368266480073849 ], [ -91.472436909071831, 31.368090707167077 ], [ -91.472432301231422, 31.367907112654404 ], [ -91.472222782095656, 31.367844777424605 ], [ -91.472087663286473, 31.367713235795996 ], [ -91.472075007190298, 31.367404890918738 ] ] ], [ [ [ -91.468749915382062, 31.37347214252901 ], [ -91.469001536339732, 31.373299939046866 ], [ -91.469321379925162, 31.373330827648527 ], [ -91.469522087657978, 31.373546714411741 ], [ -91.46948608725404, 31.373821136449958 ], [ -91.469234465707601, 31.373993340853328 ], [ -91.468914619924277, 31.373962451966438 ], [ -91.468713912780245, 31.373746564282001 ], [ -91.468749915382062, 31.37347214252901 ] ] ], [ [ [ -91.468734023097582, 31.376467644931907 ], [ -91.469243704330282, 31.376865217340701 ], [ -91.469302101152863, 31.377136789124407 ], [ -91.469119569788305, 31.377364246567613 ], [ -91.468803034117059, 31.377414347531186 ], [ -91.468589326943629, 31.377313039040189 ], [ -91.468481290452416, 31.377141683828963 ], [ -91.468229149720202, 31.377035013260116 ], [ -91.468115628144929, 31.376839736098106 ], [ -91.467894865788978, 31.37685074957384 ], [ -91.467681160906835, 31.376749439632906 ], [ -91.467571361011906, 31.376422571207311 ], [ -91.467753894090762, 31.376195115997909 ], [ -91.468070426087351, 31.37614501750172 ], [ -91.468284130075475, 31.376246326772279 ], [ -91.468397651345896, 31.376441603790717 ], [ -91.468734023097582, 31.376467644931907 ] ] ], [ [ [ -91.467557984486859, 31.381925640054931 ], [ -91.468935880146361, 31.382294292338447 ], [ -91.469083654625749, 31.382539626907011 ], [ -91.468985935602419, 31.382802749038273 ], [ -91.468699964277846, 31.382929524920506 ], [ -91.467427029281893, 31.382616565388492 ], [ -91.467264579398645, 31.382510163018804 ], [ -91.467174290642021, 31.382315533414822 ], [ -91.467272014093354, 31.382052412792053 ], [ -91.467557984486859, 31.381925640054931 ] ] ], [ [ [ -91.468191855243091, 31.384710092371545 ], [ -91.468443508040437, 31.384537891275212 ], [ -91.468763389317715, 31.384568782439139 ], [ -91.468964118515999, 31.384784670440219 ], [ -91.468928110776773, 31.38505909166707 ], [ -91.468676457390302, 31.385231293685024 ], [ -91.468356573913923, 31.385200402235732 ], [ -91.468155845304764, 31.384984513313015 ], [ -91.468191855243091, 31.384710092371545 ] ] ], [ [ [ -91.469296223034775, 31.384875776030722 ], [ -91.469588047385585, 31.384695447845868 ], [ -91.470021733786453, 31.384780624871709 ], [ -91.470222466380349, 31.384996511002555 ], [ -91.470186462178475, 31.385270932689416 ], [ -91.469894637083542, 31.385451262200604 ], [ -91.469460947759529, 31.385366084657726 ], [ -91.469260216211211, 31.385150197377104 ], [ -91.469296223034775, 31.384875776030722 ] ] ], [ [ [ -91.470618612986243, 31.386598785087305 ], [ -91.470832343085661, 31.386700090801043 ], [ -91.470949934280313, 31.386921282083524 ], [ -91.470898971466241, 31.387126146157946 ], [ -91.470723922385943, 31.387272195241348 ], [ -91.469682792945989, 31.387310430397502 ], [ -91.469356182682859, 31.387117523685408 ], [ -91.469329091041459, 31.386842349089719 ], [ -91.469536750791477, 31.386631337300685 ], [ -91.470618612986243, 31.386598785087305 ] ] ], [ [ [ -91.472999184579137, 31.390179800552403 ], [ -91.4732299552646, 31.389987259483544 ], [ -91.473551844941184, 31.389991092501894 ], [ -91.473776296608747, 31.390189054347847 ], [ -91.473771829419661, 31.390465182335547 ], [ -91.473541058585866, 31.390657724364207 ], [ -91.473219166636852, 31.390653891246075 ], [ -91.472994715117636, 31.390455928440335 ], [ -91.472999184579137, 31.390179800552403 ] ] ], [ [ [ -91.467319266285372, 31.379214192219454 ], [ -91.467651981711413, 31.379029160764315 ], [ -91.468186087248611, 31.37917921173706 ], [ -91.468614551614678, 31.379437942327282 ], [ -91.468680718932205, 31.379603839775619 ], [ -91.468629755878197, 31.379808703142078 ], [ -91.468454717493756, 31.379954749611649 ], [ -91.468214602404927, 31.379992752309754 ], [ -91.467483972028404, 31.379704503154777 ], [ -91.46728325661789, 31.379488613128579 ], [ -91.467319266285372, 31.379214192219454 ] ] ], [ [ [ -91.463501850845617, 31.389728580280206 ], [ -91.463753525592537, 31.389556389231341 ], [ -91.464073421767694, 31.389587292576849 ], [ -91.464274150085515, 31.389803187758062 ], [ -91.464238126202815, 31.390077606957647 ], [ -91.463986450866187, 31.390249798928249 ], [ -91.463666552491489, 31.390218895297039 ], [ -91.463465824763375, 31.390002999194078 ], [ -91.463501850845617, 31.389728580280206 ] ] ], [ [ [ -91.465253562030057, 31.392334622569983 ], [ -91.46550524089308, 31.39216242827009 ], [ -91.46582514663632, 31.392193327535114 ], [ -91.4660258843696, 31.392409220196622 ], [ -91.465989864234359, 31.392683639913376 ], [ -91.465738184781713, 31.392855835135123 ], [ -91.465418276838605, 31.392824935584482 ], [ -91.465217539694933, 31.392609042001119 ], [ -91.465253562030057, 31.392334622569983 ] ] ] ] } },
{ "type": "Feature", "properties": { "depth_bin": "11-12 ft", "survey_id": "LM_02_GCG_20250724_CS_3484_3454", "date": "2025-07-24 00:00:00+00:00", "year": 2025, "mile": 346.0, "bin_order": 6 }, "geometry": { "type": "MultiPolygon", "coordinates": [ [ [ [ -91.468241517124227, 31.376776979801363 ], [ -91.468486706388049, 31.376551276723944 ], [ -91.468808549533733, 31.376555120179177 ], [ -91.469129859116833, 31.37682138052141 ], [ -91.469142505494403, 31.377129724983011 ], [ -91.468911759386572, 31.377322259809638 ], [ -91.468589913610188, 31.377318416529469 ], [ -91.468268603978913, 31.377052154848382 ], [ -91.468241517124227, 31.376776979801363 ] ] ], [ [ [ -91.468393693901589, 31.382186530735787 ], [ -91.46867650593083, 31.382201838597897 ], [ -91.468883803565262, 31.382367591755063 ], [ -91.468921478051499, 31.382608542239481 ], [ -91.468772424810993, 31.382815303663453 ], [ -91.468422380312305, 31.382886097966658 ], [ -91.468189175356258, 31.382765819790208 ], [ -91.467878449907573, 31.382758704318672 ], [ -91.467715999252391, 31.382652302499061 ], [ -91.467626857865397, 31.382386948325088 ], [ -91.467782536911258, 31.382145238768238 ], [ -91.46809184091147, 31.382068763405282 ], [ -91.468393693901589, 31.382186530735787 ] ] ], [ [ [ -91.469169106750002, 31.386837828474558 ], [ -91.469376766836177, 31.386626816955793 ], [ -91.469697533508594, 31.386603575539407 ], [ -91.469943507597094, 31.386781718668882 ], [ -91.46997060102693, 31.387056893194377 ], [ -91.469762941238173, 31.38726790567388 ], [ -91.469442172308391, 31.387291147179393 ], [ -91.469196197922486, 31.387113003089173 ], [ -91.469169106750002, 31.386837828474558 ] ] ], [ [ [ -91.471603987627375, 31.388427290914429 ], [ -91.472001402702205, 31.388317993479092 ], [ -91.472215138202515, 31.388419297033778 ], [ -91.472332734662501, 31.388640487163542 ], [ -91.472281773735745, 31.388845351801486 ], [ -91.472030115780001, 31.389017560177884 ], [ -91.471753357476715, 31.389004205813642 ], [ -91.471479125748772, 31.389120167139829 ], [ -91.471240312432144, 31.38907644875335 ], [ -91.471039569164617, 31.3888605639948 ], [ -91.471075572721873, 31.388586142180788 ], [ -91.471288178510974, 31.388425399955704 ], [ -91.471603987627375, 31.388427290914429 ] ] ], [ [ [ -91.472832664411754, 31.390256105699361 ], [ -91.473040324421376, 31.390045088331892 ], [ -91.473361102253591, 31.390021838103412 ], [ -91.473607092201206, 31.390199974619254 ], [ -91.473634196899724, 31.390475148603787 ], [ -91.473426537187919, 31.390686166932088 ], [ -91.473105757097997, 31.390709417249951 ], [ -91.472859766852565, 31.390531279773278 ], [ -91.472832664411754, 31.390256105699361 ] ] ], [ [ [ -91.463624505596499, 31.374032446579967 ], [ -91.463855253735275, 31.373839921263315 ], [ -91.464177086939884, 31.373843776042531 ], [ -91.464401481289372, 31.374041752911172 ], [ -91.464396989511684, 31.374317880382872 ], [ -91.464166241223751, 31.374510406658683 ], [ -91.463844405748588, 31.37450655177911 ], [ -91.463620011548258, 31.374308573951296 ], [ -91.463624505596499, 31.374032446579967 ] ] ], [ [ [ -91.467318687614252, 31.376215679674843 ], [ -91.467549434042013, 31.376023147701193 ], [ -91.467871275246097, 31.376026993450466 ], [ -91.46821404893879, 31.376266785567651 ], [ -91.468226692324905, 31.376575130046458 ], [ -91.467995945826431, 31.376767663224189 ], [ -91.467674102078703, 31.376763817706653 ], [ -91.467331328071296, 31.376524024149695 ], [ -91.467318687614252, 31.376215679674843 ] ] ], [ [ [ -91.467027033337047, 31.379100134481998 ], [ -91.467257787648634, 31.378907603363729 ], [ -91.467579638641965, 31.378911450160604 ], [ -91.467925192589448, 31.37914981702448 ], [ -91.467937835003866, 31.379458161379979 ], [ -91.467707080630575, 31.379650693707784 ], [ -91.467385227097679, 31.379646847149786 ], [ -91.467039672812874, 31.379408478833476 ], [ -91.467027033337047, 31.379100134481998 ] ] ] ] } },
{ "type": "Feature", "properties": { "depth_bin": "12-13 ft", "survey_id": "LM_02_GCG_20250724_CS_3484_3454", "date": "2025-07-24 00:00:00+00:00", "year": 2025, "mile": 346.0, "bin_order": 5 }, "geometry": { "type": "MultiPolygon", "coordinates": [ [ [ [ -91.474311358107158, 31.364844443856686 ], [ -91.474518956518182, 31.364633421383843 ], [ -91.474839647499635, 31.364610164579982 ], [ -91.475085576218277, 31.364788296902269 ], [ -91.475112681176526, 31.365063471530892 ], [ -91.474905083063021, 31.365274494963622 ], [ -91.474584389826745, 31.365297751856779 ], [ -91.474338460810571, 31.365119618574639 ], [ -91.474311358107158, 31.364844443856686 ] ] ], [ [ [ -91.472811286939987, 31.376601184706274 ], [ -91.473042023570599, 31.376408642526982 ], [ -91.47336386691552, 31.376412474536206 ], [ -91.473588287113998, 31.376610436065469 ], [ -91.473583821752584, 31.376886564614079 ], [ -91.473353084973667, 31.377079107752675 ], [ -91.473031239357852, 31.377075275643687 ], [ -91.472806819307678, 31.376877313155131 ], [ -91.472811286939987, 31.376601184706274 ] ] ], [ [ [ -91.471008184311728, 31.388441947236416 ], [ -91.471728602350893, 31.388390051727715 ], [ -91.471953858727403, 31.388537570313996 ], [ -91.47201889224587, 31.388774191139085 ], [ -91.471894177973226, 31.388992493484253 ], [ -91.471717417362385, 31.389080538431479 ], [ -91.471005794167198, 31.389186328065659 ], [ -91.470668871948149, 31.389078357060949 ], [ -91.470549827095553, 31.388821778925916 ], [ -91.470677142517204, 31.388568139687976 ], [ -91.471008184311728, 31.388441947236416 ] ] ], [ [ [ -91.472820452697604, 31.390133201617324 ], [ -91.473210418162651, 31.39007147568725 ], [ -91.473486901445511, 31.390315329517684 ], [ -91.473429194043362, 31.390619867469926 ], [ -91.473056106045902, 31.390826267695115 ], [ -91.472736201761947, 31.390795386546081 ], [ -91.472535451481178, 31.390579503958705 ], [ -91.472571451579014, 31.390305081676686 ], [ -91.472820452697604, 31.390133201617324 ] ] ], [ [ [ -91.470063749022756, 31.370323989145835 ], [ -91.470294475135944, 31.370131451415915 ], [ -91.470616296672944, 31.370135289633517 ], [ -91.470840696547256, 31.370333255493506 ], [ -91.470836224250917, 31.370609383958136 ], [ -91.470605497989212, 31.370801922647104 ], [ -91.470283674182042, 31.370798084329564 ], [ -91.470059274456261, 31.370600117510531 ], [ -91.470063749022756, 31.370323989145835 ] ] ], [ [ [ -91.468609104439878, 31.373415794010068 ], [ -91.468839841240509, 31.373223259326945 ], [ -91.469161673095513, 31.373227101532091 ], [ -91.4693860768745, 31.373425069984577 ], [ -91.469381599782068, 31.373701198128099 ], [ -91.469150862832777, 31.373893733770384 ], [ -91.468829028707262, 31.373889891465193 ], [ -91.468604625076949, 31.373691922053549 ], [ -91.468609104439878, 31.373415794010068 ] ] ], [ [ [ -91.46718278684375, 31.376142082697463 ], [ -91.467413533351518, 31.375949550969423 ], [ -91.467735374284231, 31.375953397051646 ], [ -91.467959781194111, 31.37615136803214 ], [ -91.467955299451617, 31.376427495873774 ], [ -91.467724552795033, 31.376620028561071 ], [ -91.467402709591497, 31.376616182378708 ], [ -91.467178302830462, 31.376418210438956 ], [ -91.46718278684375, 31.376142082697463 ] ] ], [ [ [ -91.466889666144951, 31.379027485489715 ], [ -91.467120420541832, 31.378834954619929 ], [ -91.467442271266748, 31.378838801753549 ], [ -91.46766668413602, 31.379036773362717 ], [ -91.467662201029142, 31.379312901042105 ], [ -91.467431446483388, 31.379505432871262 ], [ -91.467109593487351, 31.379501585637481 ], [ -91.466885180766951, 31.379303613068949 ], [ -91.466889666144951, 31.379027485489715 ] ] ], [ [ [ -91.460962092004877, 31.380396584126146 ], [ -91.461192861499399, 31.380204064466103 ], [ -91.461514715996287, 31.380207926624891 ], [ -91.461739119102376, 31.380405908273371 ], [ -91.461734618415903, 31.380682035125353 ], [ -91.461503848771912, 31.380874555744796 ], [ -91.461181992003773, 31.380870693485459 ], [ -91.460957589047126, 31.380672710877576 ], [ -91.460962092004877, 31.380396584126146 ] ] ], [ [ [ -91.467059025901804, 31.382089016876066 ], [ -91.46728978772822, 31.38189648602058 ], [ -91.467611648917071, 31.381900333064362 ], [ -91.467836069155311, 31.382098304532139 ], [ -91.467831586005772, 31.382374432101514 ], [ -91.467600824030484, 31.382566963916492 ], [ -91.467278960570155, 31.382563116772559 ], [ -91.467054540480788, 31.382365144345297 ], [ -91.467059025901804, 31.382089016876066 ] ] ], [ [ [ -91.468012479631824, 31.384733692863922 ], [ -91.468243246293341, 31.384541160514445 ], [ -91.468565116644342, 31.384545005454722 ], [ -91.468789545004938, 31.384742975441661 ], [ -91.46878506418004, 31.38501910302038 ], [ -91.468554297369749, 31.385211636329448 ], [ -91.468232424746944, 31.385207791289091 ], [ -91.468007996535164, 31.38500982034256 ], [ -91.468012479631824, 31.384733692863922 ] ] ] ] } },
{ "type": "Feature", "properties": { "depth_bin": "13-14 ft", "survey_id": "LM_02_GCG_20250724_CS_3484_3454", "date": "2025-07-24 00:00:00+00:00", "year": 2025, "mile": 346.0, "bin_order": 4 }, "geometry": { "type": "MultiPolygon", "coordinates": [ [ [ [ -91.469938685557352, 31.370259151462321 ], [ -91.470146305871353, 31.370048136939602 ], [ -91.470467015905569, 31.370024891718359 ], [ -91.470712949666407, 31.370203032470961 ], [ -91.470740042702374, 31.370478207439437 ], [ -91.470532422685579, 31.370689222922262 ], [ -91.470211710395859, 31.370712468232583 ], [ -91.469965776337816, 31.370534326519874 ], [ -91.469938685557352, 31.370259151462321 ] ] ], [ [ [ -91.468492902881835, 31.373320225711684 ], [ -91.46872363966817, 31.37312769123503 ], [ -91.469045471179939, 31.373131533721271 ], [ -91.469269874487821, 31.373329502364825 ], [ -91.469265397072363, 31.373605630497444 ], [ -91.469034660137339, 31.373798165933252 ], [ -91.468712826355073, 31.37379432334696 ], [ -91.468488423195893, 31.373596353744258 ], [ -91.468492902881835, 31.373320225711684 ] ] ], [ [ [ -91.468853020278615, 31.386589276383933 ], [ -91.469576407587923, 31.386614194961712 ], [ -91.469762991088842, 31.386749325719016 ], [ -91.469828018025794, 31.386985947502883 ], [ -91.469731442981626, 31.387178345069529 ], [ -91.469445459063678, 31.38730512213651 ], [ -91.468882276253112, 31.387302650370589 ], [ -91.468658000863869, 31.387219800661725 ], [ -91.468510220714251, 31.386974465574653 ], [ -91.468607945879683, 31.38671134415333 ], [ -91.468853020278615, 31.386589276383933 ] ] ], [ [ [ -91.471370198548641, 31.388557379764112 ], [ -91.471600968317091, 31.388364841560598 ], [ -91.471922852214647, 31.388368678490959 ], [ -91.472147296626304, 31.388566643004076 ], [ -91.47214282495473, 31.38884277085165 ], [ -91.471912055037777, 31.389035310014926 ], [ -91.471590168868005, 31.38903147298468 ], [ -91.471365724604837, 31.388833507511816 ], [ -91.471370198548641, 31.388557379764112 ] ] ], [ [ [ -91.470429893015265, 31.388727605286544 ], [ -91.470660665060876, 31.388535068856143 ], [ -91.470982549397576, 31.388538908165369 ], [ -91.471206992153157, 31.388736874269593 ], [ -91.47120251770032, 31.389013001988499 ], [ -91.470971745506134, 31.389205539378633 ], [ -91.470649858897175, 31.389201699969473 ], [ -91.470425416290198, 31.389003732905511 ], [ -91.470429893015265, 31.388727605286544 ] ] ], [ [ [ -91.472400757488955, 31.390379685993601 ], [ -91.47263152985596, 31.390187146063024 ], [ -91.472953420124469, 31.390190980605357 ], [ -91.473177870947595, 31.390388943468285 ], [ -91.473173401972332, 31.390665071370236 ], [ -91.472942629456909, 31.390857612260625 ], [ -91.472620736915985, 31.390853777618485 ], [ -91.472396286241249, 31.390655813795743 ], [ -91.472400757488955, 31.390379685993601 ] ] ], [ [ [ -91.467113237428265, 31.367426276936879 ], [ -91.467343961985137, 31.367233744398227 ], [ -91.467665773203549, 31.36723758970081 ], [ -91.467890160041279, 31.367435560389328 ], [ -91.467885679626775, 31.367711688597478 ], [ -91.467654954921102, 31.367904222095056 ], [ -91.46733314143286, 31.36790037669234 ], [ -91.467108754743933, 31.367702405044891 ], [ -91.467113237428265, 31.367426276936879 ] ] ], [ [ [ -91.467048613047211, 31.376068196136163 ], [ -91.467279359630865, 31.375875664650501 ], [ -91.467601200291483, 31.375879511061306 ], [ -91.467825606740675, 31.376077482264119 ], [ -91.467821124618752, 31.37635361009157 ], [ -91.467590377886268, 31.376546142536508 ], [ -91.467268534954854, 31.376542296025551 ], [ -91.467044128654507, 31.376344323863478 ], [ -91.467048613047211, 31.376068196136163 ] ] ], [ [ [ -91.466908733075996, 31.382039709979729 ], [ -91.467139495072232, 31.381847179399387 ], [ -91.467461356070302, 31.381851026814935 ], [ -91.467685775868858, 31.382048998533374 ], [ -91.467681292288333, 31.382325126085426 ], [ -91.467450530143196, 31.382517657625257 ], [ -91.467128666873677, 31.382513810109536 ], [ -91.466904247223994, 31.382315837431634 ], [ -91.466908733075996, 31.382039709979729 ] ] ], [ [ [ -91.467705173732725, 31.384647181640592 ], [ -91.467974992117533, 31.384443186560738 ], [ -91.468376312138133, 31.384472339615506 ], [ -91.468622278239366, 31.384650485078186 ], [ -91.46864936746276, 31.384925659827331 ], [ -91.468404155932674, 31.385151362242272 ], [ -91.467963781398652, 31.385133672477131 ], [ -91.467700689752206, 31.384923309083202 ], [ -91.467705173732725, 31.384647181640592 ] ] ], [ [ [ -91.465380572895896, 31.392303339074886 ], [ -91.465611363920615, 31.392110812454536 ], [ -91.465933259693784, 31.392114664829883 ], [ -91.466157699644128, 31.39231263960259 ], [ -91.466153209787237, 31.392588766514528 ], [ -91.465922418613445, 31.392781294094732 ], [ -91.465600520567634, 31.392777441619117 ], [ -91.46537608076639, 31.392579465886545 ], [ -91.465380572895896, 31.392303339074886 ] ] ], [ [ [ -91.464273223383486, 31.399283648852386 ], [ -91.464504034292844, 31.399091125053264 ], [ -91.464825953716428, 31.399094980973821 ], [ -91.465050407229413, 31.39929295793905 ], [ -91.465045912902511, 31.399569084406679 ], [ -91.464815101843925, 31.399761609165928 ], [ -91.464493180146931, 31.399757753145025 ], [ -91.464268726783175, 31.399559775219664 ], [ -91.464273223383486, 31.399283648852386 ] ] ] ] } },
{ "type": "Feature", "properties": { "depth_bin": "14-15 ft", "survey_id": "LM_02_GCG_20250724_CS_3484_3454", "date": "2025-07-24 00:00:00+00:00", "year": 2025, "mile": 346.0, "bin_order": 3 }, "geometry": { "type": "MultiPolygon", "coordinates": [ [ [ [ -91.471862497751573, 31.361594966173278 ], [ -91.472093198225892, 31.361402424148466 ], [ -91.472414990293203, 31.361406256900676 ], [ -91.472639374129244, 31.361604219326217 ], [ -91.472634908621202, 31.361880348398991 ], [ -91.472404207998565, 31.362072891382532 ], [ -91.472082413662093, 31.362069058530508 ], [ -91.471858029974356, 31.361871095146224 ], [ -91.471862497751573, 31.361594966173278 ] ] ], [ [ [ -91.471969555758164, 31.367302412930965 ], [ -91.472200270478851, 31.36710987132092 ], [ -91.472522082006364, 31.367113704427499 ], [ -91.472746479117404, 31.36731166693944 ], [ -91.472742012922808, 31.367587795780153 ], [ -91.472511298053789, 31.367780338349139 ], [ -91.472189484256447, 31.367776505142736 ], [ -91.471965087293739, 31.367578541671865 ], [ -91.471969555758164, 31.367302412930965 ] ] ], [ [ [ -91.469855235631002, 31.370115572583941 ], [ -91.470085961625017, 31.369923035220506 ], [ -91.470407782420395, 31.369926873938454 ], [ -91.470632181365048, 31.370124840139553 ], [ -91.47062770849557, 31.370400968586239 ], [ -91.470396982352995, 31.370593506908712 ], [ -91.470075159287504, 31.370589668090812 ], [ -91.469850760491383, 31.370391700930675 ], [ -91.469855235631002, 31.370115572583941 ] ] ], [ [ [ -91.470414012911121, 31.388516308400643 ], [ -91.470743926670607, 31.388533316560277 ], [ -91.470957661206498, 31.388634622180927 ], [ -91.471069766584421, 31.388820719259602 ], [ -91.471042455990059, 31.389028882032491 ], [ -91.470772630405008, 31.389232883220192 ], [ -91.470010801166453, 31.389263197114868 ], [ -91.469786359809063, 31.3890652289721 ], [ -91.46979083841488, 31.388789101438324 ], [ -91.469984056915393, 31.388611258578383 ], [ -91.470414012911121, 31.388516308400643 ] ] ], [ [ [ -91.472253830248576, 31.39043789379441 ], [ -91.472484603051598, 31.390245354144291 ], [ -91.472806493496563, 31.390249189061802 ], [ -91.473030944133257, 31.39044715217484 ], [ -91.473026474717841, 31.390723280055337 ], [ -91.472795701766401, 31.390915820665274 ], [ -91.472473809048978, 31.390911985647943 ], [ -91.472249358560703, 31.390714021575096 ], [ -91.472253830248576, 31.39043789379441 ] ] ], [ [ [ -91.468151115197628, 31.373030105772777 ], [ -91.46842089834098, 31.372826108295264 ], [ -91.468775839115693, 31.372875622793739 ], [ -91.469154165611556, 31.373234919618682 ], [ -91.469109818477023, 31.373572957756121 ], [ -91.468839735861977, 31.373723171532273 ], [ -91.468524960236593, 31.373665532410492 ], [ -91.468163758407641, 31.373338450387351 ], [ -91.468151115197628, 31.373030105772777 ] ] ], [ [ [ -91.466760553494396, 31.381987609167187 ], [ -91.466991315649253, 31.381795078857738 ], [ -91.467313176447291, 31.381798926639465 ], [ -91.467537595804416, 31.381996898604843 ], [ -91.467533111799582, 31.382273026139966 ], [ -91.467302349495824, 31.382465557408903 ], [ -91.466980486426294, 31.382461709527018 ], [ -91.466756067218085, 31.382263736602155 ], [ -91.466760553494396, 31.381987609167187 ] ] ], [ [ [ -91.467389884486053, 31.384597631313259 ], [ -91.467659703377166, 31.384393636912989 ], [ -91.468096590457591, 31.384452088766288 ], [ -91.468321017586476, 31.384650059537531 ], [ -91.468316535407183, 31.384926187059669 ], [ -91.468046716302197, 31.385130182822952 ], [ -91.467609826138045, 31.385071730705334 ], [ -91.467385399591819, 31.384873758717205 ], [ -91.467389884486053, 31.384597631313259 ] ] ], [ [ [ -91.468381540901618, 31.386784190061391 ], [ -91.468691538091704, 31.386572069210867 ], [ -91.469028719397727, 31.386644355494738 ], [ -91.469336834062517, 31.386598464951934 ], [ -91.469601977182947, 31.386755068143181 ], [ -91.469660379919759, 31.387026639589862 ], [ -91.46954228663715, 31.387209990011574 ], [ -91.469365527385989, 31.387298031775753 ], [ -91.468988169321335, 31.387233870960511 ], [ -91.468680052434507, 31.387279760588438 ], [ -91.46839418473958, 31.387092534098667 ], [ -91.468381540901618, 31.386784190061391 ] ] ] ] } },
{ "type": "Feature", "properties": { "depth_bin": "15-17.5 ft", "survey_id": "LM_02_GCG_20250724_CS_3484_3454", "date": "2025-07-24 00:00:00+00:00", "year": 2025, "mile": 346.0, "bin_order": 2 }, "geometry": { "type": "MultiPolygon", "coordinates": [ [ [ [ -91.474221172858662, 31.364705683985651 ], [ -91.474451876586556, 31.364513137897106 ], [ -91.474773679605036, 31.364516965072351 ], [ -91.474998075675089, 31.364714923674519 ], [ -91.474993616517523, 31.364991052917226 ], [ -91.474762912641538, 31.365183599964613 ], [ -91.474441107353499, 31.365179772689704 ], [ -91.474216711431552, 31.364981813128697 ], [ -91.474221172858662, 31.364705683985651 ] ] ], [ [ [ -91.469649868292848, 31.369904901968372 ], [ -91.469880594155825, 31.369712364965316 ], [ -91.47023947094776, 31.369731786793277 ], [ -91.470535190940694, 31.370014781477323 ], [ -91.470512556671366, 31.370322705422247 ], [ -91.470260946515836, 31.370494912291775 ], [ -91.469941112090012, 31.370464026320761 ], [ -91.469645392589712, 31.370181030297637 ], [ -91.469649868292848, 31.369904901968372 ] ] ], [ [ [ -91.467933141256069, 31.372813584183636 ], [ -91.468224929762528, 31.372633257655689 ], [ -91.468539701757066, 31.37269089740612 ], [ -91.468828609788488, 31.3729747871574 ], [ -91.468770900495684, 31.373279323664836 ], [ -91.468500818233267, 31.373429536743327 ], [ -91.468186043822882, 31.37337189682513 ], [ -91.467910497446368, 31.373121507244029 ], [ -91.467933141256069, 31.372813584183636 ] ] ], [ [ [ -91.466789132338405, 31.375906379623046 ], [ -91.467019879020825, 31.37571384860405 ], [ -91.467378777640633, 31.375733279139645 ], [ -91.4676901485999, 31.376003387649138 ], [ -91.467667502777601, 31.376311310468534 ], [ -91.467415871230116, 31.376483510916689 ], [ -91.467096017836568, 31.376452617250997 ], [ -91.466801771065676, 31.376214724107271 ], [ -91.466789132338405, 31.375906379623046 ] ] ], [ [ [ -91.466723213559803, 31.37853769262707 ], [ -91.467485338522906, 31.378913711110734 ], [ -91.467550355156646, 31.379150333970841 ], [ -91.467425644431103, 31.379368632361267 ], [ -91.467126575236946, 31.379470747466996 ], [ -91.465890855426295, 31.379058761194464 ], [ -91.465741351940011, 31.378939209303276 ], [ -91.465673740232603, 31.378737923856903 ], [ -91.465801053755513, 31.378484289061099 ], [ -91.466100121075058, 31.378382176978036 ], [ -91.466723213559803, 31.37853769262707 ] ] ], [ [ [ -91.467082436333598, 31.381733303975818 ], [ -91.467385410531563, 31.381952749652243 ], [ -91.467341051621176, 31.382290786397689 ], [ -91.467030033803866, 31.382445702292383 ], [ -91.466605038103879, 31.382338944456855 ], [ -91.466429951873778, 31.382107214291036 ], [ -91.466497144789756, 31.381837143604169 ], [ -91.466767254709353, 31.381686935816717 ], [ -91.467082436333598, 31.381733303975818 ] ] ], [ [ [ -91.468240179601779, 31.386745972603581 ], [ -91.468491837909198, 31.386573771637366 ], [ -91.468811726082308, 31.386604662894211 ], [ -91.46901245952283, 31.386820550896594 ], [ -91.468976450887197, 31.387094972032411 ], [ -91.468724791990581, 31.387267173920328 ], [ -91.468404901618158, 31.387236282378112 ], [ -91.468204168766789, 31.387020393454041 ], [ -91.468240179601779, 31.386745972603581 ] ] ], [ [ [ -91.469653391017104, 31.3887887862745 ], [ -91.469905052479575, 31.388616582678868 ], [ -91.470224948168692, 31.388647470637103 ], [ -91.470425689083626, 31.388863356603881 ], [ -91.470389683502404, 31.389137778159625 ], [ -91.470138021450836, 31.389309982677048 ], [ -91.469818123562135, 31.389279094433512 ], [ -91.469617383236283, 31.389063207544929 ], [ -91.469653391017104, 31.3887887862745 ] ] ], [ [ [ -91.472095275893835, 31.39046472945034 ], [ -91.472326049076145, 31.390272190099004 ], [ -91.472647939588825, 31.39027602541745 ], [ -91.472872389941983, 31.390473988798728 ], [ -91.472867920057894, 31.390750116657614 ], [ -91.472637146727166, 31.390942656968758 ], [ -91.472315253942028, 31.390938821550492 ], [ -91.472090803737288, 31.390740857209398 ], [ -91.472095275893835, 31.39046472945034 ] ] ], [ [ [ -91.464959945638384, 31.370510449114519 ], [ -91.465211565051789, 31.370338252962252 ], [ -91.465531396988041, 31.370369150668534 ], [ -91.465732089790407, 31.370585042977918 ], [ -91.465696079920619, 31.37085946375484 ], [ -91.465444459918174, 31.371031660828173 ], [ -91.465124625784441, 31.371000762836449 ], [ -91.464923933571129, 31.370784869606005 ], [ -91.464959945638384, 31.370510449114519 ] ] ], [ [ [ -91.461708117408577, 31.383763519948634 ], [ -91.461959778881265, 31.383591331858351 ], [ -91.462279654128693, 31.383622239035088 ], [ -91.462480366123998, 31.383838136675958 ], [ -91.462444340085511, 31.384112555522609 ], [ -91.462192678023129, 31.384284744534405 ], [ -91.461872800576842, 31.384253837071903 ], [ -91.461672089171245, 31.384037938509536 ], [ -91.461708117408577, 31.383763519948634 ] ] ], [ [ [ -91.464560538048076, 31.399108213714069 ], [ -91.464812236739945, 31.398936021575359 ], [ -91.46513216506429, 31.39896692327331 ], [ -91.465332914903726, 31.399182817214381 ], [ -91.465296889307908, 31.399457236307953 ], [ -91.465045190026188, 31.399629429368751 ], [ -91.46472525950125, 31.399598527385088 ], [ -91.46452451025165, 31.399382632521927 ], [ -91.464560538048076, 31.399108213714069 ] ] ] ] } },
{ "type": "Feature", "properties": { "depth_bin": "17.5-20 ft", "survey_id": "LM_02_GCG_20250724_CS_3484_3454", "date": "2025-07-24 00:00:00+00:00", "year": 2025, "mile": 346.0, "bin_order": 1 }, "geometry": { "type": "MultiPolygon", "coordinates": [ [ [ [ -91.474122761190557, 31.364597207172725 ], [ -91.474353464836682, 31.364404661256032 ], [ -91.474675267470843, 31.364408488666307 ], [ -91.474899663079114, 31.364606447429011 ], [ -91.474895203652807, 31.364882576663728 ], [ -91.474664499858591, 31.365075123539256 ], [ -91.474342694954899, 31.365071296029317 ], [ -91.47411829949472, 31.364873336307763 ], [ -91.474122761190557, 31.364597207172725 ] ] ], [ [ [ -91.469556371446188, 31.369792254832486 ], [ -91.469787097207103, 31.369599717991697 ], [ -91.470108916855708, 31.369603557424082 ], [ -91.470333314411675, 31.36980152411293 ], [ -91.470328840725031, 31.370077652534935 ], [ -91.470098114815542, 31.370270190334761 ], [ -91.469776292896853, 31.370266350802407 ], [ -91.46955189548946, 31.370068383154518 ], [ -91.469556371446188, 31.369792254832486 ] ] ], [ [ [ -91.467795770200112, 31.372752695843179 ], [ -91.468026506915379, 31.372560162605886 ], [ -91.46834833638782, 31.372564006779136 ], [ -91.468572736882621, 31.372761976569166 ], [ -91.468568257528204, 31.373038104636105 ], [ -91.468337520664164, 31.373230638832538 ], [ -91.468015688921312, 31.373226794559201 ], [ -91.467791288575256, 31.373028823810039 ], [ -91.467795770200112, 31.372752695843179 ] ] ], [ [ [ -91.46675020709381, 31.384546495396211 ], [ -91.467060200205225, 31.384334378300842 ], [ -91.467706303766874, 31.38436000493726 ], [ -91.467971437903614, 31.384516611264154 ], [ -91.468029834809954, 31.384788183349329 ], [ -91.467911741416685, 31.384971532318694 ], [ -91.467734985028187, 31.385059571950062 ], [ -91.467048703323627, 31.385042069384685 ], [ -91.466762845612848, 31.384854839516581 ], [ -91.46675020709381, 31.384546495396211 ] ] ], [ [ [ -91.468079558754354, 31.386755118704457 ], [ -91.468331217366341, 31.386582918064079 ], [ -91.468651105500157, 31.386613809721048 ], [ -91.468851838580619, 31.386829697963471 ], [ -91.468815829474991, 31.387104119038614 ], [ -91.468564170273822, 31.387276320600687 ], [ -91.468244279940663, 31.387245428658325 ], [ -91.468043547449412, 31.387029539494218 ], [ -91.468079558754354, 31.386755118704457 ] ] ], [ [ [ -91.469498217932482, 31.38882490775498 ], [ -91.469749879764194, 31.388652704477213 ], [ -91.470069775507554, 31.388683592824876 ], [ -91.470270516129943, 31.388899479024559 ], [ -91.470234510080758, 31.389173900520255 ], [ -91.469982847659935, 31.389346104719824 ], [ -91.469662949716991, 31.38931521608685 ], [ -91.469462209683712, 31.389099328965351 ], [ -91.469498217932482, 31.38882490775498 ] ] ], [ [ [ -91.471927872954964, 31.390467398530394 ], [ -91.472158646472636, 31.390274859491765 ], [ -91.472480536969243, 31.390278695230723 ], [ -91.472704986964331, 31.390476658893995 ], [ -91.472700516589896, 31.390752786731184 ], [ -91.472469742923792, 31.390945326729632 ], [ -91.472147850154741, 31.390941490890835 ], [ -91.471923400308086, 31.390743526267752 ], [ -91.471927872954964, 31.390467398530394 ] ] ], [ [ [ -91.466095325146583, 31.375558009775506 ], [ -91.466252831255929, 31.375397950000202 ], [ -91.466446193160166, 31.375341186229004 ], [ -91.466986113758153, 31.375494543855361 ], [ -91.467423015150089, 31.37579772703749 ], [ -91.467417492588368, 31.376137866500667 ], [ -91.467165861082549, 31.376310066462789 ], [ -91.466846008383612, 31.376279172194124 ], [ -91.466180090111564, 31.375952272585195 ], [ -91.466068008744188, 31.375766171673927 ], [ -91.466095325146583, 31.375558009775506 ] ] ], [ [ [ -91.46539810920892, 31.378518560249585 ], [ -91.465667914261175, 31.37831456943298 ], [ -91.466105502206617, 31.378369859371833 ], [ -91.466329911096366, 31.378567833208596 ], [ -91.466325424161951, 31.378843960735161 ], [ -91.466055618906466, 31.379047952916412 ], [ -91.465618027870391, 31.378992662712278 ], [ -91.465393619557744, 31.378794687657567 ], [ -91.46539810920892, 31.378518560249585 ] ] ], [ [ [ -91.465547912918126, 31.392220857149741 ], [ -91.465799590956323, 31.392048662241699 ], [ -91.466119496443952, 31.392079560763172 ], [ -91.466320234640548, 31.392295452981262 ], [ -91.466284215416181, 31.39256987281447 ], [ -91.466032536788418, 31.39274206864437 ], [ -91.465712629100921, 31.392711169837302 ], [ -91.46551189149389, 31.392495276697353 ], [ -91.465547912918126, 31.392220857149741 ] ] ], [ [ [ -91.463869689799225, 31.399467074459494 ], [ -91.46412139068012, 31.399294883758728 ], [ -91.46444131991494, 31.399325787211815 ], [ -91.464642068852967, 31.3995416821971 ], [ -91.464606041071846, 31.399816101012284 ], [ -91.464354339601016, 31.399988292635136 ], [ -91.46403440816556, 31.399957388896301 ], [ -91.463833659817453, 31.399741492988902 ], [ -91.463869689799225, 31.399467074459494 ] ] ] ] } },
{ "type": "Feature", "properties": { "depth_bin": "5-6 ft", "survey_id": "LM_02_GCG_20250724_CS_3484_3454", "date": "2025-07-24 00:00:00+00:00", "year": 2025, "mile": 346.0, "bin_order": 12 }, "geometry": { "type": "MultiPolygon", "coordinates": [ [ [ [ -91.474424835583179, 31.364918507277245 ], [ -91.474655539450708, 31.364725960831795 ], [ -91.474977343224822, 31.364729787519366 ], [ -91.475201740223852, 31.364927745788737 ], [ -91.47519728162446, 31.365203875048515 ], [ -91.474966577608839, 31.365396422452829 ], [ -91.474644771565153, 31.365392595665597 ], [ -91.4744203747142, 31.365194636437376 ], [ -91.474424835583179, 31.364918507277245 ] ] ], [ [ [ -91.471322422980165, 31.38328581440382 ], [ -91.471592229853556, 31.383081811290605 ], [ -91.471995987173955, 31.383108841629404 ], [ -91.472241956971828, 31.383286980288297 ], [ -91.472269056569573, 31.383562154656083 ], [ -91.472023857083954, 31.383787864434776 ], [ -91.471581046194828, 31.383772298522388 ], [ -91.471317949821128, 31.383561942372541 ], [ -91.471322422980165, 31.38328581440382 ] ] ], [ [ [ -91.470945733858528, 31.386762757951399 ], [ -91.471176499909234, 31.38657022034673 ], [ -91.471498377621927, 31.386574058146604 ], [ -91.47172281700449, 31.38677202329055 ], [ -91.471718344405531, 31.387048151160716 ], [ -91.471487578206322, 31.387240689725061 ], [ -91.471165698221597, 31.387236851825289 ], [ -91.470941258987551, 31.387038885721655 ], [ -91.470945733858528, 31.386762757951399 ] ] ], [ [ [ -91.472834977936515, 31.388328317524582 ], [ -91.473233152034268, 31.388167848596535 ], [ -91.473487629801312, 31.388274831246225 ], [ -91.473605229131095, 31.388496020303354 ], [ -91.473507515673035, 31.38875914585303 ], [ -91.473221531576527, 31.388885931324463 ], [ -91.472899343727988, 31.388789747290744 ], [ -91.472583611462952, 31.388951197335977 ], [ -91.472276883736853, 31.388867371480021 ], [ -91.472129091597864, 31.388622040240509 ], [ -91.472226808696703, 31.388358915855303 ], [ -91.472471883088815, 31.388236841183616 ], [ -91.472834977936515, 31.388328317524582 ] ] ], [ [ [ -91.474332068783824, 31.389669237498293 ], [ -91.474719885841552, 31.389740222875126 ], [ -91.474866543121976, 31.390056276371677 ], [ -91.47467737623532, 31.390318690812695 ], [ -91.474254085698533, 31.39043132434897 ], [ -91.473972308476633, 31.39029777963934 ], [ -91.47388314301412, 31.390032429323572 ], [ -91.474007854247787, 31.389814124973494 ], [ -91.474332068783824, 31.389669237498293 ] ] ], [ [ [ -91.470722518886419, 31.370925439202214 ], [ -91.470992290493598, 31.37072143587616 ], [ -91.471347225062203, 31.370770943059856 ], [ -91.471711585989127, 31.371141076968261 ], [ -91.471667249287748, 31.371479116423533 ], [ -91.471397176645112, 31.37162933595874 ], [ -91.471082406110511, 31.371571703272647 ], [ -91.470735170527533, 31.371233783922513 ], [ -91.470722518886419, 31.370925439202214 ] ] ], [ [ [ -91.469759178585235, 31.380253034820576 ], [ -91.469989930459732, 31.380060498728707 ], [ -91.470311785795445, 31.380064338795478 ], [ -91.470536207707809, 31.380262305632527 ], [ -91.470531732779222, 31.380538433630022 ], [ -91.470300980756122, 31.380730970681302 ], [ -91.469979123149145, 31.380727130514575 ], [ -91.469754701385369, 31.380529162718094 ], [ -91.469759178585235, 31.380253034820576 ] ] ], [ [ [ -91.470074727784834, 31.384986112122295 ], [ -91.47023224379781, 31.384826047974251 ], [ -91.470425623142077, 31.384769278826489 ], [ -91.471085332621129, 31.384947264400694 ], [ -91.471309767383829, 31.385145230163982 ], [ -91.471305293861676, 31.385421358050941 ], [ -91.471035479481571, 31.385625360253062 ], [ -91.47059758343282, 31.385574184550475 ], [ -91.470132225919144, 31.38535380839177 ], [ -91.470041928692908, 31.385159180612739 ], [ -91.470074727784834, 31.384986112122295 ] ] ], [ [ [ -91.465297887009186, 31.402538267492012 ], [ -91.465528704166971, 31.402345742131157 ], [ -91.465850634853354, 31.402349595835549 ], [ -91.466075098046204, 31.402547571228322 ], [ -91.466070606145934, 31.402823697688394 ], [ -91.465839788839006, 31.403016224009505 ], [ -91.465517855878829, 31.403012370204838 ], [ -91.465293392835122, 31.402814393851809 ], [ -91.465297887009186, 31.402538267492012 ] ] ], [ [ [ -91.467379732057296, 31.405179785051814 ], [ -91.467610551831982, 31.404987256088734 ], [ -91.467932491849396, 31.404991104854449 ], [ -91.468156965621645, 31.405189076865007 ], [ -91.468152479351986, 31.405465203480674 ], [ -91.467921659428356, 31.405657733404105 ], [ -91.467599717136835, 31.405653884538239 ], [ -91.467375243513558, 31.405455911567319 ], [ -91.467379732057296, 31.405179785051814 ] ] ] ] } },
{ "type": "Feature", "properties": { "depth_bin": "6-7 ft", "survey_id": "LM_02_GCG_20250724_CS_3484_3454", "date": "2025-07-24 00:00:00+00:00", "year": 2025, "mile": 346.0, "bin_order": 11 }, "geometry": { "type": "MultiPolygon", "coordinates": [ [ [ [ -91.470605305581003, 31.370830871095126 ], [ -91.470836031916434, 31.37063833240963 ], [ -91.471157855262291, 31.370642169323947 ], [ -91.471382257472527, 31.370840134296348 ], [ -91.471377786670828, 31.371116262809043 ], [ -91.471147060186922, 31.371308802453612 ], [ -91.470825234570853, 31.371304965439396 ], [ -91.470600832509078, 31.371106999507912 ], [ -91.470605305581003, 31.370830871095126 ] ] ], [ [ [ -91.468893125405955, 31.382298287766439 ], [ -91.470189778880368, 31.382646999359643 ], [ -91.47030736390596, 31.382868191155453 ], [ -91.470209647874398, 31.383131314305544 ], [ -91.469964584296832, 31.383253385078248 ], [ -91.468803086444467, 31.382984507238163 ], [ -91.468555829490555, 31.382718572031102 ], [ -91.468623016881779, 31.382448500072474 ], [ -91.468893125405955, 31.382298287766439 ] ] ], [ [ [ -91.471165578665222, 31.383254191461667 ], [ -91.471396335388619, 31.383061653068928 ], [ -91.471718201169125, 31.383065489933969 ], [ -91.471942633004062, 31.383263454543926 ], [ -91.471938161663346, 31.383539582593645 ], [ -91.471707404791474, 31.383732121945926 ], [ -91.471385536739334, 31.383728284981004 ], [ -91.471161105052886, 31.383530319411499 ], [ -91.471165578665222, 31.383254191461667 ] ] ], [ [ [ -91.474861281692469, 31.384237071128531 ], [ -91.47511292158751, 31.384064856493914 ], [ -91.475432804178197, 31.384095731034442 ], [ -91.475633548136358, 31.384311609064447 ], [ -91.475597559957734, 31.384586032813527 ], [ -91.475345919474222, 31.384758248369849 ], [ -91.475026034684319, 31.384727373544393 ], [ -91.474825291314659, 31.38451149459268 ], [ -91.474861281692469, 31.384237071128531 ] ] ], [ [ [ -91.469934403160224, 31.384938046037949 ], [ -91.470186053552681, 31.384765841443468 ], [ -91.470505936360581, 31.384796728300863 ], [ -91.470706670128422, 31.385012613709669 ], [ -91.470670667321002, 31.385287035577026 ], [ -91.470419016339577, 31.385459241093177 ], [ -91.470099131332532, 31.385428353950516 ], [ -91.469898398153646, 31.385212467620057 ], [ -91.469934403160224, 31.384938046037949 ] ] ], [ [ [ -91.470784911348517, 31.386781749531934 ], [ -91.471015677762978, 31.386589212229424 ], [ -91.471337555516243, 31.386593050435025 ], [ -91.47156199459242, 31.386791015850616 ], [ -91.4715575215196, 31.387067143699198 ], [ -91.471326754956593, 31.387259681961396 ], [ -91.47100487493131, 31.387255843655868 ], [ -91.47078043600365, 31.387057877280615 ], [ -91.470784911348517, 31.386781749531934 ] ] ], [ [ [ -91.472827724484262, 31.388181942617315 ], [ -91.473101641951772, 31.388244281490575 ], [ -91.473253918496653, 31.388408038639326 ], [ -91.473274477764107, 31.388616772056519 ], [ -91.473125423774135, 31.38882353835708 ], [ -91.472222462102508, 31.388978980102408 ], [ -91.471899497884124, 31.388843202547886 ], [ -91.471810339512658, 31.388577850963564 ], [ -91.471966018972481, 31.388336136534608 ], [ -91.472827724484262, 31.388181942617315 ] ] ], [ [ [ -91.473773980735828, 31.390003661880904 ], [ -91.474004749453769, 31.389811119347222 ], [ -91.474326638645891, 31.389814950401476 ], [ -91.474551091595856, 31.390012910934551 ], [ -91.47454662670485, 31.390289039029653 ], [ -91.474315857838661, 31.390481582523126 ], [ -91.473993966374138, 31.390477751369154 ], [ -91.473769513572435, 31.390279789876288 ], [ -91.473773980735828, 31.390003661880904 ] ] ], [ [ [ -91.469369545995676, 31.373923794076486 ], [ -91.469600282592268, 31.373731258029473 ], [ -91.469922116293247, 31.373735098382188 ], [ -91.470146522886949, 31.373933065578807 ], [ -91.470142047929187, 31.374209193798695 ], [ -91.469911311184006, 31.374401730804891 ], [ -91.469589475212445, 31.374397890352185 ], [ -91.46936506876736, 31.374199922196375 ], [ -91.469369545995676, 31.373923794076486 ] ] ], [ [ [ -91.469014467497203, 31.377254028718777 ], [ -91.469245213230622, 31.377061493693166 ], [ -91.469604117694956, 31.377080918174759 ], [ -91.469919021282564, 31.377345547346692 ], [ -91.469896382202379, 31.377653470721675 ], [ -91.469644750844367, 31.377825675525852 ], [ -91.469324891947224, 31.3777947872574 ], [ -91.469027113493269, 31.377562373161414 ], [ -91.469014467497203, 31.377254028718777 ] ] ], [ [ [ -91.468482064210974, 31.379677349308047 ], [ -91.468733702677142, 31.379505147061721 ], [ -91.469053567089688, 31.379536036977978 ], [ -91.469254286768447, 31.379751924364541 ], [ -91.469218282431399, 31.380026345969863 ], [ -91.468966643376277, 31.380198549137628 ], [ -91.468646776765169, 31.380167658936067 ], [ -91.468446057675379, 31.379951770628075 ], [ -91.468482064210974, 31.379677349308047 ] ] ], [ [ [ -91.465183597899284, 31.402583896709096 ], [ -91.465435305065085, 31.402411703699382 ], [ -91.465755245407237, 31.402442604212702 ], [ -91.465956003768781, 31.402658497349449 ], [ -91.465919978207182, 31.402932916490276 ], [ -91.465668270451488, 31.403105110422231 ], [ -91.465348327908345, 31.403074209623206 ], [ -91.465147570136679, 31.40285831556422 ], [ -91.465183597899284, 31.402583896709096 ] ] ], [ [ [ -91.467134790338889, 31.405306729933159 ], [ -91.46738650159709, 31.405134533280528 ], [ -91.467706451995028, 31.405165429227605 ], [ -91.467907220485401, 31.405381319549544 ], [ -91.467871199192473, 31.405655739275975 ], [ -91.467619487344507, 31.405827936850979 ], [ -91.467299534745223, 31.4057970406183 ], [ -91.467098766844614, 31.405581149373987 ], [ -91.467134790338889, 31.405306729933159 ] ] ] ] } },
{ "type": "Feature", "properties": { "depth_bin": "7-8 ft", "survey_id": "LM_02_GCG_20250724_CS_3484_3454", "date": "2025-07-24 00:00:00+00:00", "year": 2025, "mile": 346.0, "bin_order": 10 }, "geometry": { "type": "MultiPolygon", "coordinates": [ [ [ [ -91.472634129101635, 31.36807764249852 ], [ -91.472864844482899, 31.36788509973244 ], [ -91.473186658751771, 31.367888931256459 ], [ -91.473411059079126, 31.368086892686311 ], [ -91.473406594691809, 31.368363021579309 ], [ -91.47317587916227, 31.368555565304348 ], [ -91.472854062623497, 31.368551733680569 ], [ -91.47262966244439, 31.368353771291751 ], [ -91.472634129101635, 31.36807764249852 ] ] ], [ [ [ -91.470374144704437, 31.370638875517411 ], [ -91.470604871006756, 31.37044633724242 ], [ -91.470963750820516, 31.370465757135605 ], [ -91.471262866774723, 31.370748362939533 ], [ -91.471240234593125, 31.371056287049722 ], [ -91.47098862368864, 31.371228495308078 ], [ -91.470668786469915, 31.371197611068013 ], [ -91.47036967099028, 31.370915003908628 ], [ -91.470374144704437, 31.370638875517411 ] ] ], [ [ [ -91.469826219094529, 31.373671453839545 ], [ -91.470041886127831, 31.373956897795757 ], [ -91.469885080800054, 31.374269336039088 ], [ -91.469535068986502, 31.37434013452021 ], [ -91.469164210420729, 31.374131110289259 ], [ -91.469075071917118, 31.373865756910291 ], [ -91.46923073231595, 31.373624044711882 ], [ -91.469540007062164, 31.373547564818448 ], [ -91.469826219094529, 31.373671453839545 ] ] ], [ [ [ -91.469926496123747, 31.380271871732297 ], [ -91.470178133710888, 31.380099666632038 ], [ -91.47049800076104, 31.380130553021438 ], [ -91.470698725049047, 31.38034643827412 ], [ -91.470662724592941, 31.380620860388586 ], [ -91.470411086416959, 31.380793066410327 ], [ -91.470091217168161, 31.380762179735715 ], [ -91.469890493468981, 31.380546293561537 ], [ -91.469926496123747, 31.380271871732297 ] ] ], [ [ [ -91.469146662899249, 31.38239361066913 ], [ -91.470764759967864, 31.382803070208514 ], [ -91.470912540034575, 31.38304840282866 ], [ -91.470814825462085, 31.383311526481283 ], [ -91.470609934538331, 31.383425473201889 ], [ -91.470365782305976, 31.383422560680554 ], [ -91.469705510330328, 31.383160209222119 ], [ -91.469495028762566, 31.383168202573227 ], [ -91.468945108752195, 31.382958955383092 ], [ -91.468649382125591, 31.382947438508442 ], [ -91.468411595955942, 31.382715966843953 ], [ -91.468447603998499, 31.382441545685023 ], [ -91.46869925011822, 31.38226934381769 ], [ -91.46890350630207, 31.38226317864822 ], [ -91.469146662899249, 31.38239361066913 ] ] ], [ [ [ -91.474690320430867, 31.384227591394943 ], [ -91.474921072705143, 31.384035046530347 ], [ -91.475242942334603, 31.384038874655307 ], [ -91.475467384061986, 31.384236833376612 ], [ -91.475462922862619, 31.38451296183862 ], [ -91.475232170440194, 31.384705507662808 ], [ -91.474910298538973, 31.384701679438191 ], [ -91.474685856959738, 31.384503719757312 ], [ -91.474690320430867, 31.384227591394943 ] ] ], [ [ [ -91.468754094563081, 31.377093131496007 ], [ -91.468984840399429, 31.376900596938846 ], [ -91.46934374416773, 31.37692002212842 ], [ -91.469664889398757, 31.377178878744409 ], [ -91.469642249555022, 31.377486802056819 ], [ -91.469390618212842, 31.377659006365842 ], [ -91.469070759989222, 31.377628117483411 ], [ -91.46876673970867, 31.377401475943678 ], [ -91.468754094563081, 31.377093131496007 ] ] ], [ [ [ -91.468167962580424, 31.379602637808606 ], [ -91.468500677841789, 31.379417604151982 ], [ -91.469168396631346, 31.379566967400891 ], [ -91.469392814919701, 31.379764936139132 ], [ -91.469388336733886, 31.380041064010346 ], [ -91.469230827678786, 31.380201127447886 ], [ -91.469037457178231, 31.380257895110667 ], [ -91.468369733784087, 31.380108531044272 ], [ -91.468145316935136, 31.379910560568039 ], [ -91.468167962580424, 31.379602637808606 ] ] ], [ [ [ -91.464915479173357, 31.402733742891652 ], [ -91.465167187217943, 31.40256155044122 ], [ -91.46548712794926, 31.402592451636881 ], [ -91.465687885982419, 31.402808345179317 ], [ -91.465651859567203, 31.403082764211547 ], [ -91.465400150932709, 31.40325495758422 ], [ -91.465080208000373, 31.40322405610284 ], [ -91.464879450557135, 31.403008161638152 ], [ -91.464915479173357, 31.402733742891652 ] ] ], [ [ [ -91.467254636503711, 31.405214379066297 ], [ -91.467506347299278, 31.40504218216082 ], [ -91.467826297437441, 31.405073077800232 ], [ -91.468027066023097, 31.405288967939903 ], [ -91.467991045124677, 31.405563387716207 ], [ -91.467739333739345, 31.40573558554404 ], [ -91.46741938139985, 31.405704689619039 ], [ -91.467218613403958, 31.405488798557005 ], [ -91.467254636503711, 31.405214379066297 ] ] ] ] } },
{ "type": "Feature", "properties": { "depth_bin": "8-9 ft", "survey_id": "LM_02_GCG_20250724_CS_3484_3454", "date": "2025-07-24 00:00:00+00:00", "year": 2025, "mile": 346.0, "bin_order": 9 }, "geometry": { "type": "MultiPolygon", "coordinates": [ [ [ [ -91.472259012799256, 31.367653902806033 ], [ -91.472504168137732, 31.367428190662903 ], [ -91.47286303712697, 31.367447604891854 ], [ -91.47313662620067, 31.36774703754929 ], [ -91.473114001264832, 31.368054962349166 ], [ -91.472862401857967, 31.368227174729995 ], [ -91.472542573948644, 31.368196295457913 ], [ -91.472268985574914, 31.367896861571854 ], [ -91.472259012799256, 31.367653902806033 ] ] ], [ [ [ -91.470936319090157, 31.386580128764777 ], [ -91.471314141531181, 31.386683390592975 ], [ -91.471423964920675, 31.387010256109924 ], [ -91.471205723759496, 31.387255495536895 ], [ -91.470764014268994, 31.38729513059954 ], [ -91.470498867635257, 31.387138529713894 ], [ -91.470440462412469, 31.386866958573929 ], [ -91.470623010063491, 31.386639500064661 ], [ -91.470936319090157, 31.386580128764777 ] ] ], [ [ [ -91.471668900367177, 31.388530289893044 ], [ -91.471876558929736, 31.388319274317869 ], [ -91.472197331033513, 31.388296026816597 ], [ -91.47244331432681, 31.388474165397078 ], [ -91.472470415343054, 31.388749339574201 ], [ -91.472262757078184, 31.388960356110161 ], [ -91.471941982716885, 31.388983603700716 ], [ -91.471695999125899, 31.388805464159464 ], [ -91.471668900367177, 31.388530289893044 ] ] ], [ [ [ -91.473927781103654, 31.389822495389378 ], [ -91.474170442511124, 31.38984591804682 ], [ -91.474332912839145, 31.389952312203064 ], [ -91.474423223208404, 31.390146937250528 ], [ -91.474390429838664, 31.39032000691801 ], [ -91.474159660587318, 31.390512550116679 ], [ -91.473774737264591, 31.39061545913188 ], [ -91.473532074016461, 31.390592035667503 ], [ -91.473307621958057, 31.390394073391541 ], [ -91.473312090493096, 31.390117945460609 ], [ -91.473505305417561, 31.389940097201826 ], [ -91.473927781103654, 31.389822495389378 ] ] ], [ [ [ -91.470276841452161, 31.370529478765437 ], [ -91.470507567668108, 31.370336940660152 ], [ -91.47082938993745, 31.370340778365613 ], [ -91.471053790744705, 31.370538743876637 ], [ -91.471049319035416, 31.370814872359919 ], [ -91.470818592670952, 31.371007411424259 ], [ -91.47049676813144, 31.371003573618875 ], [ -91.470272367472674, 31.370805607148789 ], [ -91.470276841452161, 31.370529478765437 ] ] ], [ [ [ -91.468977569609251, 31.373680798299542 ], [ -91.469208306358794, 31.37348826295759 ], [ -91.469530139172534, 31.373492104267221 ], [ -91.469754544358466, 31.373690072112094 ], [ -91.46975006829706, 31.373966200291797 ], [ -91.469519331398871, 31.374158736592932 ], [ -91.469197496314592, 31.374154895183274 ], [ -91.468973091277306, 31.373956926379236 ], [ -91.468977569609251, 31.373680798299542 ] ] ], [ [ [ -91.468769720612329, 31.37979858029821 ], [ -91.469000473275926, 31.379606046003563 ], [ -91.469322326913172, 31.379609888503687 ], [ -91.469546745634446, 31.379807856984851 ], [ -91.469542267891342, 31.380083984874112 ], [ -91.469311515079056, 31.380276520128159 ], [ -91.468989659170589, 31.380272677528005 ], [ -91.468765240598003, 31.380074708087449 ], [ -91.468769720612329, 31.37979858029821 ] ] ], [ [ [ -91.46849522088192, 31.384756221959648 ], [ -91.468725986653354, 31.384563688711722 ], [ -91.469047857153953, 31.384567532442869 ], [ -91.469272286616146, 31.384765501618261 ], [ -91.469267807199643, 31.385041629258417 ], [ -91.469037041279464, 31.385234163465935 ], [ -91.468715168507075, 31.385230319634729 ], [ -91.468490739193626, 31.385032349499742 ], [ -91.46849522088192, 31.384756221959648 ] ] ], [ [ [ -91.469754589736979, 31.38496247718852 ], [ -91.469985353560276, 31.384769941612696 ], [ -91.470307224953942, 31.384773782205588 ], [ -91.470531657627305, 31.384971749270665 ], [ -91.470527181859083, 31.385247877064636 ], [ -91.470296417887155, 31.385440413600058 ], [ -91.469974544221685, 31.385436572907196 ], [ -91.469750111696939, 31.385238604882506 ], [ -91.469754589736979, 31.38496247718852 ] ] ] ] } },
{ "type": "Feature", "properties": { "depth_bin": "9-10 ft", "survey_id": "LM_02_GCG_20250724_CS_3484_3454", "date": "2025-07-24 00:00:00+00:00", "year": 2025, "mile": 346.0, "bin_order": 8 }, "geometry": { "type": "MultiPolygon", "coordinates": [ [ [ [ -91.469136485435286, 31.364315928943892 ], [ -91.469367198145747, 31.364123392296001 ], [ -91.469688999071991, 31.364127232183023 ], [ -91.469913383200534, 31.364325199321925 ], [ -91.46990890924701, 31.364601327925602 ], [ -91.469678196387974, 31.364793865532302 ], [ -91.469356393192257, 31.364790025545286 ], [ -91.469132009212302, 31.364592057447577 ], [ -91.469136485435286, 31.364315928943892 ] ] ], [ [ [ -91.472187691785223, 31.367504005542362 ], [ -91.472497615593781, 31.36729187255828 ], [ -91.472875363645187, 31.367395127655641 ], [ -91.47297797882301, 31.367546759393484 ], [ -91.47297750269793, 31.367746800999182 ], [ -91.473201515179426, 31.367829611134312 ], [ -91.473334320825685, 31.368005383290001 ], [ -91.473341515636619, 31.368180616122881 ], [ -91.473223454542904, 31.36836397144458 ], [ -91.472924426423177, 31.368466101569325 ], [ -91.4726288163573, 31.368356891154153 ], [ -91.472526200928783, 31.368205259145064 ], [ -91.472526678054948, 31.368005217585697 ], [ -91.472302665806978, 31.367922406279344 ], [ -91.472183223923238, 31.367780134302716 ], [ -91.472187691785223, 31.367504005542362 ] ] ], [ [ [ -91.47019336100648, 31.370392503311251 ], [ -91.470444970998329, 31.370220296566885 ], [ -91.470764804821641, 31.370251181260791 ], [ -91.470965509714318, 31.370467065759751 ], [ -91.470929515056113, 31.37074148850353 ], [ -91.470677904475721, 31.370913696169019 ], [ -91.470358068454843, 31.37088281118999 ], [ -91.470157364150708, 31.3706669257699 ], [ -91.47019336100648, 31.370392503311251 ] ] ], [ [ [ -91.468873484012889, 31.373559508664083 ], [ -91.469125104995626, 31.373387304941904 ], [ -91.469444948929848, 31.373418193245723 ], [ -91.46964565713084, 31.373634079827756 ], [ -91.46960965704028, 31.373908501907561 ], [ -91.469358035468773, 31.374080706550963 ], [ -91.469038189336658, 31.374049817961911 ], [ -91.468837481724421, 31.37383393045867 ], [ -91.468873484012889, 31.373559508664083 ] ] ], [ [ [ -91.472671170642556, 31.376529088504448 ], [ -91.47290190736534, 31.376336546578766 ], [ -91.473223750443452, 31.376340378931712 ], [ -91.473448170172418, 31.376538340693454 ], [ -91.47344370441381, 31.376814469227103 ], [ -91.473212967542736, 31.377007012112074 ], [ -91.472891122193744, 31.37700317965934 ], [ -91.472666702613083, 31.376805216938315 ], [ -91.472671170642556, 31.376529088504448 ] ] ], [ [ [ -91.468729690140492, 31.384519971961311 ], [ -91.47024859426233, 31.384840740269627 ], [ -91.47039637592097, 31.385086073469157 ], [ -91.470298657566715, 31.385349196533298 ], [ -91.470132813051251, 31.385451678286085 ], [ -91.469889498395247, 31.385469309073834 ], [ -91.46964801293538, 31.385340879063282 ], [ -91.468596154461181, 31.385224535016672 ], [ -91.468370911278981, 31.385077010879748 ], [ -91.468312513241557, 31.384805438924349 ], [ -91.468495061684038, 31.38457798341193 ], [ -91.468729690140492, 31.384519971961311 ] ] ], [ [ [ -91.470323529888276, 31.386775456356261 ], [ -91.470575184652361, 31.386603251180347 ], [ -91.47089507383474, 31.386634137262696 ], [ -91.47109581224602, 31.386850022156839 ], [ -91.471059809630916, 31.387124444071457 ], [ -91.470808154277847, 31.387296650169116 ], [ -91.470488262896097, 31.387265763801523 ], [ -91.470287525073786, 31.38704987798565 ], [ -91.470323529888276, 31.386775456356261 ] ] ], [ [ [ -91.473152745663157, 31.390142892810204 ], [ -91.473383515953586, 31.38995035145081 ], [ -91.473705405527355, 31.38995418407967 ], [ -91.473929857444517, 31.390152145665311 ], [ -91.473925390711244, 31.390428273674395 ], [ -91.473694620272468, 31.390620815993604 ], [ -91.473372728426298, 31.390616983264987 ], [ -91.473148276657469, 31.390419020719524 ], [ -91.473152745663157, 31.390142892810204 ] ] ], [ [ [ -91.46775549593184, 31.376389951346713 ], [ -91.467894837533393, 31.376261684547146 ], [ -91.46812944540666, 31.376203673467607 ], [ -91.46863892623665, 31.37640745672347 ], [ -91.46880453818008, 31.37660472009447 ], [ -91.468789333961027, 31.3768412911026 ], [ -91.469109159764855, 31.376789155654095 ], [ -91.469374275633072, 31.37694575864715 ], [ -91.469441894203356, 31.377147042409224 ], [ -91.469367774934625, 31.377346634351106 ], [ -91.469097681642737, 31.377496848250466 ], [ -91.46878289334515, 31.377439209383823 ], [ -91.468617280060016, 31.377241945963871 ], [ -91.468632484818059, 31.377005375006394 ], [ -91.468272767441846, 31.377048428333641 ], [ -91.467794817836548, 31.376789443692385 ], [ -91.467704532926717, 31.376594814435631 ], [ -91.46775549593184, 31.376389951346713 ] ] ], [ [ [ -91.461705410342546, 31.376887412817748 ], [ -91.461957052927687, 31.376715223960936 ], [ -91.462276904961698, 31.376746130421751 ], [ -91.462477603015245, 31.376962027816628 ], [ -91.462441580473694, 31.377236447031134 ], [ -91.462189937299016, 31.377408636809182 ], [ -91.461870083066913, 31.377377730062655 ], [ -91.461669385602889, 31.377161831746545 ], [ -91.461705410342546, 31.376887412817748 ] ] ], [ [ [ -91.468011149084887, 31.379564545345641 ], [ -91.4682419026433, 31.379372012441177 ], [ -91.468563755368336, 31.379375856819298 ], [ -91.468788171904677, 31.379573826566212 ], [ -91.468783691983816, 31.379849954367508 ], [ -91.468552938276616, 31.380042488231371 ], [ -91.468231083280401, 31.380038643753164 ], [ -91.468006666892819, 31.379840673046857 ], [ -91.468011149084887, 31.379564545345641 ] ] ], [ [ [ -91.464315927561515, 31.399173859726265 ], [ -91.464675407239056, 31.399163025509669 ], [ -91.464922694005963, 31.399428968583027 ], [ -91.464830430393548, 31.399727180200262 ], [ -91.464457008436895, 31.399922447461314 ], [ -91.464142149222369, 31.399864795066524 ], [ -91.463967038542023, 31.399633061291901 ], [ -91.464034253144789, 31.399362993239841 ], [ -91.464315927561515, 31.399173859726265 ] ] ], [ [ [ -91.465044121256071, 31.402653328417895 ], [ -91.465295828855588, 31.402481135698164 ], [ -91.465615769371396, 31.402512036565543 ], [ -91.465816527544817, 31.402727929913034 ], [ -91.46578050154352, 31.40300234899782 ], [ -91.465528793354096, 31.403174542639796 ], [ -91.465208850637268, 31.40314364148669 ], [ -91.465008093053754, 31.402927747216975 ], [ -91.465044121256071, 31.402653328417895 ] ] ] ] } },
{ "type": "Feature", "properties": { "depth_bin": "<5 ft", "survey_id": "LM_02_GCG_20250724_CS_3484_3454", "date": "2025-07-24 00:00:00+00:00", "year": 2025, "mile": 346.0, "bin_order": 13 }, "geometry": { "type": "MultiPolygon", "coordinates": [ [ [ [ -91.475232190638124, 31.364949629719572 ], [ -91.479426268154938, 31.370233032827251 ], [ -91.479453386678784, 31.37050820676858 ], [ -91.479245785458176, 31.370719236983703 ], [ -91.478964963415535, 31.370751581695437 ], [ -91.478751259370057, 31.370650290176616 ], [ -91.477695700040968, 31.369283723159043 ], [ -91.477398075529237, 31.369026872971123 ], [ -91.474529917016625, 31.365340302782364 ], [ -91.474492233105963, 31.365099353081089 ], [ -91.474641244432064, 31.364892583152869 ], [ -91.474950486447923, 31.364816089046517 ], [ -91.475232190638124, 31.364949629719572 ] ] ], [ [ [ -91.47395299220041, 31.368591250210027 ], [ -91.477791092758437, 31.372866975260699 ], [ -91.477755116643081, 31.373141400429486 ], [ -91.477503511343372, 31.373313621622813 ], [ -91.477259384475403, 31.373310723059603 ], [ -91.477058277722378, 31.373191944076112 ], [ -91.473353437224887, 31.36909705917958 ], [ -91.472774634046971, 31.36856445375621 ], [ -91.472685489855905, 31.368299102507628 ], [ -91.472810172891684, 31.368080797774237 ], [ -91.473027057951526, 31.36798462353379 ], [ -91.47330671977403, 31.368023627891379 ], [ -91.47395299220041, 31.368591250210027 ] ] ], [ [ [ -91.475713098757723, 31.382161637366902 ], [ -91.477210438686569, 31.382905554548721 ], [ -91.477352745549396, 31.383115786340024 ], [ -91.477285582391033, 31.383385863634455 ], [ -91.477015483268701, 31.383536093929941 ], [ -91.476735773864149, 31.383497096229082 ], [ -91.475340887508892, 31.382807528262934 ], [ -91.474154237599365, 31.382474317409173 ], [ -91.472272927533425, 31.38154771583503 ], [ -91.471404617385346, 31.381354021703245 ], [ -91.470893889269703, 31.381059746086009 ], [ -91.470236336235388, 31.38082098495012 ], [ -91.4700781280646, 31.380688588560155 ], [ -91.469798507334431, 31.380649567234691 ], [ -91.469002401843014, 31.380246042781039 ], [ -91.468890310071842, 31.380059944113579 ], [ -91.468917621932562, 31.379851781587526 ], [ -91.469148374440877, 31.379659247022641 ], [ -91.469470228281779, 31.379663089157429 ], [ -91.470363499600424, 31.380150337701959 ], [ -91.471195917029277, 31.380387135419422 ], [ -91.471750649143814, 31.380696850234717 ], [ -91.472676042735557, 31.380918222015296 ], [ -91.474460561744777, 31.381803081140454 ], [ -91.475713098757723, 31.382161637366902 ] ] ], [ [ [ -91.475499774242863, 31.384108519792992 ], [ -91.477201403100793, 31.384598189587397 ], [ -91.477371657581969, 31.384748348810138 ], [ -91.477398772424181, 31.385023522526339 ], [ -91.477191133402187, 31.385234547782115 ], [ -91.476870372428195, 31.385257808165381 ], [ -91.475205797162104, 31.384783715061719 ], [ -91.475030797944797, 31.384662392742595 ], [ -91.474820730697061, 31.384670272132304 ], [ -91.473702438350443, 31.384396529245507 ], [ -91.472300033609613, 31.383983373867931 ], [ -91.471663647958579, 31.383646393922131 ], [ -91.471429458530736, 31.3837293977179 ], [ -91.470944799741858, 31.383673293256741 ], [ -91.470343055292489, 31.383377375055915 ], [ -91.47023323936773, 31.38305050869074 ], [ -91.470415779717797, 31.382823050124262 ], [ -91.470732332978741, 31.382772945775937 ], [ -91.471190332576043, 31.382983485517407 ], [ -91.471560386503171, 31.383038467516943 ], [ -91.471759972807675, 31.383192812458891 ], [ -91.47215723298099, 31.383125551703809 ], [ -91.472688393592236, 31.383346046634315 ], [ -91.474737633580659, 31.383874969538994 ], [ -91.475249813891821, 31.384107321157909 ], [ -91.475499774242863, 31.384108519792992 ] ] ], [ [ [ -91.472165064834755, 31.385062170161167 ], [ -91.477375838642061, 31.385794521777797 ], [ -91.477601098261715, 31.385942030581401 ], [ -91.477659523786016, 31.38621359913931 ], [ -91.477477202987117, 31.386440938810509 ], [ -91.477804867861465, 31.386496636403216 ], [ -91.477979990388363, 31.386728352036968 ], [ -91.477952695787422, 31.386936516856423 ], [ -91.477795188781101, 31.387096590748701 ], [ -91.476453580788885, 31.38724228657005 ], [ -91.471444600302803, 31.387244582394757 ], [ -91.471190127758732, 31.387137595836009 ], [ -91.471072535743701, 31.386916404754292 ], [ -91.471170253779775, 31.386653281145016 ], [ -91.47141532492293, 31.386531208363646 ], [ -91.476055552948949, 31.386530845413535 ], [ -91.477047301265145, 31.386472415270205 ], [ -91.471944697119895, 31.385757249636615 ], [ -91.471492718345146, 31.385637884864696 ], [ -91.470993656154107, 31.38563264339933 ], [ -91.470757335436787, 31.385509346660534 ], [ -91.470377907361041, 31.385467010472023 ], [ -91.470225640483136, 31.385303250147256 ], [ -91.470198464951636, 31.385129466019887 ], [ -91.470354142378724, 31.384887753373011 ], [ -91.470663453655064, 31.384811272058698 ], [ -91.470940512100256, 31.384940250799744 ], [ -91.471615345503025, 31.384924767312537 ], [ -91.472165064834755, 31.385062170161167 ] ] ], [ [ [ -91.477802950985648, 31.387520899652127 ], [ -91.477973211531975, 31.38767105820942 ], [ -91.478017531676301, 31.387877056524509 ], [ -91.477920972076262, 31.388069460742695 ], [ -91.477716078655874, 31.388183418684907 ], [ -91.475365839786733, 31.388497918135542 ], [ -91.47468386042361, 31.388671728401231 ], [ -91.473783535096103, 31.388743145660744 ], [ -91.47306086115951, 31.388901846324934 ], [ -91.472786941832055, 31.388839507310198 ], [ -91.472621300976016, 31.388642248488761 ], [ -91.472624691881322, 31.388432791542577 ], [ -91.472763162091468, 31.388260250448941 ], [ -91.473375998216056, 31.388086978333121 ], [ -91.474500473865021, 31.3879682995324 ], [ -91.475148060699979, 31.387803724098031 ], [ -91.477364000628754, 31.387500174657781 ], [ -91.477802950985648, 31.387520899652127 ] ] ], [ [ [ -91.477939050398732, 31.388640041914162 ], [ -91.478234729673417, 31.388749241986105 ], [ -91.478351200172355, 31.38904115218676 ], [ -91.478226499907791, 31.389259461143421 ], [ -91.47784126561227, 31.389444053142327 ], [ -91.474682424629364, 31.390341178470955 ], [ -91.474439761783572, 31.390317756739631 ], [ -91.474232437131576, 31.39015201189115 ], [ -91.47420533073381, 31.389876837966703 ], [ -91.474412986897207, 31.389665818237685 ], [ -91.477939050398732, 31.388640041914162 ] ] ], [ [ [ -91.47599428078513, 31.375275782891137 ], [ -91.476083440113172, 31.375541132070889 ], [ -91.475958753900727, 31.375759439669046 ], [ -91.475659704681121, 31.375861575402318 ], [ -91.475364068384039, 31.375752370569636 ], [ -91.474914828261277, 31.375248015435627 ], [ -91.473708732187887, 31.374208024424291 ], [ -91.472983881861879, 31.373373973790649 ], [ -91.471088261071017, 31.371610045168762 ], [ -91.470806471457209, 31.371233666253953 ], [ -91.470926820854245, 31.370909544438696 ], [ -91.471225858788245, 31.370807419329317 ], [ -91.471521474640141, 31.370916633133724 ], [ -91.473590447577834, 31.372878493670331 ], [ -91.474395685427837, 31.373794617609992 ], [ -91.475468961604193, 31.374708547060944 ], [ -91.47599428078513, 31.375275782891137 ] ] ], [ [ [ -91.475066017917769, 31.377763586567319 ], [ -91.476342582699971, 31.378712082337788 ], [ -91.476545746672713, 31.378973788867849 ], [ -91.476509763848981, 31.379248213243994 ], [ -91.476258139614217, 31.379420431239595 ], [ -91.475870363280848, 31.379349451730647 ], [ -91.474528158804205, 31.378313464835156 ], [ -91.47422178218099, 31.37799164531657 ], [ -91.473564517027782, 31.377590552066515 ], [ -91.472945310591456, 31.376964843654509 ], [ -91.472743991161423, 31.376936698654728 ], [ -91.472511638512501, 31.376796455936685 ], [ -91.471437113774542, 31.375816581079746 ], [ -91.470457700120022, 31.375209101364369 ], [ -91.469533585945612, 31.374343794458877 ], [ -91.469468567078493, 31.374107172379883 ], [ -91.469565128104762, 31.373914774219017 ], [ -91.46993350218429, 31.373788978868138 ], [ -91.470282524708125, 31.373958327307228 ], [ -91.471089636296483, 31.374734567815558 ], [ -91.471948866407658, 31.375244988924099 ], [ -91.473295353413903, 31.376461164376149 ], [ -91.473496672037868, 31.376489308484757 ], [ -91.473729138107629, 31.376630867832965 ], [ -91.474195233011443, 31.377114548344327 ], [ -91.474793423222664, 31.377463473040272 ], [ -91.475066017917769, 31.377763586567319 ] ] ], [ [ [ -91.473266468158073, 31.379267438510915 ], [ -91.476666403537379, 31.381244780727638 ], [ -91.476693515754135, 31.381519954639973 ], [ -91.476485883256899, 31.381730979061278 ], [ -91.476245766194509, 31.381768996751756 ], [ -91.476054303804688, 31.381707644912048 ], [ -91.472845303805556, 31.379889154257938 ], [ -91.472405791809635, 31.379553101451091 ], [ -91.469432139412135, 31.377842057983184 ], [ -91.469257053930235, 31.377610331567148 ], [ -91.469302527048171, 31.377370373596371 ], [ -91.469554157750792, 31.377198169433143 ], [ -91.469874014734188, 31.377229057069581 ], [ -91.472834646312194, 31.378934619918837 ], [ -91.473266468158073, 31.379267438510915 ] ] ], [ [ [ -91.471799972172889, 31.361260894445525 ], [ -91.472109204167751, 31.361184406840888 ], [ -91.472390893455227, 31.361317953351055 ], [ -91.472563691553489, 31.361636861141932 ], [ -91.472405464100945, 31.361913917243754 ], [ -91.472096229899776, 31.361990405485237 ], [ -91.471814539092776, 31.36185685829011 ], [ -91.471641743198845, 31.361537949568763 ], [ -91.471799972172889, 31.361260894445525 ] ] ], [ [ [ -91.471278134509603, 31.406409490960801 ], [ -91.471516991402311, 31.406453210574607 ], [ -91.471687274448357, 31.406603377831477 ], [ -91.471731587859793, 31.406809377577975 ], [ -91.471634994562891, 31.4070017754769 ], [ -91.471044683930756, 31.407397255120419 ], [ -91.469907923255619, 31.408366258355528 ], [ -91.469632032674568, 31.408422040291306 ], [ -91.469407707138728, 31.408339190519534 ], [ -91.469258442944351, 31.408058469441229 ], [ -91.469444910144929, 31.407734437900576 ], [ -91.470539043054345, 31.406821367252604 ], [ -91.471278134509603, 31.406409490960801 ] ] ], [ [ [ -91.46904259056852, 31.364007286430837 ], [ -91.469392564040106, 31.363936487960661 ], [ -91.469734674790629, 31.364139800677997 ], [ -91.469823807181626, 31.364405153750432 ], [ -91.469668164505862, 31.364646867543286 ], [ -91.469318188551298, 31.364717666679848 ], [ -91.468976076706852, 31.364514352830369 ], [ -91.468886946634711, 31.364248999246541 ], [ -91.46904259056852, 31.364007286430837 ] ] ], [ [ [ -91.466904857002149, 31.367027876205192 ], [ -91.467294729407215, 31.366966165103214 ], [ -91.467697486586488, 31.367212398064428 ], [ -91.467816498880524, 31.367468978553845 ], [ -91.467689206843303, 31.367722616426054 ], [ -91.467308258415414, 31.367816820987716 ], [ -91.466865613296434, 31.367561505560555 ], [ -91.46674920238938, 31.367269585978523 ], [ -91.466904857002149, 31.367027876205192 ] ] ], [ [ [ -91.465431590315688, 31.392185133197877 ], [ -91.465705513713075, 31.392247488058011 ], [ -91.465871145714587, 31.392444755448295 ], [ -91.465853292438354, 31.392687380558936 ], [ -91.465660057733416, 31.392865216561653 ], [ -91.463708293961758, 31.393391328487191 ], [ -91.463465626936824, 31.393367885822759 ], [ -91.463258315879429, 31.393202123703492 ], [ -91.463231241117199, 31.392926948588968 ], [ -91.463438928071199, 31.392715947746364 ], [ -91.465028957963227, 31.392238021793862 ], [ -91.465431590315688, 31.392185133197877 ] ] ], [ [ [ -91.466173848439425, 31.39500558619762 ], [ -91.466387592096709, 31.395106899655705 ], [ -91.466499695415948, 31.39529300050793 ], [ -91.466472372276499, 31.395501161718563 ], [ -91.466314831461119, 31.395661220207852 ], [ -91.465828403949558, 31.39590787882468 ], [ -91.465151018893224, 31.396081679468466 ], [ -91.463952989203037, 31.396647943434239 ], [ -91.463669746599763, 31.396656478932734 ], [ -91.46344448498364, 31.396508945758768 ], [ -91.463386095596121, 31.396237372255484 ], [ -91.46356867895048, 31.396009925249629 ], [ -91.464896006111829, 31.395396298893434 ], [ -91.465440158755129, 31.395272290668476 ], [ -91.465930508645428, 31.395023208625364 ], [ -91.466173848439425, 31.39500558619762 ] ] ], [ [ [ -91.465907347013797, 31.39844280059485 ], [ -91.466140033948435, 31.398506398893712 ], [ -91.466292313833847, 31.398670164205633 ], [ -91.466312858885857, 31.398878897992741 ], [ -91.46619474337686, 31.399062244314262 ], [ -91.465176852432762, 31.399558087105909 ], [ -91.464972558755676, 31.399564245103434 ], [ -91.464758806827675, 31.399462929076087 ], [ -91.464639766424682, 31.399206345948102 ], [ -91.464767112730911, 31.398952713942975 ], [ -91.465907347013797, 31.39844280059485 ] ] ], [ [ [ -91.466664375901729, 31.401903046543975 ], [ -91.466911675296231, 31.402168986082003 ], [ -91.466791267671667, 31.402493100871233 ], [ -91.465929963476682, 31.402945891349994 ], [ -91.465725662444669, 31.402952050309818 ], [ -91.465511902130245, 31.402850735316449 ], [ -91.465392855773359, 31.402594152814746 ], [ -91.465520205062475, 31.402340520272833 ], [ -91.46617230904873, 31.401934674747839 ], [ -91.466664375901729, 31.401903046543975 ] ] ], [ [ [ -91.468264212503641, 31.404609459374921 ], [ -91.46849691625512, 31.4046730538765 ], [ -91.468649209850128, 31.404836816688238 ], [ -91.468676386602681, 31.405010600719436 ], [ -91.468579789173987, 31.405202996225903 ], [ -91.468140879694829, 31.405558602047787 ], [ -91.467788912444917, 31.405600655241795 ], [ -91.467692311061711, 31.405793070571864 ], [ -91.467457759169079, 31.405932870567465 ], [ -91.467217577146684, 31.405970869103665 ], [ -91.46699325965794, 31.405888015330227 ], [ -91.466845456790466, 31.4056426782094 ], [ -91.466943208178165, 31.405379559570516 ], [ -91.467215321473574, 31.405225069200899 ], [ -91.467494023236753, 31.405215487360469 ], [ -91.467832519688727, 31.404789990808084 ], [ -91.468264212503641, 31.404609459374921 ] ] ], [ [ [ -91.464823017533746, 31.370224335375056 ], [ -91.465173016918911, 31.370153549335591 ], [ -91.465519541717072, 31.370333023767135 ], [ -91.465638551564567, 31.370589606093581 ], [ -91.465511249193455, 31.370843241359307 ], [ -91.465171019277918, 31.37094312244394 ], [ -91.464783759964206, 31.370757963413126 ], [ -91.464667352070492, 31.370466042161972 ], [ -91.464823017533746, 31.370224335375056 ] ] ], [ [ [ -91.462976412187629, 31.373464787935301 ], [ -91.463366313410177, 31.373403089782151 ], [ -91.464156841738728, 31.373814399346024 ], [ -91.464304591238289, 31.374059738906439 ], [ -91.464206868867322, 31.374322857583643 ], [ -91.464001990420925, 31.37443679426929 ], [ -91.463757862190505, 31.374433869916199 ], [ -91.462967330638591, 31.374022557818787 ], [ -91.462818135764508, 31.37374183016232 ], [ -91.462976412187629, 31.373464787935301 ] ] ], [ [ [ -91.460280711890192, 31.380008847534778 ], [ -91.46063075075088, 31.379938075286397 ], [ -91.461403775187222, 31.380169862728074 ], [ -91.461604478120648, 31.380385761549871 ], [ -91.461568451305297, 31.380660180253098 ], [ -91.461429094647499, 31.380788439602743 ], [ -91.461194471670041, 31.380846437877565 ], [ -91.46033951511005, 31.380606731717975 ], [ -91.460123863829253, 31.380321272182599 ], [ -91.460280711890192, 31.380008847534778 ] ] ], [ [ [ -91.458777010095531, 31.383222559011159 ], [ -91.459045132661274, 31.383143873117952 ], [ -91.459857740111843, 31.383280792591286 ], [ -91.460058445705428, 31.383496693832559 ], [ -91.460022412825765, 31.383771111788612 ], [ -91.459689666175194, 31.383956122282623 ], [ -91.458835804861195, 31.383820443350995 ], [ -91.458620151324141, 31.383534981333142 ], [ -91.458777010095531, 31.383222559011159 ] ] ], [ [ [ -91.46137933427211, 31.383597432474595 ], [ -91.461776114269369, 31.38352203442312 ], [ -91.462157370916543, 31.383617400776902 ], [ -91.462332449035117, 31.38384913647737 ], [ -91.462265242606449, 31.384119204467414 ], [ -91.461954210835188, 31.384274107538999 ], [ -91.461403044094439, 31.384176689558323 ], [ -91.461222483300844, 31.383909858222626 ], [ -91.46137933427211, 31.383597432474595 ] ] ], [ [ [ -91.462988363116168, 31.386699125474173 ], [ -91.463235613844347, 31.386965071091755 ], [ -91.463115215442329, 31.387289183387818 ], [ -91.462677194517696, 31.387417086988421 ], [ -91.462394882123249, 31.387396690778491 ], [ -91.462221054400743, 31.387304454148442 ], [ -91.462102034899871, 31.387047868913132 ], [ -91.462229370066154, 31.386794238655391 ], [ -91.462446308977931, 31.386698084325001 ], [ -91.462988363116168, 31.386699125474173 ] ] ], [ [ [ -91.463919751884816, 31.389631420772286 ], [ -91.464135434979838, 31.389916874581452 ], [ -91.464102622945376, 31.390089941016434 ], [ -91.463945087678411, 31.390249996885064 ], [ -91.463267482312929, 31.390361245634807 ], [ -91.462920404603807, 31.390196713504761 ], [ -91.462862019845645, 31.38992513967985 ], [ -91.463044591541376, 31.389697692850344 ], [ -91.463680941405784, 31.389587688375048 ], [ -91.463919751884816, 31.389631420772286 ] ] ], [ [ [ -91.459181863537225, 31.390313722545994 ], [ -91.459344316905103, 31.390420135174885 ], [ -91.459434596285561, 31.390614769785284 ], [ -91.459277726284384, 31.390927192236589 ], [ -91.458538138864057, 31.391078903636028 ], [ -91.458215188803663, 31.390943092045845 ], [ -91.458126067625585, 31.390677732207145 ], [ -91.458281785127724, 31.390436035723042 ], [ -91.458939205900109, 31.39029027159296 ], [ -91.459181863537225, 31.390313722545994 ] ] ], [ [ [ -91.457845973317077, 31.392046377155076 ], [ -91.458155317140523, 31.391969927197312 ], [ -91.458409786558249, 31.39207693950225 ], [ -91.458600746837888, 31.392670268087986 ], [ -91.458510771341537, 31.39282770726069 ], [ -91.458052060256264, 31.393134512835907 ], [ -91.457905765222108, 31.393332214345239 ], [ -91.45755567449325, 31.393402977330268 ], [ -91.457208287879297, 31.393145415973812 ], [ -91.457149918233242, 31.392873840141291 ], [ -91.457496540222209, 31.392473539837532 ], [ -91.457689760063474, 31.392363050278671 ], [ -91.457845973317077, 31.392046377155076 ] ] ], [ [ [ -91.459730319513653, 31.393847049592043 ], [ -91.459945998697776, 31.394132510172188 ], [ -91.459820094536141, 31.394421523927125 ], [ -91.459263733442427, 31.39459677269749 ], [ -91.458926806965707, 31.394488770721615 ], [ -91.458807788355728, 31.394232182701096 ], [ -91.458935142788093, 31.393978556591872 ], [ -91.459450588519374, 31.393808013472526 ], [ -91.459730319513653, 31.393847049592043 ] ] ], [ [ [ -91.461291828461782, 31.396953921209356 ], [ -91.461614803499884, 31.397089725733647 ], [ -91.461686722891358, 31.397424255909929 ], [ -91.461479021307653, 31.397635253301072 ], [ -91.461217304969452, 31.397728418104801 ], [ -91.461013296038999, 31.397717364542512 ], [ -91.460767311955138, 31.397539204190103 ], [ -91.460740243796735, 31.397264028923846 ], [ -91.460912245880323, 31.397070809420054 ], [ -91.461291828461782, 31.396953921209356 ] ] ], [ [ [ -91.463400038630127, 31.399802915159807 ], [ -91.463663160353533, 31.40001328794192 ], [ -91.463640492209564, 31.400321208326087 ], [ -91.463268427765712, 31.400545340562463 ], [ -91.462948494922912, 31.400514434065432 ], [ -91.46274774800618, 31.400298536516956 ], [ -91.462783781419475, 31.400024118424891 ], [ -91.463116786539658, 31.399811449124169 ], [ -91.463400038630127, 31.399802915159807 ] ] ] ] } },
{ "type": "Feature", "properties": { "depth_bin": ">20 ft", "survey_id": "LM_02_GCG_20250724_CS_3484_3454", "date": "2025-07-24 00:00:00+00:00", "year": 2025, "mile": 346.0, "bin_order": 0 }, "geometry": { "type": "MultiPolygon", "coordinates": [ [ [ [ -91.472050403416418, 31.361589248172091 ], [ -91.472390592708848, 31.361489347371144 ], [ -91.472696402165525, 31.361651623749516 ], [ -91.474266044005986, 31.363794148866063 ], [ -91.474767899600863, 31.364308057471192 ], [ -91.474861372454455, 31.364651312974434 ], [ -91.474672259558886, 31.364913730046343 ], [ -91.474396499532716, 31.364969526775781 ], [ -91.474172271096265, 31.364886687986733 ], [ -91.47399500890306, 31.364585464984362 ], [ -91.47352974286062, 31.364137437427715 ], [ -91.471970025057288, 31.362013552992721 ], [ -91.471925727885434, 31.361807552599362 ], [ -91.472050403416418, 31.361589248172091 ] ] ], [ [ [ -91.469889991270549, 31.364248702788547 ], [ -91.472601665544772, 31.367190090255882 ], [ -91.472628763623476, 31.367465265099401 ], [ -91.472421154616811, 31.367676284085665 ], [ -91.472100452854932, 31.367699534475587 ], [ -91.471776479768167, 31.367488458703679 ], [ -91.469799731134501, 31.365218836416048 ], [ -91.469298694031565, 31.364742159498633 ], [ -91.469231083497874, 31.364540875581657 ], [ -91.46930519181079, 31.364341283019279 ], [ -91.469575246231187, 31.36419106716113 ], [ -91.469889991270549, 31.364248702788547 ] ] ], [ [ [ -91.472280858786434, 31.390283376127325 ], [ -91.472543975487483, 31.390493730759577 ], [ -91.472499629630519, 31.390831769321395 ], [ -91.471573804002148, 31.391246151387509 ], [ -91.471010029809833, 31.391331792776754 ], [ -91.470157289417486, 31.39162466539376 ], [ -91.469011035285732, 31.39188572067383 ], [ -91.467726301401342, 31.392322839478457 ], [ -91.466988756722941, 31.392452776586783 ], [ -91.466186147072563, 31.392703326238401 ], [ -91.465903304274505, 31.392688011902571 ], [ -91.465678864018955, 31.392490036683938 ], [ -91.465683355246611, 31.392213909829191 ], [ -91.465914145450256, 31.392021382633988 ], [ -91.466705243748294, 31.391775335431113 ], [ -91.467456515164386, 31.391640245508245 ], [ -91.470821210858247, 31.390629810392682 ], [ -91.471311987702833, 31.390562150779704 ], [ -91.471882102535972, 31.390317436774165 ], [ -91.472280858786434, 31.390283376127325 ] ] ], [ [ [ -91.467818734731949, 31.367348826943516 ], [ -91.470199468169682, 31.369628288903574 ], [ -91.470257864195304, 31.369899860492023 ], [ -91.470075349834786, 31.37012732006902 ], [ -91.469882000692849, 31.370184089773257 ], [ -91.46964323578645, 31.370140369853988 ], [ -91.468869062091983, 31.369488394856756 ], [ -91.467262503860042, 31.367860897757868 ], [ -91.467196346395383, 31.367694999630505 ], [ -91.467247304842218, 31.36749013634973 ], [ -91.467498911986979, 31.367317935235377 ], [ -91.467818734731949, 31.367348826943516 ] ] ], [ [ [ -91.46817153858629, 31.386587767558932 ], [ -91.468559337624015, 31.386658771052335 ], [ -91.468708568615227, 31.386939492691667 ], [ -91.468550284371901, 31.3872165412483 ], [ -91.468164009805221, 31.387319740872172 ], [ -91.462975965993977, 31.387397823785779 ], [ -91.462680310095152, 31.387288589196949 ], [ -91.462562738205506, 31.387067390951255 ], [ -91.462660479870053, 31.386804274607467 ], [ -91.462946470694789, 31.386677512915469 ], [ -91.46817153858629, 31.386587767558932 ] ] ], [ [ [ -91.469879320146703, 31.388713599298331 ], [ -91.470065908122265, 31.388848729719641 ], [ -91.470130937042853, 31.3890853513461 ], [ -91.470006218037852, 31.389303651690092 ], [ -91.469789280162914, 31.389399818833997 ], [ -91.468850630513231, 31.389478283892046 ], [ -91.46852957425682, 31.389601944412579 ], [ -91.467636078272733, 31.389653488669634 ], [ -91.466948671994729, 31.389824875751689 ], [ -91.465698891762727, 31.389943949596415 ], [ -91.465213573894303, 31.390094065766228 ], [ -91.464648689416677, 31.3901190575111 ], [ -91.464223406868982, 31.390224993657988 ], [ -91.463824665921479, 31.390192541135448 ], [ -91.463614468780747, 31.389942181162805 ], [ -91.463641796052627, 31.389734020539027 ], [ -91.46376583723729, 31.38959465850548 ], [ -91.464419470840852, 31.38942822773695 ], [ -91.464831777803539, 31.38942852505183 ], [ -91.465519285417059, 31.389239758966113 ], [ -91.466841855973726, 31.389110369219821 ], [ -91.467573333854148, 31.388938301583444 ], [ -91.468335708676349, 31.388900735314905 ], [ -91.468637771709368, 31.38877952202138 ], [ -91.46931060400054, 31.388686790813207 ], [ -91.469879320146703, 31.388713599298331 ] ] ], [ [ [ -91.465653475289145, 31.37045842986949 ], [ -91.468407484401098, 31.372614857131332 ], [ -91.468465876706276, 31.372886429307258 ], [ -91.468283352048104, 31.373113885905436 ], [ -91.468089995749693, 31.373170652649545 ], [ -91.467851224324804, 31.373126929195656 ], [ -91.467048263328408, 31.372554063157654 ], [ -91.466672735382517, 31.372180572593837 ], [ -91.465121332766842, 31.370999221916346 ], [ -91.465031058468327, 31.370804590964323 ], [ -91.465082023551943, 31.370599728846138 ], [ -91.465333642998317, 31.370427532457082 ], [ -91.465653475289145, 31.37045842986949 ] ] ], [ [ [ -91.461594175971598, 31.38021455537729 ], [ -91.466929864195521, 31.381702493163452 ], [ -91.467104950975965, 31.38193422267592 ], [ -91.467037759704624, 31.38220429373138 ], [ -91.466767648673354, 31.382354502043242 ], [ -91.465943944187458, 31.382199227223857 ], [ -91.461340005589761, 31.380898799421889 ], [ -91.461132724858786, 31.380733034561345 ], [ -91.461095070903482, 31.380492082387288 ], [ -91.461277627492407, 31.380264637298691 ], [ -91.461594175971598, 31.38021455537729 ] ] ], [ [ [ -91.466472494289647, 31.384220433332281 ], [ -91.46727633194277, 31.384430586298393 ], [ -91.467395362739182, 31.384687167177827 ], [ -91.467268044330936, 31.38494080318852 ], [ -91.466968957053396, 31.385042917265444 ], [ -91.466406032689719, 31.384929632021361 ], [ -91.466133563586737, 31.384951494039608 ], [ -91.465391085983825, 31.38476408002396 ], [ -91.462146963804315, 31.38431215379633 ], [ -91.461905961363016, 31.384184268210859 ], [ -91.461816835237641, 31.383918910539183 ], [ -91.461972531559979, 31.383677208657584 ], [ -91.462281844731436, 31.383600747646614 ], [ -91.465493338220966, 31.384050904149795 ], [ -91.466202908860225, 31.384233058415553 ], [ -91.466472494289647, 31.384220433332281 ] ] ], [ [ [ -91.464277106973142, 31.373901962007114 ], [ -91.466539431750519, 31.37520694311139 ], [ -91.466726355909913, 31.37539689179393 ], [ -91.466784744714118, 31.375668464521279 ], [ -91.466602210434161, 31.37589591832624 ], [ -91.466408847462134, 31.375952682294347 ], [ -91.466170069971014, 31.375908955525524 ], [ -91.464689094550081, 31.375026052575741 ], [ -91.463847938816272, 31.374497290108039 ], [ -91.463735863739629, 31.374311187321648 ], [ -91.463748740254502, 31.374136194908342 ], [ -91.463956382877384, 31.373925191255704 ], [ -91.464277106973142, 31.373901962007114 ] ] ], [ [ [ -91.465614211830015, 31.378141273308554 ], [ -91.465966493774445, 31.378379304971816 ], [ -91.466056776591628, 31.378573935339748 ], [ -91.4659590538202, 31.378837055180725 ], [ -91.465673090978086, 31.378963824642607 ], [ -91.465471365774732, 31.378935680353752 ], [ -91.464136129226773, 31.378281017293737 ], [ -91.462139325477665, 31.377506950998832 ], [ -91.461833443720963, 31.377281244115881 ], [ -91.461806375655598, 31.377006068323514 ], [ -91.462014029080265, 31.376795068253088 ], [ -91.462334763225414, 31.376771844205102 ], [ -91.465614211830015, 31.378141273308554 ] ] ], [ [ [ -91.464528538600689, 31.399066296495903 ], [ -91.464837900996102, 31.398989831057371 ], [ -91.465092397176392, 31.399096830837326 ], [ -91.465211438704472, 31.39935341358435 ], [ -91.465084092985677, 31.399607046036859 ], [ -91.464784956352844, 31.399709153213788 ], [ -91.464508184669739, 31.399615052078786 ], [ -91.464503470144862, 31.399819761961233 ], [ -91.464395938643634, 31.39996888270899 ], [ -91.463568070846833, 31.400410850254691 ], [ -91.463324716787838, 31.400428467253647 ], [ -91.463110964832751, 31.400327148484642 ], [ -91.46299192799377, 31.400070563968871 ], [ -91.463119279930623, 31.399816933815266 ], [ -91.463947144366472, 31.399374969029001 ], [ -91.464190495633062, 31.399357350753593 ], [ -91.464385322252028, 31.399443537295973 ], [ -91.464390036978585, 31.399238827413967 ], [ -91.464528538600689, 31.399066296495903 ] ] ] ] } }
]
}
