{
"type": "FeatureCollection",
"name": "LM_08_MVF_20180811_CS_MB_4870_4875_depth_polygons",
"crs": { "type": "name", "properties": { "name": "urn:ogc:def:crs:OGC:1.3:CRS84" } },
"features": [
{ "type": "Feature", "properties": { "depth_bin": "85-90 ft", "bin_order": -87.5, "survey_id": "LM_08_MVF_20180811_CS_MB_4870_4875", "date": "2018-08-11", "year": 2018, "mile": 488.0 }, "geometry": { "type": "Polygon", "coordinates": [ [ [ -91.149162264845643, 32.803950620683544 ], [ -91.149464204820745, 32.804098632234634 ], [ -91.149553605040509, 32.804364169482824 ], [ -91.149394490986623, 32.804605319900162 ], [ -91.149047526616499, 32.804681032189869 ], [ -91.148729314463139, 32.804533125554364 ], [ -91.148639916581317, 32.804267587805626 ], [ -91.1487990319782, 32.804026438386757 ], [ -91.149162264845643, 32.803950620683544 ] ] ] } },
{ "type": "Feature", "properties": { "depth_bin": "90-95 ft", "bin_order": -92.5, "survey_id": "LM_08_MVF_20180811_CS_MB_4870_4875", "date": "2018-08-11", "year": 2018, "mile": 488.0 }, "geometry": { "type": "Polygon", "coordinates": [ [ [ -91.149207184143862, 32.803905618149429 ], [ -91.149531881745375, 32.803937481305091 ], [ -91.14975119681506, 32.804167547727182 ], [ -91.14974907402204, 32.804492378303806 ], [ -91.14947421779533, 32.804695477557495 ], [ -91.148845018053478, 32.804640307957101 ], [ -91.148604531337639, 32.804408183339874 ], [ -91.148608872996675, 32.804198808287047 ], [ -91.148750966703219, 32.804022369944235 ], [ -91.149207184143862, 32.803905618149429 ] ] ] } },
{ "type": "Feature", "properties": { "depth_bin": "95-100 ft", "bin_order": -97.5, "survey_id": "LM_08_MVF_20180811_CS_MB_4870_4875", "date": "2018-08-11", "year": 2018, "mile": 488.0 }, "geometry": { "type": "MultiPolygon", "coordinates": [ [ [ [ -91.154032661314687, 32.799572798875602 ], [ -91.154280568593251, 32.799576454074895 ], [ -91.154489359074461, 32.79968270563208 ], [ -91.154602405984576, 32.799869081391925 ], [ -91.154588606546255, 32.800043976418145 ], [ -91.154222651190707, 32.800561061799165 ], [ -91.153896252184452, 32.800722589263593 ], [ -91.153566990355245, 32.800719466064081 ], [ -91.153285308802978, 32.800527105655434 ], [ -91.153274721346165, 32.80019686975529 ], [ -91.153626292239835, 32.799799179910067 ], [ -91.154032661314687, 32.799572798875602 ] ] ], [ [ [ -91.154408105835742, 32.805281542059099 ], [ -91.154722526458002, 32.805206028294016 ], [ -91.155008082867994, 32.805340392343204 ], [ -91.155097500839986, 32.805605926212706 ], [ -91.154938399032588, 32.805847084089159 ], [ -91.154623976280263, 32.805922598315412 ], [ -91.15433841867322, 32.805788233355777 ], [ -91.154249002831264, 32.80552269902509 ], [ -91.154408105835742, 32.805281542059099 ] ] ], [ [ [ -91.153298874391254, 32.801354183776326 ], [ -91.153603004139555, 32.801253008945608 ], [ -91.153902765597138, 32.801363090613542 ], [ -91.154022563691399, 32.801619944999786 ], [ -91.15389222101156, 32.801873110733723 ], [ -91.153588089407933, 32.801974286194223 ], [ -91.153288326361121, 32.801864203723355 ], [ -91.153168530122187, 32.801607348707357 ], [ -91.153298874391254, 32.801354183776326 ] ] ], [ [ [ -91.149867685626901, 32.804105685268155 ], [ -91.149894301688789, 32.804485898284966 ], [ -91.149604637203339, 32.804722111650612 ], [ -91.148835414838544, 32.80465313230826 ], [ -91.148555718414116, 32.804408501142696 ], [ -91.148615623551109, 32.804104246617015 ], [ -91.149221320888614, 32.803671909506228 ], [ -91.149631078235558, 32.803743972733471 ], [ -91.149867685626901, 32.804105685268155 ] ] ] ] } },
{ "type": "Feature", "properties": { "depth_bin": "100-105 ft", "bin_order": -102.5, "survey_id": "LM_08_MVF_20180811_CS_MB_4870_4875", "date": "2018-08-11", "year": 2018, "mile": 488.0 }, "geometry": { "type": "MultiPolygon", "coordinates": [ [ [ [ -91.155094966042782, 32.803496563000493 ], [ -91.155821146682896, 32.804224018695848 ], [ -91.15587124558418, 32.804581952004042 ], [ -91.155777281618057, 32.804837697531752 ], [ -91.155997465365374, 32.805031335683069 ], [ -91.156224562451243, 32.804987405781226 ], [ -91.156460554592911, 32.805051678588384 ], [ -91.156642823564525, 32.805318954759734 ], [ -91.156312518003659, 32.806077514166923 ], [ -91.156081563836494, 32.806293067718343 ], [ -91.155850854807966, 32.806369818121375 ], [ -91.153450575834498, 32.805597937895072 ], [ -91.153290189342485, 32.805332477135892 ], [ -91.15335866178981, 32.804989909334417 ], [ -91.153247428151971, 32.804775422467209 ], [ -91.153371344633541, 32.804405981449541 ], [ -91.153032065975637, 32.804322661493394 ], [ -91.15288186104307, 32.804039648213646 ], [ -91.152621887841178, 32.803954309479053 ], [ -91.152478281600381, 32.8037437063618 ], [ -91.152525346640232, 32.803490227408851 ], [ -91.1527528790931, 32.803291666282036 ], [ -91.152769608891987, 32.803013531788054 ], [ -91.152644728078258, 32.802702331052586 ], [ -91.152835719526564, 32.802418543172863 ], [ -91.15271566811353, 32.801796863579234 ], [ -91.152874246545636, 32.801359067149811 ], [ -91.152722625934899, 32.799767360606786 ], [ -91.152830470466611, 32.799503015616985 ], [ -91.153065384385599, 32.799231294259805 ], [ -91.153088263148845, 32.798830503148523 ], [ -91.153270821153598, 32.798549043399838 ], [ -91.153384243592384, 32.798074331853087 ], [ -91.153707829466867, 32.797653010039681 ], [ -91.153957182430119, 32.797531726574221 ], [ -91.154261287400558, 32.797513464597543 ], [ -91.155131979304088, 32.797673475552379 ], [ -91.155416332041298, 32.797862662584414 ], [ -91.155529378813455, 32.798049037545148 ], [ -91.155474396896068, 32.798299348807028 ], [ -91.155654447467697, 32.798599713259662 ], [ -91.155493496139542, 32.798875509826608 ], [ -91.155536717326484, 32.799302797679601 ], [ -91.155104755315875, 32.799876282241584 ], [ -91.155110011296401, 32.800123008470258 ], [ -91.154962782159885, 32.800298631771412 ], [ -91.155053887555738, 32.800527554077249 ], [ -91.154939633219755, 32.801058591845681 ], [ -91.154772334285354, 32.801387823189636 ], [ -91.154542889379826, 32.80159584291107 ], [ -91.154951787508665, 32.801906701984556 ], [ -91.155009954317563, 32.802178359084955 ], [ -91.154465463549798, 32.802881298827934 ], [ -91.154861743797184, 32.803019599769414 ], [ -91.155094966042782, 32.803496563000493 ] ] ], [ [ [ -91.149746051849931, 32.803702523311081 ], [ -91.150103111581643, 32.804282248240604 ], [ -91.149963607043148, 32.804647217390936 ], [ -91.149585225023841, 32.804759980900627 ], [ -91.149181789802356, 32.8046130265515 ], [ -91.148884690873317, 32.804668350740506 ], [ -91.148626745525661, 32.80456061254241 ], [ -91.148513705911768, 32.80437423175011 ], [ -91.148527518314481, 32.804199337957506 ], [ -91.148991767224729, 32.803663506221099 ], [ -91.149409806146309, 32.803561600085622 ], [ -91.149746051849931, 32.803702523311081 ] ] ] ] } },
{ "type": "Feature", "properties": { "depth_bin": "105-110 ft", "bin_order": -107.5, "survey_id": "LM_08_MVF_20180811_CS_MB_4870_4875", "date": "2018-08-11", "year": 2018, "mile": 488.0 }, "geometry": { "type": "MultiPolygon", "coordinates": [ [ [ [ -91.159057868250343, 32.798452375792017 ], [ -91.159033729266895, 32.79877386898437 ], [ -91.158745201516922, 32.798972957128704 ], [ -91.158371580668813, 32.798927698700396 ], [ -91.158119461433017, 32.798670378695597 ], [ -91.158157160311703, 32.79839615739936 ], [ -91.158413401616883, 32.798224767490488 ], [ -91.158830799877805, 32.798253800521614 ], [ -91.159057868250343, 32.798452375792017 ] ] ], [ [ [ -91.157801328764464, 32.798520866702511 ], [ -91.158111245244157, 32.798684017246089 ], [ -91.158543404946457, 32.799465077427705 ], [ -91.158524663775765, 32.799748792597818 ], [ -91.158311505170246, 32.799958797298856 ], [ -91.158488400394972, 32.800215121391865 ], [ -91.158508402799328, 32.80042384697979 ], [ -91.158274048072016, 32.800733448683928 ], [ -91.157915338769371, 32.800774160427522 ], [ -91.158152260340231, 32.801157934735002 ], [ -91.158225943921366, 32.801552562276747 ], [ -91.15778387838553, 32.802035145479202 ], [ -91.15772128116491, 32.802203728711582 ], [ -91.157295293455803, 32.803695291776933 ], [ -91.157364941296052, 32.804112802849396 ], [ -91.157265954169333, 32.80453380438766 ], [ -91.157140020344571, 32.804696404536351 ], [ -91.156931136359574, 32.804796871284758 ], [ -91.15626522375976, 32.806242730913041 ], [ -91.156031126650745, 32.806384076392483 ], [ -91.155734386309916, 32.806380744600546 ], [ -91.154498547737163, 32.805947893345241 ], [ -91.154291856699686, 32.805717795112223 ], [ -91.153934954871673, 32.80563154007146 ], [ -91.153587684508224, 32.805662215153525 ], [ -91.152244163090799, 32.805297820199335 ], [ -91.152060407013252, 32.805086482408051 ], [ -91.151978992534538, 32.804630581348974 ], [ -91.152401735912449, 32.804029968054728 ], [ -91.152101910734558, 32.803512551482321 ], [ -91.152183632158525, 32.803132049223045 ], [ -91.151906614210418, 32.802853657370775 ], [ -91.151695740119223, 32.802131366984554 ], [ -91.152031929507331, 32.801682924055505 ], [ -91.152406794649067, 32.801617564671112 ], [ -91.152403595633928, 32.799474509103355 ], [ -91.152513989076652, 32.798987008097384 ], [ -91.152800422078343, 32.798662910046566 ], [ -91.152795473103069, 32.797850374901628 ], [ -91.152981293411642, 32.797534494652822 ], [ -91.1531756706473, 32.797404495041334 ], [ -91.153430268917589, 32.797381487682998 ], [ -91.154261625290928, 32.797515259384127 ], [ -91.154544488920067, 32.797698950090812 ], [ -91.154896817733245, 32.797619233546392 ], [ -91.156190779274141, 32.797803943696294 ], [ -91.15665980762293, 32.798292283472179 ], [ -91.156867682624821, 32.798337631190485 ], [ -91.157035402115582, 32.798471224895891 ], [ -91.157103357014293, 32.798686386082622 ], [ -91.157003068164585, 32.798912254908721 ], [ -91.157147016320494, 32.798893729699572 ], [ -91.157521026869745, 32.798575801871387 ], [ -91.157801328764464, 32.798520866702511 ] ], [ [ -91.15375223545378, 32.800545694475815 ], [ -91.153801377873918, 32.800296239924911 ], [ -91.153873634424528, 32.800121473204392 ], [ -91.153748755743067, 32.800172758710872 ], [ -91.15375223545378, 32.800545694475815 ] ], [ [ -91.154062492068775, 32.799826795378337 ], [ -91.154144938226381, 32.799716753297041 ], [ -91.154055969899886, 32.799665282967446 ], [ -91.154062492068775, 32.799826795378337 ] ] ], [ [ [ -91.14986573167846, 32.803625643266166 ], [ -91.150264961579708, 32.803718042034035 ], [ -91.15045818189202, 32.803963862511637 ], [ -91.150414551378958, 32.804309390396902 ], [ -91.150111044918702, 32.804669358510317 ], [ -91.149715644544301, 32.804786614874232 ], [ -91.149407330581909, 32.804697944646932 ], [ -91.149254175371496, 32.804535208121806 ], [ -91.148893969104208, 32.804670918204323 ], [ -91.148566604485097, 32.804534184977143 ], [ -91.148475740990349, 32.804339344427767 ], [ -91.148509659916783, 32.804152694893737 ], [ -91.149103159496576, 32.803474772673937 ], [ -91.149540150857092, 32.803390806365385 ], [ -91.14986573167846, 32.803625643266166 ] ] ] ] } },
{ "type": "Feature", "properties": { "depth_bin": "110-115 ft", "bin_order": -112.5, "survey_id": "LM_08_MVF_20180811_CS_MB_4870_4875", "date": "2018-08-11", "year": 2018, "mile": 488.0 }, "geometry": { "type": "MultiPolygon", "coordinates": [ [ [ [ -91.158628639183917, 32.798214887082807 ], [ -91.159081987555865, 32.798374487476913 ], [ -91.15918556853299, 32.798526378808994 ], [ -91.159192396262938, 32.798729057548258 ], [ -91.159039695992078, 32.798967172335132 ], [ -91.158735763941877, 32.799068355978534 ], [ -91.158758694698307, 32.799336570132461 ], [ -91.1585110520885, 32.79987705956156 ], [ -91.158628591381955, 32.800097620562212 ], [ -91.158589753878076, 32.800423310887822 ], [ -91.158264037147731, 32.800895588542168 ], [ -91.158265331510748, 32.801619429542448 ], [ -91.157802510918003, 32.802179167664804 ], [ -91.157700052905454, 32.80275158917869 ], [ -91.157375306116904, 32.803724667044641 ], [ -91.157461932630724, 32.804043453189017 ], [ -91.15733116483041, 32.804547117370291 ], [ -91.157072135662204, 32.804826023636409 ], [ -91.156379249393666, 32.806255723552319 ], [ -91.156129007713062, 32.806410917419861 ], [ -91.155815995958662, 32.806407692736499 ], [ -91.155555209625732, 32.806246010550154 ], [ -91.155490166710678, 32.806009271461669 ], [ -91.155887815627551, 32.805170938422847 ], [ -91.155920405952145, 32.804915014968714 ], [ -91.156063669800474, 32.804738837083782 ], [ -91.155898234863301, 32.804647640832073 ], [ -91.155583076799189, 32.804684051570412 ], [ -91.155611346089259, 32.804860478325473 ], [ -91.155512474083352, 32.805052518469196 ], [ -91.155343634257818, 32.805154462312892 ], [ -91.155096481085195, 32.805171348680233 ], [ -91.154806977557072, 32.804983320469184 ], [ -91.154784652144144, 32.804699136831907 ], [ -91.154389296618916, 32.804684335290275 ], [ -91.154171467284883, 32.804398331278328 ], [ -91.154205374405493, 32.80421167982329 ], [ -91.154331903471217, 32.804072735513188 ], [ -91.154739163878531, 32.804010925551282 ], [ -91.154339640012878, 32.803708368884621 ], [ -91.15432052648697, 32.803417005522647 ], [ -91.154092429727427, 32.802989250234816 ], [ -91.154243124582678, 32.802721044796115 ], [ -91.154195419474505, 32.802451170413214 ], [ -91.154421119633696, 32.801904862271449 ], [ -91.154199814555895, 32.801616146585694 ], [ -91.154294801488021, 32.801318238646502 ], [ -91.154247746766544, 32.801062873522532 ], [ -91.154495235813684, 32.800704404577871 ], [ -91.154445441100066, 32.800340633109023 ], [ -91.154605239179304, 32.800051982812697 ], [ -91.154603193153449, 32.799569768982735 ], [ -91.155024470436103, 32.79900412360071 ], [ -91.154917047231663, 32.798772915932176 ], [ -91.154993363007833, 32.798536546863573 ], [ -91.154979519338852, 32.798028181976974 ], [ -91.155310416552098, 32.797761538557502 ], [ -91.155929942533447, 32.797733502470606 ], [ -91.156794684377559, 32.797805232455396 ], [ -91.157738287877933, 32.798067160364461 ], [ -91.158628639183917, 32.798214887082807 ] ], [ [ -91.155015889082037, 32.804488872365646 ], [ -91.15528073566, 32.804467071585783 ], [ -91.155273879192251, 32.804188614003301 ], [ -91.154904953441104, 32.804092483419474 ], [ -91.155024122266198, 32.804256735645701 ], [ -91.155015889082037, 32.804488872365646 ] ] ], [ [ [ -91.153748338202035, 32.797515640705107 ], [ -91.153900376006447, 32.797839848595274 ], [ -91.153924017384796, 32.798316554023174 ], [ -91.153730076879171, 32.798710658047945 ], [ -91.15368705674166, 32.799321553358617 ], [ -91.153337196851993, 32.799653002045702 ], [ -91.153419981589764, 32.799898223036671 ], [ -91.153368152205701, 32.80022067707386 ], [ -91.153427867266046, 32.800648150261267 ], [ -91.15327166423458, 32.801327589230191 ], [ -91.153392303474718, 32.802091306299779 ], [ -91.153153344029121, 32.802444533317995 ], [ -91.153433676793014, 32.803052983915691 ], [ -91.153284279117912, 32.803631428747941 ], [ -91.153409006608783, 32.803800091862577 ], [ -91.153415568765425, 32.80397528695589 ], [ -91.153165292763234, 32.804415412405831 ], [ -91.153593654710065, 32.804622803931103 ], [ -91.153661479009571, 32.804824225419132 ], [ -91.153607666010885, 32.805007226740585 ], [ -91.153160416496078, 32.805377763599694 ], [ -91.15297126870945, 32.805449927288663 ], [ -91.152007520618952, 32.805265550872157 ], [ -91.151682928227132, 32.805003776463558 ], [ -91.1512828909066, 32.804053792330372 ], [ -91.150602542956847, 32.804334469688619 ], [ -91.150431863158019, 32.804646026688111 ], [ -91.150126190979321, 32.80481490536976 ], [ -91.149589588547357, 32.804743198842459 ], [ -91.149417350667306, 32.804592556771517 ], [ -91.149370478184025, 32.804421467716402 ], [ -91.149001854875223, 32.804643586982642 ], [ -91.148660883962364, 32.804611828314428 ], [ -91.148471394027169, 32.80442892667876 ], [ -91.148451414745864, 32.804220200418705 ], [ -91.148945555256816, 32.803552006517265 ], [ -91.149185189601411, 32.803357679890382 ], [ -91.149558738537408, 32.803202478293805 ], [ -91.149806655263205, 32.803206142707516 ], [ -91.149995064640066, 32.803310537803775 ], [ -91.150070835544582, 32.803091588591755 ], [ -91.150305316024145, 32.802950179111129 ], [ -91.150320647539829, 32.80277221305505 ], [ -91.150545681400118, 32.802373492932304 ], [ -91.151063257728026, 32.802124996799407 ], [ -91.151175832726096, 32.801888404559797 ], [ -91.151448072491064, 32.801764605748254 ], [ -91.151350107961036, 32.80091693075488 ], [ -91.151592636979146, 32.80047064984425 ], [ -91.151905009613159, 32.800300082675804 ], [ -91.152002368640282, 32.799847898978662 ], [ -91.152158256530882, 32.799634486559938 ], [ -91.152224443476641, 32.798671249674094 ], [ -91.152465651851642, 32.798226191455029 ], [ -91.152046003881921, 32.79798250592917 ], [ -91.151979512328609, 32.797816462778698 ], [ -91.15203212492149, 32.79761182408663 ], [ -91.152301129729338, 32.797324909162903 ], [ -91.15253181771665, 32.797248164474638 ], [ -91.153504150817284, 32.797387078929695 ], [ -91.153748338202035, 32.797515640705107 ] ] ] ] } },
{ "type": "Feature", "properties": { "depth_bin": "115-120 ft", "bin_order": -117.5, "survey_id": "LM_08_MVF_20180811_CS_MB_4870_4875", "date": "2018-08-11", "year": 2018, "mile": 488.0 }, "geometry": { "type": "MultiPolygon", "coordinates": [ [ [ [ -91.158423531381302, 32.798184329651093 ], [ -91.159015051080786, 32.798296006552441 ], [ -91.159182773824199, 32.798429596574216 ], [ -91.159225825400981, 32.798825031759982 ], [ -91.159072870999466, 32.79903566406702 ], [ -91.158824451120211, 32.799134208925956 ], [ -91.158857204818744, 32.799432115442173 ], [ -91.158588922695358, 32.799888974370582 ], [ -91.158693672005697, 32.800097191630201 ], [ -91.158655342609279, 32.800477847003748 ], [ -91.158563657359366, 32.800728349516518 ], [ -91.158392418893712, 32.800895809445471 ], [ -91.15842412583963, 32.801090378146263 ], [ -91.158297872379592, 32.801619215169538 ], [ -91.157909728327979, 32.802069040835725 ], [ -91.157347689373907, 32.804574492802125 ], [ -91.157161887545669, 32.804814759824744 ], [ -91.156460859138221, 32.806282671267986 ], [ -91.156226762212867, 32.80642401711988 ], [ -91.155897352517414, 32.806407158320319 ], [ -91.155669235128272, 32.806259003832004 ], [ -91.155611064257727, 32.805987347040016 ], [ -91.156525547102817, 32.803919362572202 ], [ -91.156532504680527, 32.803562681769883 ], [ -91.156875347037086, 32.802558247629712 ], [ -91.157014411991796, 32.801670217470374 ], [ -91.157127421758403, 32.801478354276057 ], [ -91.157368517102725, 32.80130938234489 ], [ -91.157313692203715, 32.800830250924122 ], [ -91.157465412476895, 32.800578147534992 ], [ -91.157453533053797, 32.800114741165437 ], [ -91.157670964274729, 32.799460511459294 ], [ -91.157588810063388, 32.799242171320962 ], [ -91.157654918448756, 32.799020374001408 ], [ -91.157417710144443, 32.799077040106063 ], [ -91.157147302288365, 32.799006986010276 ], [ -91.156781265445574, 32.799149776988429 ], [ -91.156652188015059, 32.799436381797442 ], [ -91.156348067645325, 32.799537564409938 ], [ -91.155955502390128, 32.799387537103165 ], [ -91.155883849598666, 32.799052905065288 ], [ -91.156075410081598, 32.798846408826378 ], [ -91.156364551584105, 32.798790951861243 ], [ -91.156483808765515, 32.798525665206675 ], [ -91.156444815913218, 32.798128496958554 ], [ -91.156734440818781, 32.797892266116506 ], [ -91.157079835646826, 32.797881532429926 ], [ -91.157690008153267, 32.798055184085641 ], [ -91.157889352470221, 32.798206158378484 ], [ -91.158423531381302, 32.798184329651093 ] ] ], [ [ [ -91.153372001489714, 32.797729035141494 ], [ -91.153374121124727, 32.798677450875992 ], [ -91.153133475947641, 32.799021598507657 ], [ -91.153043225049743, 32.799458692470708 ], [ -91.15306019792213, 32.799930040357239 ], [ -91.152954318338146, 32.800167864337865 ], [ -91.15305950434319, 32.800638282337125 ], [ -91.152903478481107, 32.800971653381325 ], [ -91.152752335731122, 32.801103879224428 ], [ -91.152728537549095, 32.801412546316094 ], [ -91.152336335157642, 32.801660959679019 ], [ -91.152484135085345, 32.802442926255608 ], [ -91.152851648532476, 32.803571091432111 ], [ -91.152687591102591, 32.803929912570212 ], [ -91.152706665759837, 32.804192684130996 ], [ -91.152548703055032, 32.804374777533809 ], [ -91.15274354905192, 32.804759713414093 ], [ -91.152696609862716, 32.805026933670057 ], [ -91.152518238776608, 32.805172397336307 ], [ -91.152079611173818, 32.805279638683345 ], [ -91.149813059936022, 32.804797924546925 ], [ -91.149546787598908, 32.804586826623428 ], [ -91.149526805777086, 32.804378100448972 ], [ -91.149642577412777, 32.804155837827629 ], [ -91.149531219545679, 32.80413510392281 ], [ -91.149387878989145, 32.804364250670396 ], [ -91.149083535845506, 32.804600224578934 ], [ -91.148845030553716, 32.804657494836881 ], [ -91.148612070922368, 32.804612146134957 ], [ -91.148409154228986, 32.804395713160055 ], [ -91.148446886091818, 32.804121496178013 ], [ -91.149170084081348, 32.803193248439626 ], [ -91.149415718098624, 32.803072707673216 ], [ -91.149766827029794, 32.802612190091693 ], [ -91.14995650475079, 32.802504302444426 ], [ -91.150149943290515, 32.802025718659586 ], [ -91.150383242835133, 32.801739692583098 ], [ -91.150552353066786, 32.801263153619246 ], [ -91.150902842730716, 32.800902618351088 ], [ -91.151116681862305, 32.800808489164986 ], [ -91.151086385936281, 32.800547615711096 ], [ -91.151343314427535, 32.800075940309931 ], [ -91.151371825589308, 32.799734965768778 ], [ -91.151495849069761, 32.799549571529376 ], [ -91.151460041308354, 32.799260532155813 ], [ -91.151601373942313, 32.799088476317138 ], [ -91.151846096867388, 32.799011358445171 ], [ -91.151901056361609, 32.798871867115686 ], [ -91.151909046013628, 32.798469106666346 ], [ -91.151740151013314, 32.798341799759648 ], [ -91.151596350056579, 32.798060233056518 ], [ -91.151655655438304, 32.797366925979723 ], [ -91.151797693403381, 32.797239127088311 ], [ -91.152033953299252, 32.797173277216281 ], [ -91.152640470227169, 32.797241569453909 ], [ -91.153372001489714, 32.797729035141494 ] ] ], [ [ [ -91.151573051086373, 32.797216846205494 ], [ -91.151456743238683, 32.797573064921956 ], [ -91.151084658155, 32.797884697902468 ], [ -91.150677511270359, 32.797907479970981 ], [ -91.150428509999742, 32.797728642419862 ], [ -91.150384399856577, 32.797522575516879 ], [ -91.150481630246816, 32.797246827677242 ], [ -91.150741553438607, 32.796967497597869 ], [ -91.151278474358207, 32.79690264124612 ], [ -91.151482187568902, 32.797022007654675 ], [ -91.151573051086373, 32.797216846205494 ] ] ] ] } },
{ "type": "Feature", "properties": { "depth_bin": "120-125 ft", "bin_order": -122.5, "survey_id": "LM_08_MVF_20180811_CS_MB_4870_4875", "date": "2018-08-11", "year": 2018, "mile": 488.0 }, "geometry": { "type": "MultiPolygon", "coordinates": [ [ [ [ -91.159299458670958, 32.798525627669441 ], [ -91.159249830972087, 32.798988194943448 ], [ -91.158939912055587, 32.79920888077222 ], [ -91.158863728014708, 32.799589860642307 ], [ -91.158675201604225, 32.799824328603506 ], [ -91.158774199990162, 32.800236059459436 ], [ -91.158647441902161, 32.800709931866677 ], [ -91.158461366177619, 32.800903476197327 ], [ -91.15842695103639, 32.801626573590205 ], [ -91.157932026645923, 32.802109224323594 ], [ -91.157380358118161, 32.804588019902134 ], [ -91.156525944301734, 32.806282243400105 ], [ -91.156291847474549, 32.806423589377481 ], [ -91.1559951069692, 32.806420258199829 ], [ -91.155746071617543, 32.806241430234905 ], [ -91.155708691656926, 32.805986705877871 ], [ -91.156403851181295, 32.804403380150696 ], [ -91.156538699766088, 32.804254449408312 ], [ -91.156583470362861, 32.803795962115736 ], [ -91.157128685309132, 32.801710692909204 ], [ -91.157471431379165, 32.801307066598952 ], [ -91.157418059365739, 32.800780949346674 ], [ -91.157724157933927, 32.800370709938846 ], [ -91.157546086140584, 32.799902073772216 ], [ -91.157628599536807, 32.799585583750599 ], [ -91.157817283001975, 32.799412392427932 ], [ -91.157692042026213, 32.799188335466887 ], [ -91.157721471038002, 32.798944625561575 ], [ -91.158043575077414, 32.798490284873445 ], [ -91.15825209940823, 32.798376994115465 ], [ -91.158979279847614, 32.798271822148735 ], [ -91.159195877496131, 32.79837373642475 ], [ -91.159299458670958, 32.798525627669441 ] ] ], [ [ [ -91.152579346819735, 32.797630997873135 ], [ -91.15296313428388, 32.797975743088259 ], [ -91.153030952842371, 32.798177164890213 ], [ -91.152777863323038, 32.799022923825362 ], [ -91.152757183796197, 32.799609600554184 ], [ -91.152539317536963, 32.799851768262158 ], [ -91.152457247462024, 32.800218756556809 ], [ -91.152190059240084, 32.800539455172938 ], [ -91.151933678653847, 32.801678845697516 ], [ -91.151647767430859, 32.801983992561901 ], [ -91.151379671179072, 32.802136761059252 ], [ -91.151202272321498, 32.802441850248286 ], [ -91.151011815004821, 32.802570345334196 ], [ -91.150522783632297, 32.803516715686406 ], [ -91.149770879079327, 32.803769256560301 ], [ -91.149348473637687, 32.804350358589978 ], [ -91.149034722804672, 32.804600542564614 ], [ -91.148796217485341, 32.804657812728372 ], [ -91.148563256813972, 32.804612463943393 ], [ -91.148373767084962, 32.804429562166995 ], [ -91.148353788032722, 32.804220835899521 ], [ -91.149180373171774, 32.802892436803127 ], [ -91.149103713500665, 32.802594381718762 ], [ -91.149399738744222, 32.801838220680956 ], [ -91.149997582108796, 32.801295829591375 ], [ -91.150438075732083, 32.800546899453529 ], [ -91.150796876694997, 32.800262156200354 ], [ -91.150856172578145, 32.799614293296813 ], [ -91.15063247049487, 32.799569358140005 ], [ -91.150481154745975, 32.799449392121623 ], [ -91.150354254462798, 32.799236424301355 ], [ -91.150345928186951, 32.798820557300772 ], [ -91.150054007418674, 32.798710908351772 ], [ -91.149935548235064, 32.798489429696161 ], [ -91.150513758645829, 32.797044571197262 ], [ -91.150770009833806, 32.796873197288413 ], [ -91.151131458662221, 32.796874320252343 ], [ -91.152175697665285, 32.79715787862272 ], [ -91.152493930420718, 32.797345205125382 ], [ -91.152579346819735, 32.797630997873135 ] ] ], [ [ [ -91.150973755398155, 32.804134807456592 ], [ -91.151052676051322, 32.804588004541728 ], [ -91.150893565523319, 32.804829156987402 ], [ -91.150432829669384, 32.804919358892704 ], [ -91.150065675458208, 32.804758031906502 ], [ -91.149983022102944, 32.804443836323344 ], [ -91.150230371751192, 32.803962140150631 ], [ -91.150626608409141, 32.803901642181046 ], [ -91.150973755398155, 32.804134807456592 ] ] ] ] } },
{ "type": "Feature", "properties": { "depth_bin": "125-130 ft", "bin_order": -127.5, "survey_id": "LM_08_MVF_20180811_CS_MB_4870_4875", "date": "2018-08-11", "year": 2018, "mile": 488.0 }, "geometry": { "type": "MultiPolygon", "coordinates": [ [ [ [ -91.159332125468737, 32.798539154299796 ], [ -91.159313572951234, 32.798968499152714 ], [ -91.159011023783805, 32.799236138151151 ], [ -91.158976729364838, 32.799492920990879 ], [ -91.158750888590404, 32.79985473945181 ], [ -91.158822884606963, 32.800221996443753 ], [ -91.158711184214937, 32.800690236399141 ], [ -91.158547772016036, 32.800908055806204 ], [ -91.158443348411851, 32.801640207638428 ], [ -91.157994578259633, 32.802105509189076 ], [ -91.157412900076068, 32.804587805741427 ], [ -91.156590902787144, 32.806268074247662 ], [ -91.156380365645703, 32.806411926681299 ], [ -91.156060192222597, 32.806419830577866 ], [ -91.155811156735211, 32.80624100273787 ], [ -91.155773650035457, 32.805972537146125 ], [ -91.156570952948158, 32.80432362309255 ], [ -91.157129825978856, 32.801834364183584 ], [ -91.157541317678707, 32.80135067949 ], [ -91.157612034591821, 32.800642251775926 ], [ -91.157852860284692, 32.800369331452259 ], [ -91.157658582024979, 32.799750170304655 ], [ -91.15773467949478, 32.799550868710178 ], [ -91.158009174148418, 32.799309476995681 ], [ -91.157919441275098, 32.799145611142436 ], [ -91.157932853425905, 32.798929491719598 ], [ -91.158300415680543, 32.798504198941195 ], [ -91.158771973396455, 32.798291114893978 ], [ -91.1591291949848, 32.798322738075029 ], [ -91.159332125468737, 32.798539154299796 ] ] ], [ [ [ -91.151825348348197, 32.797068252401303 ], [ -91.152148470051955, 32.797302179382697 ], [ -91.152178353125336, 32.797805778792188 ], [ -91.152045882940072, 32.798082111312013 ], [ -91.15244514590988, 32.798267717478971 ], [ -91.15251510573006, 32.798702742219049 ], [ -91.152246276415624, 32.799178142790765 ], [ -91.151967718423847, 32.79939030654446 ], [ -91.152016513185913, 32.799675767967152 ], [ -91.151857363163202, 32.799916953292779 ], [ -91.151746986027035, 32.800680976465117 ], [ -91.151305974363126, 32.801328060942204 ], [ -91.151059590842678, 32.801518958300548 ], [ -91.151073697011654, 32.801784744985795 ], [ -91.150837520276042, 32.802096512624203 ], [ -91.15068864533589, 32.802538990482489 ], [ -91.15004556536158, 32.803329302746256 ], [ -91.14969050821999, 32.803620786826095 ], [ -91.149299535187751, 32.804336935399512 ], [ -91.148911389893371, 32.804633095327155 ], [ -91.148509742491228, 32.804627768653447 ], [ -91.148260727706429, 32.804448926456338 ], [ -91.14823438960471, 32.804173761784455 ], [ -91.148725386716436, 32.803491121986347 ], [ -91.148872303471464, 32.802754170183114 ], [ -91.149068213439662, 32.802494592017922 ], [ -91.149426825490238, 32.801666130523465 ], [ -91.149459378372455, 32.801115032073859 ], [ -91.149569175758174, 32.800966287197433 ], [ -91.149782047062047, 32.80086706692876 ], [ -91.14993679675456, 32.800421872163803 ], [ -91.149961988074836, 32.800263579233103 ], [ -91.14979579856562, 32.800156180668765 ], [ -91.149704936321086, 32.799961340945984 ], [ -91.149889724361486, 32.799403297414926 ], [ -91.149685047401746, 32.799007171964455 ], [ -91.149762428854643, 32.798666958092319 ], [ -91.150573894133828, 32.796960773995671 ], [ -91.150919828140573, 32.796861960016777 ], [ -91.151180575493441, 32.79697241570431 ], [ -91.151466282765711, 32.796946918878703 ], [ -91.151825348348197, 32.797068252401303 ] ] ] ] } },
{ "type": "Feature", "properties": { "depth_bin": "130-135 ft", "bin_order": -132.5, "survey_id": "LM_08_MVF_20180811_CS_MB_4870_4875", "date": "2018-08-11", "year": 2018, "mile": 488.0 }, "geometry": { "type": "MultiPolygon", "coordinates": [ [ [ [ -91.159333978066272, 32.798473152444821 ], [ -91.159329715835071, 32.798954650580725 ], [ -91.159060197747223, 32.799185143654526 ], [ -91.159025412478272, 32.799478857910884 ], [ -91.15878730530207, 32.799910381132577 ], [ -91.158840170747951, 32.800331819242416 ], [ -91.158572069034292, 32.800926894553832 ], [ -91.15849190582918, 32.801612403495788 ], [ -91.15799204931885, 32.802279374018141 ], [ -91.157429171054872, 32.804587698657905 ], [ -91.156662016049708, 32.806251455565267 ], [ -91.156429306235751, 32.806425347066998 ], [ -91.15612540407885, 32.806433144170292 ], [ -91.155880888371442, 32.806271355723418 ], [ -91.15582271684552, 32.805999699007103 ], [ -91.156599069319881, 32.804360281308853 ], [ -91.157178510641842, 32.801820301802536 ], [ -91.157613942182437, 32.801380615411929 ], [ -91.157690959291628, 32.80100517077507 ], [ -91.1576454627983, 32.800738226347057 ], [ -91.157913520598427, 32.800429451377049 ], [ -91.157940756600354, 32.80027621195368 ], [ -91.157781255323457, 32.800039758642782 ], [ -91.157810050268949, 32.799727343373348 ], [ -91.158142885373096, 32.799303807929419 ], [ -91.158165506032333, 32.798907100487064 ], [ -91.158350113665378, 32.798600066175723 ], [ -91.158861608346811, 32.7982827915028 ], [ -91.159124165771544, 32.798306834658923 ], [ -91.159333978066272, 32.798473152444821 ] ] ], [ [ [ -91.150985368900777, 32.79687707115032 ], [ -91.151234369052517, 32.79705590757159 ], [ -91.151279110085724, 32.797330680697989 ], [ -91.15071949113883, 32.798611833309096 ], [ -91.150869238329634, 32.799035452776842 ], [ -91.151125801273778, 32.799060173368488 ], [ -91.151335599696765, 32.799226504077133 ], [ -91.151491134983829, 32.799947689994084 ], [ -91.150884387194424, 32.800616492445549 ], [ -91.150648353652613, 32.801408275196962 ], [ -91.150479449783816, 32.801690752663546 ], [ -91.150249192542006, 32.801858370362588 ], [ -91.149847518645274, 32.802801454600775 ], [ -91.149626933332641, 32.80301593030088 ], [ -91.149588007985784, 32.803574290015554 ], [ -91.149336221962997, 32.804114412926353 ], [ -91.149019252565594, 32.804497828006035 ], [ -91.14864721389813, 32.804567627272235 ], [ -91.148378641352451, 32.804410259463594 ], [ -91.148264179017474, 32.804105128608001 ], [ -91.148794934296205, 32.803033601813283 ], [ -91.149013086436455, 32.802837008797709 ], [ -91.149048269867976, 32.802423212792647 ], [ -91.149347231504279, 32.80180291936464 ], [ -91.149432088850944, 32.801135577001588 ], [ -91.14964475254591, 32.800580734131287 ], [ -91.149463018305326, 32.800196534441532 ], [ -91.149527397860851, 32.79910112128475 ], [ -91.150464948700787, 32.797044889695847 ], [ -91.150681499426611, 32.796884856103993 ], [ -91.150985368900777, 32.79687707115032 ] ] ] ] } },
{ "type": "Feature", "properties": { "depth_bin": "135-140 ft", "bin_order": -137.5, "survey_id": "LM_08_MVF_20180811_CS_MB_4870_4875", "date": "2018-08-11", "year": 2018, "mile": 488.0 }, "geometry": { "type": "MultiPolygon", "coordinates": [ [ [ [ -91.15123370602241, 32.797395210108292 ], [ -91.150480423389197, 32.799059466558212 ], [ -91.150319805246866, 32.799218990199321 ], [ -91.150287272932061, 32.79957330891267 ], [ -91.150031012856317, 32.799744681453021 ], [ -91.149706330189161, 32.799712820110607 ], [ -91.149500326739826, 32.799502543689833 ], [ -91.149480220017821, 32.799280076107209 ], [ -91.14968255931754, 32.799025670909543 ], [ -91.149745907750159, 32.798639581594713 ], [ -91.150433666349556, 32.797182515777465 ], [ -91.150650217474919, 32.797022482256992 ], [ -91.150937817794144, 32.797014803619703 ], [ -91.151165904041108, 32.797162965818181 ], [ -91.15123370602241, 32.797395210108292 ] ] ], [ [ [ -91.158354479191232, 32.798680626228311 ], [ -91.15864538689739, 32.798554750053221 ], [ -91.158987035790204, 32.798663698489385 ], [ -91.159106972552138, 32.798934289763736 ], [ -91.15896075936152, 32.79922879258941 ], [ -91.158656642047887, 32.799329980933564 ], [ -91.158356880862186, 32.799219910653498 ], [ -91.158237072965377, 32.79896305999398 ], [ -91.158354479191232, 32.798680626228311 ] ] ], [ [ [ -91.157826508105771, 32.801277303517395 ], [ -91.158191526334207, 32.801267537925931 ], [ -91.158418600559145, 32.801466114487518 ], [ -91.158412907835725, 32.801742136091249 ], [ -91.15816163756763, 32.801947761363103 ], [ -91.15783481104495, 32.801942952417846 ], [ -91.157607737011404, 32.801744374814326 ], [ -91.157613432223428, 32.801468353335856 ], [ -91.157826508105771, 32.801277303517395 ] ] ], [ [ [ -91.157105146847911, 32.802591612537327 ], [ -91.157273979785643, 32.802489666033196 ], [ -91.157521125309373, 32.802472775079352 ], [ -91.157827884048174, 32.802693054173737 ], [ -91.157759065860475, 32.803307511149683 ], [ -91.157509128063055, 32.803532401359675 ], [ -91.157182295862114, 32.803527590506249 ], [ -91.156955219483606, 32.803329011674634 ], [ -91.156950350633281, 32.802996506862087 ], [ -91.157105146847911, 32.802591612537327 ] ] ], [ [ [ -91.148731650895243, 32.803292298915096 ], [ -91.149022586408435, 32.803166446218285 ], [ -91.149333681858806, 32.803251194680719 ], [ -91.149482703108703, 32.803496900272627 ], [ -91.149382354463242, 32.803759632538068 ], [ -91.149091417439905, 32.803885486009058 ], [ -91.148780320069008, 32.803800736881719 ], [ -91.148631300329242, 32.803555030515611 ], [ -91.148731650895243, 32.803292298915096 ] ] ] ] } }
]
}
