{
"type": "FeatureCollection",
"name": "LM_07_FMB_20180812_CS_MB_4695_4700_depth_polygons",
"crs": { "type": "name", "properties": { "name": "urn:ogc:def:crs:OGC:1.3:CRS84" } },
"features": [
{ "type": "Feature", "properties": { "depth_bin": "50-55 ft", "bin_order": -52.5, "survey_id": "LM_07_FMB_20180812_CS_MB_4695_4700", "date": "2018-08-12", "year": 2018, "mile": 470.0 }, "geometry": { "type": "MultiPolygon", "coordinates": [ [ [ [ -91.163233179038457, 32.676253768737375 ], [ -91.163539535572625, 32.676474023152487 ], [ -91.163534648476457, 32.676832500127418 ], [ -91.163144182037328, 32.677134687263077 ], [ -91.162747174766551, 32.677144700329407 ], [ -91.162506976606409, 32.676912608855112 ], [ -91.162541277039793, 32.676560071575139 ], [ -91.162818643275642, 32.676327345806683 ], [ -91.163233179038457, 32.676253768737375 ] ] ], [ [ [ -91.14614245622893, 32.655205530200512 ], [ -91.146348139019622, 32.655485327968243 ], [ -91.146177380929259, 32.65587179926392 ], [ -91.145830959763671, 32.656123811684843 ], [ -91.145471287919349, 32.656073231992863 ], [ -91.145304206574323, 32.65587552701318 ], [ -91.14531117631121, 32.655660222261915 ], [ -91.145039831561789, 32.655382509085776 ], [ -91.145099623441027, 32.655078246226346 ], [ -91.145287798850461, 32.654935124972724 ], [ -91.145547636618247, 32.654897759815711 ], [ -91.14614245622893, 32.655205530200512 ] ] ], [ [ [ -91.145279474567616, 32.655965873973592 ], [ -91.145461428318796, 32.656233160360685 ], [ -91.145345631745428, 32.656564714849218 ], [ -91.145055178001996, 32.656690578725964 ], [ -91.144663244216872, 32.656592619629308 ], [ -91.144498092386968, 32.656333275471056 ], [ -91.144598144144169, 32.656056794218195 ], [ -91.144895588569184, 32.655907713328396 ], [ -91.145279474567616, 32.655965873973592 ] ] ] ] } },
{ "type": "Feature", "properties": { "depth_bin": "55-60 ft", "bin_order": -57.5, "survey_id": "LM_07_FMB_20180812_CS_MB_4695_4700", "date": "2018-08-12", "year": 2018, "mile": 470.0 }, "geometry": { "type": "MultiPolygon", "coordinates": [ [ [ [ -91.163430747893713, 32.676208162546494 ], [ -91.163676150633577, 32.67654128084331 ], [ -91.163559338775372, 32.676935068947586 ], [ -91.163099274014257, 32.677201621363707 ], [ -91.162625771384285, 32.677151839749051 ], [ -91.162399898155627, 32.676865030975605 ], [ -91.162484981309291, 32.676553907902154 ], [ -91.162953253195781, 32.676202191056845 ], [ -91.163430747893713, 32.676208162546494 ] ] ], [ [ [ -91.145490828831484, 32.654835487136971 ], [ -91.146298118981932, 32.655332918791956 ], [ -91.146363172319454, 32.65558340487302 ], [ -91.145850193111144, 32.656270996180503 ], [ -91.145512683522355, 32.656425989582274 ], [ -91.145365974734673, 32.656617691289753 ], [ -91.145154048049591, 32.656719117603046 ], [ -91.144857804550398, 32.656715773573076 ], [ -91.144486290221622, 32.656541855093245 ], [ -91.144351647199102, 32.656306737010866 ], [ -91.144442185416224, 32.656030725367557 ], [ -91.14476558860224, 32.655831177446714 ], [ -91.145126484020722, 32.655791268913326 ], [ -91.145206025117005, 32.65564011972284 ], [ -91.14493241497523, 32.655293691205813 ], [ -91.144945948390941, 32.655091310054182 ], [ -91.145055561906318, 32.654942559682944 ], [ -91.145251240562345, 32.654841238467604 ], [ -91.145490828831484, 32.654835487136971 ] ] ], [ [ [ -91.144508510859993, 32.657130215844205 ], [ -91.144625946745933, 32.65749110406594 ], [ -91.144450980249573, 32.657746109084087 ], [ -91.144079553919838, 32.657815916741072 ], [ -91.143754034305559, 32.65763290559731 ], [ -91.143664528096764, 32.657339880965154 ], [ -91.143855616166007, 32.65707103055869 ], [ -91.144202006308632, 32.656995313319236 ], [ -91.144508510859993, 32.657130215844205 ] ] ], [ [ [ -91.143559084456527, 32.657942162792267 ], [ -91.143742358746991, 32.658244831304984 ], [ -91.143707548785173, 32.658437330478286 ], [ -91.143565100288754, 32.658590120407126 ], [ -91.143161180782073, 32.658660134922059 ], [ -91.142770433309721, 32.658450057235193 ], [ -91.142681177317783, 32.658184515243207 ], [ -91.142856149636771, 32.657929512907792 ], [ -91.143242015224146, 32.657850919438793 ], [ -91.143559084456527, 32.657942162792267 ] ] ], [ [ [ -91.142881957163496, 32.658707356895135 ], [ -91.143017921379837, 32.658977856196287 ], [ -91.142900790228254, 32.65927402821594 ], [ -91.142610324382275, 32.659399885938392 ], [ -91.142267115810284, 32.659301604925695 ], [ -91.142074520481515, 32.659036341212833 ], [ -91.142169168456178, 32.658724762556126 ], [ -91.14250145648839, 32.658597787831745 ], [ -91.142881957163496, 32.658707356895135 ] ] ], [ [ [ -91.141981974045322, 32.65949727936183 ], [ -91.142129231500974, 32.659857176801211 ], [ -91.142081328294807, 32.660055686895213 ], [ -91.141922877036023, 32.660236062677008 ], [ -91.141486458236287, 32.660306280834547 ], [ -91.141095461587469, 32.660068713780774 ], [ -91.14100497339011, 32.659665754587046 ], [ -91.141179953452877, 32.659410754896776 ], [ -91.141623699013394, 32.659320676107598 ], [ -91.141981974045322, 32.65949727936183 ] ] ], [ [ [ -91.141191977320418, 32.660219235500406 ], [ -91.141325887899512, 32.660395365002437 ], [ -91.141340530255135, 32.660673061597684 ], [ -91.141095242184591, 32.660966309866311 ], [ -91.140682185749512, 32.660990101466588 ], [ -91.140243684541943, 32.660646583173971 ], [ -91.140217144259651, 32.660343929995427 ], [ -91.14042857070703, 32.660133628046289 ], [ -91.140818260140676, 32.660081695820416 ], [ -91.141191977320418, 32.660219235500406 ] ] ] ] } },
{ "type": "Feature", "properties": { "depth_bin": "60-65 ft", "bin_order": -62.5, "survey_id": "LM_07_FMB_20180812_CS_MB_4695_4700", "date": "2018-08-12", "year": 2018, "mile": 470.0 }, "geometry": { "type": "MultiPolygon", "coordinates": [ [ [ [ -91.16608805058307, 32.674885088574904 ], [ -91.166217633692739, 32.675187311218536 ], [ -91.166010083980524, 32.675515653741641 ], [ -91.165625290761881, 32.67563115671831 ], [ -91.165309551837737, 32.675507481715918 ], [ -91.16519264766778, 32.675215318398621 ], [ -91.16536770372025, 32.674887192783999 ], [ -91.165768614973487, 32.674757841183812 ], [ -91.16608805058307, 32.674885088574904 ] ] ], [ [ [ -91.163327202146903, 32.676065798079954 ], [ -91.163808967528325, 32.676285378415145 ], [ -91.163876732283299, 32.676486795641409 ], [ -91.1638231559171, 32.676683549851539 ], [ -91.163586427615186, 32.676988406312454 ], [ -91.163193560765109, 32.677203072438843 ], [ -91.162910560862656, 32.677256993063438 ], [ -91.162628923875602, 32.677184517078672 ], [ -91.162360873660958, 32.676927316642626 ], [ -91.1624462173029, 32.676542832555349 ], [ -91.162910835391983, 32.676179257883462 ], [ -91.163327202146903, 32.676065798079954 ] ] ], [ [ [ -91.145889846702872, 32.655145429472547 ], [ -91.146314487293324, 32.655346555191919 ], [ -91.146347146967699, 32.655712997439139 ], [ -91.145879203762618, 32.656286412416783 ], [ -91.14558197779526, 32.656470584016908 ], [ -91.145333114499508, 32.656977069363037 ], [ -91.145084151512833, 32.657098351876655 ], [ -91.144838255392855, 32.657074187414707 ], [ -91.14462878923662, 32.656907854644004 ], [ -91.144591465194438, 32.656667591910214 ], [ -91.144271710155195, 32.656459985640112 ], [ -91.144204002805679, 32.656258559338667 ], [ -91.144397870203122, 32.655954388908285 ], [ -91.144791438590076, 32.65573539727766 ], [ -91.145072444604821, 32.655668153383864 ], [ -91.144844158310661, 32.65530131985313 ], [ -91.144846029709697, 32.654948997559408 ], [ -91.145042649680619, 32.654771801607055 ], [ -91.145327519737833, 32.65474034681958 ], [ -91.145611090706453, 32.654858642034633 ], [ -91.145889846702872, 32.655145429472547 ] ] ], [ [ [ -91.144524939025189, 32.656960210109013 ], [ -91.144678614358128, 32.657124384532928 ], [ -91.144723041366063, 32.657449249142033 ], [ -91.144617967183166, 32.657682149468499 ], [ -91.1444459040288, 32.657811422883711 ], [ -91.14402327523355, 32.657848046646059 ], [ -91.143568615885997, 32.657652168111561 ], [ -91.143383063419492, 32.657479340745091 ], [ -91.143356636918696, 32.657190429403158 ], [ -91.143600289002904, 32.656952428547569 ], [ -91.144126401921099, 32.656842010743667 ], [ -91.144524939025189, 32.656960210109013 ] ] ], [ [ [ -91.143687243456, 32.657932583452229 ], [ -91.143938087482951, 32.658220955997656 ], [ -91.143878537095816, 32.658552701178145 ], [ -91.143468560423514, 32.658885958891872 ], [ -91.143140299271664, 32.658933452959474 ], [ -91.143129560191682, 32.65919689599761 ], [ -91.142762159982041, 32.659625984506015 ], [ -91.142531824875476, 32.659702725246156 ], [ -91.142312163966508, 32.65966759445049 ], [ -91.142317057719566, 32.659863355169868 ], [ -91.14213909891059, 32.660226759020993 ], [ -91.141777841749715, 32.660559696162288 ], [ -91.141484292789713, 32.660612688316029 ], [ -91.141231261684055, 32.661096927385174 ], [ -91.140978679711253, 32.661220086015774 ], [ -91.140714585341328, 32.661188303700357 ], [ -91.140639443551194, 32.661473234872162 ], [ -91.140389591531331, 32.661628413054132 ], [ -91.140060842268198, 32.661625266181119 ], [ -91.139738052421237, 32.661451019526083 ], [ -91.139533230223506, 32.661209703841244 ], [ -91.139513163620506, 32.660987231910298 ], [ -91.139731450062413, 32.660732721730973 ], [ -91.140136438779251, 32.660677582551635 ], [ -91.140001307604891, 32.660408375568835 ], [ -91.140131092488616, 32.66011398800493 ], [ -91.140481018684639, 32.659976461628261 ], [ -91.140966926142184, 32.660003535112644 ], [ -91.140897012114891, 32.659507893830664 ], [ -91.141119311719251, 32.659263409895111 ], [ -91.141654828871964, 32.659169309004461 ], [ -91.142071820677359, 32.659355494634184 ], [ -91.142098696166983, 32.659216686440303 ], [ -91.141894963721981, 32.658941301212884 ], [ -91.141923536840636, 32.658733289590934 ], [ -91.142246307052929, 32.658488647961832 ], [ -91.142813938633793, 32.658546232866286 ], [ -91.142581752749422, 32.658200875975155 ], [ -91.142615491010815, 32.658000480670871 ], [ -91.142757940087321, 32.657847691830725 ], [ -91.143250410648477, 32.657757292743625 ], [ -91.143687243456, 32.657932583452229 ] ] ] ] } },
{ "type": "Feature", "properties": { "depth_bin": "65-70 ft", "bin_order": -67.5, "survey_id": "LM_07_FMB_20180812_CS_MB_4695_4700", "date": "2018-08-12", "year": 2018, "mile": 470.0 }, "geometry": { "type": "MultiPolygon", "coordinates": [ [ [ [ -91.167134272034872, 32.673324725746042 ], [ -91.167516961157148, 32.673429048012324 ], [ -91.167650245870888, 32.673734842902299 ], [ -91.167378866170793, 32.674187294433501 ], [ -91.167033428748368, 32.67428617322674 ], [ -91.166748261091072, 32.674151848157187 ], [ -91.166658537246647, 32.673845096259619 ], [ -91.16688528988071, 32.673446050671316 ], [ -91.167134272034872, 32.673324725746042 ] ] ], [ [ [ -91.166084625261163, 32.674512797155515 ], [ -91.166309519822832, 32.674632657088644 ], [ -91.166438949456932, 32.674846396100087 ], [ -91.166425714720276, 32.675076263271002 ], [ -91.166225942548976, 32.675378250230047 ], [ -91.16570166814887, 32.675727692828545 ], [ -91.165462023768285, 32.675733481175186 ], [ -91.165195166989477, 32.675623170582831 ], [ -91.165018540803615, 32.675391009188353 ], [ -91.165087493259463, 32.675093733180262 ], [ -91.165723015846694, 32.674552774275824 ], [ -91.166084625261163, 32.674512797155515 ] ] ], [ [ [ -91.163986548101761, 32.676160520806619 ], [ -91.164051663699141, 32.676410999089853 ], [ -91.163937017161388, 32.676696538509269 ], [ -91.1637643903005, 32.67690477449321 ], [ -91.163311066122532, 32.677184865415633 ], [ -91.162779021623066, 32.677276650127439 ], [ -91.162450070960517, 32.677171956714034 ], [ -91.162282562603622, 32.677038375398908 ], [ -91.162214674203668, 32.676823215931762 ], [ -91.16230049572799, 32.676598764816418 ], [ -91.162910454332362, 32.676138033354235 ], [ -91.163602648770464, 32.675981521526495 ], [ -91.163986548101761, 32.676160520806619 ] ] ], [ [ [ -91.14634709954737, 32.655360086367885 ], [ -91.146412028646893, 32.655596830810758 ], [ -91.146264866507991, 32.655882564263685 ], [ -91.145879576698064, 32.656327637266294 ], [ -91.145620033070159, 32.656492549987682 ], [ -91.145318019416166, 32.65716674122595 ], [ -91.145015616553152, 32.657383837067336 ], [ -91.144418483437022, 32.658233545313024 ], [ -91.143611732837186, 32.658811764004369 ], [ -91.143438979583649, 32.65910378392141 ], [ -91.142373760847335, 32.659923374750377 ], [ -91.142017355494659, 32.660392861334323 ], [ -91.140361069765149, 32.661885844703207 ], [ -91.140057407820592, 32.66198700600826 ], [ -91.139772386489028, 32.661901238074726 ], [ -91.139638476945336, 32.661725106983077 ], [ -91.139641975382474, 32.66143285016107 ], [ -91.139307900389198, 32.661095078460271 ], [ -91.139376587296695, 32.660655748954788 ], [ -91.139518415483096, 32.660527954166831 ], [ -91.139772694341858, 32.66045716931891 ], [ -91.139775838779073, 32.660176322373864 ], [ -91.140063388369256, 32.659898922727088 ], [ -91.140335550282714, 32.659821069407208 ], [ -91.140642834189109, 32.659887845458734 ], [ -91.140616718628479, 32.659613010582852 ], [ -91.140901322382433, 32.659137698874964 ], [ -91.141131657257219, 32.65906096112073 ], [ -91.141714937131525, 32.659063189828508 ], [ -91.141808835293446, 32.658624089199144 ], [ -91.142035151926521, 32.658435556326744 ], [ -91.142065283104273, 32.658237648388337 ], [ -91.142191612805604, 32.658098706534282 ], [ -91.14252194318604, 32.658025513582871 ], [ -91.142677096165357, 32.657802606052016 ], [ -91.14292139294578, 32.657687232895178 ], [ -91.1433234335272, 32.657680437946681 ], [ -91.14365262446232, 32.657799033907416 ], [ -91.143685598006854, 32.657732134509239 ], [ -91.143069416476067, 32.657376217466513 ], [ -91.14299789914169, 32.657041576675603 ], [ -91.143139009434265, 32.656869519196306 ], [ -91.143360209107087, 32.656783406438834 ], [ -91.143724151542656, 32.65680273367834 ], [ -91.14420613419226, 32.656676585687116 ], [ -91.144520480527873, 32.656785072633845 ], [ -91.144440871870074, 32.656653947173247 ], [ -91.144031204779822, 32.656517309608908 ], [ -91.143827240308752, 32.656294622620358 ], [ -91.143783074754737, 32.656074810413912 ], [ -91.144012220165251, 32.655795402483207 ], [ -91.144530561362075, 32.655772276588408 ], [ -91.144698343238119, 32.655666703239412 ], [ -91.144582940255646, 32.65504677597972 ], [ -91.144684312603701, 32.654805674314723 ], [ -91.145046727925944, 32.65465617377648 ], [ -91.145357717029881, 32.654693658862499 ], [ -91.145644506923233, 32.65491113465405 ], [ -91.145789840075096, 32.655229705696343 ], [ -91.146119370954068, 32.655211925471086 ], [ -91.14634709954737, 32.655360086367885 ] ] ] ] } },
{ "type": "Feature", "properties": { "depth_bin": "70-75 ft", "bin_order": -72.5, "survey_id": "LM_07_FMB_20180812_CS_MB_4695_4700", "date": "2018-08-12", "year": 2018, "mile": 470.0 }, "geometry": { "type": "MultiPolygon", "coordinates": [ [ [ [ -91.167235149384467, 32.673272622529474 ], [ -91.167688752501462, 32.673601827938391 ], [ -91.167683243839903, 32.67389159811809 ], [ -91.167456756477051, 32.674216122960523 ], [ -91.166768237633221, 32.674801114173555 ], [ -91.166380303698986, 32.675528800309976 ], [ -91.165898041864565, 32.675877556723215 ], [ -91.165521646352389, 32.675837862053662 ], [ -91.165124800185396, 32.67597803514748 ], [ -91.164774718203006, 32.675892752714482 ], [ -91.164631273039092, 32.675682165745599 ], [ -91.164675666620951, 32.675432815607657 ], [ -91.165611066816794, 32.674457703415001 ], [ -91.165886964716989, 32.674286893448993 ], [ -91.166131266941747, 32.674234007700527 ], [ -91.166509458324313, 32.673874826262924 ], [ -91.166897714263172, 32.673321903931061 ], [ -91.167235149384467, 32.673272622529474 ] ] ], [ [ [ -91.164081781720242, 32.67580411566513 ], [ -91.164309592176011, 32.675952246418078 ], [ -91.164367724845178, 32.67622390245193 ], [ -91.163931169477138, 32.676813671224522 ], [ -91.163925288609377, 32.677030516436389 ], [ -91.163799556069648, 32.67719313200864 ], [ -91.163262882317085, 32.67744620814991 ], [ -91.162821652938078, 32.677312386668184 ], [ -91.162389961135332, 32.677375417885756 ], [ -91.162157270673816, 32.677259883384117 ], [ -91.162044349752719, 32.677073515940691 ], [ -91.162073590120244, 32.676816059263686 ], [ -91.162440883848774, 32.676418228633061 ], [ -91.163259670932845, 32.675952801369526 ], [ -91.163874984239712, 32.675792486558997 ], [ -91.164081781720242, 32.67580411566513 ] ] ], [ [ [ -91.146363467871097, 32.655373722761155 ], [ -91.146428521416937, 32.655624208813897 ], [ -91.146281359284572, 32.655909942285305 ], [ -91.145659643273007, 32.65651810805771 ], [ -91.145409593392415, 32.65719604439294 ], [ -91.144907420517853, 32.657662317230795 ], [ -91.144434852001837, 32.658247181951836 ], [ -91.143661044576547, 32.658824691612899 ], [ -91.143487961379023, 32.659130952590168 ], [ -91.142295050458443, 32.660037007239644 ], [ -91.142098208560753, 32.660351113083287 ], [ -91.140361316752788, 32.661913327948774 ], [ -91.140099480149402, 32.662013372156814 ], [ -91.139788878442317, 32.66192861692808 ], [ -91.139488683126416, 32.66159966347734 ], [ -91.139210858573549, 32.660979719129514 ], [ -91.138977934050473, 32.660805881331882 ], [ -91.138984982256531, 32.660465868753526 ], [ -91.139253947980691, 32.6602919319199 ], [ -91.139383213072534, 32.660050080645007 ], [ -91.139755672088853, 32.65981182234249 ], [ -91.140191131485693, 32.659767154746575 ], [ -91.14045931298736, 32.65951517185281 ], [ -91.140397674367009, 32.659320173767171 ], [ -91.140451536688118, 32.659150913407494 ], [ -91.140801111262547, 32.658966658954213 ], [ -91.140994843729004, 32.658610505244162 ], [ -91.141349037048244, 32.65850912955684 ], [ -91.141510457947987, 32.658226776416768 ], [ -91.141752247014068, 32.658149731246141 ], [ -91.141964257919952, 32.657914896564712 ], [ -91.142254434411498, 32.657844784426629 ], [ -91.142448496295501, 32.657568214284353 ], [ -91.142914125755297, 32.657386426207751 ], [ -91.142666576976779, 32.657019443857969 ], [ -91.142704241549481, 32.656745220888595 ], [ -91.142882320189202, 32.65659975787586 ], [ -91.143158011879848, 32.65655326365389 ], [ -91.14368251673892, 32.655803464088571 ], [ -91.14403925244919, 32.655702190966593 ], [ -91.144071408550403, 32.655517443721045 ], [ -91.144236356723184, 32.655346944490056 ], [ -91.144262738294898, 32.655117676596184 ], [ -91.144553617259035, 32.654724064582716 ], [ -91.144802574161972, 32.654602782866647 ], [ -91.145275876842589, 32.654625476202419 ], [ -91.145550811528636, 32.65484635383158 ], [ -91.14568026729188, 32.655320402503925 ], [ -91.146054056929245, 32.655210558173074 ], [ -91.146363467871097, 32.655373722761155 ] ] ] ] } },
{ "type": "Feature", "properties": { "depth_bin": "75-80 ft", "bin_order": -77.5, "survey_id": "LM_07_FMB_20180812_CS_MB_4695_4700", "date": "2018-08-12", "year": 2018, "mile": 470.0 }, "geometry": { "type": "MultiPolygon", "coordinates": [ [ [ [ -91.167275165669835, 32.673241860675247 ], [ -91.167765246468491, 32.673634335161452 ], [ -91.167812775283579, 32.673967656239348 ], [ -91.167493618617002, 32.674296470432765 ], [ -91.167260544264451, 32.674427071127752 ], [ -91.167106875152825, 32.674642600555771 ], [ -91.166913379735007, 32.674732838363454 ], [ -91.166751258031169, 32.674932264815709 ], [ -91.166590038812458, 32.675428391335139 ], [ -91.166159245277044, 32.675830738739904 ], [ -91.16589739334367, 32.675930836179418 ], [ -91.165524119451248, 32.675875623509341 ], [ -91.164313339809638, 32.67655779663631 ], [ -91.164026457059251, 32.676765287925818 ], [ -91.164033518758714, 32.676981946725981 ], [ -91.163941676135224, 32.677139083552518 ], [ -91.163439566914377, 32.677448808332478 ], [ -91.163147173386321, 32.677486423478655 ], [ -91.162795651285563, 32.677390658838128 ], [ -91.162241295387616, 32.677672838831207 ], [ -91.161883848534146, 32.677564020879011 ], [ -91.161770927842184, 32.677377653204545 ], [ -91.161784682412375, 32.677202752963488 ], [ -91.162343016991016, 32.676377648266268 ], [ -91.162816230153496, 32.676066256210078 ], [ -91.16411127602359, 32.675648505376941 ], [ -91.164569462511608, 32.675367017915121 ], [ -91.16543284435491, 32.674545515438105 ], [ -91.165641649995663, 32.674251364414459 ], [ -91.166173561368041, 32.673864680985716 ], [ -91.16661843533204, 32.673179216681717 ], [ -91.166981118911551, 32.673103330050452 ], [ -91.167275165669835, 32.673241860675247 ] ] ], [ [ [ -91.146228760239197, 32.655267394331744 ], [ -91.146431351784557, 32.655483823398448 ], [ -91.146411283290092, 32.655748274860983 ], [ -91.145756944274609, 32.656491836697903 ], [ -91.145515255092775, 32.657133855443021 ], [ -91.145288853923901, 32.657472083726006 ], [ -91.144986723429568, 32.657643449311614 ], [ -91.144451220571611, 32.658260818588417 ], [ -91.143666609110227, 32.658865082860565 ], [ -91.14361310760728, 32.659060474746099 ], [ -91.14332737410011, 32.659338126256976 ], [ -91.14231519007798, 32.660053828073544 ], [ -91.142114577172961, 32.660364750019653 ], [ -91.140377685395634, 32.661926965108009 ], [ -91.140074023326278, 32.662028126448305 ], [ -91.139789001848499, 32.661942358548167 ], [ -91.138667924541807, 32.660656704408794 ], [ -91.138623770060505, 32.660436890870038 ], [ -91.138769881181588, 32.660093383852356 ], [ -91.139206876304783, 32.659770432683061 ], [ -91.139579536425643, 32.65975803217524 ], [ -91.13966526660127, 32.659552087850031 ], [ -91.139925408632507, 32.659405574000196 ], [ -91.140447488797548, 32.658763332258332 ], [ -91.140943155000258, 32.658465798004357 ], [ -91.140995822679074, 32.658254152947841 ], [ -91.141445133183794, 32.657698743506522 ], [ -91.141895173318375, 32.657518825519901 ], [ -91.142097184585126, 32.657200224197368 ], [ -91.142276881075134, 32.657075723718016 ], [ -91.142337012722649, 32.6567726626119 ], [ -91.142590047231451, 32.656627535020746 ], [ -91.142861511842071, 32.656232916527841 ], [ -91.143562375651797, 32.655589022651434 ], [ -91.144107613178861, 32.654873772774515 ], [ -91.144146994300044, 32.654605829083643 ], [ -91.14436760487915, 32.654401688190283 ], [ -91.144763177943844, 32.654341183762106 ], [ -91.145423754749345, 32.654718701093245 ], [ -91.145515798888241, 32.654948922348218 ], [ -91.145373342896818, 32.655452954433336 ], [ -91.145465671692619, 32.655615824096934 ], [ -91.14582683054546, 32.655261455661787 ], [ -91.146228760239197, 32.655267394331744 ] ] ] ] } },
{ "type": "Feature", "properties": { "depth_bin": "80-85 ft", "bin_order": -82.5, "survey_id": "LM_07_FMB_20180812_CS_MB_4695_4700", "date": "2018-08-12", "year": 2018, "mile": 470.0 }, "geometry": { "type": "MultiPolygon", "coordinates": [ [ [ [ -91.167160542482463, 32.673146425980555 ], [ -91.167357861410721, 32.673484559473707 ], [ -91.167592966773185, 32.673512343006912 ], [ -91.167806398965368, 32.673660077428998 ], [ -91.167888888421231, 32.67396052378615 ], [ -91.167797055769185, 32.674117663859668 ], [ -91.167056770406404, 32.674740784565969 ], [ -91.166751493942272, 32.675317380224072 ], [ -91.166370208464329, 32.675801853608888 ], [ -91.165988018692474, 32.675967149346235 ], [ -91.165565996218731, 32.675914543092972 ], [ -91.164174241620614, 32.676690267449565 ], [ -91.164081478618741, 32.676761167748893 ], [ -91.164082771956117, 32.677036590029438 ], [ -91.163990929356373, 32.677193726891836 ], [ -91.163456068983066, 32.677476183854232 ], [ -91.163131179623164, 32.677514013948702 ], [ -91.162810705564723, 32.677433195085364 ], [ -91.161911250314517, 32.677904327172868 ], [ -91.161688200517688, 32.677892801596983 ], [ -91.161495927066838, 32.677786460400974 ], [ -91.16132646569568, 32.677525069863187 ], [ -91.161345537515388, 32.677282572353043 ], [ -91.162260509438568, 32.676240769900403 ], [ -91.162907659910587, 32.675835719230051 ], [ -91.163753253403229, 32.675482878333248 ], [ -91.164042903513291, 32.675402275670912 ], [ -91.164260927285142, 32.67543666523077 ], [ -91.164957657070801, 32.674810228957938 ], [ -91.165709801640716, 32.673866534614227 ], [ -91.166108728861232, 32.673532935125593 ], [ -91.166470807560273, 32.673029031152517 ], [ -91.16682603611271, 32.672959266750794 ], [ -91.167160542482463, 32.673146425980555 ] ] ], [ [ [ -91.146463964105763, 32.655497354544885 ], [ -91.146444984166848, 32.655753590926707 ], [ -91.145834339038501, 32.656470089017205 ], [ -91.145677324852485, 32.657091579320259 ], [ -91.14533771112886, 32.657485510068938 ], [ -91.144983954417455, 32.657695973745625 ], [ -91.144483709510709, 32.658260608620957 ], [ -91.143798218739917, 32.658794349299932 ], [ -91.143327745907058, 32.659379351111809 ], [ -91.142336117832073, 32.660064499240086 ], [ -91.142147066891937, 32.660364540645084 ], [ -91.140426420841834, 32.661926651704924 ], [ -91.140132217391979, 32.662040646539417 ], [ -91.13980537040581, 32.661955995778946 ], [ -91.139671460719327, 32.661779864718667 ], [ -91.139685453619407, 32.661548864950063 ], [ -91.139378555041304, 32.66146400993091 ], [ -91.139156519032866, 32.66117018160255 ], [ -91.138603560963247, 32.660725829483802 ], [ -91.138474286366588, 32.660418181210972 ], [ -91.138621467853838, 32.660073795435252 ], [ -91.139493832713285, 32.659309075005865 ], [ -91.139779585695024, 32.658961881404423 ], [ -91.140150309183767, 32.658788226336249 ], [ -91.140493035565072, 32.658479057509325 ], [ -91.140814813763839, 32.658060104283678 ], [ -91.141023245656754, 32.657946785064155 ], [ -91.141391190740094, 32.65752230107303 ], [ -91.141592325717141, 32.657430600130724 ], [ -91.141617282332064, 32.657196108800392 ], [ -91.141914414937276, 32.656747901064463 ], [ -91.142253899068351, 32.656590541960647 ], [ -91.142600738412384, 32.656138401297795 ], [ -91.143046939443991, 32.655832545836304 ], [ -91.143235041242704, 32.655475080642994 ], [ -91.143623946281451, 32.655131023979386 ], [ -91.144128299765129, 32.654396993789724 ], [ -91.144377256270673, 32.654275712899832 ], [ -91.14485055709919, 32.654298407817663 ], [ -91.145325670666296, 32.654650622654344 ], [ -91.145417714489014, 32.654880843972052 ], [ -91.144938198616373, 32.655613324278178 ], [ -91.145010788551957, 32.655929365988058 ], [ -91.144709894205903, 32.656240308738674 ], [ -91.144746467454098, 32.656445899063819 ], [ -91.14467326230077, 32.656609881362314 ], [ -91.144479189148925, 32.656739881085812 ], [ -91.143864814829627, 32.656877706568139 ], [ -91.143783724624754, 32.657017717504282 ], [ -91.144172442659482, 32.657364088920339 ], [ -91.144622392209087, 32.656967783897379 ], [ -91.14497334214694, 32.656167127495522 ], [ -91.145741409491691, 32.655336653236972 ], [ -91.146144314158946, 32.655243530366803 ], [ -91.146360558441913, 32.655345456111178 ], [ -91.146463964105763, 32.655497354544885 ] ], [ [ -91.142914190361054, 32.658472595396979 ], [ -91.143386777187615, 32.658100496838621 ], [ -91.143106530009618, 32.65806437372752 ], [ -91.142925351689072, 32.658394353095979 ], [ -91.14274066254626, 32.658510138038679 ], [ -91.14247720400742, 32.658535675522479 ], [ -91.14207468322833, 32.659053233809452 ], [ -91.141525174143879, 32.659201475671715 ], [ -91.141449519245441, 32.659420396456895 ], [ -91.141247952109168, 32.659562218230626 ], [ -91.141199204640799, 32.659804385944746 ], [ -91.140971084216147, 32.659967821143546 ], [ -91.140862236779853, 32.660207905068681 ], [ -91.140321207243531, 32.660424266884377 ], [ -91.140265155301819, 32.660717396436681 ], [ -91.139979106331126, 32.660902091087102 ], [ -91.140080396863226, 32.661154584183031 ], [ -91.141442226014746, 32.65992966628648 ], [ -91.141657133641218, 32.659593835452213 ], [ -91.142691958100855, 32.658796438091876 ], [ -91.142914190361054, 32.658472595396979 ] ] ], [ [ [ -91.160693063870028, 32.678257984446098 ], [ -91.160655441677292, 32.678532213576169 ], [ -91.160367315496558, 32.678731320781409 ], [ -91.160043064508926, 32.678699501186834 ], [ -91.159840389405844, 32.678483091809738 ], [ -91.159894008927338, 32.678181272940556 ], [ -91.160149891549693, 32.678009863969912 ], [ -91.160490388090395, 32.678041576084809 ], [ -91.160693063870028, 32.678257984446098 ] ] ] ] } },
{ "type": "Feature", "properties": { "depth_bin": "85-90 ft", "bin_order": -87.5, "survey_id": "LM_07_FMB_20180812_CS_MB_4695_4700", "date": "2018-08-12", "year": 2018, "mile": 470.0 }, "geometry": { "type": "MultiPolygon", "coordinates": [ [ [ [ -91.166758236158657, 32.672858255549009 ], [ -91.167053538829876, 32.673074160030531 ], [ -91.167144324488319, 32.673268987671293 ], [ -91.167110633560782, 32.673469390486581 ], [ -91.166893934709151, 32.673812870284841 ], [ -91.16727772180036, 32.673576796797704 ], [ -91.167578893766347, 32.673545185426534 ], [ -91.167871770905563, 32.673700869704653 ], [ -91.167961115487444, 32.673966396366374 ], [ -91.167801679156582, 32.674225710342235 ], [ -91.167136236923255, 32.674709441746536 ], [ -91.166402958665017, 32.675829120871086 ], [ -91.166037143912888, 32.676008050383643 ], [ -91.165580220860249, 32.675966703269559 ], [ -91.164235746795441, 32.676691169486197 ], [ -91.16416753943588, 32.677024828696517 ], [ -91.163848643864952, 32.677332475014225 ], [ -91.163305399922436, 32.67755155322569 ], [ -91.16297993273291, 32.677494406111101 ], [ -91.162468247515264, 32.677840017429929 ], [ -91.16209407707909, 32.677876315056018 ], [ -91.161839162391956, 32.677986453517939 ], [ -91.161183089976873, 32.678357691063027 ], [ -91.160969107450057, 32.678613556865514 ], [ -91.160721701237222, 32.678744801438192 ], [ -91.160372365769561, 32.67877680125244 ], [ -91.159703020739528, 32.679063819726984 ], [ -91.159461041247624, 32.679019408785749 ], [ -91.159247197692451, 32.678859445650922 ], [ -91.159127404563165, 32.678588855298813 ], [ -91.159273657357843, 32.678321823976724 ], [ -91.16061458523086, 32.677678108820039 ], [ -91.161118256448546, 32.677084733785001 ], [ -91.162483546753123, 32.675845146140119 ], [ -91.163496699050938, 32.675372976052323 ], [ -91.164009144589386, 32.675041428334787 ], [ -91.16453833940507, 32.674894037945421 ], [ -91.164744723385525, 32.674750685429878 ], [ -91.165291080660509, 32.674220195230397 ], [ -91.165674758635078, 32.67359192008557 ], [ -91.166247188035044, 32.672969304959835 ], [ -91.16647152191814, 32.672842138237876 ], [ -91.166758236158657, 32.672858255549009 ] ], [ [ -91.165720459900911, 32.675153850085657 ], [ -91.165989143378681, 32.674977904726255 ], [ -91.166109905288167, 32.674706963797448 ], [ -91.165720459900911, 32.675153850085657 ] ] ], [ [ [ -91.146240233050577, 32.655278871130193 ], [ -91.14646692586733, 32.65547745951848 ], [ -91.146476134919922, 32.65573411231059 ], [ -91.145870482046789, 32.656475050467506 ], [ -91.145772957128059, 32.657016713858994 ], [ -91.145531648912296, 32.657374314964237 ], [ -91.144982195943939, 32.657745576537671 ], [ -91.144580679836579, 32.6582050122013 ], [ -91.143829338935788, 32.658809906974263 ], [ -91.143489572862677, 32.659309594526349 ], [ -91.14235878644493, 32.660082887359458 ], [ -91.142228043642987, 32.660336533931762 ], [ -91.140410546206027, 32.661967981943967 ], [ -91.140148709489779, 32.662068026250168 ], [ -91.139838107543454, 32.661983271135512 ], [ -91.139671640278124, 32.661688540374506 ], [ -91.139885761964138, 32.661336779890533 ], [ -91.141474715569188, 32.659929457079912 ], [ -91.141657504701271, 32.659635060307366 ], [ -91.142706647909279, 32.658862258331744 ], [ -91.142946803255299, 32.658486127434038 ], [ -91.143554215735932, 32.658020254381086 ], [ -91.143261026813448, 32.657990392842656 ], [ -91.142969984040022, 32.657840277029308 ], [ -91.142983110123538, 32.658058799439807 ], [ -91.142891252444983, 32.658215920669285 ], [ -91.142650679990382, 32.658343150407582 ], [ -91.142287936219006, 32.658374907596134 ], [ -91.141974062412729, 32.658586774532573 ], [ -91.141971510009938, 32.658814039674311 ], [ -91.141814397093327, 32.659013683488837 ], [ -91.141584062862293, 32.659090422523022 ], [ -91.14134885542191, 32.659055685960482 ], [ -91.14106817752851, 32.659224966913989 ], [ -91.140619942910106, 32.65996023757085 ], [ -91.140159390231176, 32.660117275611313 ], [ -91.139838700252625, 32.660342238594758 ], [ -91.13948614454975, 32.66041006271999 ], [ -91.139311635211783, 32.660806935618552 ], [ -91.138917488108518, 32.660906050864895 ], [ -91.138723637698178, 32.660844114265565 ], [ -91.138337903218627, 32.660539931980495 ], [ -91.138232044393718, 32.660233266620182 ], [ -91.138305264416132, 32.660069288704321 ], [ -91.138536070824728, 32.659893207558916 ], [ -91.138610220294808, 32.659655058866051 ], [ -91.138953469890026, 32.659423854312017 ], [ -91.139134264361758, 32.659060361584089 ], [ -91.139486874306328, 32.658824093250431 ], [ -91.139780268797139, 32.658768924093664 ], [ -91.140049915150783, 32.658587498906371 ], [ -91.140151875697654, 32.658407929199058 ], [ -91.140452448357991, 32.658186379693895 ], [ -91.140586155353176, 32.657924151035054 ], [ -91.141079332280327, 32.657513331851106 ], [ -91.141048695189497, 32.657301772886086 ], [ -91.141147418626673, 32.657109735113615 ], [ -91.141497976641716, 32.656752036126178 ], [ -91.142112137086329, 32.656368875165057 ], [ -91.142291852143174, 32.656112907745474 ], [ -91.142735937949723, 32.655792613682735 ], [ -91.143263440077902, 32.655021396560848 ], [ -91.144107519590506, 32.654190608499547 ], [ -91.144466113335554, 32.654119659017276 ], [ -91.14470801742425, 32.654164096373634 ], [ -91.145063781636082, 32.654432437843155 ], [ -91.14515582458192, 32.654662659328288 ], [ -91.144840277817892, 32.655317011092833 ], [ -91.144380771757412, 32.655856345528406 ], [ -91.143924515717643, 32.656149705690737 ], [ -91.143480275431315, 32.656879102344682 ], [ -91.143190033820531, 32.657004937965866 ], [ -91.143337216354169, 32.657177164008232 ], [ -91.143862455519326, 32.657302360255891 ], [ -91.144028899087687, 32.657597468746779 ], [ -91.144840474468481, 32.65677612080502 ], [ -91.145070185680524, 32.656097789105544 ], [ -91.145713144901165, 32.655403686673274 ], [ -91.145953580859469, 32.655262709020825 ], [ -91.146240233050577, 32.655278871130193 ] ] ] ] } },
{ "type": "Feature", "properties": { "depth_bin": "90-95 ft", "bin_order": -92.5, "survey_id": "LM_07_FMB_20180812_CS_MB_4695_4700", "date": "2018-08-12", "year": 2018, "mile": 470.0 }, "geometry": { "type": "MultiPolygon", "coordinates": [ [ [ [ -91.166390169851411, 32.672706948976362 ], [ -91.166632136567614, 32.672751346102253 ], [ -91.166906294376645, 32.672965198576321 ], [ -91.166977911282444, 32.673299828575352 ], [ -91.166810511636967, 32.673587859147176 ], [ -91.166338616430792, 32.674071779770827 ], [ -91.166039697400024, 32.674568685796622 ], [ -91.165488079756997, 32.675158393800366 ], [ -91.165835982307883, 32.675248364477575 ], [ -91.166389790653128, 32.674328853534682 ], [ -91.16685340543944, 32.673901623370632 ], [ -91.167343093428045, 32.673617589338257 ], [ -91.167561218557211, 32.673577832864318 ], [ -91.167796878245369, 32.67364207356308 ], [ -91.167966136308507, 32.673801232803328 ], [ -91.168013015491425, 32.673971976860003 ], [ -91.167882915468098, 32.674225170065334 ], [ -91.16717973772738, 32.674704354868759 ], [ -91.166496587444911, 32.675802876125182 ], [ -91.166078295063286, 32.676041268735979 ], [ -91.165688049464592, 32.676009584702378 ], [ -91.16526954020128, 32.67636109565386 ], [ -91.164940129573367, 32.676411500077137 ], [ -91.164360006032254, 32.676688251862217 ], [ -91.16427487781678, 32.676999044037892 ], [ -91.163764269858149, 32.677419175014769 ], [ -91.163362671547191, 32.677570923529196 ], [ -91.163108103965811, 32.677565064716241 ], [ -91.162029081379089, 32.678117311696433 ], [ -91.161486978612174, 32.678488701987199 ], [ -91.160010453125466, 32.679148018736811 ], [ -91.159766797458815, 32.679185304616261 ], [ -91.159539711817146, 32.67910182216454 ], [ -91.159027024325567, 32.67865063232945 ], [ -91.158982939187155, 32.678444566127737 ], [ -91.159081650486598, 32.678252514306855 ], [ -91.160336543578012, 32.677370977565658 ], [ -91.160915021937228, 32.677117935049793 ], [ -91.161599223617927, 32.676380698874496 ], [ -91.162659095559306, 32.675500426242237 ], [ -91.162988247478651, 32.675395150686015 ], [ -91.16387297766498, 32.674798654936509 ], [ -91.164814280990768, 32.674440025323555 ], [ -91.165318216028865, 32.673933460926904 ], [ -91.16558547031299, 32.673388787130065 ], [ -91.165906509059269, 32.673026536271003 ], [ -91.166159818636643, 32.672783732483964 ], [ -91.166390169851411, 32.672706948976362 ] ], [ [ -91.163190833619609, 32.676774951583546 ], [ -91.163386217125193, 32.676341404743731 ], [ -91.164227921874314, 32.675839170288128 ], [ -91.162990914866356, 32.676458613635099 ], [ -91.162757913774314, 32.676661229736318 ], [ -91.163190833619609, 32.676774951583546 ] ] ], [ [ [ -91.146256601342998, 32.655292507535322 ], [ -91.146482435393935, 32.65547247397835 ], [ -91.146508747336995, 32.65574764344727 ], [ -91.145918568766646, 32.656482930271252 ], [ -91.145805445607976, 32.657016503554161 ], [ -91.145532021711958, 32.65741554071181 ], [ -91.145007660341406, 32.657766970746657 ], [ -91.1446454104738, 32.658177108951527 ], [ -91.143903887073478, 32.658782392702101 ], [ -91.143599064670454, 32.659242037317831 ], [ -91.142389365283279, 32.660166375181561 ], [ -91.140443036518136, 32.661967773001919 ], [ -91.14013937437403, 32.662068934497491 ], [ -91.139854352699231, 32.661983166739837 ], [ -91.139707039369299, 32.661666755303898 ], [ -91.139918252040232, 32.661336571078841 ], [ -91.141535307732937, 32.659905285587925 ], [ -91.141718634134861, 32.659609043478241 ], [ -91.142725314143235, 32.658892419900688 ], [ -91.142963419409199, 32.658527247490234 ], [ -91.143951658122717, 32.657719711878627 ], [ -91.144522878436632, 32.657117310297622 ], [ -91.144874212097136, 32.656919430478723 ], [ -91.14506837787232, 32.656184380096313 ], [ -91.145729513132437, 32.655417323144825 ], [ -91.145969949103616, 32.655276345461708 ], [ -91.146256601342998, 32.655292507535322 ] ] ], [ [ [ -91.144296464143054, 32.65389498085527 ], [ -91.144880829046485, 32.654333359565214 ], [ -91.144907894342992, 32.654534654644571 ], [ -91.144584776201071, 32.655123857994532 ], [ -91.144331423122253, 32.655387559420603 ], [ -91.144125822192137, 32.655480142918478 ], [ -91.143858425340269, 32.655773802272712 ], [ -91.143597797704899, 32.656245782435093 ], [ -91.143231142925956, 32.656475566421143 ], [ -91.142896101550861, 32.656951583789748 ], [ -91.142364227338774, 32.657284721275033 ], [ -91.142252300190265, 32.657681265435976 ], [ -91.142065232089465, 32.657830985193726 ], [ -91.141754755811959, 32.658291958236738 ], [ -91.141481027282126, 32.658415966080533 ], [ -91.141319738705292, 32.6586932906526 ], [ -91.141060034298818, 32.658815749322443 ], [ -91.140884348100229, 32.659053396707115 ], [ -91.14050200697416, 32.659329661458997 ], [ -91.140373430832824, 32.659645746359018 ], [ -91.140001209425066, 32.65974316946226 ], [ -91.139582001030647, 32.660159303473066 ], [ -91.139351454096229, 32.660255893549405 ], [ -91.139131839974496, 32.660597573809234 ], [ -91.138794695056546, 32.660675841422012 ], [ -91.138379596706088, 32.66057716283926 ], [ -91.138079904689121, 32.660303172474151 ], [ -91.138036634441775, 32.659945656699264 ], [ -91.138146265438451, 32.659796913105026 ], [ -91.138352020622492, 32.659704312885246 ], [ -91.138510656314125, 32.659422076543756 ], [ -91.139115430544308, 32.658771891684104 ], [ -91.139765056215694, 32.658421230350179 ], [ -91.139982857109302, 32.658167891948224 ], [ -91.140254212633621, 32.658056744888945 ], [ -91.140802796342754, 32.657364643888869 ], [ -91.140861010678876, 32.6570295325253 ], [ -91.14152786832355, 32.656463251882649 ], [ -91.14216449911477, 32.656055602057826 ], [ -91.142353611359127, 32.655755205792559 ], [ -91.142605926340678, 32.65558124837635 ], [ -91.142803366290238, 32.655188865695052 ], [ -91.143724462913724, 32.65435757779079 ], [ -91.143909807657707, 32.653987993042804 ], [ -91.144296464143054, 32.65389498085527 ] ] ] ] } },
{ "type": "Feature", "properties": { "depth_bin": "95-100 ft", "bin_order": -97.5, "survey_id": "LM_07_FMB_20180812_CS_MB_4695_4700", "date": "2018-08-12", "year": 2018, "mile": 470.0 }, "geometry": { "type": "MultiPolygon", "coordinates": [ [ [ [ -91.166665858341005, 32.672761327219284 ], [ -91.166818441704194, 32.672954111226964 ], [ -91.166799641336013, 32.673224093304619 ], [ -91.166280475615707, 32.673870142560631 ], [ -91.165973305842854, 32.674417960492462 ], [ -91.165529443965127, 32.674888554981777 ], [ -91.164914128874486, 32.675254006024218 ], [ -91.164356374217618, 32.675423500438512 ], [ -91.163398005526645, 32.676043673311085 ], [ -91.163165448547289, 32.676102723601311 ], [ -91.162384102998189, 32.676813810404077 ], [ -91.162738664937493, 32.676688945502441 ], [ -91.163219230604426, 32.676810511297148 ], [ -91.163360997649193, 32.676761498630647 ], [ -91.163402349715469, 32.676422488922803 ], [ -91.16354345437756, 32.676250408677589 ], [ -91.165059491955361, 32.675472947333517 ], [ -91.165294476047336, 32.675225305934376 ], [ -91.165586861442293, 32.675187685518225 ], [ -91.165855048805824, 32.675286173906528 ], [ -91.166081320294907, 32.674980164767433 ], [ -91.166262314678988, 32.674538655854384 ], [ -91.166692592053479, 32.674081342087277 ], [ -91.167430355263505, 32.673643910284845 ], [ -91.167794234892114, 32.673664362383285 ], [ -91.168029669500314, 32.673908026201936 ], [ -91.167992072117912, 32.674182258579265 ], [ -91.167244471789246, 32.674676439967392 ], [ -91.166974993256886, 32.675023509221162 ], [ -91.166833624546186, 32.675413031125643 ], [ -91.166453214454123, 32.675906862315941 ], [ -91.166046182346648, 32.676082708900253 ], [ -91.165775066132611, 32.676076866174874 ], [ -91.165464130953069, 32.676318578245976 ], [ -91.164853522629613, 32.676575628434826 ], [ -91.163801044741888, 32.677456471214676 ], [ -91.163444292273923, 32.67761161060443 ], [ -91.163140392026335, 32.677604204703194 ], [ -91.162554908564374, 32.678000665499908 ], [ -91.162279902732891, 32.678056923434333 ], [ -91.161892039328123, 32.678362346602732 ], [ -91.16010229890253, 32.679161739427641 ], [ -91.15984130925068, 32.679214923427203 ], [ -91.159641162802842, 32.679169389406425 ], [ -91.159302405672548, 32.678825376224083 ], [ -91.15879389357255, 32.678478309018772 ], [ -91.158704572629915, 32.678212776816174 ], [ -91.158863420516795, 32.677971601036568 ], [ -91.15951841347146, 32.677655364066673 ], [ -91.160544627951651, 32.676840772161512 ], [ -91.161059922954308, 32.67667917656847 ], [ -91.161561599099315, 32.676192149312023 ], [ -91.1616893030413, 32.675969694468549 ], [ -91.162043249000632, 32.675790364182582 ], [ -91.162996356396675, 32.675072182773512 ], [ -91.163951417823469, 32.674495803052764 ], [ -91.164587960034552, 32.674222885622832 ], [ -91.165020124690741, 32.673922701959 ], [ -91.165355067601226, 32.673485914970044 ], [ -91.165570078791632, 32.67306770044587 ], [ -91.165626501226512, 32.672711056082292 ], [ -91.165767595552623, 32.672538972876808 ], [ -91.165997946428206, 32.672462190076445 ], [ -91.166277221837618, 32.672505131558303 ], [ -91.166665858341005, 32.672761327219284 ] ], [ [ -91.162345669114046, 32.676848766907952 ], [ -91.162187329128628, 32.676928127205038 ], [ -91.162093545337385, 32.677021865661068 ], [ -91.162287830111296, 32.676927525630866 ], [ -91.162345669114046, 32.676848766907952 ] ], [ [ -91.162051189614303, 32.677059724965616 ], [ -91.162026438227471, 32.677083881791859 ], [ -91.162055112242243, 32.677056821189318 ], [ -91.162051189614303, 32.677059724965616 ] ] ], [ [ [ -91.146250068446946, 32.655293533545397 ], [ -91.146515047718509, 32.655486005110028 ], [ -91.146541359763773, 32.655761174575296 ], [ -91.145970146080842, 32.656471851079971 ], [ -91.145903004985783, 32.656897724561667 ], [ -91.145532270240054, 32.657443023942278 ], [ -91.145024028910115, 32.657780607306762 ], [ -91.144661779061948, 32.658190745560489 ], [ -91.143937177079096, 32.658789323299835 ], [ -91.143615433300397, 32.659255674060411 ], [ -91.142417314318322, 32.660187885465255 ], [ -91.14045952869256, 32.661995151772295 ], [ -91.140197691944934, 32.662095196179465 ], [ -91.139887089853488, 32.662010441181394 ], [ -91.139720622386363, 32.661715711381277 ], [ -91.139902500707976, 32.661391641967711 ], [ -91.141562397938273, 32.659923656205422 ], [ -91.141751123571751, 32.659608834201364 ], [ -91.142534654463731, 32.659116844448654 ], [ -91.142911058937557, 32.658795012950456 ], [ -91.142964628775701, 32.658598771338077 ], [ -91.143285955061486, 32.658264059590714 ], [ -91.143931770396293, 32.657768499981749 ], [ -91.144394164255985, 32.657255566321034 ], [ -91.144895333310899, 32.656937834491629 ], [ -91.14515754606974, 32.656094813259145 ], [ -91.14585449191847, 32.655354042538839 ], [ -91.146250068446946, 32.655293533545397 ] ] ], [ [ [ -91.144447231854727, 32.653942363019148 ], [ -91.14468020418515, 32.654273042388887 ], [ -91.144542673601379, 32.654741752077371 ], [ -91.143963011515893, 32.655245225581638 ], [ -91.143637153150721, 32.655609239642637 ], [ -91.143401132272928, 32.656054657922539 ], [ -91.14295081872929, 32.656420927373688 ], [ -91.142795911576329, 32.656649896641646 ], [ -91.141816200446968, 32.657322782526713 ], [ -91.141780470089444, 32.657601850974089 ], [ -91.141507443806091, 32.657863389705057 ], [ -91.141395549672339, 32.658154027656821 ], [ -91.141106581930771, 32.65847478393944 ], [ -91.140256515422024, 32.659202360634382 ], [ -91.139696894541217, 32.659367105214436 ], [ -91.138854567129968, 32.660475671918086 ], [ -91.138540649346666, 32.660551165314388 ], [ -91.138117829956798, 32.66037270537295 ], [ -91.137801771501955, 32.660085076877422 ], [ -91.137775485747312, 32.659809906682909 ], [ -91.138033444286904, 32.65949344061616 ], [ -91.138720941504019, 32.658939595307352 ], [ -91.138821672396872, 32.658622609854305 ], [ -91.139129172890478, 32.658496306172523 ], [ -91.139446788648442, 32.658171336268907 ], [ -91.139779075865164, 32.658063266876958 ], [ -91.140267758736428, 32.657718706023303 ], [ -91.140633466518111, 32.657017253944183 ], [ -91.141429043414504, 32.656312721570295 ], [ -91.142109580484913, 32.655881106826158 ], [ -91.142341374470334, 32.655453359340534 ], [ -91.143373066204319, 32.654408886734423 ], [ -91.143713891535995, 32.653879318746647 ], [ -91.144091635026214, 32.653766550500286 ], [ -91.144447231854727, 32.653942363019148 ] ] ] ] } },
{ "type": "Feature", "properties": { "depth_bin": "100-105 ft", "bin_order": -102.5, "survey_id": "LM_07_FMB_20180812_CS_MB_4695_4700", "date": "2018-08-12", "year": 2018, "mile": 470.0 }, "geometry": { "type": "MultiPolygon", "coordinates": [ [ [ [ -91.166509546077307, 32.672670296093315 ], [ -91.166586650765439, 32.672931110604559 ], [ -91.166458961615589, 32.673281325172496 ], [ -91.166152686070234, 32.673823436079424 ], [ -91.165691059194401, 32.674404637213051 ], [ -91.16493109094462, 32.674906646384805 ], [ -91.164579647271111, 32.675025615887066 ], [ -91.163513537441332, 32.675648956943952 ], [ -91.162384049468614, 32.676457891603107 ], [ -91.161606983563686, 32.677303821457542 ], [ -91.1609558890421, 32.677539422488614 ], [ -91.160583551938672, 32.677877811063603 ], [ -91.160884389785508, 32.677832447635637 ], [ -91.161021742793281, 32.677668791789777 ], [ -91.161582726636539, 32.677351862769257 ], [ -91.161961845103292, 32.677371797791984 ], [ -91.162227509820909, 32.677282848966463 ], [ -91.162302614453935, 32.677239906293572 ], [ -91.162336037549053, 32.676928347239794 ], [ -91.16258450837519, 32.676740581302901 ], [ -91.162880048318144, 32.676723344878489 ], [ -91.163288273894963, 32.676867630782773 ], [ -91.163594606497853, 32.676618319146513 ], [ -91.163628857858001, 32.676442940371906 ], [ -91.163804037407772, 32.676230562780006 ], [ -91.164934841777352, 32.675746436999404 ], [ -91.165307462846187, 32.675297619061645 ], [ -91.1656198660515, 32.675242435988437 ], [ -91.165874456319457, 32.675333385811015 ], [ -91.166284958463777, 32.67456357930061 ], [ -91.167031121629464, 32.673877336899409 ], [ -91.167502875978087, 32.673673571003924 ], [ -91.167843359661092, 32.673705262719317 ], [ -91.168062419501197, 32.673935293037054 ], [ -91.168024822202838, 32.674209525426235 ], [ -91.167269451498171, 32.674696788728902 ], [ -91.166967660861303, 32.675143527546346 ], [ -91.16685038248535, 32.675467889205215 ], [ -91.166453597118249, 32.675948086821663 ], [ -91.166078932549865, 32.676109976244639 ], [ -91.165814812704255, 32.676110198375099 ], [ -91.165513128728918, 32.676345737985159 ], [ -91.165041595776032, 32.676554926503066 ], [ -91.163575100106172, 32.677622874681873 ], [ -91.163155882554292, 32.677649535846214 ], [ -91.161698457058776, 32.678514790656706 ], [ -91.160037938028211, 32.679230875266221 ], [ -91.159791134109255, 32.679247783652137 ], [ -91.159605337121135, 32.679170101742798 ], [ -91.15933727984897, 32.678891067822718 ], [ -91.159336336670535, 32.678629841095827 ], [ -91.158969802658333, 32.678610371813811 ], [ -91.158515402145596, 32.678232778602769 ], [ -91.158432941183705, 32.677932327255867 ], [ -91.15864903748782, 32.677629452654671 ], [ -91.15955836701454, 32.677251695297905 ], [ -91.160111462259508, 32.67690531417658 ], [ -91.160226925775419, 32.676610036975468 ], [ -91.160782137300203, 32.676165829864459 ], [ -91.161036537311603, 32.676108416086102 ], [ -91.161287068133007, 32.676167891192748 ], [ -91.16143368979904, 32.676083635809285 ], [ -91.161734368599326, 32.67557086783404 ], [ -91.162443719848682, 32.675164770066885 ], [ -91.162623323881164, 32.674958086584866 ], [ -91.162900267982508, 32.674901937111045 ], [ -91.163534554928759, 32.674551099383905 ], [ -91.164731497860927, 32.673633342933044 ], [ -91.164860490363921, 32.673391182802504 ], [ -91.165071667501877, 32.673231487294139 ], [ -91.165334756911278, 32.672634619581736 ], [ -91.165587222627479, 32.672361517895993 ], [ -91.165817573177648, 32.672284735414145 ], [ -91.166038266926137, 32.67231334055429 ], [ -91.166509546077307, 32.672670296093315 ] ] ], [ [ [ -91.146486198722343, 32.655440171637579 ], [ -91.146576923060053, 32.655635012439959 ], [ -91.14654294586505, 32.655807925952232 ], [ -91.146037476126068, 32.656414481163999 ], [ -91.145935617745607, 32.656911255839987 ], [ -91.145532518768491, 32.65747050717259 ], [ -91.144995659385629, 32.657833102505926 ], [ -91.144678147655057, 32.658204382167206 ], [ -91.143959844695573, 32.658797524883468 ], [ -91.143615681259561, 32.659283157295867 ], [ -91.142441648435579, 32.660201625417621 ], [ -91.140475897365235, 32.662008788918087 ], [ -91.140214060593564, 32.662108833358445 ], [ -91.139903458438042, 32.662024078398829 ], [ -91.139753236001837, 32.661729244233953 ], [ -91.139925599634665, 32.661405644667497 ], [ -91.141330738018439, 32.660177748537244 ], [ -91.141767739409943, 32.659649955316041 ], [ -91.142014521291955, 32.659539902911263 ], [ -91.142943866652914, 32.658815321854334 ], [ -91.142997365608295, 32.658626044977318 ], [ -91.143286326858373, 32.658305285339644 ], [ -91.143989307046837, 32.657741933283788 ], [ -91.144410656732191, 32.657282944572813 ], [ -91.144883110690913, 32.656979034657631 ], [ -91.145056832827308, 32.656720732422833 ], [ -91.145198206337071, 32.656169797943321 ], [ -91.145762498199829, 32.655472079308275 ], [ -91.14610130575926, 32.655304673179423 ], [ -91.146321950181189, 32.655333311517595 ], [ -91.146486198722343, 32.655440171637579 ] ] ], [ [ [ -91.143977061329224, 32.653671093559161 ], [ -91.144204067907907, 32.653754601672688 ], [ -91.144422776548524, 32.653979016378997 ], [ -91.144385357844968, 32.65446959172688 ], [ -91.144111936460618, 32.654868625937091 ], [ -91.143234265614623, 32.655705938799919 ], [ -91.142867553695808, 32.656332949040198 ], [ -91.141518136459283, 32.657286747852737 ], [ -91.141413604621604, 32.657393878584998 ], [ -91.141393652004055, 32.657655186982858 ], [ -91.140990769513124, 32.658241907145019 ], [ -91.140737432197611, 32.658484660898168 ], [ -91.140230748046747, 32.658773079041637 ], [ -91.139991239323308, 32.658826627074156 ], [ -91.139815925929881, 32.659072147337483 ], [ -91.139559125484396, 32.659171635783949 ], [ -91.139296810502458, 32.659558329476845 ], [ -91.139104820686569, 32.659667356905601 ], [ -91.138963710104122, 32.660053334459775 ], [ -91.138379737462316, 32.660335788737633 ], [ -91.138020054138849, 32.660285187250679 ], [ -91.137601589779223, 32.659953727694813 ], [ -91.137492643140689, 32.659759963170089 ], [ -91.137485985495644, 32.659571023288578 ], [ -91.137663715546466, 32.65918014286882 ], [ -91.138398835104141, 32.658847879946727 ], [ -91.138686265409589, 32.658419204268206 ], [ -91.140262398988312, 32.657391743182068 ], [ -91.14028584400539, 32.65714149853423 ], [ -91.140447185076951, 32.656921845349736 ], [ -91.141937466349134, 32.655767039649263 ], [ -91.14208134623884, 32.655441292726763 ], [ -91.142960650614441, 32.654600460320076 ], [ -91.143554684828914, 32.653837257685431 ], [ -91.14373347027788, 32.653708350683004 ], [ -91.143977061329224, 32.653671093559161 ] ] ] ] } },
{ "type": "Feature", "properties": { "depth_bin": "105-110 ft", "bin_order": -107.5, "survey_id": "LM_07_FMB_20180812_CS_MB_4695_4700", "date": "2018-08-12", "year": 2018, "mile": 470.0 }, "geometry": { "type": "MultiPolygon", "coordinates": [ [ [ [ -91.166129580072536, 32.672356214533615 ], [ -91.166262088359886, 32.672531791651316 ], [ -91.166285946021375, 32.672816814341978 ], [ -91.166119370256752, 32.673031920463735 ], [ -91.165957849836829, 32.673559499385917 ], [ -91.165698862645499, 32.673884236699017 ], [ -91.165348081440868, 32.674214518947203 ], [ -91.16400907852632, 32.67516723578801 ], [ -91.163476558028037, 32.675448329672612 ], [ -91.16263629485691, 32.676069571282454 ], [ -91.162402156301312, 32.676146448909847 ], [ -91.161975596864494, 32.67666485848023 ], [ -91.160990824427302, 32.677085949967918 ], [ -91.160714616643332, 32.677447132613459 ], [ -91.159621864254447, 32.678161710807956 ], [ -91.158816817252543, 32.678367015439683 ], [ -91.15859029199946, 32.678291580137632 ], [ -91.158253411766069, 32.678014622858342 ], [ -91.158111938512448, 32.677716022558585 ], [ -91.158242071168303, 32.677462840792977 ], [ -91.159115327241111, 32.676905156972182 ], [ -91.159565831627745, 32.676800157244543 ], [ -91.159983247862371, 32.67660449695579 ], [ -91.160152248456143, 32.676228153154561 ], [ -91.160503013406299, 32.675851595327387 ], [ -91.161417021348583, 32.67572156773349 ], [ -91.161812054482581, 32.675185568126864 ], [ -91.162523681178257, 32.674725124229823 ], [ -91.163151657340478, 32.674438975256336 ], [ -91.163966196692272, 32.673801561738422 ], [ -91.164747952909039, 32.67308835953186 ], [ -91.165423478412421, 32.672225180335992 ], [ -91.165794951311, 32.672155311019303 ], [ -91.166129580072536, 32.672356214533615 ] ] ], [ [ [ -91.168008081603205, 32.673824311039795 ], [ -91.16813738646033, 32.674024306906588 ], [ -91.168090322432406, 32.674264059093218 ], [ -91.167321697115511, 32.674693372406189 ], [ -91.166866885211363, 32.675495264277338 ], [ -91.166486347397012, 32.675975354060107 ], [ -91.166144050492917, 32.676123286402323 ], [ -91.165849743793459, 32.67613334698644 ], [ -91.165271196088057, 32.676539735214 ], [ -91.165025041136815, 32.676596935889933 ], [ -91.164441445272161, 32.676973680733617 ], [ -91.163624098056374, 32.677650036052604 ], [ -91.163395407087435, 32.677720179360406 ], [ -91.163183294365624, 32.677694312415952 ], [ -91.162588166335766, 32.678082899796024 ], [ -91.160999186406968, 32.678880394793978 ], [ -91.160022767873443, 32.679277279454674 ], [ -91.159783466860006, 32.679265857448065 ], [ -91.159563626215501, 32.679132877075489 ], [ -91.159471144303353, 32.678861440245647 ], [ -91.159601275016556, 32.678608257035357 ], [ -91.161253754353083, 32.677899454405178 ], [ -91.162296032342482, 32.677318588986701 ], [ -91.162356277297874, 32.677271749943159 ], [ -91.162335205280101, 32.676992981491289 ], [ -91.162510356714719, 32.676800311797123 ], [ -91.162822766625283, 32.676745135924897 ], [ -91.163305414811674, 32.676890384917201 ], [ -91.163966657178094, 32.676330061740849 ], [ -91.164598300766571, 32.67592072602438 ], [ -91.165070867345534, 32.675728927094418 ], [ -91.165389209735025, 32.675352046369433 ], [ -91.165643604886569, 32.675294623057191 ], [ -91.165884041197032, 32.675358638541937 ], [ -91.166558740202007, 32.674300655987849 ], [ -91.166853933803878, 32.674043422276171 ], [ -91.167576393221282, 32.673692831283219 ], [ -91.167799433825294, 32.673704346080115 ], [ -91.168008081603205, 32.673824311039795 ] ] ], [ [ [ -91.146604119284859, 32.655613443857298 ], [ -91.146557010253801, 32.655853186909702 ], [ -91.14605777969409, 32.65642891914645 ], [ -91.145983977410822, 32.656869715472148 ], [ -91.145516647231915, 32.657511837136312 ], [ -91.145026399713487, 32.657823076253919 ], [ -91.144710636571901, 32.658204172141332 ], [ -91.143979539199378, 32.658805472581307 ], [ -91.14364817057519, 32.65928294753887 ], [ -91.142825530346741, 32.65990249130509 ], [ -91.140492266042884, 32.662022426061654 ], [ -91.140230429247168, 32.662122470535188 ], [ -91.139919827027583, 32.662037715614012 ], [ -91.139769604515905, 32.661742881466701 ], [ -91.139958089734918, 32.661405435845609 ], [ -91.140663296862982, 32.660829643507135 ], [ -91.141816968433446, 32.659704607849854 ], [ -91.142955848326537, 32.658831095547981 ], [ -91.143318815810531, 32.65830507566487 ], [ -91.144005675452107, 32.657755569975876 ], [ -91.144443021203969, 32.65726899299807 ], [ -91.144875083079867, 32.657015620678443 ], [ -91.145089039022579, 32.656721154373322 ], [ -91.145120434286, 32.656423198858157 ], [ -91.145313349788395, 32.656041245624017 ], [ -91.145794986107276, 32.65547186900865 ], [ -91.145995784684771, 32.655342232406653 ], [ -91.14627501171806, 32.655325138411087 ], [ -91.146491256352718, 32.655427063941332 ], [ -91.146604119284859, 32.655613443857298 ] ] ], [ [ [ -91.143837105757186, 32.653586917624061 ], [ -91.144037186509138, 32.653632474699329 ], [ -91.144245761036501, 32.653791830574477 ], [ -91.144347555563542, 32.653978951345103 ], [ -91.144333772937841, 32.654153849192355 ], [ -91.143812939849155, 32.654883890494197 ], [ -91.142859579604249, 32.655832122239481 ], [ -91.142824913684706, 32.65603809759476 ], [ -91.142678363757597, 32.65622463858778 ], [ -91.14149510717597, 32.657061152207369 ], [ -91.141198323958804, 32.657329109566234 ], [ -91.141207765433293, 32.657548026525568 ], [ -91.141036042722035, 32.657856827016346 ], [ -91.140427798309958, 32.658376712099482 ], [ -91.139651869029905, 32.658731622913628 ], [ -91.139411225923666, 32.658959458168844 ], [ -91.139335607815227, 32.659200367639251 ], [ -91.13902653594748, 32.659392732490197 ], [ -91.138862173787075, 32.659600485308495 ], [ -91.13857176418837, 32.659701289596384 ], [ -91.138362168873158, 32.659915391015247 ], [ -91.138092017893285, 32.660051700195808 ], [ -91.137870298480507, 32.660074478632339 ], [ -91.137643282688131, 32.659990958769356 ], [ -91.137208884503252, 32.659640167032379 ], [ -91.137116429767332, 32.659473781411414 ], [ -91.137120774163094, 32.659264402879231 ], [ -91.13731437006885, 32.659017063488456 ], [ -91.138374408501207, 32.658454545518296 ], [ -91.138505603480326, 32.65820048377757 ], [ -91.138747428853975, 32.658102649873364 ], [ -91.140118534350748, 32.657137264288451 ], [ -91.140328515167781, 32.656773303498483 ], [ -91.141650633736575, 32.65576238470873 ], [ -91.141725214742493, 32.655581011255549 ], [ -91.142724323931446, 32.654633663606887 ], [ -91.143504838343986, 32.653713896722216 ], [ -91.143837105757186, 32.653586917624061 ] ] ] ] } },
{ "type": "Feature", "properties": { "depth_bin": "110-115 ft", "bin_order": -112.5, "survey_id": "LM_07_FMB_20180812_CS_MB_4695_4700", "date": "2018-08-12", "year": 2018, "mile": 470.0 }, "geometry": { "type": "MultiPolygon", "coordinates": [ [ [ [ -91.165965962489423, 32.672233619170875 ], [ -91.166098597753574, 32.672422937950977 ], [ -91.166094318754304, 32.67263231947274 ], [ -91.165549070382284, 32.673500444315756 ], [ -91.164972866357076, 32.674052098101065 ], [ -91.16376384005801, 32.675003950824433 ], [ -91.162358648107272, 32.675817600940285 ], [ -91.162209297372399, 32.676117040819101 ], [ -91.161972678814053, 32.676348803606146 ], [ -91.161257435584787, 32.676581639028086 ], [ -91.16103297671107, 32.676589552337028 ], [ -91.160904809906313, 32.67667880564882 ], [ -91.160851462673378, 32.676881834786926 ], [ -91.160631338673895, 32.677140969957776 ], [ -91.160205474431592, 32.677387708929878 ], [ -91.159434910568024, 32.677673784138761 ], [ -91.159157937167393, 32.677899388590731 ], [ -91.158688069792746, 32.678123970610891 ], [ -91.158328301265172, 32.67807342453483 ], [ -91.157679934867019, 32.677496181652408 ], [ -91.157578087396232, 32.67730907085906 ], [ -91.157591850102847, 32.677134171368557 ], [ -91.157926046394877, 32.676754693977479 ], [ -91.15839554902567, 32.676597673908589 ], [ -91.159322099987193, 32.675993111276092 ], [ -91.159813401984835, 32.675783157025414 ], [ -91.160349594086583, 32.675681502466205 ], [ -91.16085891068964, 32.675254638932891 ], [ -91.161663466409436, 32.675133237229574 ], [ -91.162098938781568, 32.674665842199147 ], [ -91.162778940375361, 32.67421496907059 ], [ -91.163174057784829, 32.674058079732028 ], [ -91.163812364056099, 32.673576316202102 ], [ -91.164854434294739, 32.672600402054414 ], [ -91.165194875585925, 32.672103014916992 ], [ -91.165631335611124, 32.672032715208701 ], [ -91.165965962489423, 32.672233619170875 ] ] ], [ [ [ -91.168057334353762, 32.67387895279326 ], [ -91.168175689756481, 32.674100414217371 ], [ -91.168123200380577, 32.674305067413684 ], [ -91.167929004759046, 32.67446441565346 ], [ -91.167405899681143, 32.674647062278368 ], [ -91.166518970130625, 32.675988879788058 ], [ -91.166176800740388, 32.676150553720241 ], [ -91.165847705715919, 32.676158118374595 ], [ -91.165271578217855, 32.676580959727154 ], [ -91.165021168208455, 32.676638274846361 ], [ -91.164472300214811, 32.6769742648437 ], [ -91.16365684812385, 32.677677304026091 ], [ -91.163202848147762, 32.677732793562903 ], [ -91.161420244107191, 32.678726450698662 ], [ -91.160096288078179, 32.679296544236273 ], [ -91.159816216375972, 32.679293126421577 ], [ -91.159596376681378, 32.679160146096336 ], [ -91.159507052755984, 32.678894614383452 ], [ -91.159634404899492, 32.678676750588316 ], [ -91.161286499738935, 32.677926725449971 ], [ -91.16220297352082, 32.677428852042681 ], [ -91.162417414374389, 32.677273651642452 ], [ -91.162448234097312, 32.677041669520165 ], [ -91.162608605046699, 32.676882116548754 ], [ -91.162911749362721, 32.676824376813698 ], [ -91.163317238109997, 32.676915356439096 ], [ -91.16387093652483, 32.676436255165932 ], [ -91.164564639544395, 32.675982541905455 ], [ -91.165081548438678, 32.675770259568417 ], [ -91.16540571200224, 32.675379421627646 ], [ -91.16566010722326, 32.675321998284318 ], [ -91.165903708199608, 32.675383690831076 ], [ -91.166126392851837, 32.675135995027759 ], [ -91.166553236653101, 32.674371815206321 ], [ -91.166870308647461, 32.674057055843491 ], [ -91.167593151286141, 32.673747689256814 ], [ -91.167848686382186, 32.673758987911476 ], [ -91.168057334353762, 32.67387895279326 ] ] ], [ [ [ -91.14368083505525, 32.653506320518353 ], [ -91.143922737041194, 32.653550759319515 ], [ -91.144147554814012, 32.653710009546806 ], [ -91.144249349047314, 32.653897130391009 ], [ -91.144220783397728, 32.654105142945362 ], [ -91.1433991873309, 32.655093106797629 ], [ -91.142566185366547, 32.655871298169906 ], [ -91.142304995702915, 32.656254530463706 ], [ -91.141020150623163, 32.657233047401775 ], [ -91.140935144294659, 32.657538580986767 ], [ -91.140649407325, 32.657816225554896 ], [ -91.139457743045639, 32.658565416501432 ], [ -91.138826983218081, 32.659211543310484 ], [ -91.138310339316192, 32.659396145216817 ], [ -91.137731799942571, 32.659737932766681 ], [ -91.137477714757082, 32.65977466039223 ], [ -91.137250700110357, 32.659691139855589 ], [ -91.136705621949005, 32.659226323876752 ], [ -91.136661595768174, 32.659020251419463 ], [ -91.136760330494027, 32.658828217558998 ], [ -91.138009164633246, 32.658267592220248 ], [ -91.138388801866526, 32.657944506075346 ], [ -91.139495887982889, 32.657267913921864 ], [ -91.14118467907285, 32.655918571909687 ], [ -91.141523062147485, 32.655526934577829 ], [ -91.142546570002921, 32.654647466046136 ], [ -91.143358148794832, 32.653659873796464 ], [ -91.14368083505525, 32.653506320518353 ] ] ], [ [ [ -91.146620487693042, 32.655627080216895 ], [ -91.146573378696417, 32.65586682327627 ], [ -91.146077091881423, 32.656463578909957 ], [ -91.146000345957304, 32.656883351909549 ], [ -91.145516895756231, 32.657539320366446 ], [ -91.145047791591907, 32.657832185920668 ], [ -91.144727129319449, 32.658231550357726 ], [ -91.144007130893669, 32.658811902749399 ], [ -91.143648418544629, 32.659310430773978 ], [ -91.142808766126677, 32.659949240955385 ], [ -91.140508634725492, 32.662036063202962 ], [ -91.140246797905732, 32.662136107709692 ], [ -91.139936195622099, 32.662051352826964 ], [ -91.139788758490312, 32.661721199856565 ], [ -91.139990579834787, 32.661405227015344 ], [ -91.140686872787811, 32.660841529171805 ], [ -91.141849582686902, 32.659718140157871 ], [ -91.142989519194842, 32.658823400842337 ], [ -91.143351304762348, 32.65830486598167 ], [ -91.14406135198999, 32.657726437140404 ], [ -91.144378912720754, 32.657365605112822 ], [ -91.144920635585095, 32.656997527394395 ], [ -91.145137699362408, 32.656679100455811 ], [ -91.145142047697632, 32.656457169838852 ], [ -91.145313722473944, 32.656082470464092 ], [ -91.145795359007678, 32.655513093848676 ], [ -91.145990264348356, 32.655370336906643 ], [ -91.146250103159431, 32.655332970327763 ], [ -91.146507624710466, 32.65544070031418 ], [ -91.146620487693042, 32.655627080216895 ] ] ] ] } },
{ "type": "Feature", "properties": { "depth_bin": "115-120 ft", "bin_order": -117.5, "survey_id": "LM_07_FMB_20180812_CS_MB_4695_4700", "date": "2018-08-12", "year": 2018, "mile": 470.0 }, "geometry": { "type": "MultiPolygon", "coordinates": [ [ [ [ -91.165921310052994, 32.672239329893777 ], [ -91.16593044686573, 32.672482240991464 ], [ -91.165570501989237, 32.673032652172076 ], [ -91.163985597323943, 32.674470909220489 ], [ -91.162514060020555, 32.675363122169898 ], [ -91.162112156904243, 32.675804809864374 ], [ -91.161658176128611, 32.675988072025532 ], [ -91.161139865625685, 32.676072540995371 ], [ -91.160691010558594, 32.676563396674098 ], [ -91.160364695410692, 32.676683722985928 ], [ -91.159868744049987, 32.676729906290511 ], [ -91.158889899476321, 32.677451341234672 ], [ -91.158350413123287, 32.677652943467756 ], [ -91.157790343767772, 32.677573706025733 ], [ -91.156520388357819, 32.676413352605401 ], [ -91.15652724828881, 32.676059595964496 ], [ -91.156904826443451, 32.675774797932441 ], [ -91.159467803385766, 32.675409365484619 ], [ -91.161864574468282, 32.674541533147895 ], [ -91.162676226245978, 32.673837484709082 ], [ -91.163220648300495, 32.673609234987026 ], [ -91.163604308420673, 32.673322973571082 ], [ -91.165132913623779, 32.67181826654241 ], [ -91.165351035146756, 32.67177851379774 ], [ -91.165586688382149, 32.67184275844258 ], [ -91.165921310052994, 32.672239329893777 ] ] ], [ [ [ -91.168134026111545, 32.673946488361651 ], [ -91.168224814944338, 32.674141315309505 ], [ -91.168150192634286, 32.67437601144227 ], [ -91.167407072951917, 32.674689101563743 ], [ -91.166567969101621, 32.67601603910731 ], [ -91.166209551007753, 32.676177821029185 ], [ -91.16585852304874, 32.676184695152514 ], [ -91.165255712642207, 32.67662229196808 ], [ -91.165009494243989, 32.676679494305397 ], [ -91.164487058005335, 32.676990036610157 ], [ -91.163815302280597, 32.677666200425314 ], [ -91.163437543684708, 32.67778429986781 ], [ -91.163207749886624, 32.677770624116327 ], [ -91.161586242486521, 32.678680440563404 ], [ -91.160136187907426, 32.679312681963857 ], [ -91.159848965911848, 32.679320395386114 ], [ -91.159629126100995, 32.679187415115237 ], [ -91.159539802054354, 32.67892188342234 ], [ -91.159667154161994, 32.678704019593376 ], [ -91.161148410297116, 32.67803331161933 ], [ -91.162280973211736, 32.677422084931337 ], [ -91.162451951022362, 32.677286646055855 ], [ -91.162480983586093, 32.677068937794324 ], [ -91.162641354530493, 32.676909384781347 ], [ -91.162937517001581, 32.676854316027104 ], [ -91.163329711816857, 32.676965948340076 ], [ -91.163934924934708, 32.676412725898629 ], [ -91.164631305050392, 32.675975476745961 ], [ -91.165082909102338, 32.675797426030016 ], [ -91.165422214279687, 32.675406796883408 ], [ -91.165676609570141, 32.675349373508972 ], [ -91.165951403765362, 32.675413767565153 ], [ -91.166569866650775, 32.674412931811553 ], [ -91.166870563878774, 32.674084538843928 ], [ -91.167716269480437, 32.673783785072786 ], [ -91.167936967647236, 32.673812387003977 ], [ -91.168134026111545, 32.673946488361651 ] ] ], [ [ [ -91.146627399136563, 32.655606234995787 ], [ -91.146608295203237, 32.655848729797292 ], [ -91.146099785540727, 32.656485732434113 ], [ -91.146032710047848, 32.656869399931985 ], [ -91.145597744605809, 32.657497569908251 ], [ -91.145048039978604, 32.657859669149516 ], [ -91.144759618245715, 32.658231340318991 ], [ -91.144033982898222, 32.658823298368219 ], [ -91.14360030444395, 32.659379453494694 ], [ -91.142509141729334, 32.660246059917746 ], [ -91.140541248583503, 32.662049595856999 ], [ -91.140237586256546, 32.662150757583099 ], [ -91.139952564221588, 32.662064990037649 ], [ -91.139803785475465, 32.661819277262779 ], [ -91.139878345567126, 32.661570858227542 ], [ -91.142268975099867, 32.659385618752289 ], [ -91.143022812633376, 32.658822099872076 ], [ -91.143367673180308, 32.658318502752337 ], [ -91.143986447306503, 32.657821245143545 ], [ -91.144366642613463, 32.65740504999355 ], [ -91.144937007366494, 32.657011160924455 ], [ -91.145175052298427, 32.656663313213116 ], [ -91.145314219397349, 32.656137437818764 ], [ -91.145827846929706, 32.655512883540325 ], [ -91.146044765154869, 32.655369400089882 ], [ -91.146266471462511, 32.655346606730113 ], [ -91.14649348453888, 32.655430110908945 ], [ -91.146627399136563, 32.655606234995787 ] ] ], [ [ [ -91.143824530319407, 32.653468938946858 ], [ -91.144118407314735, 32.653788036862203 ], [ -91.143959446017448, 32.65423463856871 ], [ -91.143204384409771, 32.655108106312333 ], [ -91.141758275587506, 32.656476070194095 ], [ -91.140850962366443, 32.6571397542181 ], [ -91.140081098922877, 32.657847364622519 ], [ -91.139699400765679, 32.658034922405228 ], [ -91.138708267445992, 32.658847882323784 ], [ -91.137266842440098, 32.659422178099632 ], [ -91.1370193251541, 32.65941850315204 ], [ -91.13674565202254, 32.65928516264124 ], [ -91.136632805780224, 32.659098774531856 ], [ -91.136607494226126, 32.658767306823812 ], [ -91.136753777867199, 32.658500302220624 ], [ -91.138182357237142, 32.657689220418433 ], [ -91.138644843906675, 32.657317828958767 ], [ -91.139809236503424, 32.656708744002401 ], [ -91.142482221296873, 32.654549667477312 ], [ -91.14332082049954, 32.653524552052453 ], [ -91.143541138129791, 32.653429080807392 ], [ -91.143824530319407, 32.653468938946858 ] ] ] ] } },
{ "type": "Feature", "properties": { "depth_bin": "120-125 ft", "bin_order": -122.5, "survey_id": "LM_07_FMB_20180812_CS_MB_4695_4700", "date": "2018-08-12", "year": 2018, "mile": 470.0 }, "geometry": { "type": "MultiPolygon", "coordinates": [ [ [ [ -91.168212880357984, 32.674051840104369 ], [ -91.168232891978107, 32.674260567932549 ], [ -91.168096302451616, 32.674457371498917 ], [ -91.167423575701633, 32.674716476559311 ], [ -91.16701285740109, 32.675466809786293 ], [ -91.166550301616851, 32.676050264634441 ], [ -91.166226053669376, 32.676205196181193 ], [ -91.165864242527249, 32.676208416301911 ], [ -91.165239592307969, 32.676636141198415 ], [ -91.165026395428157, 32.676692784638604 ], [ -91.164393719929592, 32.677083935632204 ], [ -91.163867817598543, 32.67764842302757 ], [ -91.163559680075551, 32.67778949858053 ], [ -91.163220207004628, 32.677787789216403 ], [ -91.161550228925734, 32.678725592740712 ], [ -91.160129037703456, 32.679323813130246 ], [ -91.159865214125404, 32.679320288350731 ], [ -91.159637403136884, 32.67917214955488 ], [ -91.159579283441076, 32.678900491893231 ], [ -91.159747393390177, 32.678680385508933 ], [ -91.161135823178427, 32.678069011854816 ], [ -91.162342612426045, 32.677417208126272 ], [ -91.162706599572743, 32.676936438202119 ], [ -91.1630190098616, 32.676881261852202 ], [ -91.163349110764145, 32.677009404265924 ], [ -91.163983667941338, 32.676412403206648 ], [ -91.164631559615387, 32.676002959754165 ], [ -91.165106157502734, 32.675818720877324 ], [ -91.165471338947512, 32.675447698129091 ], [ -91.165725734328333, 32.675390274657985 ], [ -91.165979639703536, 32.675451150131181 ], [ -91.166666584911439, 32.674329835406105 ], [ -91.166921108171536, 32.674091321860082 ], [ -91.167749147097183, 32.673824794381801 ], [ -91.168023611996901, 32.673868972847067 ], [ -91.168212880357984, 32.674051840104369 ] ] ], [ [ [ -91.165617001377925, 32.671792579524606 ], [ -91.16574642550998, 32.672006319176177 ], [ -91.165733189658567, 32.67223618634835 ], [ -91.165170673229682, 32.672994484393932 ], [ -91.164078629829149, 32.673989309944865 ], [ -91.163447999060281, 32.674421741139838 ], [ -91.163179098760651, 32.67449646862589 ], [ -91.16230192520095, 32.675240118795479 ], [ -91.161725750424225, 32.675481816081586 ], [ -91.161394754097088, 32.675507748507599 ], [ -91.161196999809519, 32.675663372812522 ], [ -91.159321296937009, 32.676305809091168 ], [ -91.156950621917019, 32.676608288807763 ], [ -91.15674616901434, 32.67657956082833 ], [ -91.15655752598397, 32.676443919053234 ], [ -91.156526033864594, 32.676083005458992 ], [ -91.156817817820439, 32.675775952584388 ], [ -91.157753949682146, 32.675442062139297 ], [ -91.15863807426642, 32.675263605804048 ], [ -91.159099599852013, 32.675256507091596 ], [ -91.160581898209131, 32.674794105747551 ], [ -91.161166032017519, 32.67445497092217 ], [ -91.161783699185833, 32.674358209603128 ], [ -91.16218969719489, 32.673936897001333 ], [ -91.163225176482058, 32.67333283911384 ], [ -91.164086042493608, 32.672692227650209 ], [ -91.16496398173058, 32.671733500956186 ], [ -91.165294167001022, 32.67165783442664 ], [ -91.165617001377925, 32.671792579524606 ] ] ], [ [ [ -91.146643767547161, 32.655619871351917 ], [ -91.146606115596541, 32.655894096002704 ], [ -91.146130072882826, 32.656464041450498 ], [ -91.146032958725954, 32.656896883162453 ], [ -91.14551726854333, 32.657580545211403 ], [ -91.144922627267164, 32.657925038534835 ], [ -91.144695012812434, 32.658272985236856 ], [ -91.144246426330312, 32.658541705796146 ], [ -91.144172428340823, 32.658715711884824 ], [ -91.143780867280057, 32.659097197707204 ], [ -91.1435087102045, 32.659175058699567 ], [ -91.143239938623466, 32.659089193924174 ], [ -91.143096570123021, 32.658878584574587 ], [ -91.143143690327776, 32.658638843323004 ], [ -91.143396684106023, 32.658333919609689 ], [ -91.143719786388758, 32.65816034761388 ], [ -91.143819295317329, 32.65795828336482 ], [ -91.144364588372468, 32.657545401151722 ], [ -91.144492251561175, 32.657323644491001 ], [ -91.144939095714804, 32.657038033079587 ], [ -91.145238356552611, 32.656603639969511 ], [ -91.145378822982295, 32.656095792598798 ], [ -91.145860334851392, 32.655512673223555 ], [ -91.1460611334319, 32.655383036517932 ], [ -91.146282839770549, 32.655360243130204 ], [ -91.146509852897481, 32.655443747281026 ], [ -91.146643767547161, 32.655619871351917 ] ] ], [ [ [ -91.143470162805812, 32.653562650220323 ], [ -91.143712064817322, 32.65360708942913 ], [ -91.143900382836989, 32.653771368732656 ], [ -91.143947579251318, 32.653983345165187 ], [ -91.143871591431108, 32.654182646116723 ], [ -91.142868101753834, 32.655245839207268 ], [ -91.141973324367953, 32.655910558439622 ], [ -91.141562109176135, 32.656339909268858 ], [ -91.140513894723881, 32.65719868705569 ], [ -91.139679831053698, 32.65764420360771 ], [ -91.138737749871396, 32.658318856492379 ], [ -91.137940010165948, 32.658760300383385 ], [ -91.13736822191035, 32.658975763637024 ], [ -91.136985633274492, 32.658871352630435 ], [ -91.136868841610664, 32.658579166285087 ], [ -91.137076578997892, 32.65826461325328 ], [ -91.138168794602635, 32.657645350376164 ], [ -91.138951268262716, 32.657068498751009 ], [ -91.139540407865638, 32.656836958170253 ], [ -91.139919561097955, 32.656546690156404 ], [ -91.140158931441206, 32.656455103257507 ], [ -91.142783984785041, 32.654242486772958 ], [ -91.14320835417108, 32.653662702051349 ], [ -91.143470162805812, 32.653562650220323 ] ] ], [ [ [ -91.143132687337044, 32.659244756866713 ], [ -91.143281471485523, 32.659490465963422 ], [ -91.143206798786494, 32.659725145864385 ], [ -91.142889742286272, 32.659921233826644 ], [ -91.14096078157084, 32.661730820322546 ], [ -91.140401435186234, 32.662139465216541 ], [ -91.140154676694266, 32.662156336560635 ], [ -91.139938423980269, 32.662054399882493 ], [ -91.139820154013407, 32.66183291448872 ], [ -91.139894837499384, 32.661598237062968 ], [ -91.141898564348622, 32.659745309422675 ], [ -91.142349201319405, 32.659361995810976 ], [ -91.142662061818996, 32.659198500874595 ], [ -91.142905668225382, 32.659161246417355 ], [ -91.143132687337044, 32.659244756866713 ] ] ] ] } }
]
}
