{
"type": "FeatureCollection",
"name": "LM_06_MBV_20250619_CS_4456_4414_depth_polygons",
"crs": { "type": "name", "properties": { "name": "urn:ogc:def:crs:OGC:1.3:CRS84" } },
"features": [
{ "type": "Feature", "properties": { "depth_bin": "10-11 ft", "survey_id": "LM_06_MBV_20250619_CS_4456_4414", "date": "2025-06-19 00:00:00+00:00", "year": 2025, "mile": 444.0, "bin_order": 7 }, "geometry": { "type": "MultiPolygon", "coordinates": [ [ [ [ -90.988765985617164, 32.352435794886198 ], [ -90.988951719342964, 32.352209179348094 ], [ -90.989271830003062, 32.352160418033215 ], [ -90.989538802724383, 32.352318074475917 ], [ -90.989596249020124, 32.352589796356256 ], [ -90.989410516019177, 32.352816412864513 ], [ -90.98909040308196, 32.352865174437646 ], [ -90.988823429635787, 32.352707517024776 ], [ -90.988765985617164, 32.352435794886198 ] ] ], [ [ [ -90.994839177546169, 32.354326995346014 ], [ -90.995050175879982, 32.35411691365271 ], [ -90.995374381975367, 32.354095005080964 ], [ -90.995621881977925, 32.354274103329423 ], [ -90.9956476939319, 32.354549295781588 ], [ -90.995436695865379, 32.354759378476786 ], [ -90.995112487395076, 32.354781287112964 ], [ -90.994864987125212, 32.354602187862596 ], [ -90.994839177546169, 32.354326995346014 ] ] ], [ [ [ -90.998294983818454, 32.358846305434518 ], [ -90.998505985554445, 32.358636218195969 ], [ -90.998830207504597, 32.358614301355892 ], [ -90.999077726527332, 32.358793393456232 ], [ -90.999103549525415, 32.359068585482078 ], [ -90.998892548057128, 32.359278673722677 ], [ -90.998568323731575, 32.35930059062742 ], [ -90.998320804441136, 32.359121497525038 ], [ -90.998294983818454, 32.358846305434518 ] ] ], [ [ [ -90.998618598675264, 32.361349723655287 ], [ -90.998804328073703, 32.361123093643762 ], [ -90.999124466517799, 32.361074308404447 ], [ -90.999391482859437, 32.361231945485763 ], [ -90.999448963060544, 32.361503663909488 ], [ -90.999263234388224, 32.361730294891267 ], [ -90.998943093666341, 32.361779080389567 ], [ -90.998676076598571, 32.36162144233797 ], [ -90.998618598675264, 32.361349723655287 ] ] ], [ [ [ -90.999778855650334, 32.368559743632559 ], [ -90.999989877908348, 32.368349654972612 ], [ -91.000314134538513, 32.368327735707616 ], [ -91.000561682085007, 32.368506825799884 ], [ -91.000587510741951, 32.368782017411057 ], [ -91.000376488751982, 32.368992107073396 ], [ -91.000052229745293, 32.369014026403228 ], [ -90.999804681930769, 32.368834935308541 ], [ -90.999778855650334, 32.368559743632559 ] ] ], [ [ [ -90.992960546595327, 32.384706361672684 ], [ -90.993171623637025, 32.384496287058404 ], [ -90.993495938879079, 32.384474387752938 ], [ -90.993743514533037, 32.384653492026857 ], [ -90.993769324327744, 32.384928683734849 ], [ -90.993558247553665, 32.385138759352223 ], [ -90.993233929933098, 32.385160658722157 ], [ -90.992986354011521, 32.384981553445165 ], [ -90.992960546595327, 32.384706361672684 ] ] ] ] } },
{ "type": "Feature", "properties": { "depth_bin": "11-12 ft", "survey_id": "LM_06_MBV_20250619_CS_4456_4414", "date": "2025-06-19 00:00:00+00:00", "year": 2025, "mile": 444.0, "bin_order": 6 }, "geometry": { "type": "MultiPolygon", "coordinates": [ [ [ [ -90.975658849993152, 32.351191589702765 ], [ -90.975844612637118, 32.350964994648429 ], [ -90.976164724060951, 32.350916266723168 ], [ -90.9764316689444, 32.351073949902741 ], [ -90.97648907510677, 32.351345676205256 ], [ -90.976303313186378, 32.351572272229987 ], [ -90.975983199485128, 32.351621000412649 ], [ -90.975716253878119, 32.351463316262674 ], [ -90.975658849993152, 32.351191589702765 ] ] ], [ [ [ -90.985564577736682, 32.351672430289923 ], [ -90.985750317523483, 32.351445819700913 ], [ -90.986070426738294, 32.351397066473368 ], [ -90.986337391354738, 32.351554729404306 ], [ -90.986394827633433, 32.351826452373096 ], [ -90.986209088571144, 32.352053063932296 ], [ -90.985888977079171, 32.352101817417875 ], [ -90.985622011738243, 32.351944153516747 ], [ -90.985564577736682, 32.351672430289923 ] ] ], [ [ [ -90.996957469531466, 32.356429861008003 ], [ -90.997143192199786, 32.356203233043637 ], [ -90.997463313809249, 32.356154451335399 ], [ -90.997730313072893, 32.356312091363371 ], [ -90.997787785956433, 32.35658381042311 ], [ -90.99760206401389, 32.356810439357588 ], [ -90.997281940127138, 32.35685922132464 ], [ -90.997014940137703, 32.356701580326543 ], [ -90.996957469531466, 32.356429861008003 ] ] ], [ [ [ -91.006219445736733, 32.361048191256742 ], [ -91.006430435260214, 32.360838090294585 ], [ -91.006754664310492, 32.360816153307816 ], [ -91.007002205586986, 32.360995230639666 ], [ -91.007028052957082, 32.361270421926406 ], [ -91.006817063702158, 32.361480523890606 ], [ -91.006492832276322, 32.361502460942596 ], [ -91.006245290731286, 32.361323382608688 ], [ -91.006219445736733, 32.361048191256742 ] ] ], [ [ [ -90.997962694033461, 32.361701710565526 ], [ -90.998173703509096, 32.361491624266748 ], [ -90.998497935728892, 32.361469708698841 ], [ -90.998745461535719, 32.361648801658546 ], [ -90.998771283858318, 32.36192399362762 ], [ -90.99856027465043, 32.36213408092857 ], [ -90.998236040054906, 32.362155996561143 ], [ -90.997988513980332, 32.361976902599267 ], [ -90.997962694033461, 32.361701710565526 ] ] ] ] } },
{ "type": "Feature", "properties": { "depth_bin": "12-13 ft", "survey_id": "LM_06_MBV_20250619_CS_4456_4414", "date": "2025-06-19 00:00:00+00:00", "year": 2025, "mile": 444.0, "bin_order": 5 }, "geometry": { "type": "MultiPolygon", "coordinates": [ [ [ [ -90.979030048530589, 32.351045630220085 ], [ -90.979215802720034, 32.350819029842327 ], [ -90.979535912292533, 32.350770293259899 ], [ -90.979802863012253, 32.350927969519667 ], [ -90.97986027927989, 32.351199694693243 ], [ -90.979674525814318, 32.351426296041332 ], [ -90.979354413964501, 32.351475032881368 ], [ -90.979087462520937, 32.351317355651261 ], [ -90.979030048530589, 32.351045630220085 ] ] ], [ [ [ -90.982330885622986, 32.351178517948384 ], [ -90.982541904015136, 32.350968457962338 ], [ -90.982866100061685, 32.350946581230041 ], [ -90.983113565794596, 32.351125702799607 ], [ -90.983139339331856, 32.351400896393336 ], [ -90.982928321205691, 32.351610957381283 ], [ -90.982604122784423, 32.351632834177174 ], [ -90.982356656785498, 32.351453711605686 ], [ -90.982330885622986, 32.351178517948384 ] ] ], [ [ [ -90.998418648070825, 32.35876102234117 ], [ -90.998629649322964, 32.358550934873669 ], [ -90.998953870955049, 32.358529017701855 ], [ -90.999201390011862, 32.358708109562023 ], [ -90.999227213376187, 32.35898330157994 ], [ -90.999016212391766, 32.359193390049491 ], [ -90.998691988384294, 32.359215307285972 ], [ -90.998444469059748, 32.359036214423753 ], [ -90.998418648070825, 32.35876102234117 ] ] ], [ [ [ -90.998233895757608, 32.361596740260616 ], [ -90.998419626624667, 32.361370110882639 ], [ -90.998739766100172, 32.361321326665269 ], [ -90.999006782431863, 32.361478964558309 ], [ -90.999064261587435, 32.361750683108035 ], [ -90.998878531446465, 32.361977313456286 ], [ -90.99855838969313, 32.362026097932613 ], [ -90.99829137263535, 32.361868459069292 ], [ -90.998233895757608, 32.361596740260616 ] ] ], [ [ [ -90.996482142012255, 32.3797517300127 ], [ -90.99669319905999, 32.379541648560853 ], [ -90.997017496169732, 32.379519739435615 ], [ -90.997265066174251, 32.379698836659728 ], [ -90.997290886111941, 32.379974028217362 ], [ -90.997079829332094, 32.380184110672083 ], [ -90.996755529844464, 32.38020601986198 ], [ -90.996507959572071, 32.380026921635015 ], [ -90.996482142012255, 32.3797517300127 ] ] ], [ [ [ -90.998444125954663, 32.383617424420741 ], [ -90.998655188127415, 32.38340733997908 ], [ -90.99897949891438, 32.383385426344418 ], [ -90.999227083136688, 32.383564520180904 ], [ -90.999252909504349, 32.383839711457284 ], [ -90.999041847599742, 32.384049796901934 ], [ -90.998717534434476, 32.384071710601425 ], [ -90.998469949944024, 32.383892615761958 ], [ -90.998444125954663, 32.383617424420741 ] ] ] ] } },
{ "type": "Feature", "properties": { "depth_bin": "13-14 ft", "survey_id": "LM_06_MBV_20250619_CS_4456_4414", "date": "2025-06-19 00:00:00+00:00", "year": 2025, "mile": 444.0, "bin_order": 4 }, "geometry": { "type": "MultiPolygon", "coordinates": [ [ [ [ -90.969338445381283, 32.343950232613416 ], [ -90.969524207454285, 32.343723646669261 ], [ -90.969844295633465, 32.343674933853926 ], [ -90.970111208214519, 32.343832629292315 ], [ -90.970168591938446, 32.344104357821436 ], [ -90.969982830588108, 32.344330944735873 ], [ -90.969662740132108, 32.344379657808133 ], [ -90.969395826828404, 32.344221961399448 ], [ -90.969338445381283, 32.343950232613416 ] ] ], [ [ [ -90.986409274033832, 32.348134900824462 ], [ -90.986620275908336, 32.347924833254879 ], [ -90.986944460648317, 32.347902945548107 ], [ -90.987191926908665, 32.348082059180818 ], [ -90.987217712498634, 32.348357252524508 ], [ -90.987006710890498, 32.34856732109585 ], [ -90.98668252377621, 32.348589208866429 ], [ -90.986435057249508, 32.348410094231966 ], [ -90.986409274033832, 32.348134900824462 ] ] ], [ [ [ -90.975693224811948, 32.351020502391769 ], [ -90.97590425755223, 32.350810454116036 ], [ -90.976228453681202, 32.350788594499591 ], [ -90.976475905182582, 32.35096772856464 ], [ -90.976501658510514, 32.351242922713865 ], [ -90.976290626035578, 32.351452971991563 ], [ -90.975966427531802, 32.351474831671162 ], [ -90.975718975765091, 32.351295696604133 ], [ -90.975693224811948, 32.351020502391769 ] ] ], [ [ [ -90.997030171959537, 32.356301611152468 ], [ -90.997215894172285, 32.35607498305901 ], [ -90.997536015296873, 32.356026201145632 ], [ -90.997803014330344, 32.356183841012616 ], [ -90.997860487373273, 32.356455560049824 ], [ -90.997674765886302, 32.3566821891134 ], [ -90.997354642484439, 32.356730971285579 ], [ -90.997087642725177, 32.356573330448484 ], [ -90.997030171959537, 32.356301611152468 ] ] ], [ [ [ -90.99980877897022, 32.366264186640421 ], [ -91.0000197955316, 32.36605409764416 ], [ -91.000344043926404, 32.366032177969338 ], [ -91.000591585522798, 32.366211267818343 ], [ -91.000617414000359, 32.366486459495263 ], [ -91.000406397706982, 32.366696549493859 ], [ -91.000082146935924, 32.366718469233497 ], [ -90.999834605071541, 32.366539378382164 ], [ -90.99980877897022, 32.366264186640421 ] ] ], [ [ [ -91.005590876317754, 32.370244049246985 ], [ -91.005801889785573, 32.37003395052799 ], [ -91.006126151873971, 32.370012016492957 ], [ -91.006373715929826, 32.370191095756034 ], [ -91.006399562476759, 32.370466286822442 ], [ -91.006188549277567, 32.370676386543842 ], [ -91.005864284812546, 32.370698320644095 ], [ -91.00561672048805, 32.370519240378606 ], [ -91.005590876317754, 32.370244049246985 ] ] ] ] } },
{ "type": "Feature", "properties": { "depth_bin": "14-15 ft", "survey_id": "LM_06_MBV_20250619_CS_4456_4414", "date": "2025-06-19 00:00:00+00:00", "year": 2025, "mile": 444.0, "bin_order": 3 }, "geometry": { "type": "MultiPolygon", "coordinates": [ [ [ [ -90.972360504816976, 32.350832160996887 ], [ -90.972546274634794, 32.350605571093496 ], [ -90.97286638608341, 32.350556851563717 ], [ -90.973133323828065, 32.350714541465486 ], [ -90.973190719869663, 32.350986268879197 ], [ -90.973004950775035, 32.351212859753048 ], [ -90.972684837048959, 32.351261579540022 ], [ -90.972417898581071, 32.351103888667794 ], [ -90.972360504816976, 32.350832160996887 ] ] ], [ [ [ -91.008828532079932, 32.360200897618142 ], [ -91.009444294913948, 32.360036741217954 ], [ -91.009670441411515, 32.360120462915901 ], [ -91.009790357499938, 32.360263169751363 ], [ -91.00980997039261, 32.360471916053484 ], [ -91.00958810526582, 32.360716193339968 ], [ -91.009001323503654, 32.360836322838487 ], [ -91.008734290482295, 32.36067870549774 ], [ -91.008676782641572, 32.360406990198051 ], [ -91.008828532079932, 32.360200897618142 ] ] ], [ [ [ -90.998778964345973, 32.361305064216367 ], [ -90.998964693259538, 32.361078433947469 ], [ -90.999284831481049, 32.361029648290724 ], [ -90.999551847992791, 32.361187285039101 ], [ -90.999609328657044, 32.361459003409408 ], [ -90.999423600469612, 32.361685634648566 ], [ -90.999103459970314, 32.361734420564275 ], [ -90.99883644273244, 32.361576782845646 ], [ -90.998778964345973, 32.361305064216367 ] ] ], [ [ [ -90.996636341327715, 32.379793907830596 ], [ -90.996847398136069, 32.379583826111443 ], [ -90.997171695381809, 32.379561916593893 ], [ -90.997419265817982, 32.379741013530442 ], [ -90.997445086230186, 32.380016205073787 ], [ -90.997234029689736, 32.3802262877958 ], [ -90.996909730066136, 32.380248197378052 ], [ -90.996662159362046, 32.380069099438622 ], [ -90.996636341327715, 32.379793907830596 ] ] ], [ [ [ -90.996553457526289, 32.38597038547649 ], [ -90.996764529680448, 32.385760304667365 ], [ -90.997088849101786, 32.385738396259967 ], [ -90.99733643555372, 32.385917493856475 ], [ -90.997362256440098, 32.386192685223115 ], [ -90.997151184553914, 32.386402767035335 ], [ -90.996826862753977, 32.386424675507456 ], [ -90.996579276034041, 32.386245576907854 ], [ -90.996553457526289, 32.38597038547649 ] ] ] ] } },
{ "type": "Feature", "properties": { "depth_bin": "15-17.5 ft", "survey_id": "LM_06_MBV_20250619_CS_4456_4414", "date": "2025-06-19 00:00:00+00:00", "year": 2025, "mile": 444.0, "bin_order": 2 }, "geometry": { "type": "MultiPolygon", "coordinates": [ [ [ [ -90.994927223712736, 32.354171582644923 ], [ -90.995161464577095, 32.353980067140348 ], [ -90.995486638996994, 32.353985237340332 ], [ -90.995712265891314, 32.354184064705365 ], [ -90.995706175943141, 32.354460079565321 ], [ -90.995471934877614, 32.354651596065111 ], [ -90.995146758076302, 32.354646425732845 ], [ -90.994921131383151, 32.354447597372591 ], [ -90.994927223712736, 32.354171582644923 ] ] ], [ [ [ -91.002842359944054, 32.355086182648215 ], [ -91.003076587388648, 32.354894651889097 ], [ -91.003401766655742, 32.354899801812614 ], [ -91.003627413824887, 32.355098615756589 ], [ -91.003621347703046, 32.355374631912831 ], [ -91.003387120058093, 32.355566163667248 ], [ -91.003061938409402, 32.355561013611961 ], [ -91.00283629144063, 32.355362198672687 ], [ -91.002842359944054, 32.355086182648215 ] ] ], [ [ [ -90.997153886077101, 32.356126519945356 ], [ -90.99738812774396, 32.355935000371524 ], [ -90.997713309602801, 32.355940165107647 ], [ -90.997938946215044, 32.35613898881477 ], [ -90.997932862571332, 32.356415003965552 ], [ -90.997698620703531, 32.356606524534698 ], [ -90.997373436463022, 32.356601359666449 ], [ -90.997147800051735, 32.356402534964019 ], [ -90.997153886077101, 32.356126519945356 ] ] ], [ [ [ -90.998767795826907, 32.358428475938467 ], [ -90.999153297912798, 32.358335863107698 ], [ -90.999458196627614, 32.358556471323027 ], [ -90.999433584915295, 32.358864196532387 ], [ -90.999102523321682, 32.359117220703752 ], [ -90.998777329816377, 32.359112059100141 ], [ -90.998551684254821, 32.358913236616132 ], [ -90.998542985325187, 32.358670320340359 ], [ -90.998767795826907, 32.358428475938467 ] ] ], [ [ [ -91.004623909307554, 32.373154209612736 ], [ -91.004858181900062, 32.372962677753847 ], [ -91.005183426202791, 32.372967825630319 ], [ -91.005409120199801, 32.373166637779022 ], [ -91.005403055266981, 32.373442653443888 ], [ -91.005168782474158, 32.37363418629878 ], [ -91.004843535787714, 32.373629038290652 ], [ -91.004617841991006, 32.373430225145938 ], [ -91.004623909307554, 32.373154209612736 ] ] ], [ [ [ -90.998749796149113, 32.374254983899917 ], [ -90.998984083511189, 32.374063463599434 ], [ -90.999309330589341, 32.374068626782993 ], [ -90.999535013741863, 32.374267449021062 ], [ -90.999528930696798, 32.374543463647356 ], [ -90.999294643133794, 32.374734984943856 ], [ -90.998969393671857, 32.374729821628243 ], [ -90.99874371072022, 32.374530998394164 ], [ -90.998749796149113, 32.374254983899917 ] ] ], [ [ [ -91.001885600978554, 32.378423538069413 ], [ -91.002140887482, 32.378252422032972 ], [ -91.002463988506236, 32.378284607037195 ], [ -91.002665637479168, 32.378501239771957 ], [ -91.002627710699244, 32.378775420391968 ], [ -91.002372423533856, 32.378946537379719 ], [ -91.002049320210261, 32.378914352051822 ], [ -91.001847671899256, 32.378697718365743 ], [ -91.001885600978554, 32.378423538069413 ] ] ], [ [ [ -90.994405161984318, 32.382193584457845 ], [ -90.994660472766668, 32.382022484658016 ], [ -90.994983583435484, 32.382054689258169 ], [ -90.995185221769148, 32.382271333469525 ], [ -90.995147270297892, 32.382545510724 ], [ -90.994891958852747, 32.382716611475175 ], [ -90.994568845884331, 32.38268440655083 ], [ -90.994367208213433, 32.382467761388135 ], [ -90.994405161984318, 32.382193584457845 ] ] ], [ [ [ -90.976094897664595, 32.346050812371352 ], [ -90.976329154402819, 32.345859332388429 ], [ -90.976654296000433, 32.345864549977485 ], [ -90.976879860602395, 32.346063408840003 ], [ -90.976873715380563, 32.346339420854797 ], [ -90.976639458439365, 32.346530901832566 ], [ -90.976314314461391, 32.346525684109999 ], [ -90.976088750062402, 32.346326824252635 ], [ -90.976094897664595, 32.346050812371352 ] ] ], [ [ [ -90.968946360684825, 32.350330262235452 ], [ -90.969260798302656, 32.350119558655145 ], [ -90.969611518327312, 32.350200162547623 ], [ -90.969760611989841, 32.350481430688767 ], [ -90.969625375051905, 32.350845269860933 ], [ -90.969335703139109, 32.350970762252295 ], [ -90.969026337070488, 32.35088562898752 ], [ -90.968878500613059, 32.350639740448202 ], [ -90.968946360684825, 32.350330262235452 ] ] ], [ [ [ -90.979061554710512, 32.350841150898809 ], [ -90.979295818419686, 32.350649665782967 ], [ -90.979620977749093, 32.350654876409457 ], [ -90.979846560457062, 32.350853730558235 ], [ -90.979840423109366, 32.35112974286946 ], [ -90.979606159197488, 32.351321228980339 ], [ -90.979280997487137, 32.351316018220523 ], [ -90.979055414981886, 32.351117163076715 ], [ -90.979061554710512, 32.350841150898809 ] ] ], [ [ [ -90.975740623504407, 32.350850356620427 ], [ -90.975974893897302, 32.350658877959901 ], [ -90.976300052591938, 32.350664097148268 ], [ -90.976525627718473, 32.350862956950223 ], [ -90.976519480283557, 32.351138968694336 ], [ -90.976285209687617, 32.351330448349898 ], [ -90.975960048612052, 32.351325229027971 ], [ -90.975734473688561, 32.351126368231014 ], [ -90.975740623504407, 32.350850356620427 ] ] ], [ [ [ -90.982370477536605, 32.351009730047103 ], [ -90.982604735064797, 32.350818238523345 ], [ -90.982929895661485, 32.350823440644234 ], [ -90.983155486342667, 32.351022289172008 ], [ -90.983149359003775, 32.351298302039588 ], [ -90.982915101273207, 32.351489794558411 ], [ -90.982589938295519, 32.351484592304416 ], [ -90.982364347816713, 32.351285742781577 ], [ -90.982370477536605, 32.351009730047103 ] ] ], [ [ [ -90.985646563794489, 32.351474120633682 ], [ -90.985880816004368, 32.351282622805321 ], [ -90.986205978918974, 32.351287816547234 ], [ -90.986431578196573, 32.351486659529805 ], [ -90.986425460697106, 32.351762672934257 ], [ -90.986191208285163, 32.351954171757718 ], [ -90.9858660429895, 32.35194897788292 ], [ -90.985640443913979, 32.351750133905249 ], [ -90.985646563794489, 32.351474120633682 ] ] ], [ [ [ -90.988895821576634, 32.352212576152922 ], [ -90.989151054674053, 32.352041483808108 ], [ -90.98947405647003, 32.352073698353934 ], [ -90.989675618516685, 32.352290349175625 ], [ -90.989637668032358, 32.352564525831994 ], [ -90.989382434272528, 32.352735619126925 ], [ -90.989059430180504, 32.352703404256829 ], [ -90.988857868796259, 32.352486752485014 ], [ -90.988895821576634, 32.352212576152922 ] ] ], [ [ [ -90.993122251914954, 32.384740081592739 ], [ -90.993377572407709, 32.384568984839042 ], [ -90.993700691461811, 32.384601193060028 ], [ -90.993902331943872, 32.384817839345928 ], [ -90.99386437512544, 32.385092015913465 ], [ -90.993609053969706, 32.385263113618549 ], [ -90.993285932615734, 32.385230905073286 ], [ -90.993084292796638, 32.385014257835977 ], [ -90.993122251914954, 32.384740081592739 ] ] ] ] } },
{ "type": "Feature", "properties": { "depth_bin": "17.5-20 ft", "survey_id": "LM_06_MBV_20250619_CS_4456_4414", "date": "2025-06-19 00:00:00+00:00", "year": 2025, "mile": 444.0, "bin_order": 1 }, "geometry": { "type": "MultiPolygon", "coordinates": [ [ [ [ -90.996752656895751, 32.35125990539855 ], [ -90.996986886247498, 32.351068385966464 ], [ -90.997312050613459, 32.351073551048479 ], [ -90.997537674801762, 32.351272375103029 ], [ -90.997531591080786, 32.351548390399152 ], [ -90.997297361528098, 32.351739910826353 ], [ -90.996972194781037, 32.351734745612191 ], [ -90.99674657079369, 32.351535920562519 ], [ -90.996752656895751, 32.35125990539855 ] ] ], [ [ [ -90.99878821848759, 32.358448327378966 ], [ -90.999022463134551, 32.358256804934385 ], [ -90.999347653627709, 32.358261965785076 ], [ -90.999573299470768, 32.358460786868029 ], [ -90.999567220247215, 32.358736802193199 ], [ -90.999332975399454, 32.358928325633151 ], [ -90.999007782524359, 32.358923164650449 ], [ -90.998782136882085, 32.358724342572103 ], [ -90.99878821848759, 32.358448327378966 ] ] ], [ [ [ -91.008850488291174, 32.360289451248477 ], [ -91.009084717699949, 32.360097909500141 ], [ -91.009409916779475, 32.36010304466577 ], [ -91.009635590003882, 32.360301848727858 ], [ -91.009629540917743, 32.36057786566704 ], [ -91.009395311309177, 32.360769408410889 ], [ -91.009070109847428, 32.360764273113887 ], [ -91.008844436822812, 32.360565468056279 ], [ -91.008850488291174, 32.360289451248477 ] ] ], [ [ [ -90.998526700979141, 32.361373698238516 ], [ -90.998760954039753, 32.361182176685013 ], [ -90.999086154951229, 32.361187338623459 ], [ -90.999311807114623, 32.361386160353717 ], [ -90.999305726411023, 32.361662175506602 ], [ -90.999071473149556, 32.361853698055604 ], [ -90.998746269855801, 32.361848535985096 ], [ -90.998520617893234, 32.361649713259354 ], [ -90.998526700979141, 32.361373698238516 ] ] ], [ [ [ -91.008522144995652, 32.364237256102591 ], [ -91.008756385707642, 32.364045715506876 ], [ -91.009081598853712, 32.364050852074321 ], [ -91.009307280668338, 32.364249656966329 ], [ -91.009301229664004, 32.364525673677427 ], [ -91.009066988752167, 32.364717215268804 ], [ -91.008741773223392, 32.364712078569951 ], [ -91.008516091608627, 32.364513272682288 ], [ -91.008522144995652, 32.364237256102591 ] ] ], [ [ [ -90.998771291403528, 32.371168357147702 ], [ -90.99900557039382, 32.370976836401354 ], [ -90.999330806421682, 32.370981999093303 ], [ -90.999556482318297, 32.371180821081978 ], [ -90.999550400062105, 32.371456835847127 ], [ -90.999316120870944, 32.371648357589372 ], [ -90.998990882459637, 32.371643194765383 ], [ -90.998765206763892, 32.371444371780804 ], [ -90.998771291403528, 32.371168357147702 ] ] ], [ [ [ -91.000418901163428, 32.371744619101051 ], [ -91.000653178399446, 32.371553095228506 ], [ -91.000978416818725, 32.371558253752248 ], [ -91.001204097851641, 32.371757072972322 ], [ -91.001198020467953, 32.372033087990303 ], [ -91.000963743031207, 32.37222461285878 ], [ -91.000638502228398, 32.372219454203083 ], [ -91.00041282139621, 32.372020633987084 ], [ -91.000418901163428, 32.371744619101051 ] ] ], [ [ [ -91.003418597358348, 32.375813063432169 ], [ -91.003673873524477, 32.375641943817641 ], [ -91.003996966062047, 32.375674124556475 ], [ -91.004198613370178, 32.375890754837037 ], [ -91.004160692722678, 32.376164936251669 ], [ -91.003905415894863, 32.376336056817429 ], [ -91.003582321058175, 32.376303875755063 ], [ -91.003380674411744, 32.376087244523255 ], [ -91.003418597358348, 32.375813063432169 ] ] ], [ [ [ -90.997667065637415, 32.376990373883366 ], [ -90.997922355445922, 32.376819266514723 ], [ -90.998245449301763, 32.376851462084012 ], [ -90.998447084831795, 32.377068101092448 ], [ -90.9984091462089, 32.377342280019619 ], [ -90.998153855738096, 32.377513388339445 ], [ -90.997830759583138, 32.377481192446226 ], [ -90.997629124715402, 32.377264552486615 ], [ -90.997667065637415, 32.376990373883366 ] ] ], [ [ [ -90.998303881212891, 32.383531216083171 ], [ -90.998538194508384, 32.383339697863882 ], [ -90.998863474730229, 32.383344863508668 ], [ -90.999089178822373, 32.383543687146314 ], [ -90.999083092246636, 32.383819701290896 ], [ -90.99884877875013, 32.384011220506551 ], [ -90.998523496143378, 32.384006054729646 ], [ -90.998297792252245, 32.38380723009567 ], [ -90.998303881212891, 32.383531216083171 ] ] ], [ [ [ -90.983015530450047, 32.347619780684262 ], [ -90.983249777543421, 32.347428287460538 ], [ -90.983574926142822, 32.34743348743568 ], [ -90.983800510291786, 32.347632334628869 ], [ -90.983794385712301, 32.347908347754668 ], [ -90.983560138416621, 32.348099841973323 ], [ -90.983234987436646, 32.348094641865124 ], [ -90.983009403489987, 32.347895793677004 ], [ -90.983015530450047, 32.347619780684262 ] ] ], [ [ [ -90.989856344798937, 32.349053054059567 ], [ -90.990090582036871, 32.348861547734003 ], [ -90.990415737132395, 32.348866730280115 ], [ -90.990641340323876, 32.349065565926459 ], [ -90.990635236178903, 32.349341580151638 ], [ -90.990400998739347, 32.34953308747221 ], [ -90.990075841263035, 32.349527904793497 ], [ -90.989850238273178, 32.349329068152144 ], [ -90.989856344798937, 32.349053054059567 ] ] ], [ [ [ -90.968944356364389, 32.349884161196698 ], [ -90.969281608072393, 32.349700634097815 ], [ -90.969648742692726, 32.349836703727689 ], [ -90.969760825533285, 32.350345342908739 ], [ -90.969599272298566, 32.350621608891885 ], [ -90.9692863254038, 32.350696719558954 ], [ -90.969002470782499, 32.350561990303795 ], [ -90.96889492428933, 32.350228567037853 ], [ -90.968944356364389, 32.349884161196698 ] ] ], [ [ [ -90.979052694023096, 32.350701563895235 ], [ -90.979286957373546, 32.350510078778193 ], [ -90.979612116201821, 32.350515289407603 ], [ -90.979837698559734, 32.350714143561696 ], [ -90.979831561218163, 32.350990155877525 ], [ -90.979597297664995, 32.351181641989605 ], [ -90.979272136455819, 32.351176431226875 ], [ -90.979046554300609, 32.350977576077753 ], [ -90.979052694023096, 32.350701563895235 ] ] ], [ [ [ -90.97240665922493, 32.350627280109208 ], [ -90.972640935700298, 32.350435807899267 ], [ -90.972966092925461, 32.350441035649851 ], [ -90.97319165989137, 32.350639901110149 ], [ -90.97318550238478, 32.350915912294184 ], [ -90.972951225706041, 32.351107385499127 ], [ -90.972626066099991, 32.351102157614783 ], [ -90.972400499337482, 32.350903291159469 ], [ -90.97240665922493, 32.350627280109208 ] ] ], [ [ [ -90.991969486070801, 32.352916272371957 ], [ -90.992224715772366, 32.352745173668154 ], [ -90.992547721583705, 32.352777380475963 ], [ -90.992749292704914, 32.352994026713326 ], [ -90.992711351038778, 32.353268204624513 ], [ -90.992456120675087, 32.353439304278531 ], [ -90.992133112567544, 32.353407097146622 ], [ -90.991931542108475, 32.353190449959065 ], [ -90.991969486070801, 32.352916272371957 ] ] ], [ [ [ -90.994557321364255, 32.3822444335078 ], [ -90.994812632025003, 32.382073333395141 ], [ -90.995135742949515, 32.382105537614081 ], [ -90.99533738176639, 32.38232218159915 ], [ -90.995299430722824, 32.382596358914803 ], [ -90.995044119399324, 32.382767459978794 ], [ -90.994721006175197, 32.382735255435676 ], [ -90.994519368021059, 32.382518610499275 ], [ -90.994557321364255, 32.3822444335078 ] ] ] ] } },
{ "type": "Feature", "properties": { "depth_bin": "5-6 ft", "survey_id": "LM_06_MBV_20250619_CS_4456_4414", "date": "2025-06-19 00:00:00+00:00", "year": 2025, "mile": 444.0, "bin_order": 12 }, "geometry": { "type": "MultiPolygon", "coordinates": [ [ [ [ -90.9756269814809, 32.351328305665426 ], [ -90.975812744500459, 32.351101710677106 ], [ -90.976132856422907, 32.35105298285383 ], [ -90.976399801635935, 32.351210666111591 ], [ -90.97645720776579, 32.351482392422746 ], [ -90.976271445469791, 32.351708988381475 ], [ -90.975951331269897, 32.351757716462167 ], [ -90.975684385333324, 32.351600032233982 ], [ -90.9756269814809, 32.351328305665426 ] ] ], [ [ [ -90.994679858842346, 32.354563006570793 ], [ -90.994890858108647, 32.354352925188081 ], [ -90.995215065065693, 32.354331017062023 ], [ -90.995462565354387, 32.354510115630148 ], [ -90.995488376851313, 32.354785308088744 ], [ -90.995277377852304, 32.354995390473363 ], [ -90.994953168520297, 32.355017298663846 ], [ -90.994705667964311, 32.354838199093784 ], [ -90.994679858842346, 32.354563006570793 ] ] ], [ [ [ -90.996738822556182, 32.356594583262833 ], [ -90.996949822229141, 32.356384498494634 ], [ -90.997274036262979, 32.356362585346631 ], [ -90.997521546153237, 32.35654168019812 ], [ -90.997547364152226, 32.356816872422527 ], [ -90.997336364746801, 32.357026958192719 ], [ -90.997012148337802, 32.357048871405276 ], [ -90.996764638180025, 32.356869775551807 ], [ -90.996738822556182, 32.356594583262833 ] ] ], [ [ [ -91.008362846456521, 32.360476480817937 ], [ -91.008548550409344, 32.360249835381886 ], [ -91.008868681869799, 32.360201025051232 ], [ -91.009135713780395, 32.360358642072157 ], [ -91.009193222983583, 32.360630357217367 ], [ -91.009007519757759, 32.360857003623444 ], [ -91.008687386019957, 32.360905814213652 ], [ -91.008420353382348, 32.360748196222715 ], [ -91.008362846456521, 32.360476480817937 ] ] ], [ [ [ -90.999415292310616, 32.362829350231067 ], [ -90.999626301323275, 32.362619261505692 ], [ -90.999950537441066, 32.362597342349552 ], [ -91.000198069223558, 32.362776432661263 ], [ -91.000223896099129, 32.363051624473741 ], [ -91.000012887354359, 32.363261714201315 ], [ -90.999688648860712, 32.363283633422199 ], [ -90.999441116810331, 32.36310454210831 ], [ -90.999415292310616, 32.362829350231067 ] ] ], [ [ [ -90.998605471447036, 32.371164734062276 ], [ -90.998816502703392, 32.370954647797127 ], [ -90.999140768793978, 32.370932731940755 ], [ -90.999388320721422, 32.371111824458801 ], [ -90.99941414611348, 32.371387016091987 ], [ -90.999203115125098, 32.371597103359647 ], [ -90.998878846657661, 32.371619019280779 ], [ -90.998631294462257, 32.371439925760221 ], [ -90.998605471447036, 32.371164734062276 ] ] ] ] } },
{ "type": "Feature", "properties": { "depth_bin": "6-7 ft", "survey_id": "LM_06_MBV_20250619_CS_4456_4414", "date": "2025-06-19 00:00:00+00:00", "year": 2025, "mile": 444.0, "bin_order": 11 }, "geometry": { "type": "MultiPolygon", "coordinates": [ [ [ [ -90.979004165114929, 32.351285967765115 ], [ -90.979215191156356, 32.351075913671025 ], [ -90.979539387913604, 32.351054045544309 ], [ -90.979786847002373, 32.351233173392181 ], [ -90.979812610432461, 32.351508367259257 ], [ -90.97960158465672, 32.351718422355304 ], [ -90.979277385524682, 32.351740290545386 ], [ -90.979029926170242, 32.351561161695557 ], [ -90.979004165114929, 32.351285967765115 ] ] ], [ [ [ -90.991849955029394, 32.35309969443788 ], [ -90.992060956993924, 32.352889617872762 ], [ -90.992385158987275, 32.35286771684131 ], [ -90.992632649557933, 32.353046820625345 ], [ -90.992658452274938, 32.35332201336567 ], [ -90.992447450577387, 32.353532090932681 ], [ -90.992123246209204, 32.353553992028338 ], [ -90.991875755371566, 32.35337488724241 ], [ -90.991849955029394, 32.35309969443788 ] ] ], [ [ [ -91.005006831410014, 32.357783895970982 ], [ -91.005217815627148, 32.357573796747864 ], [ -91.005542033097569, 32.357551862421083 ], [ -91.005789563303736, 32.357730941775749 ], [ -91.005815406597762, 32.358006133263132 ], [ -91.005604422649, 32.358216233488207 ], [ -91.005280202803391, 32.358238167880081 ], [ -91.005032672328852, 32.358059087523472 ], [ -91.005006831410014, 32.357783895970982 ] ] ], [ [ [ -90.998061426321783, 32.359040409290579 ], [ -90.998272429052648, 32.358830322488537 ], [ -90.998596651721869, 32.358808406279771 ], [ -90.998844170766731, 32.358987498836406 ], [ -90.998869993076994, 32.359262690876243 ], [ -90.998658990613833, 32.359472778680349 ], [ -90.998334765569155, 32.359494694953774 ], [ -90.998087246256603, 32.359315601395075 ], [ -90.998061426321783, 32.359040409290579 ] ] ], [ [ [ -91.009155317767096, 32.360271281434642 ], [ -91.00936629886067, 32.360061175192754 ], [ -91.009690524830262, 32.360039230511795 ], [ -91.009938070179814, 32.360218302242004 ], [ -91.009963926390952, 32.360493493301007 ], [ -91.009752945566206, 32.360703600544895 ], [ -91.009428717221198, 32.360725545291238 ], [ -91.009181171602833, 32.360546472559015 ], [ -91.009155317767096, 32.360271281434642 ] ] ], [ [ [ -90.998954602734898, 32.364366108832037 ], [ -90.999165616539884, 32.364156021110261 ], [ -90.999489858213792, 32.364134103366695 ], [ -90.999737393061622, 32.364313194672498 ], [ -90.999763218716083, 32.364588386478324 ], [ -90.999552205178986, 32.364798475202356 ], [ -90.999227961129037, 32.364820393010667 ], [ -90.998980426013333, 32.364641300702615 ], [ -90.998954602734898, 32.364366108832037 ] ] ], [ [ [ -91.004778448984979, 32.373234371718048 ], [ -91.004989471593447, 32.373024274802688 ], [ -91.005313744489584, 32.373002343298481 ], [ -91.005561314689515, 32.373181424337069 ], [ -91.005587159117695, 32.373456615383709 ], [ -91.005376136777812, 32.37366671330161 ], [ -91.005051861504683, 32.373688644870995 ], [ -91.004804291036166, 32.373509562829867 ], [ -91.004778448984979, 32.373234371718048 ] ] ], [ [ [ -90.99859734276572, 32.374206861996612 ], [ -90.998831630304153, 32.374015341986095 ], [ -90.999156877179601, 32.374020505556111 ], [ -90.999382559869119, 32.374219328050714 ], [ -90.999376476371935, 32.374495342653397 ], [ -90.999142188632575, 32.37468686365991 ], [ -90.998816939373327, 32.37468169995784 ], [ -90.998591256884723, 32.374482876467219 ], [ -90.99859734276572, 32.374206861996612 ] ] ], [ [ [ -90.996716606248427, 32.385994915095807 ], [ -90.99695092938515, 32.385803400284821 ], [ -90.997276218119765, 32.385808570373399 ], [ -90.997501924409789, 32.386007396887251 ], [ -90.997495832429379, 32.386283410655736 ], [ -90.997261509091459, 32.386474926463187 ], [ -90.996936217971637, 32.386469756242391 ], [ -90.99671051188281, 32.386270928732088 ], [ -90.996716606248427, 32.385994915095807 ] ] ] ] } },
{ "type": "Feature", "properties": { "depth_bin": "7-8 ft", "survey_id": "LM_06_MBV_20250619_CS_4456_4414", "date": "2025-06-19 00:00:00+00:00", "year": 2025, "mile": 444.0, "bin_order": 10 }, "geometry": { "type": "MultiPolygon", "coordinates": [ [ [ [ -90.982311184519233, 32.351353105396846 ], [ -90.982496931461327, 32.351126499890619 ], [ -90.982817040828976, 32.351077754949209 ], [ -90.983083998506274, 32.351235424515899 ], [ -90.983141424818513, 32.351507148582968 ], [ -90.982955678600604, 32.351733755059456 ], [ -90.98263556695575, 32.351782500258686 ], [ -90.982368608554253, 32.351624829721729 ], [ -90.982311184519233, 32.351353105396846 ] ] ], [ [ [ -90.988703078732513, 32.35256294495305 ], [ -90.988888812887794, 32.352336329528583 ], [ -90.989208924024865, 32.352287568393642 ], [ -90.989475896991195, 32.352445224977167 ], [ -90.989533343156495, 32.35271694687674 ], [ -90.989347609726039, 32.352943563271367 ], [ -90.989027496311834, 32.352992324664541 ], [ -90.988760522620652, 32.352834667110848 ], [ -90.988703078732513, 32.35256294495305 ] ] ], [ [ [ -90.996847028540856, 32.35652977858139 ], [ -90.997032751694036, 32.356303150802241 ], [ -90.997352873702624, 32.356254369391614 ], [ -90.997619873045892, 32.356412009655287 ], [ -90.997677345642899, 32.356683728750738 ], [ -90.997491623215495, 32.35691035750002 ], [ -90.997171498929589, 32.356959139169454 ], [ -90.996904498860545, 32.356801497935635 ], [ -90.996847028540856, 32.35652977858139 ] ] ], [ [ [ -90.998173396028321, 32.358941114771071 ], [ -90.998384398266936, 32.358731027758992 ], [ -90.998708620569062, 32.358709111246654 ], [ -90.99895613958698, 32.358888203584037 ], [ -90.998981962226253, 32.359163395617351 ], [ -90.998770960255342, 32.359373483631487 ], [ -90.998446735577801, 32.359395400208477 ], [ -90.998199216292178, 32.359216306869037 ], [ -90.998173396028321, 32.358941114771071 ] ] ], [ [ [ -91.00199775704121, 32.378524682378249 ], [ -91.002208798812006, 32.378314591028008 ], [ -91.002533090967233, 32.378292667473119 ], [ -91.002780669241744, 32.378471754188737 ], [ -91.002806505829895, 32.378746945314724 ], [ -91.002595464327513, 32.378957037667739 ], [ -91.002271169794639, 32.378978961287665 ], [ -91.002023591251699, 32.378799873569285 ], [ -91.00199775704121, 32.378524682378249 ] ] ] ] } },
{ "type": "Feature", "properties": { "depth_bin": "8-9 ft", "survey_id": "LM_06_MBV_20250619_CS_4456_4414", "date": "2025-06-19 00:00:00+00:00", "year": 2025, "mile": 444.0, "bin_order": 9 }, "geometry": { "type": "MultiPolygon", "coordinates": [ [ [ [ -90.993217642944003, 32.349867956435155 ], [ -90.993428633948724, 32.349657877054106 ], [ -90.993752824225808, 32.349635972021375 ], [ -90.99400030918666, 32.349815072962635 ], [ -90.994026115686566, 32.350090265683839 ], [ -90.99381512494891, 32.35030034606666 ], [ -90.993490932297405, 32.350322251163654 ], [ -90.993243447069489, 32.350143149220635 ], [ -90.993217642944003, 32.349867956435155 ] ] ], [ [ [ -90.972376663049388, 32.350933807211334 ], [ -90.972587702938725, 32.350723764786792 ], [ -90.972911899079492, 32.350701913721352 ], [ -90.973159343448515, 32.350881054028314 ], [ -90.973185086677802, 32.351156248453911 ], [ -90.972974047053469, 32.351366291880431 ], [ -90.972649848537884, 32.351388143008812 ], [ -90.972402403903828, 32.351209001699864 ], [ -90.972376663049388, 32.350933807211334 ] ] ], [ [ [ -90.979025743757276, 32.35114641702976 ], [ -90.97923676940853, 32.350936362880184 ], [ -90.97956096566358, 32.350914494677312 ], [ -90.979808424432292, 32.351093622473016 ], [ -90.979834187911948, 32.351368816342429 ], [ -90.979623162526366, 32.351578871493956 ], [ -90.979298963896554, 32.351600739760194 ], [ -90.979051504862156, 32.351421610962561 ], [ -90.979025743757276, 32.35114641702976 ] ] ], [ [ [ -90.994766358664776, 32.354408618413352 ], [ -90.995000600491025, 32.354217103252353 ], [ -90.995325775727025, 32.354222273900625 ], [ -90.995551402813547, 32.354421101556042 ], [ -90.995545312321156, 32.354697116378397 ], [ -90.99531107029371, 32.354888632534617 ], [ -90.994985892676269, 32.354883461754063 ], [ -90.994760265790902, 32.354684633103403 ], [ -90.994766358664776, 32.354408618413352 ] ] ], [ [ [ -91.008685970549507, 32.364231074537109 ], [ -91.00892021091579, 32.364039533622375 ], [ -91.009245424072162, 32.364044669766514 ], [ -91.009471106247076, 32.364243474378824 ], [ -91.009465055741956, 32.364519491117711 ], [ -91.009230815175826, 32.364711033028094 ], [ -91.008905599636762, 32.364705896752575 ], [ -91.008679917661695, 32.364507091144617 ], [ -91.008685970549507, 32.364231074537109 ] ] ], [ [ [ -90.998431165633022, 32.374194994653223 ], [ -90.99864220471116, 32.373984909070423 ], [ -90.998966481689195, 32.373962994103564 ], [ -90.999214041192275, 32.374142087197242 ], [ -90.999239866410477, 32.374417278755061 ], [ -90.999028827600313, 32.374627365340501 ], [ -90.998704548245072, 32.374649280372118 ], [ -90.998456988474018, 32.374470186275808 ], [ -90.998431165633022, 32.374194994653223 ] ] ], [ [ [ -91.003540362266421, 32.375912864105004 ], [ -91.003751394198559, 32.375702769707104 ], [ -91.004075676827995, 32.375680841788721 ], [ -91.004323251469444, 32.375859925381043 ], [ -91.004349092445509, 32.376135116453462 ], [ -91.004138060781884, 32.376345211854037 ], [ -91.003813775775129, 32.376367139837519 ], [ -91.003566200865151, 32.376188055242537 ], [ -91.003540362266421, 32.375912864105004 ] ] ], [ [ [ -90.997482376635261, 32.377018679609144 ], [ -90.997693424751546, 32.376808596051809 ], [ -90.998017711954802, 32.376786683945689 ], [ -90.998265276880616, 32.376965779059624 ], [ -90.998291099542499, 32.377240970613833 ], [ -90.998080051694146, 32.377451055173943 ], [ -90.997755762113329, 32.377472967344779 ], [ -90.997508196919583, 32.377293871228105 ], [ -90.997482376635261, 32.377018679609144 ] ] ], [ [ [ -90.995575693167979, 32.379399628579414 ], [ -90.995735791543197, 32.379240272425207 ], [ -90.995973239402289, 32.37918324999572 ], [ -90.99629884155047, 32.379320321880755 ], [ -90.996385329277857, 32.37959659057136 ], [ -90.996615165447025, 32.379459190209303 ], [ -90.996900900555261, 32.379475658861956 ], [ -90.997126590990803, 32.379674485578519 ], [ -90.997120499355844, 32.379950499561026 ], [ -90.996960401994031, 32.380109857505019 ], [ -90.996722952195285, 32.38016688171578 ], [ -90.996397346377535, 32.38002981079827 ], [ -90.996310858272722, 32.379753542115914 ], [ -90.996081020902807, 32.379890941868844 ], [ -90.995795284741902, 32.379874471311474 ], [ -90.995569596882518, 32.379675642311696 ], [ -90.995575693167979, 32.379399628579414 ] ] ] ] } },
{ "type": "Feature", "properties": { "depth_bin": "9-10 ft", "survey_id": "LM_06_MBV_20250619_CS_4456_4414", "date": "2025-06-19 00:00:00+00:00", "year": 2025, "mile": 444.0, "bin_order": 8 }, "geometry": { "type": "MultiPolygon", "coordinates": [ [ [ [ -90.968860025942263, 32.350706414614656 ], [ -90.96901874565431, 32.350465464166589 ], [ -90.969331691925603, 32.350390354138177 ], [ -90.969615546554536, 32.35052508265332 ], [ -90.969704032164756, 32.350790728212708 ], [ -90.969545313606062, 32.351031679562531 ], [ -90.969232365241965, 32.351106790032318 ], [ -90.968948509459693, 32.350972060615426 ], [ -90.968860025942263, 32.350706414614656 ] ] ], [ [ [ -91.008516883231735, 32.360481504722074 ], [ -91.00867551897359, 32.360240501173642 ], [ -91.008988472009008, 32.360165292807267 ], [ -91.009272420173332, 32.360299935350135 ], [ -91.009361031301253, 32.360565557663612 ], [ -91.009202396716745, 32.360806562112757 ], [ -91.008889441589545, 32.360881770922958 ], [ -91.00860549226789, 32.360747127479378 ], [ -91.008516883231735, 32.360481504722074 ] ] ] ] } },
{ "type": "Feature", "properties": { "depth_bin": "<5 ft", "survey_id": "LM_06_MBV_20250619_CS_4456_4414", "date": "2025-06-19 00:00:00+00:00", "year": 2025, "mile": 444.0, "bin_order": 13 }, "geometry": { "type": "MultiPolygon", "coordinates": [ [ [ [ -91.006106199871951, 32.357114021763152 ], [ -91.006352871213437, 32.357117922628824 ], [ -91.006555418102863, 32.357237486830826 ], [ -91.006645570184844, 32.357432414308512 ], [ -91.006570837926077, 32.357667019679454 ], [ -91.006212140505866, 32.357942872172963 ], [ -91.00570639151131, 32.358169469249951 ], [ -91.005308475306848, 32.358129836587828 ], [ -91.005132849275455, 32.357897478868921 ], [ -91.005202236223425, 32.357627769948436 ], [ -91.006106199871951, 32.357114021763152 ] ] ], [ [ [ -91.009965405290927, 32.359957194490704 ], [ -91.010270336945027, 32.360177777745228 ], [ -91.010245761026994, 32.36048550642289 ], [ -91.010104250893903, 32.360613172176421 ], [ -91.009835676195166, 32.360699774631755 ], [ -91.009512633783899, 32.360667610816336 ], [ -91.009311005156079, 32.360450989383338 ], [ -91.00934890116018, 32.360176804902579 ], [ -91.009564600347332, 32.360016973694485 ], [ -91.009965405290927, 32.359957194490704 ] ] ], [ [ [ -91.00867302360372, 32.36024017874113 ], [ -91.008929544289472, 32.360348156825175 ], [ -91.0090417807628, 32.360534643527103 ], [ -91.009013033900104, 32.360742626168857 ], [ -91.008816828373341, 32.360919631507599 ], [ -91.006852439303472, 32.36147389387699 ], [ -91.006607394364195, 32.36144949022701 ], [ -91.006398851018417, 32.361282955776396 ], [ -91.006373005561414, 32.361007764436344 ], [ -91.006583994644458, 32.360797663198049 ], [ -91.007729954916798, 32.360442544539723 ], [ -91.00867302360372, 32.36024017874113 ] ] ], [ [ [ -91.009841113440174, 32.36410047539799 ], [ -91.009987534087855, 32.364417017165408 ], [ -91.009758773367523, 32.364696205481657 ], [ -91.009144026107279, 32.364726246949488 ], [ -91.008856209772148, 32.364537935184501 ], [ -91.008830356451426, 32.364262744151297 ], [ -91.009041348051213, 32.364052638974478 ], [ -91.009614957053529, 32.364016753658582 ], [ -91.009841113440174, 32.36410047539799 ] ] ], [ [ [ -91.006780650625458, 32.367291002244535 ], [ -91.007093629603801, 32.367215799685638 ], [ -91.008000218427242, 32.367378799679912 ], [ -91.008225905643016, 32.367577606643259 ], [ -91.008219850576296, 32.367853623026839 ], [ -91.008059794446126, 32.36801299697747 ], [ -91.007864071074906, 32.368068965438638 ], [ -91.006874175076831, 32.367904647121897 ], [ -91.006710605802908, 32.367797626331743 ], [ -91.00662044450452, 32.367602698789561 ], [ -91.006780650625458, 32.367291002244535 ] ] ], [ [ [ -91.005880948308004, 32.37012542853077 ], [ -91.006235073935699, 32.370056074032469 ], [ -91.007272976135496, 32.370373094494092 ], [ -91.007474620466056, 32.370589719546047 ], [ -91.007436712758192, 32.370863902641979 ], [ -91.007259013499848, 32.371009193265387 ], [ -91.00701614802604, 32.371046214107885 ], [ -91.005937102865929, 32.370723345820778 ], [ -91.005720733621445, 32.370437123480173 ], [ -91.005880948308004, 32.37012542853077 ] ] ], [ [ [ -91.00529579275856, 32.373038674127642 ], [ -91.007526294300064, 32.373769795086382 ], [ -91.007701955130884, 32.374002150374565 ], [ -91.007632560347261, 32.374271859811884 ], [ -91.007438928953988, 32.374401669168584 ], [ -91.007152683025936, 32.374409070540018 ], [ -91.005023466686495, 32.373648478050107 ], [ -91.004904604879513, 32.37339150281116 ], [ -91.005034675376891, 32.373138467727721 ], [ -91.00529579275856, 32.373038674127642 ] ] ], [ [ [ -91.005484550099027, 32.376127468697177 ], [ -91.007073714520729, 32.37674170732447 ], [ -91.00722169554858, 32.376987555894289 ], [ -91.007121478172294, 32.377250193632726 ], [ -91.006831767048567, 32.377375770445916 ], [ -91.006475475015435, 32.377297009528981 ], [ -91.006019513096163, 32.377076298376259 ], [ -91.003896592739807, 32.376377243212048 ], [ -91.003746161887719, 32.376257127270549 ], [ -91.003678948755336, 32.37605563686818 ], [ -91.003809026828961, 32.375802603436895 ], [ -91.004111845261079, 32.375701735856666 ], [ -91.005484550099027, 32.376127468697177 ] ] ], [ [ [ -91.002639068589389, 32.378340372234199 ], [ -91.005844055093277, 32.379426718396068 ], [ -91.005986686352514, 32.379637463873671 ], [ -91.005917281291673, 32.379907171767819 ], [ -91.005643459782803, 32.380056238232029 ], [ -91.00528159169032, 32.380007933242695 ], [ -91.004488344165438, 32.379710527337807 ], [ -91.004067416150576, 32.379632776651334 ], [ -91.003372047991377, 32.379318257723263 ], [ -91.002529779671519, 32.379090285022421 ], [ -91.002190608123144, 32.378887514727623 ], [ -91.002133111493492, 32.378615797497687 ], [ -91.002318870113754, 32.378389163940703 ], [ -91.002639068589389, 32.378340372234199 ] ] ], [ [ [ -91.00539571047959, 32.38239020536151 ], [ -91.005562001683188, 32.382588073316683 ], [ -91.005542616623686, 32.382830544339484 ], [ -91.005308318778091, 32.383022076239527 ], [ -91.005022045700017, 32.383029471678867 ], [ -91.000627660889648, 32.381524424813854 ], [ -91.00040195805478, 32.381325603938464 ], [ -91.000393255318031, 32.381082688320625 ], [ -91.000604306934449, 32.380872600121307 ], [ -91.000928608429589, 32.380850681082613 ], [ -91.00539571047959, 32.38239020536151 ] ] ], [ [ [ -91.003522620484119, 32.354601991236486 ], [ -91.003903764548625, 32.354706757741013 ], [ -91.00401289226923, 32.355033960247773 ], [ -91.003647075900787, 32.355448405993407 ], [ -91.003293006293973, 32.355517755545833 ], [ -91.003025998983702, 32.355360126994796 ], [ -91.002968510865216, 32.35508840968383 ], [ -91.003302912767296, 32.354697243708799 ], [ -91.003522620484119, 32.354601991236486 ] ] ], [ [ [ -91.003090985871538, 32.384748690347244 ], [ -91.004533674675713, 32.385200559295058 ], [ -91.004709348143095, 32.385432918931635 ], [ -91.004639933942101, 32.385702625563596 ], [ -91.004283024259209, 32.385857304666352 ], [ -91.003536423394337, 32.385682645469799 ], [ -91.002398032919984, 32.385232369422503 ], [ -91.001722467808079, 32.385085485091935 ], [ -91.001224731515535, 32.384871875258 ], [ -90.999420491908879, 32.384329341910806 ], [ -90.998713887893899, 32.384060694139976 ], [ -90.998580644501587, 32.383884431822828 ], [ -90.998585262654203, 32.383675061246038 ], [ -90.998694757490071, 32.383526429038341 ], [ -90.998914541076701, 32.383431187969329 ], [ -90.999443150065872, 32.383511202059367 ], [ -91.001942648075271, 32.384389740558539 ], [ -91.002660668483088, 32.384549830187659 ], [ -91.003090985871538, 32.384748690347244 ] ] ], [ [ [ -91.002975123795849, 32.38787087042801 ], [ -91.004388148120071, 32.388304579111349 ], [ -91.004563826780327, 32.3885369390661 ], [ -91.004494409268403, 32.388806645382026 ], [ -91.004179184969729, 32.388960246812452 ], [ -91.003538656931639, 32.388832137667031 ], [ -91.000181100964241, 32.387592359151007 ], [ -90.999458144245565, 32.387403006216623 ], [ -90.997049618183595, 32.386499656599227 ], [ -90.996861281946494, 32.386316560009206 ], [ -90.996852588963478, 32.386073644684444 ], [ -90.997141232448143, 32.385837732712993 ], [ -90.997541382787077, 32.385884247085457 ], [ -90.999858910596785, 32.386769959190772 ], [ -91.000571307444602, 32.386953710979931 ], [ -91.001956460497667, 32.387500602076138 ], [ -91.002518853826842, 32.387638601301731 ], [ -91.002975123795849, 32.38787087042801 ] ] ], [ [ [ -91.000190910709222, 32.366017623239877 ], [ -91.000417682561149, 32.366166017734479 ], [ -91.000482057713782, 32.366402825176358 ], [ -91.000354810055029, 32.366620540120792 ], [ -91.000135069533471, 32.366715785614517 ], [ -90.998850647152167, 32.366510909074279 ], [ -90.998675516856053, 32.366417999560475 ], [ -90.998563295578194, 32.3662315043441 ], [ -90.998632709580647, 32.365961800402637 ], [ -90.99890649796447, 32.365812747634358 ], [ -91.000190910709222, 32.366017623239877 ] ] ], [ [ [ -91.000186209080383, 32.368291468550083 ], [ -91.000373986010842, 32.368427317636538 ], [ -91.000438362327671, 32.36866412507996 ], [ -91.000339693227588, 32.368856061300114 ], [ -91.000132005497662, 32.368969127503519 ], [ -90.999925564611388, 32.368974454275282 ], [ -90.999234855189258, 32.368775118399448 ], [ -90.998995871598325, 32.368542751188727 ], [ -90.999033803315058, 32.368268571509056 ], [ -90.999289065254544, 32.368097460073372 ], [ -90.999495504122919, 32.368092134266213 ], [ -91.000186209080383, 32.368291468550083 ] ] ], [ [ [ -90.998291244035798, 32.358905051527564 ], [ -90.998536279019049, 32.358929470997857 ], [ -90.99872403474879, 32.359065321866666 ], [ -90.99878840141929, 32.359302130049528 ], [ -90.998689740168004, 32.359494065510766 ], [ -90.996791365174744, 32.361042301633447 ], [ -90.99652000927459, 32.361119877578034 ], [ -90.996252265176651, 32.361033734200362 ], [ -90.9961043382105, 32.360787874371056 ], [ -90.996204566189292, 32.360525245294376 ], [ -90.998071520670536, 32.359000294187233 ], [ -90.998291244035798, 32.358905051527564 ] ] ], [ [ [ -90.998446383300646, 32.361411529613406 ], [ -90.99869142507093, 32.361435949043027 ], [ -90.998854973264713, 32.361542979516031 ], [ -90.99894511227609, 32.361737911891822 ], [ -90.998892461968751, 32.361942496319593 ], [ -90.998173570879786, 32.36238259134155 ], [ -90.99777297717182, 32.362376229541013 ], [ -90.997571374021774, 32.362159590338145 ], [ -90.997609306288325, 32.361885410891311 ], [ -90.998446383300646, 32.361411529613406 ] ] ], [ [ [ -90.999837308439467, 32.362664923438729 ], [ -91.000000860200842, 32.36277195254624 ], [ -91.000091002793354, 32.362966884212568 ], [ -91.000038354177036, 32.363171469155816 ], [ -90.9998606593863, 32.36331674963904 ], [ -90.998171223426297, 32.363718306813709 ], [ -90.997930175991556, 32.36367361823131 ], [ -90.997759005653279, 32.363522800053339 ], [ -90.997733186223314, 32.363247608046152 ], [ -90.99794419999985, 32.363037522343831 ], [ -90.999233764625004, 32.36270151447718 ], [ -90.999837308439467, 32.362664923438729 ] ] ], [ [ [ -90.999367137148013, 32.364153082774948 ], [ -90.999554904563908, 32.364288932777853 ], [ -90.999622101139764, 32.364490425025906 ], [ -90.999546076807718, 32.364689644542082 ], [ -90.999352455728868, 32.364819442008006 ], [ -90.998173132551074, 32.364845214793725 ], [ -90.997980014303039, 32.364783086562326 ], [ -90.997827083858482, 32.364618754965711 ], [ -90.997833169747892, 32.364342740192107 ], [ -90.998067432208529, 32.364151220374843 ], [ -90.999367137148013, 32.364153082774948 ] ] ], [ [ [ -90.997740777664021, 32.370517798377925 ], [ -90.999161394360371, 32.370969586857719 ], [ -90.999280236808303, 32.371226566838111 ], [ -90.999150153623987, 32.371479595525656 ], [ -90.998764594965223, 32.371572205950763 ], [ -90.997509775193805, 32.371123046958829 ], [ -90.997392204419782, 32.370901445960953 ], [ -90.997492441510786, 32.37063881655115 ], [ -90.997740777664021, 32.370517798377925 ] ] ], [ [ [ -90.997661901714835, 32.373708573981439 ], [ -90.99801604648907, 32.373639243425366 ], [ -90.998890629578312, 32.373930559313003 ], [ -90.999092260598019, 32.374147197186872 ], [ -90.999054325621586, 32.374421376553443 ], [ -90.998876606310148, 32.374566654469248 ], [ -90.998633728702472, 32.374603658620522 ], [ -90.997718002828819, 32.37430649255726 ], [ -90.997501652365173, 32.374020256942792 ], [ -90.997661901714835, 32.373708573981439 ] ] ], [ [ [ -90.997089915182443, 32.350834686713974 ], [ -90.997453101811232, 32.350825318622618 ], [ -90.997692037152035, 32.351057687365007 ], [ -90.997583113564161, 32.351457800236176 ], [ -90.997327897112712, 32.351628910369961 ], [ -90.997004892992678, 32.35159671590332 ], [ -90.996803314260504, 32.351380076147095 ], [ -90.996822711254111, 32.351137605991056 ], [ -90.997089915182443, 32.350834686713974 ] ] ], [ [ [ -90.994746687371958, 32.354516524533707 ], [ -90.995100758236319, 32.354447199086906 ], [ -90.995367748264911, 32.354604843798001 ], [ -90.995432103565818, 32.354841653379147 ], [ -90.995278080271831, 32.355197730719183 ], [ -90.994792891504872, 32.355861099826164 ], [ -90.993255887340126, 32.358416007075903 ], [ -90.992877262649273, 32.358843432231481 ], [ -90.992477878122656, 32.358870410713749 ], [ -90.992252247551775, 32.358671577514983 ], [ -90.992258348980855, 32.35839556342426 ], [ -90.994746687371958, 32.354516524533707 ] ] ], [ [ [ -90.996780768606115, 32.356528441250759 ], [ -90.997134846163334, 32.356459110359715 ], [ -90.997422612018553, 32.356647447145129 ], [ -90.997448429728934, 32.356922639374744 ], [ -90.997225182471425, 32.357254263289619 ], [ -90.99485875708973, 32.359787087849035 ], [ -90.994597668349712, 32.359886861074003 ], [ -90.994321270615842, 32.359823402737476 ], [ -90.994140325541224, 32.359555925891797 ], [ -90.99429751206614, 32.359201578138745 ], [ -90.996780768606115, 32.356528441250759 ] ] ], [ [ [ -90.997032211803088, 32.376635682972946 ], [ -90.997386368510433, 32.376566354689622 ], [ -90.997984276440874, 32.37677146277737 ], [ -90.998159917491151, 32.37700383052897 ], [ -90.998090491842575, 32.377273533375188 ], [ -90.997733605968307, 32.377428194986635 ], [ -90.997052939806551, 32.37721483863254 ], [ -90.996871954609901, 32.376947364706339 ], [ -90.997032211803088, 32.376635682972946 ] ] ], [ [ [ -90.994820347372553, 32.378968815670241 ], [ -90.995214780123845, 32.378908736779671 ], [ -90.996799570723297, 32.379438465926839 ], [ -90.997001208082992, 32.379655107257136 ], [ -90.996963263601302, 32.379929285426869 ], [ -90.996747494139029, 32.380089091831707 ], [ -90.996501496871076, 32.380105710492927 ], [ -90.994876431030221, 32.379566734428266 ], [ -90.994660078171108, 32.379280494016037 ], [ -90.994820347372553, 32.378968815670241 ] ] ], [ [ [ -90.994210709856986, 32.381812457269881 ], [ -90.9948773704959, 32.382002649032721 ], [ -90.995030322968674, 32.382166984735449 ], [ -90.995049903740693, 32.382375731494939 ], [ -90.994898084059045, 32.382581804086044 ], [ -90.994543902095117, 32.382651124303671 ], [ -90.993869157057077, 32.382396637413301 ], [ -90.993780574076411, 32.382131006021936 ], [ -90.993939288955971, 32.381890024860297 ], [ -90.994210709856986, 32.381812457269881 ] ] ], [ [ [ -90.993510242733066, 32.349417308703181 ], [ -90.993909585400147, 32.3493903252443 ], [ -90.994148507730117, 32.349622700243572 ], [ -90.994044070848943, 32.350022841225524 ], [ -90.993788852306722, 32.350193944124285 ], [ -90.993465855018101, 32.350161740833371 ], [ -90.993264288037594, 32.349945095832901 ], [ -90.99328369393244, 32.349702626533485 ], [ -90.993510242733066, 32.349417308703181 ] ] ], [ [ [ -90.99192077492998, 32.353054238385049 ], [ -90.992233714452837, 32.352979071114127 ], [ -90.992517613802278, 32.353113749674399 ], [ -90.992608996300689, 32.353344066463286 ], [ -90.992513534113286, 32.353718055879021 ], [ -90.99088292465278, 32.357492899986063 ], [ -90.990648665730177, 32.357684406717205 ], [ -90.990362473332439, 32.357691772002795 ], [ -90.990114975331622, 32.357512663558211 ], [ -90.990089179864086, 32.357237470728641 ], [ -90.99128721090716, 32.354578184234249 ], [ -90.991779890658677, 32.353226141194511 ], [ -90.99192077492998, 32.353054238385049 ] ] ], [ [ [ -90.992802204142734, 32.384436552987665 ], [ -90.99307363362216, 32.384358988218274 ], [ -90.993504598541207, 32.384466577566194 ], [ -90.993652553363802, 32.384712440834434 ], [ -90.993552287525148, 32.384975065578651 ], [ -90.993220837799882, 32.385101682463954 ], [ -90.992789870294573, 32.384994092048814 ], [ -90.99264065296083, 32.384712847491187 ], [ -90.992802204142734, 32.384436552987665 ] ] ], [ [ [ -90.986621563934051, 32.347562978635764 ], [ -90.9869756123326, 32.347493675110329 ], [ -90.987280444884576, 32.347714310514512 ], [ -90.987257973641874, 32.348228434018033 ], [ -90.987008948889454, 32.348453032390331 ], [ -90.986683795955145, 32.348447841121526 ], [ -90.986458203280421, 32.348248998779937 ], [ -90.986469788272657, 32.347769043698314 ], [ -90.986621563934051, 32.347562978635764 ] ] ], [ [ [ -90.990112296961001, 32.348516778265427 ], [ -90.990506598588297, 32.348456708697299 ], [ -90.990784500097632, 32.34870163795302 ], [ -90.990685543133253, 32.349210179638987 ], [ -90.990411787924913, 32.349412984173348 ], [ -90.99008879507484, 32.349380772382212 ], [ -90.989887238079731, 32.349164122345663 ], [ -90.989971416892615, 32.348688679313582 ], [ -90.990112296961001, 32.348516778265427 ] ] ], [ [ [ -90.985658397167612, 32.351596760627018 ], [ -90.985888051368065, 32.351520278533954 ], [ -90.986129059665402, 32.351564988709505 ], [ -90.986300188364467, 32.35171582128477 ], [ -90.986343756622006, 32.351921936865878 ], [ -90.985524830286153, 32.35549791724587 ], [ -90.985349973426807, 32.355690359108756 ], [ -90.985070976605243, 32.355744961842341 ], [ -90.98478708121992, 32.355610266671675 ], [ -90.984698546980837, 32.355344629937292 ], [ -90.985470537460046, 32.351937914747744 ], [ -90.985658397167612, 32.351596760627018 ] ] ], [ [ [ -90.988840618798818, 32.352492652790993 ], [ -90.98919468527734, 32.352423343781972 ], [ -90.989461658603446, 32.352581000407426 ], [ -90.989528825250162, 32.352782497152702 ], [ -90.989473109681867, 32.353268119532366 ], [ -90.989278464868576, 32.353639260207409 ], [ -90.989165225998775, 32.354197393848416 ], [ -90.988321233269346, 32.356742119881339 ], [ -90.988146379580016, 32.356934565729709 ], [ -90.987826251499655, 32.356983323455395 ], [ -90.987610896235537, 32.356881154919499 ], [ -90.987508079358747, 32.356729142506239 ], [ -90.987554400625626, 32.356286498383895 ], [ -90.987720569658947, 32.355983012766586 ], [ -90.988326869702448, 32.354093109345882 ], [ -90.988456479820087, 32.353464274608555 ], [ -90.98866218968044, 32.353061011935559 ], [ -90.988699729817029, 32.352664551973703 ], [ -90.988840618798818, 32.352492652790993 ] ] ], [ [ [ -90.969478348089879, 32.343329475359219 ], [ -90.969832390201717, 32.343260219808585 ], [ -90.970137165163891, 32.343480894569637 ], [ -90.9701782759102, 32.343966078539701 ], [ -90.969918326648369, 32.344224808532367 ], [ -90.96959319227274, 32.344219573817121 ], [ -90.969367648705926, 32.344020702685938 ], [ -90.969319643093826, 32.343570427193434 ], [ -90.969478348089879, 32.343329475359219 ] ] ], [ [ [ -90.972868960897216, 32.344031410467629 ], [ -90.973223003721628, 32.343962145406223 ], [ -90.973527789638965, 32.344182812371749 ], [ -90.973538089122911, 32.344703747705701 ], [ -90.973289042101527, 32.344928318114199 ], [ -90.972963904530019, 32.344923091985549 ], [ -90.972738351585292, 32.344724226539611 ], [ -90.972676936831078, 32.344409171691225 ], [ -90.972868960897216, 32.344031410467629 ] ] ], [ [ [ -90.976204745657839, 32.345498184254382 ], [ -90.976558792240567, 32.345428909965392 ], [ -90.976846479131297, 32.345617290936424 ], [ -90.976930622124556, 32.346101779825467 ], [ -90.976701812342995, 32.346380906681134 ], [ -90.976377632053484, 32.346402768165852 ], [ -90.976130192693077, 32.346223634293338 ], [ -90.97604605392263, 32.345739145045634 ], [ -90.976204745657839, 32.345498184254382 ] ] ], [ [ [ -90.983187118790198, 32.347207671081577 ], [ -90.983541167873923, 32.347138377249692 ], [ -90.983828875350625, 32.347326743031864 ], [ -90.983839514533443, 32.34774013487128 ], [ -90.983628506938118, 32.347950197551128 ], [ -90.983304321703059, 32.347972076689729 ], [ -90.983056863821133, 32.347792955739436 ], [ -90.983035336204409, 32.347413731731216 ], [ -90.983187118790198, 32.347207671081577 ] ] ], [ [ [ -90.969008358462389, 32.350596022883849 ], [ -90.969402679473475, 32.350536020283521 ], [ -90.96968052752149, 32.350780993968044 ], [ -90.969662660919468, 32.351359162060945 ], [ -90.969374064133547, 32.35159501382347 ], [ -90.969051074033203, 32.351562748114361 ], [ -90.968849564551064, 32.351346066324332 ], [ -90.968856538565518, 32.350802064832287 ], [ -90.969008358462389, 32.350596022883849 ] ] ], [ [ [ -90.97248880718, 32.350897609680906 ], [ -90.972842877294511, 32.350828346846441 ], [ -90.973130572484081, 32.351016736525935 ], [ -90.973141741905025, 32.351429547909667 ], [ -90.972930701514045, 32.351639591225506 ], [ -90.972606502014827, 32.351661442201816 ], [ -90.972359056756389, 32.351482300788533 ], [ -90.972336994403662, 32.351103656110418 ], [ -90.97248880718, 32.350897609680906 ] ] ], [ [ [ -90.982303957671817, 32.351420997441579 ], [ -90.982618370068266, 32.351210259476531 ], [ -90.982863378497228, 32.351234708452232 ], [ -90.983051094209443, 32.351370581256802 ], [ -90.983118245695209, 32.351572080850637 ], [ -90.982709903273118, 32.353848621432128 ], [ -90.982563334978309, 32.354104739321507 ], [ -90.982260568840104, 32.354205557356181 ], [ -90.981962495047185, 32.354095123789271 ], [ -90.981843722274277, 32.353838129670649 ], [ -90.982215861555517, 32.351757759289704 ], [ -90.982303957671817, 32.351420997441579 ] ] ], [ [ [ -90.97912304895533, 32.351250608460731 ], [ -90.979311350694346, 32.351178670366096 ], [ -90.979556357790727, 32.351203125732013 ], [ -90.979719864286452, 32.351310179564514 ], [ -90.979809952513818, 32.351505123877672 ], [ -90.979640671604884, 32.352733997581339 ], [ -90.979499765378037, 32.352905885760762 ], [ -90.979270102874608, 32.352982355840922 ], [ -90.978960719384702, 32.352897246339779 ], [ -90.978812852405085, 32.352651368316273 ], [ -90.978971250152696, 32.351456663451565 ], [ -90.97912304895533, 32.351250608460731 ] ] ], [ [ [ -90.975792988159583, 32.351257665025052 ], [ -90.976022648795393, 32.351181201204291 ], [ -90.976263650295095, 32.351225930017506 ], [ -90.976529986564842, 32.351581846721949 ], [ -90.976451479876488, 32.352187317825852 ], [ -90.976162897104615, 32.352423185708652 ], [ -90.975839900692023, 32.352390937187508 ], [ -90.975638372676812, 32.352174265554353 ], [ -90.975634284444666, 32.351498624643277 ], [ -90.975792988159583, 32.351257665025052 ] ] ] ] } },
{ "type": "Feature", "properties": { "depth_bin": ">20 ft", "survey_id": "LM_06_MBV_20250619_CS_4456_4414", "date": "2025-06-19 00:00:00+00:00", "year": 2025, "mile": 444.0, "bin_order": 0 }, "geometry": { "type": "MultiPolygon", "coordinates": [ [ [ [ -91.005233075491105, 32.357603982963738 ], [ -91.005542502960068, 32.357689029519562 ], [ -91.005690451508514, 32.357934879195014 ], [ -91.005615716327753, 32.358169483868018 ], [ -91.00528495688333, 32.358430887671418 ], [ -91.004742178651824, 32.358664151376971 ], [ -91.003346012746121, 32.359489242084251 ], [ -91.002302526667009, 32.359964361487449 ], [ -91.002025439091653, 32.36022530016831 ], [ -91.001197414475811, 32.360637361373882 ], [ -90.999967277241709, 32.361389891991436 ], [ -90.999474010465448, 32.361631955623963 ], [ -90.999223325911885, 32.361647494134495 ], [ -90.999029389551836, 32.36192550220936 ], [ -90.998709248042744, 32.361974287079811 ], [ -90.99846644354416, 32.361845468935243 ], [ -90.998376305485493, 32.361650536256704 ], [ -90.998451062500024, 32.361415936854343 ], [ -90.998644677263485, 32.361286140470781 ], [ -90.99889536085135, 32.361270603074928 ], [ -90.998969875646168, 32.361090232379112 ], [ -90.999185696352882, 32.360930382248306 ], [ -91.001492547480936, 32.359659848658339 ], [ -91.00188405142741, 32.35933790750304 ], [ -91.002830256779205, 32.358919556863832 ], [ -91.00435345445004, 32.358026328304945 ], [ -91.005233075491105, 32.357603982963738 ] ] ], [ [ [ -91.006598666031749, 32.360855220219946 ], [ -91.006863332882602, 32.361066572643487 ], [ -91.006857275195841, 32.361342589083129 ], [ -91.00669722887649, 32.361501961816714 ], [ -91.006179269755989, 32.361695917134021 ], [ -91.005473852103492, 32.361804735058463 ], [ -91.004732403496334, 32.362044996847565 ], [ -91.004349215093882, 32.362096343170734 ], [ -91.003966302182974, 32.362272648612468 ], [ -91.00267043646879, 32.362530599474937 ], [ -91.000084363773738, 32.363246437165877 ], [ -90.999798678629773, 32.363229977696527 ], [ -90.999573020990553, 32.363031156668747 ], [ -90.999546541948831, 32.362857320287219 ], [ -90.999645205472518, 32.36266538432448 ], [ -91.000113320835027, 32.362450767171126 ], [ -91.002473147702034, 32.361829783992334 ], [ -91.003650438646389, 32.361607686741245 ], [ -91.003986479203121, 32.361446265024966 ], [ -91.00487778238778, 32.36125566006374 ], [ -91.005261119250832, 32.361106082043023 ], [ -91.005849714814914, 32.361031667241456 ], [ -91.006392620961151, 32.360843359801038 ], [ -91.006598666031749, 32.360855220219946 ] ] ], [ [ [ -91.008949851364861, 32.364063225053179 ], [ -91.009138169263025, 32.364246303317294 ], [ -91.009132117745636, 32.364522320000127 ], [ -91.008935903866771, 32.364699325111182 ], [ -91.008624743421549, 32.364749032131989 ], [ -90.99949185400601, 32.364830372644875 ], [ -90.999193722825098, 32.364719977791736 ], [ -90.999076155286772, 32.364498378319624 ], [ -90.99917637948586, 32.364235746845679 ], [ -90.999466057287137, 32.364110186148423 ], [ -91.00875048325166, 32.364017478179434 ], [ -91.008949851364861, 32.364063225053179 ] ] ], [ [ [ -91.000430081067336, 32.366060374628454 ], [ -91.007052386875856, 32.367217491429393 ], [ -91.007278071540412, 32.36741629999748 ], [ -91.007272013631052, 32.367692316228748 ], [ -91.007111956202337, 32.367851688924645 ], [ -91.006832932034953, 32.367906338781111 ], [ -91.000289840310302, 32.366770995224016 ], [ -91.0000470209432, 32.36664217961961 ], [ -90.999958432476944, 32.366376551841157 ], [ -91.000117101514419, 32.366135560587125 ], [ -91.000430081067336, 32.366060374628454 ] ] ], [ [ [ -91.000426564160946, 32.368356085135069 ], [ -91.006078495279112, 32.370031038173821 ], [ -91.006254145578865, 32.370263395177972 ], [ -91.00618475000411, 32.370533103911207 ], [ -91.00599112493336, 32.370662911348411 ], [ -91.005704890878988, 32.370670309895701 ], [ -91.000204921877852, 32.369051617078938 ], [ -90.999978143443826, 32.368903221993257 ], [ -90.999920658177999, 32.368631503862055 ], [ -91.000106400333465, 32.368404872639182 ], [ -91.000426564160946, 32.368356085135069 ] ] ], [ [ [ -90.999438831955231, 32.371024803692137 ], [ -91.005065051384449, 32.372942054653628 ], [ -91.005215478813454, 32.373062168931426 ], [ -91.005272982145598, 32.373333885205398 ], [ -91.005087241709845, 32.373560523990065 ], [ -91.004726796912266, 32.373600083051663 ], [ -90.999287382144573, 32.371760288047348 ], [ -90.998950128676839, 32.371562694647146 ], [ -90.998903534744542, 32.371256807085565 ], [ -90.999114565564142, 32.371046720305173 ], [ -90.999438831955231, 32.371024803692137 ] ] ], [ [ [ -91.003020928198666, 32.354996633931961 ], [ -91.003343947328446, 32.355028813526957 ], [ -91.00354554986275, 32.355245443643128 ], [ -91.003526169283461, 32.355487915362318 ], [ -91.003263273313024, 32.355800124920265 ], [ -91.00247261648579, 32.356387216314502 ], [ -91.001988658617094, 32.356906470506082 ], [ -91.000817448531166, 32.357714292848492 ], [ -91.000070602663911, 32.358439293062474 ], [ -90.999444699754221, 32.35882677771837 ], [ -90.999198760537567, 32.35884340400392 ], [ -90.999013758297437, 32.358765511530208 ], [ -90.998865827031253, 32.358519654709433 ], [ -90.998966044276116, 32.358257022931021 ], [ -90.999550955619554, 32.357868863773476 ], [ -91.000261065928242, 32.357170361663933 ], [ -91.001357077538174, 32.356427422684909 ], [ -91.001912609056703, 32.355845726253783 ], [ -91.003020928198666, 32.354996633931961 ] ] ], [ [ [ -91.00264414130757, 32.375217067029766 ], [ -91.003386663606037, 32.375391662268107 ], [ -91.003913627636635, 32.375662338950427 ], [ -91.004061598297042, 32.375908190863889 ], [ -91.003961373273938, 32.376170825816303 ], [ -91.003753672484223, 32.37628389738282 ], [ -91.003506949480638, 32.376279989383605 ], [ -91.003082039291712, 32.376064218986471 ], [ -91.002266856421713, 32.37586254254623 ], [ -90.999266885819821, 32.374830747777573 ], [ -90.998938062223345, 32.374640173359602 ], [ -90.998891467322665, 32.374334285872862 ], [ -90.999102505719151, 32.374124199493927 ], [ -90.999426783150909, 32.374102283358027 ], [ -91.00264414130757, 32.375217067029766 ] ] ], [ [ [ -90.998283371773269, 32.376870218022738 ], [ -91.00237581726536, 32.378259047938151 ], [ -91.002523787508011, 32.3785049015654 ], [ -91.002423554818179, 32.378767534903041 ], [ -91.002175201216176, 32.37888856151136 ], [ -91.001818507176395, 32.378838294825009 ], [ -90.998175117100004, 32.377606679395313 ], [ -90.997859110026951, 32.377446164988868 ], [ -90.997777410860678, 32.377145625653455 ], [ -90.997963176796716, 32.37691899878152 ], [ -90.998283371773269, 32.376870218022738 ] ] ], [ [ [ -90.997272830643837, 32.37961215291655 ], [ -91.00097586305408, 32.380892041713658 ], [ -91.001094722188896, 32.381149020320507 ], [ -91.000964628211761, 32.381402050144267 ], [ -91.000744851615323, 32.381497295099031 ], [ -91.000538761106313, 32.381485423318004 ], [ -90.997012127357621, 32.380295129301679 ], [ -90.996803561083169, 32.380128578417818 ], [ -90.996766851134637, 32.37988755564762 ], [ -90.996952625505685, 32.379660930681403 ], [ -90.997272830643837, 32.37961215291655 ] ] ], [ [ [ -91.000013565723449, 32.353102194106548 ], [ -91.000299219165328, 32.353118651851368 ], [ -91.00050773283796, 32.353285195412809 ], [ -91.000544445910791, 32.353526218016086 ], [ -91.000380610664749, 32.353783019509628 ], [ -90.999789995222784, 32.354466075831148 ], [ -90.999499370065607, 32.354647389486942 ], [ -90.997985812924512, 32.356408974602736 ], [ -90.997737516706849, 32.35652999505831 ], [ -90.997419768226905, 32.356471081682692 ], [ -90.997244165965682, 32.356238713840206 ], [ -90.997313574570512, 32.35596901007596 ], [ -90.998867361476499, 32.354166085601371 ], [ -90.999195749234559, 32.353954568206802 ], [ -90.999805914737934, 32.353215261450927 ], [ -91.000013565723449, 32.353102194106548 ] ] ], [ [ [ -90.99617472098808, 32.382385430931187 ], [ -90.998569396180116, 32.383236277115891 ], [ -90.998877962878126, 32.383404030926187 ], [ -90.998966562023369, 32.383669659323637 ], [ -90.998807856777745, 32.38391064716194 ], [ -90.998413403852169, 32.383970736490454 ], [ -90.997160454460342, 32.383569497091351 ], [ -90.995922299266269, 32.383069583941833 ], [ -90.995516371733885, 32.382997464985117 ], [ -90.99524413539622, 32.382834591479345 ], [ -90.994919255217866, 32.38278483065011 ], [ -90.994710687504408, 32.382618276288127 ], [ -90.994673982507891, 32.38237725317822 ], [ -90.994794374426178, 32.382194455934012 ], [ -90.994973511555585, 32.382107177208297 ], [ -90.995500908225111, 32.382144290715345 ], [ -90.995858558770024, 32.382336585812709 ], [ -90.99617472098808, 32.382385430931187 ] ] ], [ [ [ -90.993328413511449, 32.349831003272058 ], [ -90.99364134080713, 32.349755831981135 ], [ -90.993925232606571, 32.349890507117124 ], [ -90.994015350651651, 32.35008544247701 ], [ -90.993951856438144, 32.350467879898908 ], [ -90.993667567482518, 32.350907384589348 ], [ -90.992779610388979, 32.353105427556969 ], [ -90.992583391930793, 32.353282407220952 ], [ -90.992299442401631, 32.353313551929091 ], [ -90.992032461732435, 32.353155901050378 ], [ -90.991975007820599, 32.352884179998725 ], [ -90.992880948661565, 32.350639863828128 ], [ -90.99312246164564, 32.350311213945083 ], [ -90.993187537155777, 32.350002908042853 ], [ -90.993328413511449, 32.349831003272058 ] ] ], [ [ [ -90.996831878363139, 32.351220344575843 ], [ -90.997110855497766, 32.351165714933607 ], [ -90.997336967760347, 32.351249457548185 ], [ -90.997479538061484, 32.35146021100325 ], [ -90.997450768874415, 32.351668190352825 ], [ -90.996712845637347, 32.352931786655112 ], [ -90.995721193059424, 32.354386991558904 ], [ -90.995488069679269, 32.354528082621123 ], [ -90.995202413290841, 32.354511613832933 ], [ -90.994976786789024, 32.354312785576802 ], [ -90.994982878917909, 32.354036770833808 ], [ -90.996831878363139, 32.351220344575843 ] ] ], [ [ [ -90.993393566991188, 32.384663409521472 ], [ -90.99362330068854, 32.384586916777913 ], [ -90.993950142022797, 32.384624200787364 ], [ -90.996979276874384, 32.38569463613225 ], [ -90.997204982214271, 32.385893463144527 ], [ -90.99719888935762, 32.386169476867799 ], [ -90.99696456573065, 32.386360992112891 ], [ -90.996678282460778, 32.386368368141063 ], [ -90.993487011781824, 32.385277059865736 ], [ -90.993323429061363, 32.385170021354902 ], [ -90.993233281844581, 32.384975085192828 ], [ -90.993393566991188, 32.384663409521472 ] ] ], [ [ [ -90.983132709859916, 32.34761827164634 ], [ -90.983362355685244, 32.347541793793013 ], [ -90.983603352021575, 32.34758650835299 ], [ -90.98377446920513, 32.347737343979617 ], [ -90.983818030274023, 32.347943460250427 ], [ -90.983176828964091, 32.35112803601529 ], [ -90.98300197623827, 32.351320474883053 ], [ -90.982722991866027, 32.351375072934552 ], [ -90.982439113560162, 32.351240373072677 ], [ -90.982350589832606, 32.350974734961163 ], [ -90.982917886696427, 32.348092211840829 ], [ -90.983006603357978, 32.347757067499039 ], [ -90.983132709859916, 32.34761827164634 ] ] ], [ [ [ -90.98651706990475, 32.348075262403754 ], [ -90.986754439995451, 32.348018254063987 ], [ -90.986989116844128, 32.348082799230291 ], [ -90.987142000748605, 32.348247142492717 ], [ -90.987168453182193, 32.348420980743157 ], [ -90.986454572974964, 32.351592040583142 ], [ -90.986279725995161, 32.351784484227146 ], [ -90.986000741750146, 32.351839089552641 ], [ -90.98569265077785, 32.351675574202275 ], [ -90.985623116582815, 32.351299815402506 ], [ -90.985824887410246, 32.350796258111394 ], [ -90.985848508459142, 32.35035533565808 ], [ -90.98627644494384, 32.348431235626222 ], [ -90.98651706990475, 32.348075262403754 ] ] ], [ [ [ -90.989952468188889, 32.349049999341723 ], [ -90.990182112646806, 32.348973508993588 ], [ -90.99045847437867, 32.349036975080203 ], [ -90.990611366305032, 32.349201314425272 ], [ -90.990630933952829, 32.3494100622095 ], [ -90.989710250725309, 32.352367854884406 ], [ -90.989535408810298, 32.352560303238768 ], [ -90.989215296833081, 32.352609065169673 ], [ -90.98894832388379, 32.352451408036757 ], [ -90.988890879607879, 32.352179685936306 ], [ -90.989721648068368, 32.349483957656908 ], [ -90.989952468188889, 32.349049999341723 ] ] ], [ [ [ -90.972805060186516, 32.344423910297493 ], [ -90.973084027712645, 32.344369333525528 ], [ -90.973340458276027, 32.344477380819349 ], [ -90.973443238064178, 32.344629403560347 ], [ -90.973498171577887, 32.345009106286192 ], [ -90.973447436280651, 32.346003729142858 ], [ -90.97329414674202, 32.346307535914747 ], [ -90.973369311138853, 32.346518613669168 ], [ -90.973279863679821, 32.348386265138529 ], [ -90.973346782517112, 32.348681725135734 ], [ -90.973318803943769, 32.349402826659784 ], [ -90.973203712279798, 32.350299872183534 ], [ -90.973256508854519, 32.35067391375847 ], [ -90.973129221571, 32.350891599990028 ], [ -90.972826457133365, 32.350992395417521 ], [ -90.972476791604251, 32.350826442792638 ], [ -90.972359986976031, 32.350352467763223 ], [ -90.972499043493116, 32.348722149080324 ], [ -90.972434124728323, 32.348425497000228 ], [ -90.972512112519112, 32.347354495026565 ], [ -90.972449552081784, 32.346226238509367 ], [ -90.972602653595061, 32.345888854275358 ], [ -90.972612406442749, 32.344685410111822 ], [ -90.972805060186516, 32.344423910297493 ] ] ], [ [ [ -90.976232009458386, 32.346028644182148 ], [ -90.976427701344704, 32.345972723547597 ], [ -90.976668689408456, 32.34601745107404 ], [ -90.976819034752083, 32.346137596449644 ], [ -90.976886169002356, 32.346339098811335 ], [ -90.976576188848952, 32.350106872699307 ], [ -90.976649588768908, 32.350766463415404 ], [ -90.976507261450138, 32.351093782167723 ], [ -90.9761759167815, 32.351220358849758 ], [ -90.975941240754466, 32.351155793561787 ], [ -90.975788373271854, 32.350991437399536 ], [ -90.975732956724599, 32.350162718331781 ], [ -90.976039361627599, 32.346290149431994 ], [ -90.976232009458386, 32.346028644182148 ] ] ], [ [ [ -90.979528396745707, 32.34713804316673 ], [ -90.979716689488967, 32.34706610406775 ], [ -90.979961685704936, 32.347090558220323 ], [ -90.980149388614294, 32.347226434913608 ], [ -90.980216531022563, 32.347427935797221 ], [ -90.980175532275993, 32.34842910723556 ], [ -90.979967937341101, 32.349885074511498 ], [ -90.979976349475322, 32.3505192169197 ], [ -90.979767286542469, 32.350942405026068 ], [ -90.979435946505106, 32.351068990486482 ], [ -90.979137886602956, 32.350958550737303 ], [ -90.979019125581345, 32.350701554321333 ], [ -90.97915363629177, 32.350341594043726 ], [ -90.979118557204231, 32.349879744814146 ], [ -90.979329289675064, 32.348396673195289 ], [ -90.979369710487958, 32.347379008322775 ], [ -90.979528396745707, 32.34713804316673 ] ] ], [ [ [ -90.969537568738801, 32.343860847425965 ], [ -90.969816536075868, 32.343806277890884 ], [ -90.970042602501877, 32.343890067819586 ], [ -90.970175734414894, 32.344066356793405 ], [ -90.970191971936728, 32.344308878045581 ], [ -90.970053625862533, 32.345339759030281 ], [ -90.97004935211028, 32.346127849433955 ], [ -90.969960332642216, 32.346425977218047 ], [ -90.970003522479445, 32.346915621868447 ], [ -90.969763811075666, 32.349829382510364 ], [ -90.969643508314448, 32.350156142725773 ], [ -90.969312158580607, 32.350282701132279 ], [ -90.969014114854858, 32.350172238026119 ], [ -90.968895383920739, 32.349915233234078 ], [ -90.969162087983165, 32.346839446777828 ], [ -90.969118995516098, 32.346349332470574 ], [ -90.969212905235693, 32.346006696052818 ], [ -90.96921764286499, 32.345217174045949 ], [ -90.969351806398279, 32.344087433375229 ], [ -90.969537568738801, 32.343860847425965 ] ] ] ] } }
]
}
