{
"type": "FeatureCollection",
"name": "LM_02_GCG_20230905_CS_3540_3512_depth_polygons",
"crs": { "type": "name", "properties": { "name": "urn:ogc:def:crs:OGC:1.3:CRS84" } },
"features": [
{ "type": "Feature", "properties": { "depth_bin": "10-11 ft", "survey_id": "LM_02_GCG_20230905_CS_3540_3512", "date": "2023-09-05 00:00:00+00:00", "year": 2023, "mile": 353.0, "bin_order": 7 }, "geometry": { "type": "MultiPolygon", "coordinates": [ [ [ [ -91.52022939542988, 31.45251735484079 ], [ -91.52091563010211, 31.452496364034463 ], [ -91.521129564409151, 31.452597591215483 ], [ -91.521247351354077, 31.452818740420149 ], [ -91.521174745007912, 31.453053747949678 ], [ -91.520863571453063, 31.453208788334177 ], [ -91.520299238923599, 31.453222582962901 ], [ -91.520107601754816, 31.453161292168122 ], [ -91.519932256578315, 31.452929629322693 ], [ -91.519999356537369, 31.452659530219858 ], [ -91.52022939542988, 31.45251735484079 ] ] ], [ [ [ -91.522017900818994, 31.455437587806124 ], [ -91.522225604022594, 31.455226493824643 ], [ -91.522546597709393, 31.45520312723102 ], [ -91.522792849732127, 31.455381175793164 ], [ -91.522820109210429, 31.455656341758857 ], [ -91.5226124063105, 31.455867436703091 ], [ -91.522291410359429, 31.455890803389696 ], [ -91.522045158033009, 31.455712753864809 ], [ -91.522017900818994, 31.455437587806124 ] ] ], [ [ [ -91.520574830905758, 31.455475466765257 ], [ -91.520820112031544, 31.455249668697991 ], [ -91.521385313855887, 31.455235944704672 ], [ -91.521650736500106, 31.455392447324513 ], [ -91.521709324427349, 31.45566399827845 ], [ -91.521453468908945, 31.455924026679998 ], [ -91.520888262943586, 31.455937750844974 ], [ -91.520622840134223, 31.455781246648815 ], [ -91.520574830905758, 31.455475466765257 ] ] ], [ [ [ -91.520275338573086, 31.458391224895561 ], [ -91.520574609767152, 31.458288992985153 ], [ -91.520870557947589, 31.458398101895828 ], [ -91.520989821752181, 31.458654637637132 ], [ -91.520862536849492, 31.458908325483893 ], [ -91.520563263941099, 31.459010558006479 ], [ -91.52025779473999, 31.4588921974477 ], [ -91.519921702055996, 31.459030083481935 ], [ -91.519625753111313, 31.458920972360527 ], [ -91.519506492773516, 31.458664435463607 ], [ -91.519633780918753, 31.458410749058977 ], [ -91.519933052809805, 31.458308518672261 ], [ -91.520275338573086, 31.458391224895561 ] ] ], [ [ [ -91.519124390795241, 31.464291780812573 ], [ -91.519355258876487, 31.464099161529965 ], [ -91.51967740866192, 31.464102886596201 ], [ -91.519902130789205, 31.464300773986469 ], [ -91.51989778598201, 31.464576904632089 ], [ -91.519666917756538, 31.464769524877415 ], [ -91.519344765690121, 31.46476579971435 ], [ -91.519120043707048, 31.464567911361367 ], [ -91.519124390795241, 31.464291780812573 ] ] ], [ [ [ -91.51847060755604, 31.470333845335244 ], [ -91.518701492284478, 31.470141227909451 ], [ -91.519023662665091, 31.470144955258917 ], [ -91.519248397271696, 31.470342844021385 ], [ -91.519244049517653, 31.47061897432452 ], [ -91.519013164644903, 31.470811592713257 ], [ -91.518690991982595, 31.470807865266909 ], [ -91.518466257520302, 31.47060997554151 ], [ -91.51847060755604, 31.470333845335244 ] ] ] ] } },
{ "type": "Feature", "properties": { "depth_bin": "11-12 ft", "survey_id": "LM_02_GCG_20230905_CS_3540_3512", "date": "2023-09-05 00:00:00+00:00", "year": 2023, "mile": 353.0, "bin_order": 6 }, "geometry": { "type": "MultiPolygon", "coordinates": [ [ [ [ -91.517145025721248, 31.434001746453401 ], [ -91.517352690187295, 31.433790658562991 ], [ -91.517673611241349, 31.433767301876948 ], [ -91.517919799281827, 31.433945358359754 ], [ -91.517947040907643, 31.434220525618883 ], [ -91.517739376744444, 31.434431614471308 ], [ -91.517418453428434, 31.434454971249878 ], [ -91.517172265085136, 31.43427691380505 ], [ -91.517145025721248, 31.434001746453401 ] ] ], [ [ [ -91.521706978787932, 31.452692222136896 ], [ -91.521914676347322, 31.452481128406166 ], [ -91.522235660682981, 31.452457762294721 ], [ -91.522481905125204, 31.452635811288054 ], [ -91.522509163234119, 31.452910977381325 ], [ -91.52230146597833, 31.453122072074727 ], [ -91.521980479378712, 31.453145438279108 ], [ -91.521734234632873, 31.452967388323117 ], [ -91.521706978787932, 31.452692222136896 ] ] ], [ [ [ -91.521132681167558, 31.455340332290763 ], [ -91.521504404894742, 31.455210926314745 ], [ -91.521759119515167, 31.455317819386917 ], [ -91.521878382226788, 31.455574354373894 ], [ -91.521751104201329, 31.455828043425576 ], [ -91.521451842111873, 31.455930278406601 ], [ -91.521141399992445, 31.455807079131105 ], [ -91.52081089884993, 31.455938697752181 ], [ -91.520514958361602, 31.455829588905033 ], [ -91.520395699127306, 31.455573052763008 ], [ -91.520522980377038, 31.455319365151695 ], [ -91.520780961680188, 31.455218393052604 ], [ -91.521132681167558, 31.455340332290763 ] ] ], [ [ [ -91.520007640282785, 31.458547703176354 ], [ -91.520215355021463, 31.45833661290834 ], [ -91.520536359640388, 31.458313251710624 ], [ -91.520782615588715, 31.458491304190318 ], [ -91.520809869686389, 31.458766470300507 ], [ -91.520602155251268, 31.458977561531409 ], [ -91.520281148367687, 31.459000922822 ], [ -91.520034892115802, 31.4588228693794 ], [ -91.520007640282785, 31.458547703176354 ] ] ], [ [ [ -91.518746877210532, 31.461139953381291 ], [ -91.519349623512383, 31.461141723787623 ], [ -91.519536424647583, 31.461276787406906 ], [ -91.519604204384038, 31.461478047404189 ], [ -91.519530116134348, 31.461677667088939 ], [ -91.519259850661513, 31.461827979758528 ], [ -91.518816713228333, 31.461845181247288 ], [ -91.518625059789358, 31.461783887797921 ], [ -91.518449703173019, 31.461552222838129 ], [ -91.51851681455264, 31.46128212518725 ], [ -91.518746877210532, 31.461139953381291 ] ] ], [ [ [ -91.518310436049276, 31.470320731425883 ], [ -91.518541321060312, 31.470128114297836 ], [ -91.518863491372656, 31.470131842048904 ], [ -91.519088225600086, 31.470329731081581 ], [ -91.519083877378094, 31.470605861365271 ], [ -91.518852992222719, 31.47079847945626 ], [ -91.518530819628694, 31.470794751608299 ], [ -91.518306085545589, 31.47059686161267 ], [ -91.518310436049276, 31.470320731425883 ] ] ] ] } },
{ "type": "Feature", "properties": { "depth_bin": "12-13 ft", "survey_id": "LM_02_GCG_20230905_CS_3540_3512", "date": "2023-09-05 00:00:00+00:00", "year": 2023, "mile": 353.0, "bin_order": 5 }, "geometry": { "type": "MultiPolygon", "coordinates": [ [ [ [ -91.521305337777164, 31.44958948274969 ], [ -91.521487893759584, 31.449361953867111 ], [ -91.521804650399574, 31.449311729987979 ], [ -91.522070057481358, 31.449468231382369 ], [ -91.52212864365876, 31.449739782310687 ], [ -91.521946088415632, 31.449967312119206 ], [ -91.52162932961474, 31.450017536277219 ], [ -91.521363921793636, 31.4498610339569 ], [ -91.521305337777164, 31.44958948274969 ] ] ], [ [ [ -91.520198064873384, 31.449638627479047 ], [ -91.5204057586853, 31.449427535994737 ], [ -91.52072673278721, 31.449404173344199 ], [ -91.520972966504019, 31.449582224985654 ], [ -91.52100021967847, 31.449857391362958 ], [ -91.52079252616997, 31.450068483809826 ], [ -91.520471549804412, 31.450091846553178 ], [ -91.520225315784188, 31.449913793949172 ], [ -91.520198064873384, 31.449638627479047 ] ] ], [ [ [ -91.520098412102399, 31.455259411064922 ], [ -91.520822889623048, 31.455261765454296 ], [ -91.521009681643932, 31.455396826747343 ], [ -91.521074878462855, 31.455633425598844 ], [ -91.52097833004477, 31.455825860888751 ], [ -91.520692197771353, 31.455952746678562 ], [ -91.520128055777079, 31.455972778830379 ], [ -91.519903570502393, 31.455890013148881 ], [ -91.5197555542304, 31.455644732140883 ], [ -91.519853217392239, 31.455381572086914 ], [ -91.520098412102399, 31.455259411064922 ] ] ], [ [ [ -91.518302079473855, 31.461389127203891 ], [ -91.518509804467627, 31.461178040107498 ], [ -91.518830819056788, 31.461154683510703 ], [ -91.519077078850273, 31.46133273932556 ], [ -91.519104328415509, 31.461607905551507 ], [ -91.518896603725153, 31.461818993610922 ], [ -91.518575586871009, 31.461842350300486 ], [ -91.518329326774094, 31.46166429352262 ], [ -91.518302079473855, 31.461389127203891 ] ] ], [ [ [ -91.518276459413684, 31.467316551222467 ], [ -91.518484198118415, 31.467105464764799 ], [ -91.518805233007342, 31.467082108881094 ], [ -91.519051507798565, 31.467260165065706 ], [ -91.519078758274105, 31.467535331101594 ], [ -91.518871019872918, 31.467746418522513 ], [ -91.518549982718326, 31.467769774499018 ], [ -91.518303707623559, 31.467591717351176 ], [ -91.518276459413684, 31.467316551222467 ] ] ] ] } },
{ "type": "Feature", "properties": { "depth_bin": "13-14 ft", "survey_id": "LM_02_GCG_20230905_CS_3540_3512", "date": "2023-09-05 00:00:00+00:00", "year": 2023, "mile": 353.0, "bin_order": 4 }, "geometry": { "type": "MultiPolygon", "coordinates": [ [ [ [ -91.521522532638144, 31.449312851838208 ], [ -91.521887054570399, 31.449447250623713 ], [ -91.521959221514862, 31.449781752306144 ], [ -91.521713957838728, 31.450007553268801 ], [ -91.521270603102622, 31.450030587200182 ], [ -91.521024367660971, 31.449852536089363 ], [ -91.520997114416474, 31.449577369714866 ], [ -91.52116909650104, 31.449384069935668 ], [ -91.521522532638144, 31.449312851838208 ] ] ], [ [ [ -91.520212540469529, 31.458309417313796 ], [ -91.520577094690395, 31.458443820669189 ], [ -91.520649262498281, 31.458778322704909 ], [ -91.520403971417792, 31.459004120026488 ], [ -91.519961282753783, 31.45902219479639 ], [ -91.519715027079371, 31.458844140756096 ], [ -91.519687776181428, 31.458568974514666 ], [ -91.519895491664983, 31.458357884790061 ], [ -91.520212540469529, 31.458309417313796 ] ] ], [ [ [ -91.518964608138475, 31.464290841667843 ], [ -91.519195476532445, 31.464098222683486 ], [ -91.519517626291346, 31.464101948151566 ], [ -91.519742348068419, 31.464299835811868 ], [ -91.519738002792451, 31.464575966437589 ], [ -91.519507134254255, 31.464768586384668 ], [ -91.519184982214341, 31.464764860819741 ], [ -91.518960260581494, 31.46456697219671 ], [ -91.518964608138475, 31.464290841667843 ] ] ], [ [ [ -91.522297596756275, 31.467176769160943 ], [ -91.522528465911051, 31.466984144256848 ], [ -91.522850626037354, 31.466987861644846 ], [ -91.52307536171557, 31.467185743797778 ], [ -91.523071025731625, 31.467461874715017 ], [ -91.522840156432935, 31.467654500581954 ], [ -91.522517994025293, 31.46765078309733 ], [ -91.52229325849099, 31.46745289998157 ], [ -91.522297596756275, 31.467176769160943 ] ] ], [ [ [ -91.518565118915276, 31.458579562317102 ], [ -91.518772836865679, 31.458368474493358 ], [ -91.519093841799219, 31.458345116927475 ], [ -91.519340094980763, 31.458523172099159 ], [ -91.519367344850892, 31.45879833838454 ], [ -91.519159627203891, 31.459009427171175 ], [ -91.518838620005667, 31.459032784829841 ], [ -91.518592366520721, 31.458854728695254 ], [ -91.518565118915276, 31.458579562317102 ] ] ], [ [ [ -91.518155546040362, 31.461351779246268 ], [ -91.518386408560815, 31.461159161463147 ], [ -91.518708548139358, 31.461162888655743 ], [ -91.518933261392533, 31.461360777553686 ], [ -91.518928914242267, 31.46163690820509 ], [ -91.51869805157753, 31.461829526950822 ], [ -91.518375909718316, 31.461825799661334 ], [ -91.518151196609423, 31.461627909800775 ], [ -91.518155546040362, 31.461351779246268 ] ] ], [ [ [ -91.518399869087531, 31.467077225500109 ], [ -91.519085579272229, 31.4670468215499 ], [ -91.519299543917015, 31.467148052532099 ], [ -91.519417343266937, 31.46736920336604 ], [ -91.519344719624925, 31.467604208850805 ], [ -91.519033494086798, 31.467759242859334 ], [ -91.518777781698944, 31.467706775651369 ], [ -91.518510935549187, 31.467784667674231 ], [ -91.518278039895876, 31.467721158696406 ], [ -91.51810267370081, 31.467489493151966 ], [ -91.518169791026978, 31.467219396087767 ], [ -91.518399869087531, 31.467077225500109 ] ] ], [ [ [ -91.518101084897566, 31.470149220832049 ], [ -91.518703914920479, 31.470145551432257 ], [ -91.518890732429185, 31.470280616336158 ], [ -91.518958516445892, 31.470481876559969 ], [ -91.518884418940146, 31.470681495336834 ], [ -91.518614126005858, 31.470831805603794 ], [ -91.518170919894516, 31.470854448147701 ], [ -91.517979248802519, 31.470793153258033 ], [ -91.517803877950939, 31.470561487256766 ], [ -91.517870998694505, 31.470291390569329 ], [ -91.518101084897566, 31.470149220832049 ] ] ] ] } },
{ "type": "Feature", "properties": { "depth_bin": "14-15 ft", "survey_id": "LM_02_GCG_20230905_CS_3540_3512", "date": "2023-09-05 00:00:00+00:00", "year": 2023, "mile": 353.0, "bin_order": 3 }, "geometry": { "type": "MultiPolygon", "coordinates": [ [ [ [ -91.520708968887305, 31.44629516836925 ], [ -91.521087088899705, 31.446398291706835 ], [ -91.521197147575677, 31.446725119220087 ], [ -91.520978887345024, 31.44697044095934 ], [ -91.520540812549271, 31.447029395473539 ], [ -91.520275414851866, 31.446872891143695 ], [ -91.520216835493912, 31.446601339470995 ], [ -91.520365885326356, 31.446394519802983 ], [ -91.520708968887305, 31.44629516836925 ] ] ], [ [ [ -91.520955212617736, 31.449424728537501 ], [ -91.521325526650983, 31.449338633082277 ], [ -91.52159093296801, 31.449495135446895 ], [ -91.521656127797456, 31.449731734131912 ], [ -91.521500465038656, 31.449973507529812 ], [ -91.521314408379823, 31.450046334665011 ], [ -91.521042129409267, 31.450010637590196 ], [ -91.520836018674913, 31.450098628808437 ], [ -91.520434413231129, 31.450115214935167 ], [ -91.520111168432578, 31.449979551419865 ], [ -91.520021822304059, 31.449714229753827 ], [ -91.520177488329239, 31.44947245824871 ], [ -91.520363544644823, 31.449399632751469 ], [ -91.520955212617736, 31.449424728537501 ] ] ], [ [ [ -91.522412185468582, 31.458494886690691 ], [ -91.522619894853989, 31.458283792348631 ], [ -91.522940898949045, 31.458260425097073 ], [ -91.523187159509718, 31.458438473089281 ], [ -91.52321442065427, 31.458713638907021 ], [ -91.523006711572634, 31.458924734211948 ], [ -91.522685705212979, 31.45894810155654 ], [ -91.522439444348521, 31.458770052601455 ], [ -91.522412185468582, 31.458494886690691 ] ] ], [ [ [ -91.519210698632634, 31.449504501506439 ], [ -91.519516872692293, 31.44966667550084 ], [ -91.519550438445307, 31.450005630896438 ], [ -91.519280533184556, 31.450209730198928 ], [ -91.518837528291229, 31.450204392915563 ], [ -91.518612840902847, 31.450006504349481 ], [ -91.518617187001013, 31.449730373235766 ], [ -91.518848019088608, 31.449537753367338 ], [ -91.519210698632634, 31.449504501506439 ] ] ], [ [ [ -91.519935009437205, 31.455498851247935 ], [ -91.520142717313078, 31.455287760796821 ], [ -91.520463711506636, 31.455264399448474 ], [ -91.520709959573807, 31.455442451898278 ], [ -91.520737212951175, 31.455717618116715 ], [ -91.520529505378775, 31.4559287095306 ], [ -91.520208508920902, 31.455952070971794 ], [ -91.519962260550244, 31.455774017559214 ], [ -91.519935009437205, 31.455498851247935 ] ] ], [ [ [ -91.518449822769114, 31.467274154185407 ], [ -91.518680699760779, 31.467081536476325 ], [ -91.519002859659906, 31.467085263554708 ], [ -91.519227587179998, 31.467283152217064 ], [ -91.519223239885591, 31.467559282649667 ], [ -91.518992362749628, 31.467751901321584 ], [ -91.518670200569147, 31.467748174146337 ], [ -91.518445473193353, 31.467550284521128 ], [ -91.518449822769114, 31.467274154185407 ] ] ], [ [ [ -91.517989552935475, 31.470338159445291 ], [ -91.518220438623771, 31.470145542918345 ], [ -91.518542608948962, 31.470149271478597 ], [ -91.51876734251735, 31.470347161054541 ], [ -91.518762993350421, 31.47062329129735 ], [ -91.518532107517771, 31.470815908787241 ], [ -91.518209934910885, 31.470812180130078 ], [ -91.517985201486852, 31.47061428959119 ], [ -91.517989552935475, 31.470338159445291 ] ] ] ] } },
{ "type": "Feature", "properties": { "depth_bin": "15-17.5 ft", "survey_id": "LM_02_GCG_20230905_CS_3540_3512", "date": "2023-09-05 00:00:00+00:00", "year": 2023, "mile": 353.0, "bin_order": 2 }, "geometry": { "type": "MultiPolygon", "coordinates": [ [ [ [ -91.521421667460075, 31.446189354196662 ], [ -91.521654512787791, 31.446252856075407 ], [ -91.521820355187685, 31.44645005618295 ], [ -91.521802629495639, 31.446692691323058 ], [ -91.521645090433211, 31.446852816891266 ], [ -91.521021688714825, 31.446989102023256 ], [ -91.520758778155198, 31.446957332767639 ], [ -91.520463402517706, 31.447056648258055 ], [ -91.520116013581429, 31.446892262786672 ], [ -91.520057434676829, 31.446620711055722 ], [ -91.520239987539256, 31.446393183765302 ], [ -91.52043346796836, 31.446336342680805 ], [ -91.520655443723385, 31.446372835777744 ], [ -91.521421667460075, 31.446189354196662 ] ] ], [ [ [ -91.521084427233902, 31.449348419372136 ], [ -91.521350120875752, 31.449433396153047 ], [ -91.521492622511644, 31.449643583043269 ], [ -91.521447238755172, 31.449883560005325 ], [ -91.521234571773718, 31.450044382322758 ], [ -91.520872548699572, 31.45008409282768 ], [ -91.520617921938182, 31.449977256540858 ], [ -91.520396700638386, 31.450109530314322 ], [ -91.519755196014913, 31.450169052036799 ], [ -91.519563565370177, 31.450107760603363 ], [ -91.519411110789449, 31.449944054366576 ], [ -91.519415454535533, 31.449667923150351 ], [ -91.519646284891223, 31.449475301785423 ], [ -91.520285635182773, 31.449402088094569 ], [ -91.520581482621481, 31.449511138779322 ], [ -91.520763629369625, 31.449390343265406 ], [ -91.521084427233902, 31.449348419372136 ] ] ], [ [ [ -91.520274071385046, 31.452520289187952 ], [ -91.520488005009938, 31.452621517420948 ], [ -91.520590785411599, 31.452773114399132 ], [ -91.520598067950459, 31.452948345303096 ], [ -91.520479983652294, 31.453131741381295 ], [ -91.520262943823369, 31.453227990082272 ], [ -91.5198598681866, 31.453243434607614 ], [ -91.519563937240434, 31.453134323814801 ], [ -91.519444683743174, 31.452877786868839 ], [ -91.519571963564218, 31.452624100066163 ], [ -91.519789002631398, 31.45252785250652 ], [ -91.520274071385046, 31.452520289187952 ] ] ], [ [ [ -91.518346785906076, 31.452563828448813 ], [ -91.519142777157924, 31.45261849620077 ], [ -91.519308624812993, 31.452815699556911 ], [ -91.519290890766754, 31.453058333877781 ], [ -91.519060050610321, 31.453250954202264 ], [ -91.518376416295609, 31.453277196471745 ], [ -91.518112484863096, 31.453161330032344 ], [ -91.517937960764357, 31.453273542679749 ], [ -91.517735247813533, 31.453296926815373 ], [ -91.51754361232787, 31.453235632230477 ], [ -91.517391156525122, 31.453071923617458 ], [ -91.517395506728818, 31.452795792788869 ], [ -91.517626349010115, 31.452603175523613 ], [ -91.517869832603552, 31.452585459414987 ], [ -91.518092989936335, 31.452695658484725 ], [ -91.518346785906076, 31.452563828448813 ] ] ], [ [ [ -91.520103124167306, 31.45526614008989 ], [ -91.520317063715538, 31.455367368754487 ], [ -91.520419846649105, 31.455518965891503 ], [ -91.520427128865919, 31.455694196729215 ], [ -91.520309040568733, 31.455877592456453 ], [ -91.520132194129246, 31.455965700805887 ], [ -91.519849867808489, 31.45598309221965 ], [ -91.519567646032868, 31.4559618027696 ], [ -91.519393635303956, 31.45586963893339 ], [ -91.519274379125406, 31.45561310184161 ], [ -91.519401663410648, 31.455359415442175 ], [ -91.519618709068368, 31.455263168412209 ], [ -91.520103124167306, 31.45526614008989 ] ] ], [ [ [ -91.518822595540314, 31.464265031262745 ], [ -91.519074378893961, 31.464092736529654 ], [ -91.519394551371875, 31.464123509894549 ], [ -91.519595561840816, 31.464339324937605 ], [ -91.519559660679576, 31.46461376078787 ], [ -91.519307876739461, 31.464786056446293 ], [ -91.518987702052485, 31.464755282798592 ], [ -91.518786692170025, 31.4645394668302 ], [ -91.518822595540314, 31.464265031262745 ] ] ], [ [ [ -91.517478580617635, 31.433851577399437 ], [ -91.517730282601349, 31.433679282066457 ], [ -91.518050351452445, 31.433710055706396 ], [ -91.518251296738413, 31.433925871738204 ], [ -91.518215407021856, 31.434200308710906 ], [ -91.517963704452342, 31.434372604968054 ], [ -91.517643633395593, 31.434341831045479 ], [ -91.517442688695411, 31.434126014089497 ], [ -91.517478580617635, 31.433851577399437 ] ] ], [ [ [ -91.507794476853761, 31.434983965108898 ], [ -91.50828982367068, 31.434686847878556 ], [ -91.508532611495554, 31.43471020921011 ], [ -91.50871934558397, 31.434845287029383 ], [ -91.508787085305784, 31.435046552241122 ], [ -91.508659802649703, 31.435300228831572 ], [ -91.508345135871224, 31.435519332632506 ], [ -91.508110400324284, 31.435577412942472 ], [ -91.507814538825556, 31.43546827686253 ], [ -91.507695338156267, 31.435211729987785 ], [ -91.507794476853761, 31.434983965108898 ] ] ], [ [ [ -91.518890458423442, 31.449524069433387 ], [ -91.519082087414532, 31.449585361829179 ], [ -91.519234540851485, 31.449749068430826 ], [ -91.519261820830849, 31.449922843892676 ], [ -91.519165275115199, 31.450115278048074 ], [ -91.51896029057616, 31.450229298224404 ], [ -91.518559775933255, 31.450274089260478 ], [ -91.518252805190741, 31.450190366706579 ], [ -91.51810480164184, 31.449945083990862 ], [ -91.51820246277795, 31.449681924929234 ], [ -91.518407446963565, 31.449567905948268 ], [ -91.518890458423442, 31.449524069433387 ] ] ], [ [ [ -91.518436481589305, 31.458514319299706 ], [ -91.518688249778876, 31.458342024720626 ], [ -91.519008402593357, 31.458372798466794 ], [ -91.519209400417608, 31.458588613895039 ], [ -91.519173501037599, 31.458863049908594 ], [ -91.51892173226166, 31.459035345412776 ], [ -91.518601577238783, 31.459004571383826 ], [ -91.518400580000886, 31.458788755030469 ], [ -91.518436481589305, 31.458514319299706 ] ] ], [ [ [ -91.518509197979213, 31.46113652218386 ], [ -91.51871054284959, 31.46125524205646 ], [ -91.518801008366324, 31.461449838748425 ], [ -91.518768265628509, 31.461622919698623 ], [ -91.518610695483005, 31.461783040235687 ], [ -91.51785441635532, 31.461849908050503 ], [ -91.517548206562864, 31.461687729236235 ], [ -91.517489627711214, 31.461416176881393 ], [ -91.517672216852318, 31.461188654845426 ], [ -91.518509197979213, 31.46113652218386 ] ] ], [ [ [ -91.517987971334605, 31.467243770761403 ], [ -91.51823976435432, 31.467071478042577 ], [ -91.518559946571827, 31.467102253787495 ], [ -91.518760961148772, 31.467318070182202 ], [ -91.51872505605742, 31.467592505564024 ], [ -91.518473262451081, 31.467764799208275 ], [ -91.518153078024213, 31.467734023180466 ], [ -91.517952064033906, 31.46751820586033 ], [ -91.517987971334605, 31.467243770761403 ] ] ], [ [ [ -91.518183624297251, 31.47014120547869 ], [ -91.51844706318434, 31.470351473505577 ], [ -91.518402831563151, 31.470689527886435 ], [ -91.518132537878259, 31.470839837111534 ], [ -91.517657584871486, 31.470784474483345 ], [ -91.51748221484641, 31.47055280806612 ], [ -91.517549336499684, 31.470282711575514 ], [ -91.517779423142912, 31.470140542430741 ], [ -91.518183624297251, 31.47014120547869 ] ] ] ] } },
{ "type": "Feature", "properties": { "depth_bin": "17.5-20 ft", "survey_id": "LM_02_GCG_20230905_CS_3540_3512", "date": "2023-09-05 00:00:00+00:00", "year": 2023, "mile": 353.0, "bin_order": 1 }, "geometry": { "type": "MultiPolygon", "coordinates": [ [ [ [ -91.520784228160991, 31.443096996479085 ], [ -91.521017065447168, 31.443160499296049 ], [ -91.521169512411234, 31.443324203534189 ], [ -91.521190184954762, 31.443532931242085 ], [ -91.521072114376253, 31.443716328529373 ], [ -91.520188379181349, 31.443935503091772 ], [ -91.519851201907784, 31.443827654407297 ], [ -91.519731958338468, 31.443571117709958 ], [ -91.519859223750359, 31.443317429850385 ], [ -91.520784228160991, 31.443096996479085 ] ] ], [ [ [ -91.520358896995944, 31.44636109941149 ], [ -91.52066506315164, 31.446523270481318 ], [ -91.520698632409861, 31.446862225830369 ], [ -91.52046781076379, 31.447054849434231 ], [ -91.519987157546723, 31.447073626701776 ], [ -91.519762474852826, 31.446875740216559 ], [ -91.519766817046531, 31.44659960882403 ], [ -91.519960067693575, 31.446421692895523 ], [ -91.520358896995944, 31.44636109941149 ] ] ], [ [ [ -91.519728762961009, 31.449465202932135 ], [ -91.520032076239374, 31.449684532565477 ], [ -91.520059357685142, 31.449858307904208 ], [ -91.519962813646941, 31.450050742715565 ], [ -91.519757830164295, 31.450164764204249 ], [ -91.519357433565858, 31.450203591773931 ], [ -91.519050462260154, 31.450119871116712 ], [ -91.518902456696111, 31.449874589259352 ], [ -91.519000115545609, 31.449611429514931 ], [ -91.519245295941104, 31.449489269588017 ], [ -91.519728762961009, 31.449465202932135 ] ] ], [ [ [ -91.519374739513836, 31.452663017450735 ], [ -91.51975180325087, 31.452527605128715 ], [ -91.520033832121371, 31.452661055762366 ], [ -91.520123180731645, 31.452926377389748 ], [ -91.519967508480633, 31.453168148521087 ], [ -91.519658005250861, 31.453244742302804 ], [ -91.519394712281411, 31.453129500507607 ], [ -91.519220358274566, 31.453241525496466 ], [ -91.519017645626008, 31.453264911674786 ], [ -91.518793167771179, 31.453182144243158 ], [ -91.518667170783218, 31.453023949371289 ], [ -91.518380380723201, 31.453269102567166 ], [ -91.517575056023816, 31.453297692982325 ], [ -91.517320351881381, 31.453190791870277 ], [ -91.517208082207915, 31.453004731790969 ], [ -91.517275189989931, 31.452734634363559 ], [ -91.517545431718347, 31.452584324964686 ], [ -91.518351323790583, 31.452569541598582 ], [ -91.518535027579418, 31.452646642075184 ], [ -91.518661023861199, 31.452804837063535 ], [ -91.518947811750223, 31.452559683155165 ], [ -91.519192148592069, 31.452562508732175 ], [ -91.519374739513836, 31.452663017450735 ] ] ], [ [ [ -91.519581537131927, 31.455257506216544 ], [ -91.519836249529959, 31.455364403049952 ], [ -91.51995403657412, 31.455585553365214 ], [ -91.519881424601209, 31.455820559896608 ], [ -91.519651376921487, 31.4559627343126 ], [ -91.517725421640677, 31.456042549291617 ], [ -91.517500938493967, 31.455959779458347 ], [ -91.517367931507138, 31.455784048925032 ], [ -91.517403834578715, 31.455509613417245 ], [ -91.517655596299491, 31.455337320599842 ], [ -91.519581537131927, 31.455257506216544 ] ] ], [ [ [ -91.522359007917004, 31.470200886466071 ], [ -91.522629293341254, 31.47005056803448 ], [ -91.522944427491254, 31.470108084513033 ], [ -91.523119810507524, 31.470339743852321 ], [ -91.523052704686336, 31.47060984375619 ], [ -91.522782418255929, 31.47076016304046 ], [ -91.522467282052986, 31.470702646104129 ], [ -91.522291900042859, 31.470470985912165 ], [ -91.522359007917004, 31.470200886466071 ] ] ], [ [ [ -91.518017206485808, 31.449719394653702 ], [ -91.518287438231368, 31.449569083314284 ], [ -91.518602501190031, 31.449626608449556 ], [ -91.518777837203629, 31.449858272939071 ], [ -91.518710736102378, 31.45012837146917 ], [ -91.518440503351286, 31.450278683660422 ], [ -91.518125438341968, 31.450221158067443 ], [ -91.517950103333916, 31.449989492726072 ], [ -91.518017206485808, 31.449719394653702 ] ] ], [ [ [ -91.517955139126371, 31.458496067033334 ], [ -91.518247109263768, 31.458315634237461 ], [ -91.518772095183536, 31.458336606201552 ], [ -91.519018347708311, 31.458514661972796 ], [ -91.519045596632907, 31.45878982829775 ], [ -91.518761224667628, 31.45902710030856 ], [ -91.518196033449968, 31.459014267357919 ], [ -91.517932625832458, 31.458803999457302 ], [ -91.517955139126371, 31.458496067033334 ] ] ], [ [ [ -91.519118108798793, 31.464093894789478 ], [ -91.519421466324061, 31.46431322680413 ], [ -91.519398955623373, 31.464621159321094 ], [ -91.519106967498672, 31.464801594033514 ], [ -91.518667780949102, 31.464768717954374 ], [ -91.518466771794635, 31.464552901505904 ], [ -91.518502676101519, 31.46427846605787 ], [ -91.518715380771653, 31.464117649767942 ], [ -91.519118108798793, 31.464093894789478 ] ] ], [ [ [ -91.517827314643128, 31.467242673326027 ], [ -91.518079107940849, 31.467070380932274 ], [ -91.518399290085071, 31.467101157077344 ], [ -91.518600304280383, 31.46731697371289 ], [ -91.518564398722603, 31.467591409035165 ], [ -91.518312604838243, 31.467763702354333 ], [ -91.51799242048466, 31.467732925926363 ], [ -91.517791406876, 31.46751710836541 ], [ -91.517827314643128, 31.467242673326027 ] ] ], [ [ [ -91.513398974158335, 31.427813820500905 ], [ -91.513669148507404, 31.427663516680866 ], [ -91.513984135423158, 31.427721050997878 ], [ -91.514159421290614, 31.427952720952941 ], [ -91.514092325315346, 31.428222818030111 ], [ -91.513822149961385, 31.428373122701128 ], [ -91.513507160997406, 31.428315587926445 ], [ -91.51333187613487, 31.428083917120411 ], [ -91.513398974158335, 31.427813820500905 ] ] ], [ [ [ -91.515190930206813, 31.43093366145283 ], [ -91.515586235198853, 31.430904896434075 ], [ -91.515833749360269, 31.431170747117353 ], [ -91.515741609919999, 31.431468998074337 ], [ -91.515360123263221, 31.43166231486336 ], [ -91.515045122282018, 31.431604783527405 ], [ -91.514869827767171, 31.431373114632358 ], [ -91.514936924157453, 31.431103017276786 ], [ -91.515190930206813, 31.43093366145283 ] ] ], [ [ [ -91.517035783517599, 31.434000067566341 ], [ -91.517287486683259, 31.433827773145044 ], [ -91.517607555845515, 31.43385854790213 ], [ -91.517808500389648, 31.434074364602143 ], [ -91.517772609312772, 31.434348801402692 ], [ -91.517520905561298, 31.434521096748167 ], [ -91.51720083419336, 31.434490321708427 ], [ -91.51699989023507, 31.434274504084232 ], [ -91.517035783517599, 31.434000067566341 ] ] ], [ [ [ -91.517394524072216, 31.461291271357105 ], [ -91.517664790781296, 31.461140962658344 ], [ -91.517979891752816, 31.461198490417214 ], [ -91.518155246562031, 31.461430155976597 ], [ -91.518088134028474, 31.461700253396362 ], [ -91.517817866313251, 31.461850562947372 ], [ -91.517502763289897, 31.461793034730551 ], [ -91.517327409486839, 31.461561368318936 ], [ -91.517394524072216, 31.461291271357105 ] ] ], [ [ [ -91.517388697448723, 31.470283345066552 ], [ -91.517658990619012, 31.470133037386994 ], [ -91.517974121486318, 31.470190566017202 ], [ -91.518149492113992, 31.470422231789712 ], [ -91.518082372055019, 31.470692328639785 ], [ -91.517812077878133, 31.470842637171899 ], [ -91.517496944958083, 31.470785108083614 ], [ -91.517321575337007, 31.470553441458549 ], [ -91.517388697448723, 31.470283345066552 ] ] ] ] } },
{ "type": "Feature", "properties": { "depth_bin": "5-6 ft", "survey_id": "LM_02_GCG_20230905_CS_3540_3512", "date": "2023-09-05 00:00:00+00:00", "year": 2023, "mile": 353.0, "bin_order": 12 }, "geometry": { "type": "MultiPolygon", "coordinates": [ [ [ [ -91.521696262070023, 31.455431749112172 ], [ -91.521903965959908, 31.455220655674292 ], [ -91.522224959672627, 31.455197289888957 ], [ -91.522471211045755, 31.455375339050619 ], [ -91.522498469579389, 31.455650505055878 ], [ -91.522290765993162, 31.455861599456505 ], [ -91.52196977001617, 31.455884965334775 ], [ -91.5217235183394, 31.455706915210381 ], [ -91.521696262070023, 31.455431749112172 ] ] ], [ [ [ -91.52086616949849, 31.46132309654968 ], [ -91.521150543537175, 31.461085819995638 ], [ -91.521794683790603, 31.461086961327528 ], [ -91.522076740899934, 31.461220408172952 ], [ -91.522166102444714, 31.461485728461778 ], [ -91.521976912358198, 31.461748209567109 ], [ -91.521582252978618, 31.461811259525508 ], [ -91.521100986277844, 31.461763937601468 ], [ -91.520871773328764, 31.461554810908563 ], [ -91.520759171608105, 31.461720427686743 ], [ -91.520582314347649, 31.461808536252768 ], [ -91.520257969039307, 31.461823364651245 ], [ -91.520061599964492, 31.461758990806153 ], [ -91.519777627682558, 31.461819788643158 ], [ -91.519522898184704, 31.461712891257235 ], [ -91.519410614613562, 31.461526832898169 ], [ -91.519477723233749, 31.46125673465631 ], [ -91.519747986697766, 31.46110642145203 ], [ -91.52006780366554, 31.461167026644116 ], [ -91.520553241061393, 31.461108976096821 ], [ -91.52086616949849, 31.46132309654968 ] ] ], [ [ [ -91.522136649267708, 31.467175459779867 ], [ -91.52236751873663, 31.466982835176157 ], [ -91.522689678835007, 31.466986552968908 ], [ -91.522914414159629, 31.467184435393904 ], [ -91.522910077703514, 31.467460566291155 ], [ -91.522679208090651, 31.467653191857703 ], [ -91.522357045710919, 31.467649473968301 ], [ -91.522132310530225, 31.467451590580481 ], [ -91.522136649267708, 31.467175459779867 ] ] ], [ [ [ -91.518951687906224, 31.470318807963501 ], [ -91.519182571647477, 31.470126189637707 ], [ -91.519504742046763, 31.470129915775193 ], [ -91.519729477666971, 31.470327803723634 ], [ -91.519725131327718, 31.470603934087563 ], [ -91.519494247442182, 31.470796553376314 ], [ -91.519172074761187, 31.470792827141974 ], [ -91.518947339285262, 31.470594938230583 ], [ -91.518951687906224, 31.470318807963501 ] ] ] ] } },
{ "type": "Feature", "properties": { "depth_bin": "6-7 ft", "survey_id": "LM_02_GCG_20230905_CS_3540_3512", "date": "2023-09-05 00:00:00+00:00", "year": 2023, "mile": 353.0, "bin_order": 11 }, "geometry": { "type": "MultiPolygon", "coordinates": [ [ [ [ -91.521545779926527, 31.452679121310254 ], [ -91.521753477806413, 31.452468027850912 ], [ -91.52207446212023, 31.452444662143439 ], [ -91.522320706211104, 31.452622711436664 ], [ -91.522347963844936, 31.452897877550082 ], [ -91.522140266268636, 31.45310897197206 ], [ -91.52181927969086, 31.453132337772473 ], [ -91.521573035296385, 31.452954287516601 ], [ -91.521545779926527, 31.452679121310254 ] ] ], [ [ [ -91.521374761588618, 31.458309690022123 ], [ -91.521938488198572, 31.458271676991679 ], [ -91.522152436550314, 31.458372902816041 ], [ -91.522264722144556, 31.458558958910157 ], [ -91.522237497422907, 31.458767133325921 ], [ -91.521967571813576, 31.458971237424908 ], [ -91.521364285086065, 31.458976329418775 ], [ -91.521139572023188, 31.458778444735096 ], [ -91.521143912200529, 31.458502313684122 ], [ -91.521374761588618, 31.458309690022123 ] ] ], [ [ [ -91.520509665644056, 31.461127635461416 ], [ -91.521272713089743, 31.461093082768571 ], [ -91.521459517011266, 31.461228143665053 ], [ -91.521524718394758, 31.461464742239261 ], [ -91.521428164394038, 31.461657177541962 ], [ -91.521223156703243, 31.461771200448105 ], [ -91.520822643469586, 31.461830073001732 ], [ -91.520355015441396, 31.461750097514059 ], [ -91.520206989393344, 31.46150481692278 ], [ -91.520304658083106, 31.461241656906935 ], [ -91.520509665644056, 31.461127635461416 ] ] ], [ [ [ -91.522476021730427, 31.46425115999557 ], [ -91.522683744233817, 31.464040066122578 ], [ -91.523004768026681, 31.464016699338668 ], [ -91.523251043326724, 31.464194747523187 ], [ -91.523278305618163, 31.464469913145354 ], [ -91.523070583418644, 31.464681007981422 ], [ -91.522749557360541, 31.464704374858389 ], [ -91.522503281756599, 31.4645263257108 ], [ -91.522476021730427, 31.46425115999557 ] ] ], [ [ [ -91.518900391613016, 31.458530690598046 ], [ -91.519131245496723, 31.458338071127319 ], [ -91.519453375526894, 31.458341796148261 ], [ -91.519678083913135, 31.458539683662604 ], [ -91.519673739428441, 31.458815814528858 ], [ -91.519442885400537, 31.45900843496208 ], [ -91.519120753090007, 31.459004709844301 ], [ -91.518896044847949, 31.45880682136746 ], [ -91.518900391613016, 31.458530690598046 ] ] ], [ [ [ -91.519263160005252, 31.46136208724166 ], [ -91.51947088284561, 31.461150998516015 ], [ -91.519791897205266, 31.46112763949867 ], [ -91.520038158827589, 31.461305693519556 ], [ -91.52006541120879, 31.461580859628988 ], [ -91.519857688671948, 31.461791949317639 ], [ -91.519536672047309, 31.461815308427806 ], [ -91.519290410121457, 31.461637253443936 ], [ -91.519263160005252, 31.46136208724166 ] ] ], [ [ [ -91.519766946045067, 31.46427692279444 ], [ -91.519997812821373, 31.464084302310521 ], [ -91.520319962649594, 31.464088025758805 ], [ -91.520544686142387, 31.464285912062213 ], [ -91.520540343223502, 31.464562042788778 ], [ -91.520309476303055, 31.464754664235414 ], [ -91.519987324193821, 31.464750940690351 ], [ -91.519762600845198, 31.464553053424211 ], [ -91.519766946045067, 31.46427692279444 ] ] ], [ [ [ -91.518930663131243, 31.467254005847931 ], [ -91.519161539123331, 31.467061387238832 ], [ -91.51948369902361, 31.467065113105402 ], [ -91.519708427544899, 31.467263000953995 ], [ -91.519704081665282, 31.467539131447584 ], [ -91.519473205528925, 31.467731751019517 ], [ -91.519151043347307, 31.467728025056111 ], [ -91.518926314970273, 31.467530136244665 ], [ -91.518930663131243, 31.467254005847931 ] ] ] ] } },
{ "type": "Feature", "properties": { "depth_bin": "7-8 ft", "survey_id": "LM_02_GCG_20230905_CS_3540_3512", "date": "2023-09-05 00:00:00+00:00", "year": 2023, "mile": 353.0, "bin_order": 10 }, "geometry": { "type": "MultiPolygon", "coordinates": [ [ [ [ -91.52138653743026, 31.452704238934846 ], [ -91.52159423571436, 31.452493145747429 ], [ -91.521915220136847, 31.452469780443181 ], [ -91.522161463977199, 31.45264783003471 ], [ -91.522188721148041, 31.452922996166791 ], [ -91.521981023167527, 31.453134090316848 ], [ -91.521660036481052, 31.453157455714042 ], [ -91.521413792337142, 31.452979405159837 ], [ -91.52138653743026, 31.452704238934846 ] ] ], [ [ [ -91.521550523780334, 31.455413584321196 ], [ -91.521781364520379, 31.455220959575453 ], [ -91.522103484267916, 31.455224677602114 ], [ -91.522328191255738, 31.455422560499926 ], [ -91.522323855076181, 31.455698691831635 ], [ -91.522093014192208, 31.455891317539756 ], [ -91.521770892164668, 31.455887599416435 ], [ -91.521546185320773, 31.455689715556222 ], [ -91.521550523780334, 31.455413584321196 ] ] ], [ [ [ -91.521013889872606, 31.458287253918602 ], [ -91.521857334985043, 31.458298808324777 ], [ -91.522064891678156, 31.458464481715634 ], [ -91.522102724996358, 31.45870541902223 ], [ -91.521953658251064, 31.458912239841489 ], [ -91.521726645527266, 31.458989790392703 ], [ -91.521043828813788, 31.459007558315264 ], [ -91.520720553057757, 31.45887189554638 ], [ -91.520631197805542, 31.458606574346909 ], [ -91.520786877974359, 31.458364802833319 ], [ -91.521013889872606, 31.458287253918602 ] ] ], [ [ [ -91.520545048546737, 31.461339543380952 ], [ -91.520752768545918, 31.461128452483681 ], [ -91.521073782645615, 31.461105090239315 ], [ -91.521320046741479, 31.461283141868062 ], [ -91.521347302880798, 31.461558307821505 ], [ -91.52113958318526, 31.461769399681771 ], [ -91.520818566820623, 31.461792762019055 ], [ -91.520572302421115, 31.46161470942732 ], [ -91.520545048546737, 31.461339543380952 ] ] ], [ [ [ -91.519330121381344, 31.458316866674341 ], [ -91.519933375015029, 31.458332346641885 ], [ -91.520140928259408, 31.458498023048605 ], [ -91.520168180475267, 31.45877318923699 ], [ -91.519960464628539, 31.458984279381358 ], [ -91.519359185572242, 31.459016427094351 ], [ -91.519073000598908, 31.458829305721128 ], [ -91.519028563282774, 31.458623319950217 ], [ -91.519125118740249, 31.45843088642491 ], [ -91.519330121381344, 31.458316866674341 ] ] ], [ [ [ -91.519605589265026, 31.464275806038817 ], [ -91.5198364563567, 31.464083185856065 ], [ -91.520158606157594, 31.464086909710119 ], [ -91.520383329296322, 31.464284796286247 ], [ -91.520378985904074, 31.464560926992693 ], [ -91.520148118668232, 31.464753548138173 ], [ -91.519825966586339, 31.464749824187308 ], [ -91.519601243591779, 31.464551936648459 ], [ -91.519605589265026, 31.464275806038817 ] ] ], [ [ [ -91.519091730177365, 31.467254685953851 ], [ -91.519322605853517, 31.467062067044058 ], [ -91.519644765779617, 31.467065792505476 ], [ -91.519869494653349, 31.467263680081825 ], [ -91.519865149246371, 31.467539810595508 ], [ -91.519634273425993, 31.467732430468136 ], [ -91.519312111218554, 31.467728704909877 ], [ -91.519087382489033, 31.467530816370697 ], [ -91.519091730177365, 31.467254685953851 ] ] ], [ [ [ -91.51879132877005, 31.470321364268244 ], [ -91.519022212834145, 31.470128746242189 ], [ -91.519344383218794, 31.470132472783412 ], [ -91.519569118495482, 31.470330361003093 ], [ -91.51956477168504, 31.470606491346857 ], [ -91.519333887476691, 31.470799110335864 ], [ -91.519011714810333, 31.47079538369778 ], [ -91.518786979677927, 31.470597494515168 ], [ -91.51879132877005, 31.470321364268244 ] ] ] ] } },
{ "type": "Feature", "properties": { "depth_bin": "8-9 ft", "survey_id": "LM_02_GCG_20230905_CS_3540_3512", "date": "2023-09-05 00:00:00+00:00", "year": 2023, "mile": 353.0, "bin_order": 9 }, "geometry": { "type": "MultiPolygon", "coordinates": [ [ [ [ -91.520900696197941, 31.452553563628598 ], [ -91.521234606271221, 31.452492746505257 ], [ -91.521475864869188, 31.452620527186543 ], [ -91.521567799648665, 31.452850508412364 ], [ -91.521468673180777, 31.453078283792095 ], [ -91.521182550035221, 31.453205171009994 ], [ -91.520913999161564, 31.453145889304349 ], [ -91.520620859178152, 31.453212372546734 ], [ -91.520396379917671, 31.453129607885661 ], [ -91.520248366376009, 31.452884327439975 ], [ -91.520346024983823, 31.452621166768711 ], [ -91.520591211748496, 31.452499004508976 ], [ -91.520900696197941, 31.452553563628598 ] ] ], [ [ [ -91.521376706949198, 31.455443619818976 ], [ -91.521584411561605, 31.455232526922963 ], [ -91.521905405360528, 31.455209161942634 ], [ -91.52215165613309, 31.455387211700867 ], [ -91.522178913731153, 31.455662377744847 ], [ -91.521971209422361, 31.455873471603603 ], [ -91.521650213359138, 31.455896836676882 ], [ -91.521403962282974, 31.455718785955884 ], [ -91.521376706949198, 31.455443619818976 ] ] ], [ [ [ -91.52081180397964, 31.458273597387556 ], [ -91.521189971706534, 31.458376721730691 ], [ -91.521300043001531, 31.458703549009442 ], [ -91.52108175392452, 31.458948869627079 ], [ -91.52064139271225, 31.458986045758323 ], [ -91.520375961947906, 31.458829540868503 ], [ -91.520317376309322, 31.458557989492409 ], [ -91.520499952940327, 31.458330462940545 ], [ -91.52081180397964, 31.458273597387556 ] ] ], [ [ [ -91.518724895244716, 31.458570497011078 ], [ -91.518932612826632, 31.458359408916049 ], [ -91.519253617706397, 31.458336050947281 ], [ -91.519499871180329, 31.458514105820495 ], [ -91.519527121517797, 31.458789272086666 ], [ -91.519319404239297, 31.459000361144604 ], [ -91.518998397094876, 31.459023719206158 ], [ -91.518752143317499, 31.458845663370017 ], [ -91.518724895244716, 31.458570497011078 ] ] ], [ [ [ -91.519103420216368, 31.46137692661414 ], [ -91.519311143438472, 31.461165838160333 ], [ -91.519632157871698, 31.461142479546435 ], [ -91.519878419216326, 31.461320533866051 ], [ -91.519905671131198, 31.461595699994518 ], [ -91.519697948212595, 31.461806789411352 ], [ -91.519376931514401, 31.461830148118054 ], [ -91.519130669866257, 31.461652092835433 ], [ -91.519103420216368, 31.46137692661414 ] ] ], [ [ [ -91.519430801112577, 31.464319290116368 ], [ -91.519638530399973, 31.464108201403892 ], [ -91.519959554860719, 31.464084842288237 ], [ -91.520205824321323, 31.464262896156896 ], [ -91.52023307768647, 31.464538062149444 ], [ -91.52002534870266, 31.464749151825039 ], [ -91.519704321976619, 31.464772511033555 ], [ -91.519458052212414, 31.464594456201798 ], [ -91.519430801112577, 31.464319290116368 ] ] ] ] } },
{ "type": "Feature", "properties": { "depth_bin": "9-10 ft", "survey_id": "LM_02_GCG_20230905_CS_3540_3512", "date": "2023-09-05 00:00:00+00:00", "year": 2023, "mile": 353.0, "bin_order": 8 }, "geometry": { "type": "MultiPolygon", "coordinates": [ [ [ [ -91.521634957790653, 31.452470825442276 ], [ -91.521867818644054, 31.452534327359039 ], [ -91.522033672018821, 31.452731527360068 ], [ -91.522015945009343, 31.452974162279812 ], [ -91.521858395331009, 31.453134287643898 ], [ -91.520939918598074, 31.453207489775995 ], [ -91.520633730677332, 31.453045318837994 ], [ -91.520575147187373, 31.452773767431175 ], [ -91.520757711394737, 31.452546239945498 ], [ -91.521634957790653, 31.452470825442276 ] ] ], [ [ [ -91.521216246037852, 31.455446262682752 ], [ -91.521423951005431, 31.455235170058511 ], [ -91.521744944836286, 31.45521180548203 ], [ -91.521991195298867, 31.45538985553965 ], [ -91.522018452426579, 31.45566502160316 ], [ -91.521810747762615, 31.455876115190176 ], [ -91.521489751667445, 31.455899479859561 ], [ -91.521243500901292, 31.45572142883919 ], [ -91.521216246037852, 31.455446262682752 ] ] ], [ [ [ -91.518943537800837, 31.461372854346561 ], [ -91.519151261361444, 31.461161766162927 ], [ -91.519472275803508, 31.461138407950777 ], [ -91.519718536822154, 31.461316462568369 ], [ -91.51974578826713, 31.461591628716505 ], [ -91.519538065010025, 31.461802717863147 ], [ -91.519217048302991, 31.461826076168116 ], [ -91.518970786980859, 31.461648020587525 ], [ -91.518943537800837, 31.461372854346561 ] ] ], [ [ [ -91.519270518391778, 31.464329598479015 ], [ -91.519478248051712, 31.464118510038844 ], [ -91.519799272570594, 31.464095151327541 ], [ -91.520045541740913, 31.464273205495722 ], [ -91.520072794637343, 31.464548371507529 ], [ -91.519865065280982, 31.464759460910816 ], [ -91.51954403849679, 31.464782819714973 ], [ -91.519297769022899, 31.464604764583676 ], [ -91.519270518391778, 31.464329598479015 ] ] ], [ [ [ -91.518770108485171, 31.467250819958537 ], [ -91.519000984785833, 31.467058201648921 ], [ -91.519323144651779, 31.467061927919065 ], [ -91.519547872815949, 31.467259816038951 ], [ -91.519543526465611, 31.467535946512598 ], [ -91.519312650020694, 31.467728565785045 ], [ -91.518990487873381, 31.467724839418043 ], [ -91.51876575985348, 31.467526950335326 ], [ -91.518770108485171, 31.467250819958537 ] ] ], [ [ [ -91.518631692814012, 31.47033037454456 ], [ -91.51886257721587, 31.470137756817582 ], [ -91.519184747608108, 31.470141483761381 ], [ -91.519409482557705, 31.470339372251356 ], [ -91.519405135277111, 31.470615502574791 ], [ -91.519174250730941, 31.470808121264724 ], [ -91.518852078057023, 31.470804394224039 ], [ -91.518627343251723, 31.470606504771126 ], [ -91.518631692814012, 31.47033037454456 ] ] ] ] } },
{ "type": "Feature", "properties": { "depth_bin": "<5 ft", "survey_id": "LM_02_GCG_20230905_CS_3540_3512", "date": "2023-09-05 00:00:00+00:00", "year": 2023, "mile": 353.0, "bin_order": 13 }, "geometry": { "type": "MultiPolygon", "coordinates": [ [ [ [ -91.521912281673167, 31.45534397121688 ], [ -91.522182524077238, 31.455193652091609 ], [ -91.522497608512126, 31.455251168250175 ], [ -91.522672964239675, 31.455482827830487 ], [ -91.522605869542005, 31.455752928394819 ], [ -91.52233562613246, 31.455903248372248 ], [ -91.522020539646192, 31.455845731756096 ], [ -91.521845184924103, 31.455614071323641 ], [ -91.521912281673167, 31.45534397121688 ] ] ], [ [ [ -91.521935050030777, 31.458264303721805 ], [ -91.522781030889917, 31.458277385940907 ], [ -91.523006533583668, 31.458424820942241 ], [ -91.523071737245616, 31.458661418889012 ], [ -91.52294703969855, 31.458879769450931 ], [ -91.522689050329404, 31.458980745620337 ], [ -91.522005934441623, 31.458979884654529 ], [ -91.521709983031528, 31.458870778280769 ], [ -91.521590716985372, 31.458614243149462 ], [ -91.52171799952329, 31.458360554494202 ], [ -91.521935050030777, 31.458264303721805 ] ] ], [ [ [ -91.522957772227812, 31.461070248604763 ], [ -91.523171727987176, 31.461171472913719 ], [ -91.523289529699156, 31.461392620433898 ], [ -91.523216920885616, 31.461627628770298 ], [ -91.523025941248193, 31.461758329623269 ], [ -91.521860962468608, 31.461797748176568 ], [ -91.521669306948809, 31.461736459226202 ], [ -91.521516830604924, 31.461572755086948 ], [ -91.521521170150066, 31.461296624109455 ], [ -91.521752025893704, 31.461104000036954 ], [ -91.522957772227812, 31.461070248604763 ] ] ], [ [ [ -91.522603159271441, 31.464003766449288 ], [ -91.52292106244883, 31.464054977134737 ], [ -91.523122081104177, 31.464270786888036 ], [ -91.523086190227133, 31.464545224049655 ], [ -91.522834412644585, 31.464717526852525 ], [ -91.520266172064666, 31.464776573561167 ], [ -91.520011434103509, 31.464669676929727 ], [ -91.519899146264422, 31.464483618942925 ], [ -91.51996625596064, 31.46421352058751 ], [ -91.520236527383759, 31.464063206658125 ], [ -91.522603159271441, 31.464003766449288 ] ] ], [ [ [ -91.522327313032591, 31.466962374047576 ], [ -91.522634341924004, 31.467046088427161 ], [ -91.522782382534913, 31.46729136647194 ], [ -91.52268471370239, 31.467554528157969 ], [ -91.522439489414012, 31.467676693018365 ], [ -91.519591512704835, 31.46775175036916 ], [ -91.519336767650202, 31.467644852216942 ], [ -91.519224477866715, 31.467458793653154 ], [ -91.519291591969775, 31.467188695898834 ], [ -91.519561873162971, 31.467038383760155 ], [ -91.522327313032591, 31.466962374047576 ] ] ], [ [ [ -91.522672448262497, 31.470044579738463 ], [ -91.522897978219206, 31.470192015536689 ], [ -91.522963188518347, 31.470428613361964 ], [ -91.522838473968932, 31.470646962939284 ], [ -91.522621395206187, 31.470743214207598 ], [ -91.519452393048567, 31.470824276049562 ], [ -91.519197639986487, 31.4707173774169 ], [ -91.5190853470706, 31.47053131871218 ], [ -91.519152464135985, 31.470261221236626 ], [ -91.519422754578741, 31.470110909742246 ], [ -91.522672448262497, 31.470044579738463 ] ] ], [ [ [ -91.517344196591253, 31.433862755834078 ], [ -91.517614382760357, 31.433712444173239 ], [ -91.517929392575482, 31.433769969439901 ], [ -91.518104699008049, 31.43400163443653 ], [ -91.518037609216918, 31.434271733551977 ], [ -91.517767422042979, 31.434422046064096 ], [ -91.517452410178862, 31.434364520339919 ], [ -91.517277104751145, 31.434132854492013 ], [ -91.517344196591253, 31.433862755834078 ] ] ], [ [ [ -91.50789521653725, 31.434926105610717 ], [ -91.508165420067783, 31.434775814475277 ], [ -91.50848042665244, 31.434833362905195 ], [ -91.508655711154802, 31.435065040134617 ], [ -91.508588593579532, 31.435335133386463 ], [ -91.508318389043282, 31.435485425372967 ], [ -91.508003380409903, 31.435427876484958 ], [ -91.507828096913258, 31.435196198404473 ], [ -91.50789521653725, 31.434926105610717 ] ] ], [ [ [ -91.519637814020641, 31.461251980589587 ], [ -91.51990807722909, 31.461101667038832 ], [ -91.520311392875442, 31.46112888178909 ], [ -91.520536109541524, 31.461326767976342 ], [ -91.520531767100593, 31.461602898829533 ], [ -91.520261829543742, 31.461806998877403 ], [ -91.519818308487046, 31.461787923533102 ], [ -91.519580201685969, 31.461556539398561 ], [ -91.519637814020641, 31.461251980589587 ] ] ] ] } },
{ "type": "Feature", "properties": { "depth_bin": ">20 ft", "survey_id": "LM_02_GCG_20230905_CS_3540_3512", "date": "2023-09-05 00:00:00+00:00", "year": 2023, "mile": 353.0, "bin_order": 0 }, "geometry": { "type": "MultiPolygon", "coordinates": [ [ [ [ -91.519801284274379, 31.436474741118225 ], [ -91.519971699271537, 31.43662484762956 ], [ -91.520016130312229, 31.436830833499322 ], [ -91.51991960067393, 31.437023269068757 ], [ -91.519753714007265, 31.437125813094184 ], [ -91.519454088028468, 31.43717426870333 ], [ -91.516930145753591, 31.438105430161322 ], [ -91.515046997895141, 31.438699592455546 ], [ -91.510081425120461, 31.440444833863562 ], [ -91.50953864719601, 31.440544973849711 ], [ -91.509235387977384, 31.440325620737848 ], [ -91.509239759923162, 31.44004949038311 ], [ -91.509470585901937, 31.439856886996282 ], [ -91.516588395184925, 31.437446878973539 ], [ -91.519121210811704, 31.436506086827404 ], [ -91.519562325582598, 31.436431108643315 ], [ -91.519801284274379, 31.436474741118225 ] ] ], [ [ [ -91.520697947373066, 31.439657859533519 ], [ -91.520899250338218, 31.439776575009265 ], [ -91.520991172468811, 31.440006556662571 ], [ -91.520892059463591, 31.440234332414057 ], [ -91.520687098925677, 31.440348356257683 ], [ -91.510553241390866, 31.442955447310712 ], [ -91.510233144478363, 31.442924654071184 ], [ -91.510032199774614, 31.442708825725084 ], [ -91.510068117546879, 31.442434392244035 ], [ -91.510319856091115, 31.442262112839018 ], [ -91.519990447380252, 31.439766452070728 ], [ -91.520697947373066, 31.439657859533519 ] ] ], [ [ [ -91.521419206312586, 31.443058174255068 ], [ -91.521666767927201, 31.443324014680524 ], [ -91.521546487846237, 31.443648183196171 ], [ -91.52113383985278, 31.443784981275893 ], [ -91.520847462494046, 31.443782595123881 ], [ -91.520633548149632, 31.443681367967574 ], [ -91.520514302585653, 31.443424831932706 ], [ -91.520641565707194, 31.44317114321839 ], [ -91.520858581547586, 31.443074892998006 ], [ -91.521419206312586, 31.443058174255068 ] ] ], [ [ [ -91.520233814714729, 31.443303333569748 ], [ -91.52041465282997, 31.443570088191361 ], [ -91.520317004873021, 31.44383324957214 ], [ -91.520112035656268, 31.443947272168494 ], [ -91.519447788818439, 31.444086760306305 ], [ -91.511908518704502, 31.445405764475957 ], [ -91.511342237672935, 31.445399567405715 ], [ -91.511094700855921, 31.445133707840753 ], [ -91.511161819478332, 31.444863613668524 ], [ -91.511432047287883, 31.444713316594228 ], [ -91.519761107846833, 31.443270363686199 ], [ -91.520042197519444, 31.443242043213242 ], [ -91.520233814714729, 31.443303333569748 ] ] ], [ [ [ -91.522091477598778, 31.446188328459247 ], [ -91.522307463336617, 31.446473691501943 ], [ -91.522150697581395, 31.446786191951638 ], [ -91.52157171555605, 31.446898647585037 ], [ -91.521248479850144, 31.446762987166853 ], [ -91.521159133152764, 31.446497666160791 ], [ -91.521314790644752, 31.44625589289986 ], [ -91.521852493194018, 31.446144699524254 ], [ -91.522091477598778, 31.446188328459247 ] ] ], [ [ [ -91.520233879580559, 31.446464660293103 ], [ -91.52038633025262, 31.446628365505759 ], [ -91.520407001470332, 31.446837093204543 ], [ -91.520288924978956, 31.447020489502169 ], [ -91.520071899328002, 31.44711673839933 ], [ -91.513944730870108, 31.447836907518568 ], [ -91.512099710375537, 31.448118618502079 ], [ -91.511575162727837, 31.448098568630481 ], [ -91.511327618457983, 31.447832709382055 ], [ -91.511394738671058, 31.447562615237018 ], [ -91.511664974062711, 31.447412317962659 ], [ -91.519636273382048, 31.446412945292455 ], [ -91.520233879580559, 31.446464660293103 ] ] ], [ [ [ -91.522521871898377, 31.449284718881358 ], [ -91.522684499131557, 31.449391055685513 ], [ -91.522774962613354, 31.449585649819284 ], [ -91.522742232193565, 31.449758732450562 ], [ -91.522584689328255, 31.449918858991214 ], [ -91.521829885534203, 31.450008388233972 ], [ -91.521523706167656, 31.449846219621115 ], [ -91.521465121694376, 31.449574668472412 ], [ -91.521647677269797, 31.44934713934861 ], [ -91.522160059979271, 31.449261030454473 ], [ -91.522521871898377, 31.449284718881358 ] ] ], [ [ [ -91.522828393718513, 31.452484698598386 ], [ -91.523010727444145, 31.452786836274861 ], [ -91.522818976546262, 31.453084659148296 ], [ -91.522222565952106, 31.453154823868672 ], [ -91.521916375858709, 31.452992655933784 ], [ -91.521857788668342, 31.452721104998016 ], [ -91.522040349743449, 31.452493575582221 ], [ -91.522595532264575, 31.452421198412022 ], [ -91.522828393718513, 31.452484698598386 ] ] ], [ [ [ -91.519748366590818, 31.452576164954529 ], [ -91.519964358901362, 31.452861531908891 ], [ -91.519807573947588, 31.453174028616655 ], [ -91.519218671734805, 31.453260890940197 ], [ -91.51889541820313, 31.45312522413888 ], [ -91.518806072926225, 31.452859901764199 ], [ -91.518961747558706, 31.452618132110647 ], [ -91.519188746757976, 31.452540585981509 ], [ -91.519748366590818, 31.452576164954529 ] ] ], [ [ [ -91.523064829094224, 31.45518809653375 ], [ -91.52322746689326, 31.455294432888277 ], [ -91.523317936676165, 31.455489026675284 ], [ -91.523161157942013, 31.455801527575392 ], [ -91.522573338402083, 31.455891309070307 ], [ -91.522250070797227, 31.455755650363358 ], [ -91.522160713775506, 31.45549033006462 ], [ -91.522316384596905, 31.455248556295665 ], [ -91.522543387720205, 31.455171004360206 ], [ -91.523064829094224, 31.45518809653375 ] ] ], [ [ [ -91.518663380408441, 31.455332420766549 ], [ -91.518980158496859, 31.455282204591398 ], [ -91.51924557705668, 31.455438712076639 ], [ -91.519304158017988, 31.455710263914977 ], [ -91.51912158391967, 31.455937788919513 ], [ -91.518804803669596, 31.455988005373463 ], [ -91.518539384370527, 31.45583149696202 ], [ -91.51848080557086, 31.455559944844893 ], [ -91.518663380408441, 31.455332420766549 ] ] ], [ [ [ -91.523299401061891, 31.458231400315693 ], [ -91.523547006260429, 31.458497237896896 ], [ -91.523454860617946, 31.458795493101661 ], [ -91.523008530254089, 31.458956913671521 ], [ -91.522701527095592, 31.458873200893997 ], [ -91.522553499025364, 31.458627922860241 ], [ -91.522651157898892, 31.458364760643846 ], [ -91.523016347186669, 31.458216205782286 ], [ -91.523299401061891, 31.458231400315693 ] ] ], [ [ [ -91.523438760236033, 31.461061875913316 ], [ -91.523652716528247, 31.461163099433886 ], [ -91.523755510890155, 31.461314694122372 ], [ -91.523762799322867, 31.461489924823116 ], [ -91.523644709647328, 31.461673323442898 ], [ -91.523427652753455, 31.46176957687528 ], [ -91.523025355351976, 31.461786012703481 ], [ -91.522729393967509, 31.461676908422923 ], [ -91.522610121865156, 31.461420374153946 ], [ -91.522737405812578, 31.461166684625088 ], [ -91.522954461946227, 31.461070432333177 ], [ -91.523438760236033, 31.461061875913316 ] ] ], [ [ [ -91.523561994801469, 31.464008420403871 ], [ -91.523778023744299, 31.464293781601587 ], [ -91.523745288901779, 31.464466864003406 ], [ -91.523587722002873, 31.464626990713171 ], [ -91.522989995513313, 31.464690134132823 ], [ -91.522683767305466, 31.464527967112797 ], [ -91.522625172102863, 31.46425641671053 ], [ -91.522807754932813, 31.464028887232597 ], [ -91.52304255427704, 31.463970782148955 ], [ -91.523561994801469, 31.464008420403871 ] ] ], [ [ [ -91.51894926712194, 31.464153058120335 ], [ -91.519101742861409, 31.464316765245343 ], [ -91.519122413450134, 31.464525492625892 ], [ -91.51900431084465, 31.464708886481972 ], [ -91.518746301323503, 31.464809853989102 ], [ -91.514538001962492, 31.464923016353122 ], [ -91.514242041535667, 31.464813892499425 ], [ -91.514124257505159, 31.464592737294915 ], [ -91.514221946591519, 31.464329582671805 ], [ -91.514508112943943, 31.464202712568522 ], [ -91.518555583006261, 31.464089582202419 ], [ -91.51894926712194, 31.464153058120335 ] ] ], [ [ [ -91.522727273743186, 31.466971401676165 ], [ -91.523330724198715, 31.466985351990061 ], [ -91.523517542550621, 31.467120410216403 ], [ -91.523585334580943, 31.467321668321915 ], [ -91.523511249558396, 31.46752129025381 ], [ -91.52320003074334, 31.467676334616709 ], [ -91.522605474180295, 31.467615339923682 ], [ -91.522430097259956, 31.46738367998061 ], [ -91.522497202163223, 31.467113580255585 ], [ -91.522727273743186, 31.466971401676165 ] ] ], [ [ [ -91.523185167466011, 31.470046256958156 ], [ -91.523432802035813, 31.470312095237812 ], [ -91.523340642879717, 31.470610349458539 ], [ -91.523174698978963, 31.470712895677302 ], [ -91.52290100076857, 31.470749743268243 ], [ -91.522593959657542, 31.470666029193708 ], [ -91.522445914604631, 31.470420750906921 ], [ -91.522543587412997, 31.470157589629903 ], [ -91.5227888181807, 31.470035424811822 ], [ -91.523185167466011, 31.470046256958156 ] ] ], [ [ [ -91.517765453458367, 31.433654657448773 ], [ -91.518082158487218, 31.433604441078622 ], [ -91.518347515870929, 31.433760948992347 ], [ -91.518406083375112, 31.434032501631098 ], [ -91.518223551423219, 31.434260027338894 ], [ -91.517947608498574, 31.434315911635181 ], [ -91.517690520768014, 31.43420664692804 ], [ -91.517621668658734, 31.434465525668529 ], [ -91.517326708507596, 31.434646101831618 ], [ -91.508663163217165, 31.438306616429234 ], [ -91.508341103310627, 31.438302866402516 ], [ -91.508133614682492, 31.438137172399895 ], [ -91.508139003637325, 31.43779702982529 ], [ -91.508452621215852, 31.437583523438853 ], [ -91.516823966459143, 31.434034218574499 ], [ -91.517280641899987, 31.433900252786572 ], [ -91.517578944026297, 31.434011732827187 ], [ -91.517607930494634, 31.433814778830111 ], [ -91.517765453458367, 31.433654657448773 ] ] ], [ [ [ -91.51833007930712, 31.44956889867624 ], [ -91.518555554398233, 31.449716340847697 ], [ -91.518620741659902, 31.449952940838312 ], [ -91.518496046360639, 31.450171287389743 ], [ -91.518279011601194, 31.450267532919504 ], [ -91.512609827089349, 31.450726632533975 ], [ -91.512344138506805, 31.450641637763788 ], [ -91.512201656320798, 31.450431441311952 ], [ -91.512321977879964, 31.450107283179044 ], [ -91.512697766563164, 31.449977397157735 ], [ -91.51833007930712, 31.44956889867624 ] ] ], [ [ [ -91.517664850419919, 31.452616092962973 ], [ -91.517852444431725, 31.45279841332982 ], [ -91.5178731107885, 31.453007141110707 ], [ -91.517755021206142, 31.453190534506696 ], [ -91.517497042565608, 31.453291500610923 ], [ -91.512970251360443, 31.453431930879486 ], [ -91.512674328495265, 31.453322804394602 ], [ -91.512556561454787, 31.453101647926836 ], [ -91.512654241579966, 31.452838493808184 ], [ -91.512940374284298, 31.452711625966217 ], [ -91.51746713078667, 31.452571195662259 ], [ -91.517664850419919, 31.452616092962973 ] ] ], [ [ [ -91.51781522213254, 31.455374033829106 ], [ -91.51800282171854, 31.455556354079537 ], [ -91.518023488757194, 31.455765081778363 ], [ -91.517905395772956, 31.455948475138232 ], [ -91.517647409592968, 31.456049441273475 ], [ -91.514041022579079, 31.45618053193067 ], [ -91.513400850390923, 31.456093950594468 ], [ -91.513184871452012, 31.455808573094458 ], [ -91.513282552971731, 31.455545418636802 ], [ -91.513568693276071, 31.455418549672544 ], [ -91.514126883983579, 31.455462971503096 ], [ -91.516654918162544, 31.45534182875949 ], [ -91.51781522213254, 31.455374033829106 ] ] ], [ [ [ -91.518403263154539, 31.458385022432449 ], [ -91.518569118874694, 31.458582226842282 ], [ -91.51855138121006, 31.45882486075638 ], [ -91.518358101520249, 31.459002773351514 ], [ -91.518040322532215, 31.459057262739655 ], [ -91.51367106802536, 31.459134277160686 ], [ -91.513375126620389, 31.459025151805569 ], [ -91.51325735133463, 31.458803995899178 ], [ -91.513355036119719, 31.458540841595863 ], [ -91.513641185616137, 31.458413972807762 ], [ -91.518170390590143, 31.458321513893196 ], [ -91.518403263154539, 31.458385022432449 ] ] ], [ [ [ -91.517784218543753, 31.461182709783849 ], [ -91.517971829177043, 31.461365030277609 ], [ -91.517992496878293, 31.461573757835758 ], [ -91.517874396063334, 31.461757150777768 ], [ -91.517616393657022, 31.4618581162661 ], [ -91.514166056580748, 31.461915145706683 ], [ -91.513911333679829, 31.461808237345611 ], [ -91.513793553904705, 31.461587081877763 ], [ -91.513891240427412, 31.461323927319174 ], [ -91.514177397877447, 31.461197057626869 ], [ -91.517586481011975, 31.461137812164491 ], [ -91.517784218543753, 31.461182709783849 ] ] ], [ [ [ -91.518201405426225, 31.46709993920237 ], [ -91.518388216315699, 31.467235004691798 ], [ -91.518453413433022, 31.467471604505246 ], [ -91.518328692807955, 31.46768994958272 ], [ -91.518111616705966, 31.46778619331365 ], [ -91.515104429654613, 31.46787395038038 ], [ -91.514750703731735, 31.467794079449721 ], [ -91.514575346303232, 31.467562409340815 ], [ -91.514642473744104, 31.4672923144458 ], [ -91.514912762258703, 31.467142012367102 ], [ -91.518201405426225, 31.46709993920237 ] ] ], [ [ [ -91.517622947657699, 31.470133522321479 ], [ -91.517877697243037, 31.470240423993342 ], [ -91.517995496760648, 31.470461576049015 ], [ -91.51789781101688, 31.470724733438626 ], [ -91.517652572453784, 31.470846888619697 ], [ -91.515604830006083, 31.470886966172539 ], [ -91.515350081475617, 31.470780060012945 ], [ -91.515237796247021, 31.470593998168361 ], [ -91.515304924332625, 31.470323903057754 ], [ -91.515575220767431, 31.470173599886941 ], [ -91.517622947657699, 31.470133522321479 ] ] ], [ [ [ -91.516096036896002, 31.430498833209779 ], [ -91.516391893434971, 31.430607950052394 ], [ -91.516511112846956, 31.430864489568346 ], [ -91.516411999708865, 31.431092262129315 ], [ -91.5160582910339, 31.431321977346876 ], [ -91.515530598386164, 31.43152636167677 ], [ -91.515110208486718, 31.431834456824333 ], [ -91.509293689906983, 31.435005387435503 ], [ -91.508668301234238, 31.435319483014464 ], [ -91.508395521496141, 31.435330517319532 ], [ -91.508240350254084, 31.435569635048111 ], [ -91.507004606525143, 31.436275410457796 ], [ -91.506687887707358, 31.436325598947665 ], [ -91.506422543685801, 31.436169067315387 ], [ -91.506389028172791, 31.435830109401124 ], [ -91.50679687891477, 31.435493486282322 ], [ -91.507784517547393, 31.434967146561792 ], [ -91.50809486453079, 31.43494141049387 ], [ -91.508219062347877, 31.434725713448074 ], [ -91.508550052637148, 31.434527817978033 ], [ -91.514917628252519, 31.431076512299871 ], [ -91.515174416419484, 31.431019605130285 ], [ -91.515861318174771, 31.430556928309713 ], [ -91.516096036896002, 31.430498833209779 ] ] ], [ [ [ -91.51383010847745, 31.427448188002444 ], [ -91.5141852829736, 31.427497583555748 ], [ -91.514366075129061, 31.427764345876536 ], [ -91.514293473738476, 31.427999350460428 ], [ -91.51392162419404, 31.428369805687812 ], [ -91.507007690109106, 31.433332604901953 ], [ -91.506551374784365, 31.433558112538268 ], [ -91.506173323496341, 31.433454948188192 ], [ -91.506054129679285, 31.433198399927925 ], [ -91.506181416162789, 31.43294472597762 ], [ -91.51383010847745, 31.427448188002444 ] ] ] ] } }
]
}
