{
"type": "FeatureCollection",
"name": "LM_06_MBV_20230802_CS_4530_4524_depth_polygons",
"crs": { "type": "name", "properties": { "name": "urn:ogc:def:crs:OGC:1.3:CRS84" } },
"features": [
{ "type": "Feature", "properties": { "depth_bin": "10-11 ft", "survey_id": "LM_06_MBV_20230802_CS_4530_4524", "date": "2023-08-02 00:00:00+00:00", "year": 2023, "mile": 453.0, "bin_order": 7 }, "geometry": { "type": "MultiPolygon", "coordinates": [ [ [ [ -91.071097492543672, 32.446501915524415 ], [ -91.071283232439001, 32.446275181231208 ], [ -91.071603645154056, 32.446226222444643 ], [ -91.071871038881554, 32.446383718370782 ], [ -91.071928778523116, 32.446655410719217 ], [ -91.071743039364122, 32.446882145984155 ], [ -91.071422624364132, 32.446931105035347 ], [ -91.071155229900313, 32.446773608137477 ], [ -91.071097492543672, 32.446501915524415 ] ] ], [ [ [ -91.074268185880726, 32.447555159331927 ], [ -91.07458274245036, 32.447344199403091 ], [ -91.07496436464092, 32.447448767563664 ], [ -91.075080714890248, 32.447741003050396 ], [ -91.074900401762463, 32.44809090143135 ], [ -91.074597406665376, 32.448191931897682 ], [ -91.074298905504023, 32.448081702152635 ], [ -91.074181053251721, 32.447860164319309 ], [ -91.074268185880726, 32.447555159331927 ] ] ], [ [ [ -91.076617355290409, 32.449381580609028 ], [ -91.077176789410174, 32.44878833957921 ], [ -91.077461021060458, 32.448757014332102 ], [ -91.077704172378589, 32.448885691768368 ], [ -91.07779585824602, 32.449115955510081 ], [ -91.07774202552018, 32.449285194656312 ], [ -91.077312773807179, 32.449791128305534 ], [ -91.076981187247355, 32.449917959865957 ], [ -91.076682677299317, 32.449807735477869 ], [ -91.076563520202356, 32.449550819154737 ], [ -91.076617355290409, 32.449381580609028 ] ] ] ] } },
{ "type": "Feature", "properties": { "depth_bin": "11-12 ft", "survey_id": "LM_06_MBV_20230802_CS_4530_4524", "date": "2023-08-02 00:00:00+00:00", "year": 2023, "mile": 453.0, "bin_order": 6 }, "geometry": { "type": "MultiPolygon", "coordinates": [ [ [ [ -91.071176353066633, 32.446420612108504 ], [ -91.071334989143736, 32.446179532093453 ], [ -91.071648199242162, 32.446104178396979 ], [ -91.07193251061716, 32.446238691874946 ], [ -91.07202137834706, 32.446504276993672 ], [ -91.07186274343789, 32.44674535791016 ], [ -91.071549531242127, 32.446820712055747 ], [ -91.071265218699182, 32.44668619767635 ], [ -91.071176353066633, 32.446420612108504 ] ] ], [ [ [ -91.076851089655463, 32.44918338422756 ], [ -91.077009716222392, 32.448942296768529 ], [ -91.077322932025936, 32.448866929162619 ], [ -91.07760726097932, 32.449001430413368 ], [ -91.07769614786416, 32.449267012149576 ], [ -91.077537522465832, 32.449508100509945 ], [ -91.07722430456495, 32.449583468565351 ], [ -91.076939974442951, 32.449448966413264 ], [ -91.076851089655463, 32.44918338422756 ] ] ] ] } },
{ "type": "Feature", "properties": { "depth_bin": "12-13 ft", "survey_id": "LM_06_MBV_20230802_CS_4530_4524", "date": "2023-08-02 00:00:00+00:00", "year": 2023, "mile": 453.0, "bin_order": 5 }, "geometry": { "type": "MultiPolygon", "coordinates": [ [ [ [ -91.0714223841061, 32.446065799806114 ], [ -91.071759811656449, 32.445882006724837 ], [ -91.072127498210051, 32.446017796705036 ], [ -91.0722094964962, 32.446318296607672 ], [ -91.071967349713574, 32.446638455528664 ], [ -91.071654137965936, 32.446713809953202 ], [ -91.071369825582465, 32.446579295814857 ], [ -91.07128095972736, 32.446313710308935 ], [ -91.0714223841061, 32.446065799806114 ] ] ], [ [ [ -91.074295131962359, 32.447489101142011 ], [ -91.074480866251349, 32.447262361935188 ], [ -91.074801281190474, 32.447213395081171 ], [ -91.07506868366967, 32.447370884511692 ], [ -91.075126433464106, 32.447642575741355 ], [ -91.074940699911792, 32.447869315919888 ], [ -91.074620282687732, 32.447918283038732 ], [ -91.074352879471888, 32.447760792636515 ], [ -91.074295131962359, 32.447489101142011 ] ] ], [ [ [ -91.077042841012045, 32.448917539887788 ], [ -91.077228571750339, 32.448690796523984 ], [ -91.077548990671048, 32.448641822819603 ], [ -91.077816402331763, 32.448799306719081 ], [ -91.077874161129515, 32.449070996977042 ], [ -91.077688431128209, 32.449297741312542 ], [ -91.077368009922509, 32.449346715281941 ], [ -91.07710059752479, 32.449189230410781 ], [ -91.077042841012045, 32.448917539887788 ] ] ] ] } },
{ "type": "Feature", "properties": { "depth_bin": "13-14 ft", "survey_id": "LM_06_MBV_20230802_CS_4530_4524", "date": "2023-08-02 00:00:00+00:00", "year": 2023, "mile": 453.0, "bin_order": 4 }, "geometry": { "type": "MultiPolygon", "coordinates": [ [ [ [ -91.068105581369707, 32.445425297288615 ], [ -91.068394245533639, 32.445189224183551 ], [ -91.068786102408865, 32.445261590121966 ], [ -91.068935650686697, 32.44554275486972 ], [ -91.06878120278374, 32.44590235983469 ], [ -91.068491344804926, 32.44602807207081 ], [ -91.068181552666402, 32.445943167396464 ], [ -91.068033299731766, 32.44569738228585 ], [ -91.068105581369707, 32.445425297288615 ] ] ], [ [ [ -91.071545790233827, 32.445889454284206 ], [ -91.071834447384717, 32.445653373019013 ], [ -91.072226309568606, 32.445725728421216 ], [ -91.072375869443562, 32.446006889496992 ], [ -91.072212152473639, 32.446361056163674 ], [ -91.071922297340336, 32.446486776419341 ], [ -91.071612499987552, 32.446401880014783 ], [ -91.071464236833506, 32.446156098579756 ], [ -91.071545790233827, 32.445889454284206 ] ] ], [ [ [ -91.074550121915792, 32.447095093907258 ], [ -91.074923352405577, 32.446970642497988 ], [ -91.075252743427242, 32.447164640563813 ], [ -91.075264039426855, 32.44747293117743 ], [ -91.0749737045617, 32.447762484290557 ], [ -91.074649170276601, 32.447784585308753 ], [ -91.07440126020029, 32.44760562901147 ], [ -91.074364324842435, 32.447364622288667 ], [ -91.074550121915792, 32.447095093907258 ] ] ] ] } },
{ "type": "Feature", "properties": { "depth_bin": "14-15 ft", "survey_id": "LM_06_MBV_20230802_CS_4530_4524", "date": "2023-08-02 00:00:00+00:00", "year": 2023, "mile": 453.0, "bin_order": 3 }, "geometry": { "type": "MultiPolygon", "coordinates": [ [ [ [ -91.080797008599532, 32.443907185081081 ], [ -91.081008035146141, 32.443696962532776 ], [ -91.081332554028791, 32.443674844487973 ], [ -91.081580468173172, 32.443853787347436 ], [ -91.081606553031918, 32.444128969521238 ], [ -91.081395526762648, 32.444339193074022 ], [ -91.081071005495758, 32.444361311189404 ], [ -91.080823091074052, 32.44418236732546 ], [ -91.080797008599532, 32.443907185081081 ] ] ], [ [ [ -91.074575248248195, 32.447071193460772 ], [ -91.074994314733956, 32.446654106097363 ], [ -91.075240487246603, 32.44663734064077 ], [ -91.075456157294454, 32.446739369989267 ], [ -91.075559219604457, 32.446891318185841 ], [ -91.075521472551245, 32.447165525349867 ], [ -91.075260577971392, 32.447474825640825 ], [ -91.07508137939233, 32.447562215753024 ], [ -91.07475799673837, 32.447530206934708 ], [ -91.074556024315186, 32.447313679348866 ], [ -91.074575248248195, 32.447071193460772 ] ] ], [ [ [ -91.077241303829098, 32.448623107110365 ], [ -91.077555857702833, 32.448412139661315 ], [ -91.077937488244672, 32.448516699089907 ], [ -91.078053849433658, 32.448808932197124 ], [ -91.077843640332773, 32.44914095381457 ], [ -91.077540644570007, 32.449241991343122 ], [ -91.077242136057322, 32.44913176832975 ], [ -91.077122978132721, 32.448874852483854 ], [ -91.077241303829098, 32.448623107110365 ] ] ], [ [ [ -91.068282679237797, 32.44500006240272 ], [ -91.068442776849935, 32.444840614893828 ], [ -91.068638636284959, 32.444784557863279 ], [ -91.068842532113962, 32.444813409598801 ], [ -91.069030569954606, 32.444949164839883 ], [ -91.069076785185629, 32.44537152112111 ], [ -91.068812078362342, 32.445717810006542 ], [ -91.068491666328171, 32.445766761700128 ], [ -91.068224280629551, 32.44560925887221 ], [ -91.068159681402193, 32.44537247985685 ], [ -91.068282679237797, 32.44500006240272 ] ] ], [ [ [ -91.071647168606333, 32.44558144679192 ], [ -91.07196172383577, 32.445370493323672 ], [ -91.07234333437323, 32.445475069032099 ], [ -91.072462474519384, 32.445731988849225 ], [ -91.072300935313436, 32.446128206071577 ], [ -91.071997944333063, 32.446229230448182 ], [ -91.07169945301338, 32.4461189948711 ], [ -91.071581609556929, 32.445897454877262 ], [ -91.071647168606333, 32.44558144679192 ] ] ] ] } },
{ "type": "Feature", "properties": { "depth_bin": "15-17.5 ft", "survey_id": "LM_06_MBV_20230802_CS_4530_4524", "date": "2023-08-02 00:00:00+00:00", "year": 2023, "mile": 453.0, "bin_order": 2 }, "geometry": { "type": "MultiPolygon", "coordinates": [ [ [ [ -91.07514144141291, 32.446513880786135 ], [ -91.075536130968459, 32.446453560145493 ], [ -91.075814558702447, 32.44669831863996 ], [ -91.075754709256344, 32.447002554515606 ], [ -91.075401302164792, 32.447243774849333 ], [ -91.07507792048645, 32.44721176689054 ], [ -91.074875947941123, 32.446995239805766 ], [ -91.074895170906586, 32.446752753822061 ], [ -91.07514144141291, 32.446513880786135 ] ] ], [ [ [ -91.078006026438089, 32.447603673394823 ], [ -91.078254480084851, 32.447482501793218 ], [ -91.078499783276101, 32.447506775386053 ], [ -91.078708655552461, 32.447673201000569 ], [ -91.078745602632381, 32.447914206880654 ], [ -91.078567008940794, 32.448187272780785 ], [ -91.07839681006719, 32.448289703323361 ], [ -91.078343582251577, 32.448475390846184 ], [ -91.078030936086066, 32.448874734252747 ], [ -91.077862702514977, 32.448976600820558 ], [ -91.077616523829889, 32.448993371178027 ], [ -91.077349111983693, 32.448835886849821 ], [ -91.077291354888231, 32.448564196406743 ], [ -91.077622700816505, 32.448093896296427 ], [ -91.077818367800845, 32.447963419454673 ], [ -91.078006026438089, 32.447603673394823 ] ] ], [ [ [ -91.068896220571332, 32.444302900198437 ], [ -91.069126051912548, 32.444226273741151 ], [ -91.069367353995361, 32.444270835126737 ], [ -91.069538794105839, 32.444421564636343 ], [ -91.069582586438855, 32.444627657616827 ], [ -91.069054066296843, 32.445285253856113 ], [ -91.068709424560353, 32.445383894325659 ], [ -91.068425120981061, 32.445249373833363 ], [ -91.068336264978768, 32.444983786573921 ], [ -91.068487305746501, 32.444699961705908 ], [ -91.068896220571332, 32.444302900198437 ] ] ], [ [ [ -91.071950440977346, 32.445172246747504 ], [ -91.072144141985135, 32.445042341818933 ], [ -91.072349134993672, 32.445019756612091 ], [ -91.072542478461244, 32.445081778602507 ], [ -91.0726956772899, 32.445246027943909 ], [ -91.072671274152981, 32.445553772165567 ], [ -91.072284919983517, 32.445946193707258 ], [ -91.0719594007317, 32.445941208981196 ], [ -91.071733381514164, 32.4457425056763 ], [ -91.071724490303794, 32.445499589716029 ], [ -91.071950440977346, 32.445172246747504 ] ] ] ] } },
{ "type": "Feature", "properties": { "depth_bin": "17.5-20 ft", "survey_id": "LM_06_MBV_20230802_CS_4530_4524", "date": "2023-08-02 00:00:00+00:00", "year": 2023, "mile": 453.0, "bin_order": 1 }, "geometry": { "type": "MultiPolygon", "coordinates": [ [ [ [ -91.080715004367548, 32.443978190009005 ], [ -91.080949314854848, 32.44378651945712 ], [ -91.081274828082641, 32.443791480655676 ], [ -91.08150086450857, 32.443990167491449 ], [ -91.081495014923377, 32.444266192617086 ], [ -91.081260704242951, 32.444457864167944 ], [ -91.080935188622618, 32.444452902842642 ], [ -91.080709152389829, 32.444254215007895 ], [ -91.080715004367548, 32.443978190009005 ] ] ], [ [ [ -91.075332458423176, 32.446009315713084 ], [ -91.075552323760519, 32.445913944479244 ], [ -91.075797621718607, 32.445938223156318 ], [ -91.075961413568663, 32.446045161514412 ], [ -91.076051795751866, 32.446240045860257 ], [ -91.075778751063709, 32.446855032976728 ], [ -91.075463430759356, 32.447008808444536 ], [ -91.07515362786188, 32.446923920570207 ], [ -91.07500535408775, 32.446678142928619 ], [ -91.075129868608897, 32.446232078725174 ], [ -91.075332458423176, 32.446009315713084 ] ] ], [ [ [ -91.078483673491405, 32.44692628578526 ], [ -91.078716921374848, 32.446785047201033 ], [ -91.079002893150729, 32.446801338099689 ], [ -91.079228931543753, 32.447000029022327 ], [ -91.079237842864401, 32.447242945167467 ], [ -91.079021776240808, 32.44757923073854 ], [ -91.078822703726772, 32.447710685243258 ], [ -91.078747014017608, 32.447916570680775 ], [ -91.078577690951974, 32.448037161743883 ], [ -91.078390963836284, 32.448420048340765 ], [ -91.078183178856335, 32.448533238675068 ], [ -91.07793624817279, 32.448529468883862 ], [ -91.077688329289828, 32.44835051875836 ], [ -91.077662255849859, 32.448075336352133 ], [ -91.077974018550464, 32.447742420138958 ], [ -91.07804823776857, 32.44750504949954 ], [ -91.078247310875057, 32.447373596241427 ], [ -91.078483673491405, 32.44692628578526 ] ] ], [ [ [ -91.07097054756504, 32.440762387090196 ], [ -91.071204869046412, 32.440570735056099 ], [ -91.071530368850844, 32.440575721001395 ], [ -91.071756375298875, 32.44077442431702 ], [ -91.071750496741217, 32.441050448001846 ], [ -91.071516175065724, 32.44124210103476 ], [ -91.071190672869193, 32.441237114962085 ], [ -91.070964666615268, 32.44103841064765 ], [ -91.07097054756504, 32.440762387090196 ] ] ], [ [ [ -91.07416085726166, 32.441893016564045 ], [ -91.074395175354866, 32.441701358476891 ], [ -91.074720679834456, 32.441706336331244 ], [ -91.07494669628241, 32.441905034257445 ], [ -91.074940827191867, 32.442181058411471 ], [ -91.074706508904853, 32.442372717497491 ], [ -91.074381002033036, 32.442367739515966 ], [ -91.074154985778847, 32.442169040590898 ], [ -91.07416085726166, 32.441893016564045 ] ] ], [ [ [ -91.069109683875681, 32.44381250603962 ], [ -91.069329549736153, 32.443717145692744 ], [ -91.069535796480238, 32.443728910568531 ], [ -91.06971114993766, 32.443821729027704 ], [ -91.069823608601851, 32.44400816803585 ], [ -91.069583314844451, 32.444626728432844 ], [ -91.06928728449877, 32.44480595582413 ], [ -91.068969173268044, 32.444747210011556 ], [ -91.068793223249543, 32.44451493131006 ], [ -91.068840387516687, 32.444160434556089 ], [ -91.069109683875681, 32.44381250603962 ] ] ], [ [ [ -91.072218113745677, 32.444866597270263 ], [ -91.072612797522083, 32.444806285584356 ], [ -91.072891212173261, 32.445051050114145 ], [ -91.072853458139321, 32.445325256275524 ], [ -91.072488397373377, 32.445602152416797 ], [ -91.072165022957591, 32.445570137226802 ], [ -91.071963061086862, 32.445353605817807 ], [ -91.071982291253775, 32.445111120502851 ], [ -91.072218113745677, 32.444866597270263 ] ] ] ] } },
{ "type": "Feature", "properties": { "depth_bin": "5-6 ft", "survey_id": "LM_06_MBV_20230802_CS_4530_4524", "date": "2023-08-02 00:00:00+00:00", "year": 2023, "mile": 453.0, "bin_order": 12 }, "geometry": { "type": "MultiPolygon", "coordinates": [ [ [ [ -91.071055278171556, 32.4406912613833 ], [ -91.071266318591299, 32.440481055643467 ], [ -91.071590826954335, 32.440458962360346 ], [ -91.071838712348381, 32.440637923430124 ], [ -91.071864767066927, 32.440913106595538 ], [ -91.071653726923472, 32.441123313339837 ], [ -91.071329216176466, 32.441145406692883 ], [ -91.071081330506104, 32.440966444618624 ], [ -91.071055278171556, 32.4406912613833 ] ] ], [ [ [ -91.077428452412747, 32.44295234138653 ], [ -91.077639484143489, 32.442742124668861 ], [ -91.077963999955188, 32.442720015208621 ], [ -91.078211904572399, 32.442898964378045 ], [ -91.07823797902843, 32.443174146890904 ], [ -91.078026947574671, 32.443384364613081 ], [ -91.077702429378789, 32.443406474143664 ], [ -91.077454524484594, 32.443227523969739 ], [ -91.077428452412747, 32.44295234138653 ] ] ], [ [ [ -91.070890605974043, 32.446952616547755 ], [ -91.071276427788817, 32.446859795831692 ], [ -91.071581797845496, 32.447080244762915 ], [ -91.071557390106804, 32.447387988521022 ], [ -91.0712190196178, 32.44764791761574 ], [ -91.070893494453173, 32.447642929903068 ], [ -91.070667473624582, 32.447444224661737 ], [ -91.070673356930726, 32.447168201433669 ], [ -91.070890605974043, 32.446952616547755 ] ] ], [ [ [ -91.076396159072772, 32.449712669954586 ], [ -91.07658986412379, 32.44958275839798 ], [ -91.076836044502784, 32.449565990118522 ], [ -91.077051723301295, 32.449668017020713 ], [ -91.077169584846203, 32.449889552461464 ], [ -91.077135573423675, 32.450062450494258 ], [ -91.076771642305161, 32.450596091723128 ], [ -91.076456310182778, 32.450749869161982 ], [ -91.076146493599268, 32.450664983258271 ], [ -91.075998211471358, 32.450419206589459 ], [ -91.076032225221439, 32.450246308960899 ], [ -91.076396159072772, 32.449712669954586 ] ] ] ] } },
{ "type": "Feature", "properties": { "depth_bin": "6-7 ft", "survey_id": "LM_06_MBV_20230802_CS_4530_4524", "date": "2023-08-02 00:00:00+00:00", "year": 2023, "mile": 453.0, "bin_order": 11 }, "geometry": { "type": "MultiPolygon", "coordinates": [ [ [ [ -91.080906152204776, 32.443875557684812 ], [ -91.081064758186159, 32.44363446416066 ], [ -91.08137795253738, 32.443559085578201 ], [ -91.081662271737642, 32.443693577370787 ], [ -91.081751166281819, 32.443959156707464 ], [ -91.081592561469066, 32.444200251132635 ], [ -91.081279365021246, 32.444275630164711 ], [ -91.080995044652354, 32.444141137471107 ], [ -91.080906152204776, 32.443875557684812 ] ] ], [ [ [ -91.0705412863921, 32.447342175415486 ], [ -91.070727029474156, 32.447115442090478 ], [ -91.071047445414891, 32.447066484850922 ], [ -91.071314840517573, 32.447223981996693 ], [ -91.071372578878197, 32.447495674522976 ], [ -91.071186836532448, 32.447722408819764 ], [ -91.070866418306679, 32.447771366323913 ], [ -91.070599022467704, 32.447613868206361 ], [ -91.0705412863921, 32.447342175415486 ] ] ], [ [ [ -91.073538452330581, 32.448705050835805 ], [ -91.073724191114067, 32.44847831295403 ], [ -91.074044610701947, 32.448429348214731 ], [ -91.074312015261071, 32.448586839310877 ], [ -91.074369763348244, 32.448858530781436 ], [ -91.074184025301406, 32.449085269634971 ], [ -91.073863603428435, 32.449134234639068 ], [ -91.073596198132662, 32.448976742571148 ], [ -91.073538452330581, 32.448705050835805 ] ] ] ] } },
{ "type": "Feature", "properties": { "depth_bin": "7-8 ft", "survey_id": "LM_06_MBV_20230802_CS_4530_4524", "date": "2023-08-02 00:00:00+00:00", "year": 2023, "mile": 453.0, "bin_order": 10 }, "geometry": { "type": "MultiPolygon", "coordinates": [ [ [ [ -91.067755332741342, 32.446083762832465 ], [ -91.067941079836444, 32.445857033744325 ], [ -91.068261492416454, 32.445808083476827 ], [ -91.068528878753256, 32.445965586245819 ], [ -91.068586608077567, 32.446237279752502 ], [ -91.068400861718459, 32.446464009812438 ], [ -91.068080446853472, 32.44651296034435 ], [ -91.067813059780676, 32.446355456603563 ], [ -91.067755332741342, 32.446083762832465 ] ] ], [ [ [ -91.070873577188507, 32.446868818010778 ], [ -91.071133559837193, 32.44660988383243 ], [ -91.07153190256841, 32.446649324051322 ], [ -91.071713242213363, 32.446916701742438 ], [ -91.071617264523923, 32.447298933178644 ], [ -91.071343333759827, 32.447448137349959 ], [ -91.071025211720496, 32.447389396353756 ], [ -91.070858661472627, 32.447191606689771 ], [ -91.070873577188507, 32.446868818010778 ] ] ], [ [ [ -91.073620538850633, 32.448547648884222 ], [ -91.073831592827474, 32.448337439560106 ], [ -91.074156129191138, 32.448315340735178 ], [ -91.074404040627599, 32.448494297551768 ], [ -91.074430104175335, 32.448769480244231 ], [ -91.074219050475193, 32.448979690573083 ], [ -91.07389451172665, 32.449001789468156 ], [ -91.07364660001349, 32.448822831646815 ], [ -91.073620538850633, 32.448547648884222 ] ] ], [ [ [ -91.076426935176158, 32.449686795527676 ], [ -91.076637985677976, 32.449476581385952 ], [ -91.076962525839079, 32.449454475456015 ], [ -91.077210446121029, 32.449633427042109 ], [ -91.077236518380928, 32.449908609442552 ], [ -91.077025468156123, 32.450118824589026 ], [ -91.076700925610055, 32.450140930589292 ], [ -91.076453005051093, 32.449961977998434 ], [ -91.076426935176158, 32.449686795527676 ] ] ] ] } },
{ "type": "Feature", "properties": { "depth_bin": "8-9 ft", "survey_id": "LM_06_MBV_20230802_CS_4530_4524", "date": "2023-08-02 00:00:00+00:00", "year": 2023, "mile": 453.0, "bin_order": 9 }, "geometry": { "type": "MultiPolygon", "coordinates": [ [ [ [ -91.067952435074673, 32.44582240141316 ], [ -91.068163495024748, 32.445612201768796 ], [ -91.068488022188788, 32.445590117233266 ], [ -91.068735914641636, 32.445769084578622 ], [ -91.06876196054165, 32.446044267871621 ], [ -91.068550900867649, 32.446254468520678 ], [ -91.068226371318971, 32.446276553125969 ], [ -91.067978478590035, 32.446097584775906 ], [ -91.067952435074673, 32.44582240141316 ] ] ], [ [ [ -91.070957039991796, 32.446712894018702 ], [ -91.071168095415302, 32.446502689176477 ], [ -91.071492625461516, 32.446480596989083 ], [ -91.071740526516976, 32.44665955871082 ], [ -91.071766581700999, 32.446934741702641 ], [ -91.071555526553908, 32.44714494754956 ], [ -91.071230994122985, 32.447167039806914 ], [ -91.070983092791124, 32.446988077080483 ], [ -91.070957039991796, 32.446712894018702 ] ] ], [ [ [ -91.074109654104845, 32.447830736606178 ], [ -91.074358113203289, 32.44770957292333 ], [ -91.074603415560702, 32.447733854094373 ], [ -91.074791468337665, 32.447869601226998 ], [ -91.074858886416905, 32.448071059641691 ], [ -91.074405012658602, 32.448760617290326 ], [ -91.074073426280123, 32.44888744119681 ], [ -91.07377492357287, 32.448777210157402 ], [ -91.073655776081324, 32.448520291406226 ], [ -91.073773310977771, 32.448223997430361 ], [ -91.074109654104845, 32.447830736606178 ] ] ], [ [ [ -91.076500168004017, 32.449568915204154 ], [ -91.076711218052722, 32.449358700919007 ], [ -91.077035757781488, 32.449336594783098 ], [ -91.077283677905172, 32.449515546221328 ], [ -91.077309750373558, 32.449790728618623 ], [ -91.07709870060188, 32.45000094390852 ], [ -91.076774158488135, 32.450023050114751 ], [ -91.076526238087453, 32.449844097671793 ], [ -91.076500168004017, 32.449568915204154 ] ] ] ] } },
{ "type": "Feature", "properties": { "depth_bin": "9-10 ft", "survey_id": "LM_06_MBV_20230802_CS_4530_4524", "date": "2023-08-02 00:00:00+00:00", "year": 2023, "mile": 453.0, "bin_order": 8 }, "geometry": { "type": "MultiPolygon", "coordinates": [ [ [ [ -91.067836434138812, 32.446002668377773 ], [ -91.068113273221527, 32.445541503514875 ], [ -91.068333144337572, 32.445446145133637 ], [ -91.06857843835229, 32.44547043776236 ], [ -91.068766477088957, 32.445606193421604 ], [ -91.068813333046151, 32.445912062314704 ], [ -91.068488834192834, 32.446348000296773 ], [ -91.06816841977772, 32.446396951071009 ], [ -91.067901032874005, 32.446239447521634 ], [ -91.067836434138812, 32.446002668377773 ] ] ], [ [ [ -91.071026557678337, 32.446627914202644 ], [ -91.071212298021237, 32.446401180035032 ], [ -91.071532711214914, 32.446352221448443 ], [ -91.071800105171732, 32.446509717531789 ], [ -91.071857844658965, 32.446781409902599 ], [ -91.071672105052386, 32.447008145041963 ], [ -91.071351689573774, 32.447057103893179 ], [ -91.071084294880635, 32.44689960683808 ], [ -91.071026557678337, 32.446627914202644 ] ] ], [ [ [ -91.074130264404502, 32.447845133779794 ], [ -91.074341315517202, 32.447634923471405 ], [ -91.074665849296807, 32.44761282322915 ], [ -91.074913759942945, 32.447791779025586 ], [ -91.074939824957056, 32.448066961692653 ], [ -91.074728774121084, 32.448277173005756 ], [ -91.074404237956685, 32.448299273318192 ], [ -91.074156327033819, 32.448120316517027 ], [ -91.074130264404502, 32.447845133779794 ] ] ], [ [ [ -91.076670392345846, 32.449329058127674 ], [ -91.07688144142513, 32.449118843513233 ], [ -91.07720598027197, 32.449096736903307 ], [ -91.07745390011776, 32.449275688000434 ], [ -91.077479973075128, 32.449550870389366 ], [ -91.077268924272843, 32.44976108600855 ], [ -91.076944383041095, 32.449783192688827 ], [ -91.076696462918278, 32.449604240586936 ], [ -91.076670392345846, 32.449329058127674 ] ] ] ] } },
{ "type": "Feature", "properties": { "depth_bin": "<5 ft", "survey_id": "LM_06_MBV_20230802_CS_4530_4524", "date": "2023-08-02 00:00:00+00:00", "year": 2023, "mile": 453.0, "bin_order": 13 }, "geometry": { "type": "MultiPolygon", "coordinates": [ [ [ [ -91.081022260206822, 32.443611459490313 ], [ -91.081277596133376, 32.443440185978481 ], [ -91.081600967435406, 32.44347217759649 ], [ -91.08180294922245, 32.443688694314062 ], [ -91.081765222839039, 32.443962904249844 ], [ -91.081509886256313, 32.444134178716695 ], [ -91.081186512645431, 32.44410218677951 ], [ -91.080984531514559, 32.443885669106898 ], [ -91.081022260206822, 32.443611459490313 ] ] ], [ [ [ -91.07620993352846, 32.449975757850794 ], [ -91.076425743224164, 32.4498158179398 ], [ -91.076751277261408, 32.449820791647873 ], [ -91.076977317690535, 32.450019486623546 ], [ -91.076971452956926, 32.450295510751367 ], [ -91.076755011111743, 32.450480328334407 ], [ -91.076702296474835, 32.450680147285524 ], [ -91.076333415320633, 32.451062892182151 ], [ -91.075332334769811, 32.452467412915361 ], [ -91.075083863470923, 32.45258857798882 ], [ -91.074838547840031, 32.452564297267401 ], [ -91.074589741194444, 32.452297574249272 ], [ -91.074683612809025, 32.451964322880315 ], [ -91.07566405704226, 32.450619736727383 ], [ -91.076157218052487, 32.450175576554159 ], [ -91.07620993352846, 32.449975757850794 ] ] ], [ [ [ -91.071207093143784, 32.440475616842122 ], [ -91.071481002402109, 32.440326412016937 ], [ -91.071799100211393, 32.440385150989869 ], [ -91.071975050699265, 32.440617425620694 ], [ -91.071905783682212, 32.440887173198902 ], [ -91.071631873329167, 32.441036378898119 ], [ -91.071313773384176, 32.440977639425277 ], [ -91.071137823990995, 32.440745363920435 ], [ -91.071207093143784, 32.440475616842122 ] ] ], [ [ [ -91.074263380825542, 32.441744398380834 ], [ -91.074518723366054, 32.441573138819628 ], [ -91.074842084725617, 32.441605147469737 ], [ -91.075044045837643, 32.441821674324011 ], [ -91.075006300157398, 32.442095881563027 ], [ -91.074750956960116, 32.442267142079096 ], [ -91.074427593292086, 32.442235133109392 ], [ -91.074225632836828, 32.442018605300255 ], [ -91.074263380825542, 32.441744398380834 ] ] ], [ [ [ -91.073719963683416, 32.448566136295504 ], [ -91.073966141521609, 32.448549373543223 ], [ -91.074181814460928, 32.448651405165023 ], [ -91.074294288025172, 32.448837840621216 ], [ -91.074265651261925, 32.449045840100354 ], [ -91.073885185440133, 32.449443084334497 ], [ -91.073491521499236, 32.450217772359906 ], [ -91.073126612718653, 32.450507901632264 ], [ -91.072763021992131, 32.450517472723249 ], [ -91.072536990032305, 32.450318770496402 ], [ -91.072542868290085, 32.450042747090166 ], [ -91.072812275793098, 32.449786255206831 ], [ -91.073201561364968, 32.449014864708289 ], [ -91.073719963683416, 32.448566136295504 ] ] ], [ [ [ -91.067771620726703, 32.44605037605902 ], [ -91.068020082634931, 32.445929224994636 ], [ -91.068265377835999, 32.445953518278515 ], [ -91.068453417043699, 32.446089274416067 ], [ -91.068518017460079, 32.446326053303991 ], [ -91.067932695519758, 32.44723048849707 ], [ -91.067559455421431, 32.44735491876088 ], [ -91.067275147651557, 32.447220395539411 ], [ -91.067186293438851, 32.446954807601337 ], [ -91.067771620726703, 32.44605037605902 ] ] ], [ [ [ -91.070591975119385, 32.44728029361189 ], [ -91.070811848174756, 32.447184930986076 ], [ -91.071094556626278, 32.447224928998502 ], [ -91.0712831689616, 32.447407923540254 ], [ -91.071302932134998, 32.447616663728972 ], [ -91.070640215380735, 32.448608921620888 ], [ -91.070471974520601, 32.448710778014451 ], [ -91.070225795955878, 32.448727533889276 ], [ -91.069958398566314, 32.448570034367918 ], [ -91.06990066397185, 32.448298341372066 ], [ -91.070591975119385, 32.44728029361189 ] ] ] ] } },
{ "type": "Feature", "properties": { "depth_bin": ">20 ft", "survey_id": "LM_06_MBV_20230802_CS_4530_4524", "date": "2023-08-02 00:00:00+00:00", "year": 2023, "mile": 453.0, "bin_order": 0 }, "geometry": { "type": "MultiPolygon", "coordinates": [ [ [ [ -91.080749339558238, 32.443952589667092 ], [ -91.081020884982763, 32.443874839941302 ], [ -91.081288959931868, 32.443960814527472 ], [ -91.081431864878638, 32.444171483140316 ], [ -91.081384723291805, 32.444411207059801 ], [ -91.080718191561942, 32.445285728148441 ], [ -91.080556211694457, 32.445634050868485 ], [ -91.080214215184796, 32.445887656782602 ], [ -91.079638834725202, 32.44676924689665 ], [ -91.079241701177239, 32.447246308745285 ], [ -91.078993621604269, 32.447367409331733 ], [ -91.078943747185519, 32.447696672938896 ], [ -91.078645763563728, 32.447936188053937 ], [ -91.078282825459624, 32.447915511572646 ], [ -91.07808084349098, 32.447698989304158 ], [ -91.078118583135961, 32.447424781108687 ], [ -91.07833045679152, 32.447208013970304 ], [ -91.078518519109153, 32.447136006259669 ], [ -91.078546292319828, 32.446836771962694 ], [ -91.07915260556733, 32.446088645521073 ], [ -91.079488598373032, 32.445513410983928 ], [ -91.079837445722802, 32.445210305410249 ], [ -91.080749339558238, 32.443952589667092 ] ] ], [ [ [ -91.077568135576485, 32.442902385691042 ], [ -91.077847358891958, 32.442847586941426 ], [ -91.078073777776567, 32.442931195131493 ], [ -91.078216673546152, 32.443141867082595 ], [ -91.078188048245948, 32.443349868042397 ], [ -91.077110543855525, 32.444925992189297 ], [ -91.076807615682768, 32.445240073560889 ], [ -91.076276395073577, 32.446144965692724 ], [ -91.075926231513321, 32.446482071421642 ], [ -91.075562656856761, 32.446491651233075 ], [ -91.075336628073288, 32.446292954063459 ], [ -91.075342496886506, 32.446016930025515 ], [ -91.077147068906925, 32.443368368957394 ], [ -91.077568135576485, 32.442902385691042 ] ] ], [ [ [ -91.07427873092027, 32.441836515651751 ], [ -91.074562941264986, 32.441805196126658 ], [ -91.074778599258678, 32.441907226243927 ], [ -91.074891066431832, 32.442093661083653 ], [ -91.074862433986411, 32.442301661042151 ], [ -91.074370468421819, 32.442821198853196 ], [ -91.074221182688873, 32.443254499411466 ], [ -91.073488833434567, 32.444279030288214 ], [ -91.073034821865733, 32.445137334609015 ], [ -91.07278661995889, 32.445366362471411 ], [ -91.072423049938621, 32.445375933371437 ], [ -91.072197031005231, 32.4451772308974 ], [ -91.072202909135868, 32.444901207320925 ], [ -91.072786803385824, 32.443876809770174 ], [ -91.073475685179574, 32.44291305850588 ], [ -91.07359172096227, 32.442526311301286 ], [ -91.07427873092027, 32.441836515651751 ] ] ], [ [ [ -91.071044873368862, 32.440719044035212 ], [ -91.071324093062913, 32.440664259634758 ], [ -91.071550499944621, 32.440747879151552 ], [ -91.071693376958052, 32.440958557870246 ], [ -91.071664737698612, 32.441166556870833 ], [ -91.069806352615444, 32.44414578625166 ], [ -91.069573098717825, 32.444287008106109 ], [ -91.069287137695326, 32.444270696139384 ], [ -91.06912335729379, 32.444163749488261 ], [ -91.069032992133359, 32.443968860752314 ], [ -91.069184917692652, 32.443538199775439 ], [ -91.069627139953027, 32.442987922825445 ], [ -91.069949969455621, 32.442287289463259 ], [ -91.071044873368862, 32.440719044035212 ] ] ] ] } }
]
}
