{
"type": "FeatureCollection",
"name": "LM_08_MVF_20190502_CS_MB_4930_4935_depth_polygons",
"crs": { "type": "name", "properties": { "name": "urn:ogc:def:crs:OGC:1.3:CRS84" } },
"features": [
{ "type": "Feature", "properties": { "depth_bin": "85-90 ft", "bin_order": -87.5, "survey_id": "LM_08_MVF_20190502_CS_MB_4930_4935", "date": "2019-05-02", "year": 2019, "mile": 493.0 }, "geometry": { "type": "MultiPolygon", "coordinates": [ [ [ [ -91.092310624039598, 32.869377414706136 ], [ -91.092403539931254, 32.869923721700218 ], [ -91.092266467714254, 32.870120423011969 ], [ -91.092045553371918, 32.870215779319878 ], [ -91.091676412413889, 32.870135541127311 ], [ -91.091298556539741, 32.869796532513305 ], [ -91.091171234634743, 32.869528543058593 ], [ -91.091256658564362, 32.869203748494769 ], [ -91.091531885483704, 32.869054557165505 ], [ -91.091957456783874, 32.869077760226418 ], [ -91.092310624039598, 32.869377414706136 ] ] ], [ [ [ -91.090950490105655, 32.870336115283735 ], [ -91.091100992968975, 32.870525943521258 ], [ -91.091131058951561, 32.870968715598174 ], [ -91.090918995982292, 32.871178905042065 ], [ -91.090592923172494, 32.871200988865581 ], [ -91.090343851273488, 32.871022030612174 ], [ -91.090187770951985, 32.870688829711312 ], [ -91.090201597654769, 32.870500207341692 ], [ -91.09049163528222, 32.870264147443642 ], [ -91.090764368935638, 32.870258321118527 ], [ -91.090950490105655, 32.870336115283735 ] ] ] ] } },
{ "type": "Feature", "properties": { "depth_bin": "90-95 ft", "bin_order": -92.5, "survey_id": "LM_08_MVF_20190502_CS_MB_4930_4935", "date": "2019-05-02", "year": 2019, "mile": 493.0 }, "geometry": { "type": "Polygon", "coordinates": [ [ [ -91.092616489590029, 32.868963296498251 ], [ -91.092734350084228, 32.869680712344476 ], [ -91.092458262270014, 32.870187023327802 ], [ -91.092241427318825, 32.870346944040406 ], [ -91.091912639468632, 32.870360379091828 ], [ -91.091766016198591, 32.870631914409984 ], [ -91.091395033746537, 32.870774445015002 ], [ -91.091136393125979, 32.871181029074826 ], [ -91.090817023968356, 32.871281362867919 ], [ -91.090511973399828, 32.871256447004399 ], [ -91.090285242810978, 32.871168934232387 ], [ -91.089865962558278, 32.870837329152025 ], [ -91.089657785793193, 32.870360416996135 ], [ -91.08981494459087, 32.87008776779097 ], [ -91.089771931837817, 32.869760735791751 ], [ -91.089913498745062, 32.869588759914798 ], [ -91.090232974039452, 32.869424783961954 ], [ -91.090480311794664, 32.869408032875995 ], [ -91.090666430955153, 32.869485827399814 ], [ -91.0907993380128, 32.869659028254034 ], [ -91.091270362488359, 32.869801897594023 ], [ -91.091017881549064, 32.869329433384955 ], [ -91.091051717208259, 32.869115323466673 ], [ -91.091178438782649, 32.868976451354939 ], [ -91.091759843088425, 32.86880066695894 ], [ -91.092347833833443, 32.868805806439269 ], [ -91.092616489590029, 32.868963296498251 ] ] ] } },
{ "type": "Feature", "properties": { "depth_bin": "95-100 ft", "bin_order": -97.5, "survey_id": "LM_08_MVF_20190502_CS_MB_4930_4935", "date": "2019-05-02", "year": 2019, "mile": 493.0 }, "geometry": { "type": "Polygon", "coordinates": [ [ [ -91.092461111910794, 32.86872266682095 ], [ -91.092824809946336, 32.868878774268737 ], [ -91.092941812466719, 32.869184738524787 ], [ -91.092862836063773, 32.869721426629788 ], [ -91.092633460682421, 32.870012779394756 ], [ -91.092461775167934, 32.870599263920774 ], [ -91.092189684596747, 32.870773533672462 ], [ -91.092172890056716, 32.871095730823015 ], [ -91.091956052320725, 32.871255650918641 ], [ -91.091637080100753, 32.871253244717664 ], [ -91.091412460556327, 32.871379961588033 ], [ -91.091162189418682, 32.871375480785296 ], [ -91.090876508698088, 32.871548112813507 ], [ -91.090502744356485, 32.87151638518985 ], [ -91.09008516391458, 32.871063883045622 ], [ -91.089145296876836, 32.870346971531845 ], [ -91.089010475412394, 32.870118781207836 ], [ -91.089057880254728, 32.869879077384013 ], [ -91.089290885973512, 32.86970532261418 ], [ -91.089551214826187, 32.869691531252997 ], [ -91.089895398844249, 32.869282160320772 ], [ -91.090116312925545, 32.869186807798961 ], [ -91.09046560386453, 32.869240156881673 ], [ -91.090815251336011, 32.869577249380733 ], [ -91.091127149724926, 32.869643489783407 ], [ -91.090646320067194, 32.869078234083879 ], [ -91.090693369376297, 32.868797305441412 ], [ -91.090910203052175, 32.868637387340321 ], [ -91.091214315851445, 32.868629756107389 ], [ -91.091462555865007, 32.868772244879814 ], [ -91.091749316916903, 32.868664153596036 ], [ -91.092091135168616, 32.86873968553936 ], [ -91.092461111910794, 32.86872266682095 ] ] ] } },
{ "type": "Feature", "properties": { "depth_bin": "100-105 ft", "bin_order": -102.5, "survey_id": "LM_08_MVF_20190502_CS_MB_4930_4935", "date": "2019-05-02", "year": 2019, "mile": 493.0 }, "geometry": { "type": "MultiPolygon", "coordinates": [ [ [ [ -91.094846441220653, 32.86725866161084 ], [ -91.095114455946899, 32.867601991419825 ], [ -91.095077111429759, 32.867944889324875 ], [ -91.094763519813469, 32.868137955669319 ], [ -91.094321318206525, 32.868073637216682 ], [ -91.093971390412662, 32.867843484169875 ], [ -91.093672830563008, 32.867514684161499 ], [ -91.093564992463996, 32.867119393471455 ], [ -91.09334717108564, 32.867074193676636 ], [ -91.093179426191284, 32.86694051579601 ], [ -91.093147064812129, 32.866587817113015 ], [ -91.093382502830707, 32.866396175687257 ], [ -91.093725835991123, 32.866401062496429 ], [ -91.093952074367579, 32.86658113198272 ], [ -91.093984775766458, 32.866835894295136 ], [ -91.094321134795806, 32.86689435210301 ], [ -91.094846441220653, 32.86725866161084 ] ] ], [ [ [ -91.093646642564508, 32.868474596889996 ], [ -91.093735929257505, 32.868740167742928 ], [ -91.093542409648677, 32.869001803285258 ], [ -91.093204197991156, 32.869050858000591 ], [ -91.09291872106742, 32.86886868660909 ], [ -91.09307405908342, 32.869168218418324 ], [ -91.093036474761846, 32.869672522712619 ], [ -91.092739594839003, 32.870100620263621 ], [ -91.092765167595232, 32.870320046647798 ], [ -91.092598064176045, 32.870535006203667 ], [ -91.092484957540435, 32.871103457928015 ], [ -91.092169024104791, 32.871405521485983 ], [ -91.091808920610646, 32.871386723741729 ], [ -91.091471051072588, 32.871593468319574 ], [ -91.091169132565796, 32.871544055791375 ], [ -91.090950329754406, 32.871637849275793 ], [ -91.090557314602677, 32.871614445406244 ], [ -91.09031086795693, 32.871453030740646 ], [ -91.08978145461424, 32.870847771072107 ], [ -91.089482267654517, 32.870809187641228 ], [ -91.089256995999037, 32.870689183376236 ], [ -91.088820377620905, 32.870036926910565 ], [ -91.088867128065303, 32.869699176199546 ], [ -91.089327033252118, 32.869462550183918 ], [ -91.089159745252672, 32.869120801901246 ], [ -91.089288960521927, 32.868818596641546 ], [ -91.089551466959492, 32.868718686145691 ], [ -91.089884702074329, 32.86880800665913 ], [ -91.090137653939664, 32.868715140969819 ], [ -91.090400465700924, 32.868761753599358 ], [ -91.090555946703503, 32.868540475166 ], [ -91.090863802060227, 32.868449406223846 ], [ -91.090916423859312, 32.868218787524327 ], [ -91.091133255691815, 32.868058868955899 ], [ -91.091437366519116, 32.868051237111899 ], [ -91.091860536346502, 32.8682612359054 ], [ -91.092013611000795, 32.868406856525596 ], [ -91.092060360850056, 32.868586386008239 ], [ -91.092573804209707, 32.868570819578927 ], [ -91.092875679561288, 32.868766634161993 ], [ -91.092921912051395, 32.868522693289485 ], [ -91.093138741228771, 32.868362771144639 ], [ -91.093402358634251, 32.86834591524012 ], [ -91.093646642564508, 32.868474596889996 ] ] ] ] } },
{ "type": "Feature", "properties": { "depth_bin": "105-110 ft", "bin_order": -107.5, "survey_id": "LM_08_MVF_20190502_CS_MB_4930_4935", "date": "2019-05-02", "year": 2019, "mile": 493.0 }, "geometry": { "type": "MultiPolygon", "coordinates": [ [ [ [ -91.095789718309376, 32.864961049182256 ], [ -91.09598681778985, 32.865108757161579 ], [ -91.096051736229839, 32.865345520897193 ], [ -91.095952664560642, 32.865537505094444 ], [ -91.095734347862418, 32.865652548600785 ], [ -91.095647061116466, 32.865979113847857 ], [ -91.095397438498537, 32.866100269960512 ], [ -91.095115132131383, 32.866061002067546 ], [ -91.095062895812504, 32.866282185765648 ], [ -91.094846075179376, 32.866442111610709 ], [ -91.094623833088875, 32.866464795532288 ], [ -91.094396346868066, 32.866381182134575 ], [ -91.094252788529445, 32.866170515502183 ], [ -91.094281328296674, 32.86593504512129 ], [ -91.094516762185165, 32.865743401387618 ], [ -91.094870939971798, 32.865759722959957 ], [ -91.09485425686114, 32.865558935794461 ], [ -91.094995271177538, 32.865361231840332 ], [ -91.094957690210308, 32.865167173177646 ], [ -91.095056763531261, 32.864975189821685 ], [ -91.095406060392378, 32.864834534094449 ], [ -91.095789718309376, 32.864961049182256 ] ] ], [ [ [ -91.095353672921675, 32.867544156386813 ], [ -91.095469645837554, 32.867749894094182 ], [ -91.095700317194101, 32.867833686144238 ], [ -91.095869602090886, 32.868026116488444 ], [ -91.095913611821203, 32.868232197099616 ], [ -91.095840124988271, 32.868396135965597 ], [ -91.095476949950339, 32.868577946975421 ], [ -91.095285554399126, 32.868888384984757 ], [ -91.094913209903922, 32.868958013026798 ], [ -91.094590839364827, 32.86874255996301 ], [ -91.094585463015434, 32.868359183765733 ], [ -91.094165831268114, 32.868029714579869 ], [ -91.094440022676707, 32.868342033700202 ], [ -91.094434234564488, 32.868631784458394 ], [ -91.094273384338805, 32.868791228464453 ], [ -91.094018618390194, 32.868848479199073 ], [ -91.094014011422658, 32.869137265278724 ], [ -91.093824190350645, 32.869378249709861 ], [ -91.093518778795541, 32.8694561724934 ], [ -91.093237701527116, 32.869360873416134 ], [ -91.093156906298049, 32.869697688070119 ], [ -91.092916700275225, 32.869988886249672 ], [ -91.092884977224472, 32.870408394795966 ], [ -91.092603995296145, 32.870801159307177 ], [ -91.092617684141828, 32.871391235920612 ], [ -91.091986828449095, 32.871898677487152 ], [ -91.09172244545681, 32.871894990346163 ], [ -91.091342822159362, 32.87172766910372 ], [ -91.09107506612159, 32.87191794592475 ], [ -91.090714570255372, 32.871867179896952 ], [ -91.090175607668456, 32.871355791632041 ], [ -91.089681624932993, 32.871095820154615 ], [ -91.087799050342696, 32.869667329918492 ], [ -91.087564322080468, 32.869406237342375 ], [ -91.087583661202274, 32.869163766940126 ], [ -91.08774452367328, 32.869004332016118 ], [ -91.088029519522109, 32.868897089888407 ], [ -91.08831644127757, 32.868904170744209 ], [ -91.088969138476557, 32.868670161899004 ], [ -91.089302096348604, 32.868335309835466 ], [ -91.089675905910056, 32.868166547423996 ], [ -91.089969895097752, 32.86818565147658 ], [ -91.090146122834625, 32.868014138408476 ], [ -91.090499176605618, 32.867919929145835 ], [ -91.090717245515307, 32.86769093134405 ], [ -91.091059588156796, 32.867668748080469 ], [ -91.091397762878145, 32.867901142044609 ], [ -91.091321766092662, 32.867586731692626 ], [ -91.091560012528035, 32.86732896286231 ], [ -91.091629205796224, 32.867057728840813 ], [ -91.091904425313757, 32.866908536376592 ], [ -91.09232247615752, 32.866997860219236 ], [ -91.092386809414521, 32.866946443769059 ], [ -91.092287639733712, 32.866773362663011 ], [ -91.092301461007665, 32.866584739779896 ], [ -91.092527501710805, 32.866254835413393 ], [ -91.092736266673569, 32.866141663841439 ], [ -91.093316433601075, 32.866111516959407 ], [ -91.093552533949691, 32.866175912106556 ], [ -91.094037640125876, 32.866589556996757 ], [ -91.094121882735848, 32.866745129509809 ], [ -91.09447010531062, 32.866843694134516 ], [ -91.095353672921675, 32.867544156386813 ] ], [ [ -91.091154133219121, 32.870551091382531 ], [ -91.091253895889267, 32.870321772402733 ], [ -91.090747339946276, 32.870200715114699 ], [ -91.090654195213631, 32.870188628897253 ], [ -91.09050142660324, 32.87042621554076 ], [ -91.090789811497729, 32.870717789486754 ], [ -91.091154133219121, 32.870551091382531 ] ], [ [ -91.092001570130861, 32.869685271070338 ], [ -91.092142121437291, 32.869436892974534 ], [ -91.091848572649084, 32.869353801154539 ], [ -91.092001570130861, 32.869685271070338 ] ], [ [ -91.093889306861698, 32.867845321416333 ], [ -91.094007967513761, 32.867928357369827 ], [ -91.093900163291593, 32.867810903855151 ], [ -91.093889306861698, 32.867845321416333 ] ], [ [ -91.091656909059907, 32.868112101902554 ], [ -91.091668543960125, 32.868121965294641 ], [ -91.091688932048456, 32.868126100180604 ], [ -91.091656909059907, 32.868112101902554 ] ] ] ] } },
{ "type": "Feature", "properties": { "depth_bin": "110-115 ft", "bin_order": -112.5, "survey_id": "LM_08_MVF_20190502_CS_MB_4930_4935", "date": "2019-05-02", "year": 2019, "mile": 493.0 }, "geometry": { "type": "MultiPolygon", "coordinates": [ [ [ [ -91.095489547535465, 32.864523602636915 ], [ -91.096512340042324, 32.865408482468226 ], [ -91.096518788587531, 32.865583675010356 ], [ -91.096399174689481, 32.865765392583668 ], [ -91.096551634865577, 32.865905679048893 ], [ -91.096598458380029, 32.866076443575693 ], [ -91.096474373592727, 32.866399668799062 ], [ -91.096083202548073, 32.866568471688005 ], [ -91.095299247580641, 32.866495833095222 ], [ -91.095078584729166, 32.866410987055204 ], [ -91.094863522688115, 32.866502041193705 ], [ -91.094614685122892, 32.866496032221455 ], [ -91.094518279816484, 32.866709119537262 ], [ -91.094792274047109, 32.866767805828651 ], [ -91.095132097223654, 32.866995158731278 ], [ -91.095342174233252, 32.8673853409435 ], [ -91.095646996849752, 32.867569853262353 ], [ -91.095835154733621, 32.867806453014389 ], [ -91.09597888836835, 32.86824519517166 ], [ -91.096290730466464, 32.868184834489384 ], [ -91.096581588439989, 32.868319967913166 ], [ -91.096711109741875, 32.868533776097976 ], [ -91.096682810723294, 32.868796729745881 ], [ -91.096521964063001, 32.868956176777921 ], [ -91.096325178088023, 32.869012239880014 ], [ -91.096087746270427, 32.868983596945178 ], [ -91.095873270442908, 32.868829156272525 ], [ -91.095722835201258, 32.869125584438031 ], [ -91.095431610651843, 32.869251301318009 ], [ -91.095172875681243, 32.869206848963145 ], [ -91.094671604241, 32.868902256254636 ], [ -91.094453789800355, 32.869025343914821 ], [ -91.09416423768802, 32.869013624220905 ], [ -91.094046978812514, 32.869352848192477 ], [ -91.093868382154341, 32.869498218627193 ], [ -91.093600897709464, 32.869538125625347 ], [ -91.093362262860978, 32.869483567425434 ], [ -91.093505853843197, 32.870038749153061 ], [ -91.093704912264513, 32.870345237677689 ], [ -91.093685589344744, 32.87058770958577 ], [ -91.093488374481907, 32.870764797986723 ], [ -91.093167512808904, 32.870788074561155 ], [ -91.093300168478962, 32.871106450212501 ], [ -91.09305606044073, 32.871543857966948 ], [ -91.092638872790729, 32.871893123046036 ], [ -91.09229607209295, 32.871937326704149 ], [ -91.092247154890131, 32.872167160523077 ], [ -91.092007910742467, 32.872377923399341 ], [ -91.091606242754423, 32.872405129859231 ], [ -91.091417304983636, 32.872269382449929 ], [ -91.091350189945402, 32.872084543153413 ], [ -91.091080552081323, 32.87208699294402 ], [ -91.090894427205541, 32.872009198854578 ], [ -91.089290495467409, 32.87079891718804 ], [ -91.089108598727179, 32.870536430602868 ], [ -91.088747412056094, 32.870386877803575 ], [ -91.087402807561105, 32.869339105049534 ], [ -91.087337909989287, 32.869102337702905 ], [ -91.087465729501503, 32.868884569961168 ], [ -91.088576955448843, 32.868493870255932 ], [ -91.089055871606874, 32.868103182092369 ], [ -91.089557020518157, 32.867963021909461 ], [ -91.089718516161895, 32.867721017707176 ], [ -91.090609790336757, 32.867186749975602 ], [ -91.090508118363971, 32.866947241169015 ], [ -91.090638742300868, 32.866694154011348 ], [ -91.091319805134532, 32.866248047528828 ], [ -91.091616635966332, 32.86619317171489 ], [ -91.092065524813407, 32.86585874871556 ], [ -91.092499264396722, 32.865759184945304 ], [ -91.092821077407336, 32.865841696789317 ], [ -91.09322102144948, 32.865703505068645 ], [ -91.093588877682876, 32.8652102419166 ], [ -91.093924378176752, 32.865018675657737 ], [ -91.094352982192973, 32.864951121736809 ], [ -91.094480224355138, 32.864623271894679 ], [ -91.094936471764186, 32.864465497504078 ], [ -91.095489547535465, 32.864523602636915 ] ], [ [ -91.091733631108809, 32.870655833266873 ], [ -91.091841300919555, 32.870474014695255 ], [ -91.091825677367368, 32.870127544900129 ], [ -91.092021767307543, 32.869951005918402 ], [ -91.09214969468573, 32.869626744351926 ], [ -91.09229493671593, 32.869493113699811 ], [ -91.092245124325515, 32.869295024373997 ], [ -91.091815231656227, 32.869189439043005 ], [ -91.091583531913614, 32.869283767347255 ], [ -91.091727735605502, 32.86954645885276 ], [ -91.091734408568342, 32.869749133852189 ], [ -91.091604321074897, 32.870070931390863 ], [ -91.091369954741751, 32.870212144636213 ], [ -91.091105576841628, 32.87020845635849 ], [ -91.090494682443037, 32.869993261258927 ], [ -91.090120691327243, 32.869755680728296 ], [ -91.089721505917424, 32.869991939316904 ], [ -91.0897252623367, 32.870146178337713 ], [ -91.089989766834151, 32.870162538227746 ], [ -91.090217158461556, 32.870271844601838 ], [ -91.090812385515306, 32.870864351096962 ], [ -91.091033190385261, 32.870755582177615 ], [ -91.091346119202868, 32.870769473469693 ], [ -91.091733631108809, 32.870655833266873 ] ] ], [ [ [ -91.087501379080933, 32.86730817904192 ], [ -91.087521417556644, 32.867629254665658 ], [ -91.087227198722289, 32.867889370076696 ], [ -91.086770758935799, 32.867898487960105 ], [ -91.086521704010948, 32.867719522623339 ], [ -91.086510391737036, 32.867411249108194 ], [ -91.086804610934465, 32.867151135378855 ], [ -91.08720403842986, 32.867105411504767 ], [ -91.087501379080933, 32.86730817904192 ] ] ] ] } },
{ "type": "Feature", "properties": { "depth_bin": "115-120 ft", "bin_order": -117.5, "survey_id": "LM_08_MVF_20190502_CS_MB_4930_4935", "date": "2019-05-02", "year": 2019, "mile": 493.0 }, "geometry": { "type": "MultiPolygon", "coordinates": [ [ [ [ -91.101773654196009, 32.869501058505222 ], [ -91.101922501318825, 32.8697816847125 ], [ -91.101744159884475, 32.870071920637166 ], [ -91.101197481820137, 32.870294356455766 ], [ -91.099097870647626, 32.871665043727525 ], [ -91.098788768286298, 32.871730071087008 ], [ -91.098503095491466, 32.871595575381022 ], [ -91.098413555932837, 32.871302524831819 ], [ -91.09859321981908, 32.871013851739455 ], [ -91.099291313930223, 32.870660443077213 ], [ -91.100351797292774, 32.869621383023016 ], [ -91.10141173140569, 32.869374750501848 ], [ -91.101773654196009, 32.869501058505222 ] ] ], [ [ [ -91.097297964004426, 32.865983018561089 ], [ -91.097463197404196, 32.86627729592179 ], [ -91.097266881430627, 32.866574253880238 ], [ -91.096986332965557, 32.866629043694289 ], [ -91.096630639185165, 32.866527716623324 ], [ -91.096059021676581, 32.866655549813458 ], [ -91.095930211242319, 32.866762507250534 ], [ -91.096187910962655, 32.866784591189685 ], [ -91.0965210859938, 32.866959873018885 ], [ -91.096639492228306, 32.867181398447471 ], [ -91.096611335667589, 32.867596576112085 ], [ -91.096965279602074, 32.86762030932401 ], [ -91.097168203268041, 32.8678368243812 ], [ -91.097082599437726, 32.868182829981663 ], [ -91.096913573508417, 32.868284687198212 ], [ -91.096690877600864, 32.868304919721808 ], [ -91.096814094441697, 32.868554539012088 ], [ -91.096740393410627, 32.868940327358601 ], [ -91.096567844614782, 32.869069515763059 ], [ -91.096328435852541, 32.869107952035243 ], [ -91.096328202631199, 32.869356785887916 ], [ -91.096186648134719, 32.869528769503333 ], [ -91.095501044247357, 32.869704322554014 ], [ -91.095397133380004, 32.869910461666329 ], [ -91.095166310759879, 32.870050674468231 ], [ -91.094809821476304, 32.870476001441801 ], [ -91.094466157918021, 32.870574794837708 ], [ -91.094436265616594, 32.870775532807272 ], [ -91.094129004227668, 32.871265307365078 ], [ -91.093920228564926, 32.871378480799969 ], [ -91.093691228491849, 32.871379046667229 ], [ -91.09351591045305, 32.871571476700112 ], [ -91.093214900391942, 32.872021247251809 ], [ -91.093194369374288, 32.87231666256401 ], [ -91.093020071232999, 32.872561934526303 ], [ -91.092799151435329, 32.872657291938403 ], [ -91.092486022419664, 32.872662952599114 ], [ -91.092214109501768, 32.872798262885098 ], [ -91.091930055151352, 32.872758264610333 ], [ -91.09153369675812, 32.872500039505802 ], [ -91.090880263848888, 32.871998600866974 ], [ -91.09068996836892, 32.871753573866769 ], [ -91.090468799233363, 32.871690021364358 ], [ -91.089978831186201, 32.871316953539136 ], [ -91.089860436880556, 32.871095422345945 ], [ -91.089961044518233, 32.870832749680595 ], [ -91.090252281425776, 32.870707046049347 ], [ -91.090625234618116, 32.870778301248748 ], [ -91.090920674153807, 32.87101899173004 ], [ -91.09123385834927, 32.870963988176484 ], [ -91.091582934424082, 32.871079604717117 ], [ -91.091892054345223, 32.870933121902787 ], [ -91.091863664436417, 32.870627559850035 ], [ -91.092100570421778, 32.870357143107036 ], [ -91.092118695702908, 32.869980136847616 ], [ -91.092264027558457, 32.869667276814774 ], [ -91.092468591403858, 32.86945230887298 ], [ -91.092361123749072, 32.869186034697705 ], [ -91.09201168666263, 32.868792810363196 ], [ -91.091557038448911, 32.868758526905161 ], [ -91.091212827033601, 32.868631517788835 ], [ -91.09113692110202, 32.868744802928759 ], [ -91.091232087127906, 32.868945777478885 ], [ -91.0911570759325, 32.869180407472953 ], [ -91.090913835833405, 32.869338078790989 ], [ -91.090586885233918, 32.869364018645001 ], [ -91.090318096133473, 32.869286073440612 ], [ -91.089996989386847, 32.869008842743639 ], [ -91.089922054572668, 32.8686761531211 ], [ -91.088943231872989, 32.869308771261245 ], [ -91.088426148555783, 32.869359569884004 ], [ -91.088017537700125, 32.869525557338761 ], [ -91.087680159571406, 32.869528313831999 ], [ -91.087045141796096, 32.869094708171829 ], [ -91.086741600709487, 32.868771452267467 ], [ -91.086747530088459, 32.868495444978045 ], [ -91.087091687798534, 32.86816732797854 ], [ -91.086347983261831, 32.867790351763766 ], [ -91.086105468727041, 32.867429109712063 ], [ -91.086134146600997, 32.867207383258325 ], [ -91.086295007855654, 32.867047950118 ], [ -91.087401298608043, 32.866711581737405 ], [ -91.087712625454401, 32.866796551342219 ], [ -91.088189653647589, 32.866656166390726 ], [ -91.088429440901734, 32.866667739396938 ], [ -91.088780461892682, 32.866868772801809 ], [ -91.088933328013439, 32.867177316377862 ], [ -91.089158540663391, 32.866881752857772 ], [ -91.090130481155285, 32.866172796202406 ], [ -91.090654312979041, 32.866086812242564 ], [ -91.091870184206329, 32.865402762457911 ], [ -91.092150265862003, 32.865365900409294 ], [ -91.092498711169242, 32.865100307485115 ], [ -91.092802872843521, 32.865048853123866 ], [ -91.093005379701779, 32.864859933349202 ], [ -91.093465808005163, 32.864857029299664 ], [ -91.094680847753139, 32.864060802818415 ], [ -91.095033684855693, 32.864141130580656 ], [ -91.095813318044989, 32.864778535581443 ], [ -91.095903803309113, 32.865044319156794 ], [ -91.096361402313121, 32.865224350075593 ], [ -91.096589196591282, 32.865406603694836 ], [ -91.096692740548562, 32.865558544196652 ], [ -91.096721136608508, 32.865830229606296 ], [ -91.097036096912106, 32.865818450770341 ], [ -91.097297964004426, 32.865983018561089 ] ], [ [ -91.095716029290116, 32.866859739433593 ], [ -91.095637419401541, 32.866903943301288 ], [ -91.095560864494246, 32.86692941507377 ], [ -91.095638757598991, 32.86694853717573 ], [ -91.095716029290116, 32.866859739433593 ] ], [ [ -91.095789297537166, 32.866810342104003 ], [ -91.095771278068156, 32.86681328117281 ], [ -91.095744016662294, 32.866838369676046 ], [ -91.095789297537166, 32.866810342104003 ] ], [ [ -91.088003680807816, 32.868423471283805 ], [ -91.088673600606015, 32.867879575558376 ], [ -91.088757812370389, 32.867765340779648 ], [ -91.088686733950482, 32.867661285198942 ], [ -91.088452437543154, 32.867892039651636 ], [ -91.087819596309131, 32.868141221348154 ], [ -91.088003680807816, 32.868423471283805 ] ] ], [ [ [ -91.097375365279191, 32.866622731784432 ], [ -91.097644702263807, 32.866708713529825 ], [ -91.097791709116905, 32.866941710917743 ], [ -91.098160855447304, 32.866873994996688 ], [ -91.098467673673071, 32.867094420250126 ], [ -91.098443168350911, 32.867402148954412 ], [ -91.098105352253626, 32.867819288744379 ], [ -91.097936328135063, 32.867921147417519 ], [ -91.097672712400353, 32.867938012951235 ], [ -91.097372256933227, 32.867819700101997 ], [ -91.097205344159065, 32.867616237161307 ], [ -91.09719611600579, 32.867354739006537 ], [ -91.096970277916625, 32.867156576429984 ], [ -91.097016642161563, 32.866777597404152 ], [ -91.097375365279191, 32.866622731784432 ] ] ], [ [ [ -91.09841751762518, 32.871931379868478 ], [ -91.098403707921435, 32.872120003676386 ], [ -91.098261402582025, 32.872296377497214 ], [ -91.09723287838284, 32.872885261821224 ], [ -91.095811890340272, 32.873834998353573 ], [ -91.0955887235326, 32.874073910474856 ], [ -91.095243249791906, 32.874156574928612 ], [ -91.094916799484864, 32.873979622958394 ], [ -91.094818254006185, 32.873619385378909 ], [ -91.095020255151468, 32.873248534703734 ], [ -91.095364694555244, 32.872936213814882 ], [ -91.095649188347423, 32.872859145702101 ], [ -91.096080358437007, 32.87232095269777 ], [ -91.096708978014448, 32.871877002862455 ], [ -91.096954385048335, 32.871793158576317 ], [ -91.097287215926428, 32.87185060115069 ], [ -91.097629017938246, 32.871688475978864 ], [ -91.098004588679601, 32.871634736454595 ], [ -91.098273941257389, 32.871720717355643 ], [ -91.09841751762518, 32.871931379868478 ] ] ] ] } },
{ "type": "Feature", "properties": { "depth_bin": "120-125 ft", "bin_order": -122.5, "survey_id": "LM_08_MVF_20190502_CS_MB_4930_4935", "date": "2019-05-02", "year": 2019, "mile": 493.0 }, "geometry": { "type": "Polygon", "coordinates": [ [ [ -91.101241771206389, 32.869058322904799 ], [ -91.1019249893302, 32.869665587770463 ], [ -91.10196223294173, 32.869920321559725 ], [ -91.101825418471819, 32.870144515732825 ], [ -91.101214120353859, 32.87033548037887 ], [ -91.098708305152797, 32.871940998722273 ], [ -91.098246341064652, 32.872347054329225 ], [ -91.095871415252489, 32.873830158518473 ], [ -91.095671196106011, 32.874084914692787 ], [ -91.095151088583279, 32.874470143045492 ], [ -91.094993308916514, 32.874703053615995 ], [ -91.094678597079024, 32.874778405664401 ], [ -91.094420524309996, 32.874670551808464 ], [ -91.094300813408665, 32.874413645851291 ], [ -91.09447801503218, 32.87412822807714 ], [ -91.094441028340086, 32.873670722018261 ], [ -91.094508642555766, 32.873346161199251 ], [ -91.094955101791527, 32.872554748410643 ], [ -91.094970745479102, 32.87218981987062 ], [ -91.094892455335057, 32.872046684604101 ], [ -91.094757704103017, 32.872107876489864 ], [ -91.094825331821454, 32.872361444093762 ], [ -91.094649377186755, 32.872661964923608 ], [ -91.094259255941068, 32.872832821041975 ], [ -91.094065867326023, 32.873093753861177 ], [ -91.093751996124595, 32.873143846996264 ], [ -91.09349933648339, 32.873495717640466 ], [ -91.093081492246057, 32.873553961359178 ], [ -91.092812139802888, 32.873467969273065 ], [ -91.091173117801176, 32.872227383162532 ], [ -91.090963606299994, 32.871920918248804 ], [ -91.090977081045793, 32.871691071825602 ], [ -91.091103116042817, 32.871514805321794 ], [ -91.091365628747525, 32.871414891273794 ], [ -91.091680519719475, 32.871491462746206 ], [ -91.092272961591021, 32.870878106110759 ], [ -91.092221869839776, 32.87002736041935 ], [ -91.092400687226089, 32.869691525457505 ], [ -91.092634006447057, 32.869489082019271 ], [ -91.092136004528257, 32.868742622422744 ], [ -91.091809858088752, 32.868595620926932 ], [ -91.091642839960727, 32.868378409599913 ], [ -91.091680548798152, 32.868076737104722 ], [ -91.091957219964044, 32.867881300722111 ], [ -91.091708600924065, 32.867615139381869 ], [ -91.091737381966993, 32.867407152508903 ], [ -91.091888635007479, 32.867253495726544 ], [ -91.091778389561654, 32.867085833922921 ], [ -91.091782875176577, 32.866876467807046 ], [ -91.092072896499147, 32.866640403523725 ], [ -91.092809107670448, 32.866599999438485 ], [ -91.093037264078916, 32.866748269041068 ], [ -91.093102292749109, 32.866998775334999 ], [ -91.09294290914697, 32.867239842011358 ], [ -91.092611987111425, 32.867355488908281 ], [ -91.092673368260236, 32.867475221080333 ], [ -91.092918275767943, 32.86733345571087 ], [ -91.09321801826809, 32.867312120700099 ], [ -91.093345403753517, 32.867117484727409 ], [ -91.093545248124883, 32.867024307720619 ], [ -91.093251005088575, 32.86677664590345 ], [ -91.093053080818962, 32.866484557210995 ], [ -91.092666741967264, 32.8662566247923 ], [ -91.092378609249067, 32.86618302034708 ], [ -91.091537053049066, 32.866801501095097 ], [ -91.091052940340404, 32.86696083608139 ], [ -91.090999510501916, 32.867158870391648 ], [ -91.090857272349027, 32.867286591649581 ], [ -91.090484699486353, 32.86732307794415 ], [ -91.090451500284033, 32.867515360890359 ], [ -91.090169469184772, 32.86793585818112 ], [ -91.089929805169035, 32.868078103889573 ], [ -91.089679534807573, 32.868372723158203 ], [ -91.088593067496973, 32.869114235108597 ], [ -91.087739909421416, 32.869431037662594 ], [ -91.087420289552696, 32.869372285616201 ], [ -91.086558597765034, 32.868713525715989 ], [ -91.086473214902497, 32.868553745340606 ], [ -91.08650988688828, 32.868332337880908 ], [ -91.086396048554363, 32.867847125379612 ], [ -91.086309452935609, 32.86778645174477 ], [ -91.086055995541898, 32.868033844167954 ], [ -91.085729933740794, 32.868055915695408 ], [ -91.085370595483212, 32.867798484617566 ], [ -91.085305588299704, 32.867547975055253 ], [ -91.085464992673963, 32.867306918908554 ], [ -91.085955547584177, 32.867145641835265 ], [ -91.08624261589766, 32.866835010507771 ], [ -91.087468680320981, 32.866047189586688 ], [ -91.087868889264968, 32.866086645357889 ], [ -91.088112179488476, 32.866403598057126 ], [ -91.088868628343363, 32.866074900593397 ], [ -91.089115076345323, 32.866099194744145 ], [ -91.089324233900825, 32.866254219359476 ], [ -91.089608984442719, 32.866205490057659 ], [ -91.090697337314651, 32.865555901066031 ], [ -91.091243521150318, 32.865142021389133 ], [ -91.09223085188934, 32.864611227370098 ], [ -91.092284442398778, 32.864417685582929 ], [ -91.09242667379273, 32.864289962402474 ], [ -91.093012130777282, 32.864192185919777 ], [ -91.093935635396321, 32.863662403208671 ], [ -91.094216175945135, 32.863607619942982 ], [ -91.094705577254359, 32.863854545034151 ], [ -91.09520652795517, 32.864273776102522 ], [ -91.095432415788196, 32.864796673338347 ], [ -91.095434250300826, 32.864986294749116 ], [ -91.095700664804369, 32.865028578150856 ], [ -91.096575033418489, 32.865396006373892 ], [ -91.097983102597183, 32.866552424819162 ], [ -91.098102631606579, 32.866804350251627 ], [ -91.09872112920992, 32.867166303700699 ], [ -91.098895825404711, 32.867446267602958 ], [ -91.099221755647193, 32.867680713873789 ], [ -91.099241625902735, 32.867889442318152 ], [ -91.09912527507953, 32.868068233925996 ], [ -91.099448066460852, 32.867986889709321 ], [ -91.099758103895709, 32.86815018801245 ], [ -91.099790373602048, 32.868489144528638 ], [ -91.099515204303145, 32.86869212071587 ], [ -91.099307608048619, 32.868697567445103 ], [ -91.09909091731258, 32.868595546829042 ], [ -91.098987365894359, 32.868443608104741 ], [ -91.098990244248469, 32.868239217815855 ], [ -91.098772644169358, 32.868390245779985 ], [ -91.098475486824825, 32.868701079933238 ], [ -91.098463900564141, 32.86894000422928 ], [ -91.098688924620404, 32.869125592346492 ], [ -91.099124002054268, 32.868963233321125 ], [ -91.099324349811482, 32.868779112417336 ], [ -91.099769571547469, 32.868691445075882 ], [ -91.100101635138714, 32.868517038879872 ], [ -91.100670812009071, 32.868683256208072 ], [ -91.101241771206389, 32.869058322904799 ] ], [ [ -91.094915565727348, 32.867725470917037 ], [ -91.095167400805053, 32.868058489406174 ], [ -91.095086595448635, 32.867741697646046 ], [ -91.094319880536375, 32.867233639012007 ], [ -91.094915565727348, 32.867725470917037 ] ], [ [ -91.096860117391458, 32.8669989871971 ], [ -91.09685905444978, 32.866970112299448 ], [ -91.0968480110229, 32.867009697659462 ], [ -91.096860117391458, 32.8669989871971 ] ], [ [ -91.092904364170906, 32.868260411408826 ], [ -91.093576348224104, 32.868624263273659 ], [ -91.093691175471292, 32.868428071601741 ], [ -91.093420441623223, 32.868086003931012 ], [ -91.093207621573583, 32.868151723926324 ], [ -91.093002758926588, 32.868122877416106 ], [ -91.092749349387276, 32.868012754808277 ], [ -91.092593308805959, 32.867802727916285 ], [ -91.092382877912513, 32.867932238421623 ], [ -91.09260610446691, 32.868055577949548 ], [ -91.092734019194438, 32.868263566729006 ], [ -91.092904364170906, 32.868260411408826 ] ] ] } },
{ "type": "Feature", "properties": { "depth_bin": "125-130 ft", "bin_order": -127.5, "survey_id": "LM_08_MVF_20190502_CS_MB_4930_4935", "date": "2019-05-02", "year": 2019, "mile": 493.0 }, "geometry": { "type": "MultiPolygon", "coordinates": [ [ [ [ -91.099701709105886, 32.867968401348605 ], [ -91.100917448993258, 32.868829376892542 ], [ -91.101073666101641, 32.869057309068722 ], [ -91.101100440554546, 32.869231123874478 ], [ -91.101001374813492, 32.869423112200074 ], [ -91.100579889533108, 32.869590873897401 ], [ -91.100195453735708, 32.87007430110399 ], [ -91.09964890406674, 32.870221582479921 ], [ -91.098959454045968, 32.870717689683367 ], [ -91.098486742821223, 32.870756154007886 ], [ -91.098216337072344, 32.870952167510232 ], [ -91.097727902664019, 32.871155468602652 ], [ -91.097004596859577, 32.871666540621973 ], [ -91.096873998950997, 32.871920077310392 ], [ -91.096407831146578, 32.87218342016206 ], [ -91.095710222040665, 32.873065943569749 ], [ -91.100813911422065, 32.869676957183486 ], [ -91.101485067621155, 32.86948854481804 ], [ -91.101731529745322, 32.869512814553552 ], [ -91.102004860195279, 32.869772311428143 ], [ -91.101944741526168, 32.870076533221862 ], [ -91.101739868396635, 32.870233411586618 ], [ -91.101235023848574, 32.870358926364851 ], [ -91.100911026335254, 32.870553295150494 ], [ -91.098295191794179, 32.872346755596986 ], [ -91.096810814396463, 32.873233520360728 ], [ -91.0959742891025, 32.873820458451583 ], [ -91.095024661263565, 32.87476444937537 ], [ -91.094753368284316, 32.874821806086587 ], [ -91.094517244339357, 32.874757412419989 ], [ -91.093825118620202, 32.87415127036973 ], [ -91.093598924678147, 32.87406783947096 ], [ -91.092319810939529, 32.873074690771155 ], [ -91.092236631379976, 32.872853753319148 ], [ -91.092251840584311, 32.872364914796542 ], [ -91.092449061515794, 32.87218782860954 ], [ -91.09272726531799, 32.872153090239856 ], [ -91.092878601497688, 32.871850352020743 ], [ -91.092821069219823, 32.871549091344946 ], [ -91.092993029311401, 32.87119915034436 ], [ -91.093545048640934, 32.870949222017856 ], [ -91.09332028573391, 32.870835491140518 ], [ -91.09307785095875, 32.871042711304788 ], [ -91.092734500031682, 32.871037822101712 ], [ -91.092507408836298, 32.870839127256218 ], [ -91.092498479157584, 32.870596224645105 ], [ -91.092674177446938, 32.870403677662992 ], [ -91.092870968546521, 32.870347620517435 ], [ -91.093107177529632, 32.870382662087074 ], [ -91.093382630675819, 32.870156800351587 ], [ -91.093498628395892, 32.869622675544001 ], [ -91.093658194432706, 32.869424249709226 ], [ -91.093846186245983, 32.869335318176567 ], [ -91.093707529349658, 32.869059663890319 ], [ -91.093735837228706, 32.868796711183208 ], [ -91.093928902244187, 32.868595845039337 ], [ -91.094218970374499, 32.868537627459347 ], [ -91.093981680412355, 32.868179312863703 ], [ -91.093557860065062, 32.867910576221277 ], [ -91.09349440717412, 32.867698685770584 ], [ -91.09354803422282, 32.867474493501938 ], [ -91.093722599772292, 32.867319088462743 ], [ -91.093951831381474, 32.867249090033411 ], [ -91.094426384399583, 32.867387955597749 ], [ -91.094861987898895, 32.867780100368336 ], [ -91.095170849708438, 32.868195278449392 ], [ -91.095186881869012, 32.868606559724952 ], [ -91.095256857842642, 32.868672446372202 ], [ -91.095236088971291, 32.86831876451032 ], [ -91.095405351954497, 32.868102493226338 ], [ -91.095453485209006, 32.867810571358369 ], [ -91.095596363338757, 32.867657853902351 ], [ -91.095854484906724, 32.867543722450641 ], [ -91.09586875815782, 32.867330356018677 ], [ -91.095642221114204, 32.866988939709458 ], [ -91.095182139432083, 32.86701107903275 ], [ -91.094987882640794, 32.866949061385256 ], [ -91.094801160314077, 32.866757536916381 ], [ -91.094784796453823, 32.866523762820322 ], [ -91.094421200911171, 32.86664719411008 ], [ -91.094345469460322, 32.866893610850944 ], [ -91.094111115834806, 32.867034829769494 ], [ -91.093791236117283, 32.867018722281649 ], [ -91.093520423921547, 32.866828506926247 ], [ -91.093489151458883, 32.866467591062722 ], [ -91.093789542615781, 32.86621933164011 ], [ -91.093739919010602, 32.865938209742147 ], [ -91.093828115128829, 32.865523952059931 ], [ -91.094030888746957, 32.865283388304846 ], [ -91.094466663053154, 32.865219995103573 ], [ -91.094812507326935, 32.865324765901796 ], [ -91.095021361449909, 32.865470463120246 ], [ -91.095103748053091, 32.865770946234072 ], [ -91.094982853444691, 32.865953809665683 ], [ -91.094799022719045, 32.866041932323647 ], [ -91.09485241921422, 32.866124935669404 ], [ -91.094979569430862, 32.865985080208681 ], [ -91.095210482106566, 32.865908450299692 ], [ -91.096275171870019, 32.866026682551968 ], [ -91.096634074928645, 32.865876595412246 ], [ -91.09695067495467, 32.865916383528685 ], [ -91.097239040764393, 32.866140514293285 ], [ -91.097673730705182, 32.866296274229406 ], [ -91.099701709105886, 32.867968401348605 ] ], [ [ -91.094266585688644, 32.869423667752365 ], [ -91.09428473898727, 32.869428982017453 ], [ -91.094282072308729, 32.869419256032174 ], [ -91.094266585688644, 32.869423667752365 ] ] ], [ [ [ -91.094719739956986, 32.863865142523039 ], [ -91.094838137902116, 32.864086669446692 ], [ -91.094763258275592, 32.864335043604164 ], [ -91.094402404000547, 32.86472055675096 ], [ -91.093973571893798, 32.864926589105828 ], [ -91.093674792965857, 32.865229054306923 ], [ -91.093485472104732, 32.865301121005146 ], [ -91.093249415201257, 32.865285450464633 ], [ -91.093151392240159, 32.865472098169327 ], [ -91.092982367392551, 32.865573950135754 ], [ -91.09255954389441, 32.865549760334957 ], [ -91.092127173874502, 32.865812176958975 ], [ -91.091539973004402, 32.865952394801624 ], [ -91.090282706603418, 32.866740386968402 ], [ -91.089489504294548, 32.867102503908917 ], [ -91.089414861648876, 32.867280801433687 ], [ -91.089258472117905, 32.867396139802111 ], [ -91.088855601455293, 32.86738998359845 ], [ -91.088630469541883, 32.867244374534586 ], [ -91.088539166365166, 32.867035442057407 ], [ -91.087953802674988, 32.867192311781857 ], [ -91.087582871717842, 32.867081596722521 ], [ -91.08743318123534, 32.86696350086018 ], [ -91.086969731378872, 32.867307668088309 ], [ -91.087136761288036, 32.867460651876812 ], [ -91.087529269324364, 32.868281371023514 ], [ -91.087765988212453, 32.868019279427635 ], [ -91.087866985958371, 32.867767176449846 ], [ -91.088116622839635, 32.867646035953285 ], [ -91.088469467106449, 32.867726382504202 ], [ -91.08872215878155, 32.868074368031756 ], [ -91.088731078243995, 32.868317270617652 ], [ -91.088466876074733, 32.868784413815511 ], [ -91.088186978191885, 32.869027615335838 ], [ -91.087867267702237, 32.869164102442646 ], [ -91.087619930402184, 32.869180848365573 ], [ -91.087433814761923, 32.869103049423273 ], [ -91.087299721465243, 32.868926860260579 ], [ -91.087303356858982, 32.868720187714914 ], [ -91.087009426802268, 32.868848838854007 ], [ -91.08663358867102, 32.868772373969279 ], [ -91.085258691338353, 32.867731252161811 ], [ -91.085146040705141, 32.867417751771342 ], [ -91.084817248646729, 32.86738682369824 ], [ -91.084480296831529, 32.867094776207757 ], [ -91.084527061536292, 32.866757027518773 ], [ -91.084683455725639, 32.866641695242848 ], [ -91.084918369594021, 32.866602002878942 ], [ -91.085250934653985, 32.866725798609295 ], [ -91.085423158294631, 32.866926169292789 ], [ -91.08544774589167, 32.867125212708714 ], [ -91.08553647734287, 32.867099629623446 ], [ -91.085875529439292, 32.866910642311332 ], [ -91.087178986644233, 32.865881168282634 ], [ -91.088169481493978, 32.865262327374417 ], [ -91.088661448339252, 32.865223421135767 ], [ -91.088970587083239, 32.865373462041653 ], [ -91.089092527499318, 32.865519265579096 ], [ -91.089310528100967, 32.865406599436994 ], [ -91.089534398766631, 32.865401070621701 ], [ -91.08976746913433, 32.865516750051761 ], [ -91.089876521430327, 32.865688833560355 ], [ -91.089979739163098, 32.865667223657525 ], [ -91.090189774462601, 32.86548533358264 ], [ -91.090581290658619, 32.865350624602698 ], [ -91.091604373742257, 32.864504038524963 ], [ -91.092016462628735, 32.864033586671376 ], [ -91.09259953048003, 32.863621790611084 ], [ -91.092661992600952, 32.863168987484187 ], [ -91.092994527723917, 32.862908046721529 ], [ -91.09324184707431, 32.862891289471982 ], [ -91.093606977677524, 32.863014904879321 ], [ -91.094719739956986, 32.863865142523039 ] ] ], [ [ [ -91.093301837104718, 32.868618909309376 ], [ -91.093344531339397, 32.868921461099184 ], [ -91.093100264077208, 32.869173076495883 ], [ -91.092741632853162, 32.869195364007133 ], [ -91.092459761670497, 32.868989125018743 ], [ -91.092433236272129, 32.868672732906447 ], [ -91.092661455282652, 32.868448700300362 ], [ -91.09303636637614, 32.868426314018237 ], [ -91.093301837104718, 32.868618909309376 ] ] ], [ [ [ -91.089908012098178, 32.862356631320196 ], [ -91.08977669088712, 32.862833395633892 ], [ -91.089311152889863, 32.863432186514288 ], [ -91.08858008663303, 32.863825213506097 ], [ -91.088372502008198, 32.863830642471193 ], [ -91.088155836336824, 32.86372860371899 ], [ -91.088037455773446, 32.863507071082523 ], [ -91.088090260248151, 32.863302468092932 ], [ -91.088524167210679, 32.862692386362561 ], [ -91.088850735608048, 32.862495065060855 ], [ -91.089134841364611, 32.862168365463411 ], [ -91.089355738147802, 32.862073013564753 ], [ -91.089579231604418, 32.862084682406376 ], [ -91.089804483450052, 32.862204685686521 ], [ -91.089908012098178, 32.862356631320196 ] ] ] ] } },
{ "type": "Feature", "properties": { "depth_bin": "130-135 ft", "bin_order": -132.5, "survey_id": "LM_08_MVF_20190502_CS_MB_4930_4935", "date": "2019-05-02", "year": 2019, "mile": 493.0 }, "geometry": { "type": "MultiPolygon", "coordinates": [ [ [ [ -91.098761568748643, 32.867266382558604 ], [ -91.098787998436123, 32.867569032762667 ], [ -91.098559796673342, 32.867793077173985 ], [ -91.098233737179797, 32.867815181463975 ], [ -91.097939970300473, 32.867639496084294 ], [ -91.097955992051823, 32.867979759403717 ], [ -91.097735836785034, 32.868222773049382 ], [ -91.097753684740042, 32.868482333353036 ], [ -91.097503410479149, 32.868707089293657 ], [ -91.097256075285316, 32.868723854397821 ], [ -91.09706995142065, 32.868646069524274 ], [ -91.096810292841667, 32.868166962135653 ], [ -91.096681019351834, 32.868403288733738 ], [ -91.096402355908879, 32.868517055170145 ], [ -91.096110939080987, 32.868459062137369 ], [ -91.09588863104986, 32.868248797537021 ], [ -91.095876620823816, 32.867896244770016 ], [ -91.095974599055083, 32.867705462558213 ], [ -91.096191700008845, 32.866409913364727 ], [ -91.096349414006951, 32.866224088850849 ], [ -91.096652818468968, 32.866087679202522 ], [ -91.096940640285382, 32.866080133077936 ], [ -91.097168802674233, 32.866228395354447 ], [ -91.097218100321101, 32.8665273660746 ], [ -91.097634291495538, 32.86683352918552 ], [ -91.097779564850114, 32.867465453035607 ], [ -91.097897025446031, 32.867571017849052 ], [ -91.097891421270958, 32.867273496587451 ], [ -91.098159062748479, 32.867040422910009 ], [ -91.098486116677051, 32.867045396292681 ], [ -91.098761568748643, 32.867266382558604 ] ] ], [ [ [ -91.099482050111021, 32.868151586792955 ], [ -91.099792088170631, 32.868314885030962 ], [ -91.09982435803434, 32.868653841536855 ], [ -91.099421281932337, 32.869048390975834 ], [ -91.099019630062486, 32.869075621904301 ], [ -91.098792529032579, 32.868876938088434 ], [ -91.09879842110189, 32.868600928864055 ], [ -91.099167364940087, 32.868226951203397 ], [ -91.099482050111021, 32.868151586792955 ] ] ], [ [ [ -91.101950507291917, 32.869661298641674 ], [ -91.102070234959783, 32.869918198029936 ], [ -91.101939637707545, 32.870171298024935 ], [ -91.101219103778121, 32.870400243207229 ], [ -91.099337139668094, 32.871596513680501 ], [ -91.098311593384821, 32.872360398216152 ], [ -91.096878984623245, 32.873202704011796 ], [ -91.095718857654361, 32.874111233495661 ], [ -91.095362308656462, 32.874569634405788 ], [ -91.095037622373582, 32.874836763072388 ], [ -91.094752034193093, 32.87486807606593 ], [ -91.094516813175389, 32.874763101837786 ], [ -91.094354185276572, 32.874521546781068 ], [ -91.094123844446187, 32.874457480515758 ], [ -91.09377922077536, 32.874204164586921 ], [ -91.093084858284868, 32.873547691375663 ], [ -91.093040853159621, 32.873341610077823 ], [ -91.093139940541192, 32.873149628963276 ], [ -91.093415042081801, 32.873025687481743 ], [ -91.093846436053923, 32.872491966741229 ], [ -91.094218796152219, 32.872422342446917 ], [ -91.094463092228608, 32.872551022874909 ], [ -91.094548493178493, 32.872710798362469 ], [ -91.094522779538863, 32.872911952945117 ], [ -91.09478202843485, 32.873058202339131 ], [ -91.094885577459578, 32.873210144375022 ], [ -91.09488475606318, 32.873597867296446 ], [ -91.094772779651436, 32.873868545110206 ], [ -91.09540106890384, 32.873288902183532 ], [ -91.09630679646817, 32.872655629385306 ], [ -91.097760022777408, 32.871782315494812 ], [ -91.098347207391285, 32.871323930159512 ], [ -91.100794191804084, 32.86973572893524 ], [ -91.101526897503248, 32.869511464388992 ], [ -91.101748049850798, 32.869540197113402 ], [ -91.101950507291917, 32.869661298641674 ] ] ], [ [ [ -91.095223297456542, 32.869126092565821 ], [ -91.09528154930797, 32.869425252285339 ], [ -91.095078769003521, 32.869665817726577 ], [ -91.094756838557217, 32.869714777427326 ], [ -91.094455375627561, 32.869530007291544 ], [ -91.09438084350694, 32.869230946357213 ], [ -91.094583624589248, 32.86899038206527 ], [ -91.094921835432785, 32.868941323575555 ], [ -91.095223297456542, 32.869126092565821 ] ] ], [ [ [ -91.094917771665635, 32.87166815436693 ], [ -91.09522904464842, 32.871753043360542 ], [ -91.095378018389795, 32.871998809609664 ], [ -91.09527742501804, 32.872261487126188 ], [ -91.094986189405674, 32.872387202510161 ], [ -91.094674914499038, 32.872302312847182 ], [ -91.094525942277187, 32.872056545823838 ], [ -91.094626537572793, 32.871793868976674 ], [ -91.094917771665635, 32.87166815436693 ] ] ], [ [ [ -91.09344298552179, 32.862878480937482 ], [ -91.09376736027734, 32.863233524816287 ], [ -91.093653257294989, 32.864011984647732 ], [ -91.093346225027005, 32.86416467101531 ], [ -91.093161090176082, 32.864386785684609 ], [ -91.092845524044506, 32.864446868180089 ], [ -91.09233736921685, 32.865062911559853 ], [ -91.090244013323172, 32.866483204014784 ], [ -91.089642304101631, 32.866604947483488 ], [ -91.089353136978218, 32.866534969456239 ], [ -91.08914362827818, 32.866348604850316 ], [ -91.088633320176513, 32.866644102466282 ], [ -91.088235698217318, 32.866698525856613 ], [ -91.087966371394614, 32.866612524172936 ], [ -91.087824904764332, 32.866409426345214 ], [ -91.086692250902985, 32.867238120968437 ], [ -91.086925085836768, 32.867461927249941 ], [ -91.086978917180517, 32.867757790949156 ], [ -91.086842185438371, 32.867995709217844 ], [ -91.086514663228058, 32.868109747503361 ], [ -91.086043562370747, 32.867984102745957 ], [ -91.085831252660981, 32.867771394682443 ], [ -91.085558463410081, 32.867827760252716 ], [ -91.085341660139434, 32.867782192571283 ], [ -91.084448342577957, 32.867086111931535 ], [ -91.084404128344602, 32.866852545544504 ], [ -91.084531951363658, 32.866634780873909 ], [ -91.084712001502567, 32.866547413753509 ], [ -91.085033960337356, 32.866522852795676 ], [ -91.086056020473706, 32.865743891358967 ], [ -91.086317703159082, 32.86565996963914 ], [ -91.086724252239222, 32.865684365811198 ], [ -91.087170016626857, 32.865466754423217 ], [ -91.087423969394123, 32.865488151473983 ], [ -91.087971645703419, 32.865058987848492 ], [ -91.08845189669141, 32.86485943969808 ], [ -91.08871673608823, 32.864824546768276 ], [ -91.08864837588014, 32.864622332282259 ], [ -91.0887246882819, 32.864423082273596 ], [ -91.089528860926222, 32.863891567922678 ], [ -91.089789329041125, 32.863854340816872 ], [ -91.090047365027317, 32.863962203054598 ], [ -91.0901642355077, 32.864254428228868 ], [ -91.089989563112439, 32.864565909271413 ], [ -91.090389251122829, 32.864662314544439 ], [ -91.090619061052863, 32.864815568088275 ], [ -91.091248689592888, 32.864276546267888 ], [ -91.091672828686825, 32.863772587779152 ], [ -91.091954313227106, 32.863166752222455 ], [ -91.092492233665666, 32.862633392466378 ], [ -91.092723139404995, 32.862556766872913 ], [ -91.093002852864799, 32.862586138161944 ], [ -91.09344298552179, 32.862878480937482 ] ] ], [ [ [ -91.091002736809841, 32.860991710121809 ], [ -91.091128434451392, 32.861188225254175 ], [ -91.091099654751886, 32.861396212204028 ], [ -91.090228778752049, 32.862558317263101 ], [ -91.090084879979173, 32.86293465973808 ], [ -91.088473040641674, 32.864353584158899 ], [ -91.087805875775999, 32.864695635945324 ], [ -91.087412182681305, 32.864623264865557 ], [ -91.087264760749363, 32.864306795980411 ], [ -91.08758854277427, 32.863662788233356 ], [ -91.090038326739105, 32.860759346121007 ], [ -91.090247081407099, 32.860646178255081 ], [ -91.090511430815738, 32.860649867393271 ], [ -91.091002736809841, 32.860991710121809 ] ] ] ] } },
{ "type": "Feature", "properties": { "depth_bin": "135-140 ft", "bin_order": -137.5, "survey_id": "LM_08_MVF_20190502_CS_MB_4930_4935", "date": "2019-05-02", "year": 2019, "mile": 493.0 }, "geometry": { "type": "MultiPolygon", "coordinates": [ [ [ [ -91.101999712214948, 32.869702222349773 ], [ -91.102116747654875, 32.870008179098541 ], [ -91.101941217445216, 32.870263099196933 ], [ -91.101199788678628, 32.87043076137271 ], [ -91.099882353041181, 32.871333870146174 ], [ -91.099353541269721, 32.871610155261074 ], [ -91.098344160542297, 32.872360199046376 ], [ -91.096843503269341, 32.873247061507826 ], [ -91.095733469389529, 32.874141940975399 ], [ -91.0956465614493, 32.874320141113053 ], [ -91.095124521276645, 32.874812190724555 ], [ -91.094809809142589, 32.874887543092044 ], [ -91.094524132938531, 32.874753038205412 ], [ -91.094433325818471, 32.87455816215985 ], [ -91.094467273199143, 32.874357792643643 ], [ -91.094991800323086, 32.873729679506063 ], [ -91.095547034738118, 32.873219302687801 ], [ -91.096371695579208, 32.872627749456171 ], [ -91.09778534483489, 32.871792561468233 ], [ -91.098849277247695, 32.871004792046634 ], [ -91.100843159449894, 32.869749170505479 ], [ -91.101576102144733, 32.869552388257702 ], [ -91.101797254613132, 32.869581120898765 ], [ -91.101999712214948, 32.869702222349773 ] ] ], [ [ [ -91.092096876128437, 32.861903452089422 ], [ -91.093190229826959, 32.862691958475686 ], [ -91.093281023412629, 32.862886835230718 ], [ -91.093246961638911, 32.863073463533645 ], [ -91.093024709913351, 32.863329785619754 ], [ -91.093007066556055, 32.86358337717401 ], [ -91.092365775391855, 32.864318062874723 ], [ -91.092312215652385, 32.864512435119913 ], [ -91.091990546737065, 32.864915718599228 ], [ -91.09131590702296, 32.865400862104728 ], [ -91.090958631593992, 32.865801834502861 ], [ -91.090027018054485, 32.865888033943534 ], [ -91.089455982773046, 32.865793492685071 ], [ -91.089087346918944, 32.865595173224065 ], [ -91.088712377753566, 32.865567633927832 ], [ -91.088396088145984, 32.86568231965952 ], [ -91.087448309073778, 32.866407334445633 ], [ -91.087019395926674, 32.866567988892697 ], [ -91.086541363985006, 32.866989965267216 ], [ -91.086237824882843, 32.867112609776022 ], [ -91.08595000008799, 32.867120131100357 ], [ -91.085716981266799, 32.866971829163901 ], [ -91.085401746606436, 32.867223313949246 ], [ -91.085163036948884, 32.86728045460827 ], [ -91.084697043765956, 32.867223857145859 ], [ -91.084468900855498, 32.867075572797383 ], [ -91.084437433544878, 32.866687173038414 ], [ -91.084547422896094, 32.866538493635886 ], [ -91.084740020281075, 32.866448677328975 ], [ -91.084847613524261, 32.866150451227398 ], [ -91.085036339275234, 32.866007440098926 ], [ -91.085343928927983, 32.865967784301354 ], [ -91.085654890444403, 32.865826166019723 ], [ -91.085888179714601, 32.865640012189068 ], [ -91.086895259368674, 32.864561403366487 ], [ -91.087592725521446, 32.863426741079422 ], [ -91.088247143028838, 32.862666574255819 ], [ -91.088559894595022, 32.862439446209741 ], [ -91.090131708865073, 32.860566022737139 ], [ -91.090412241461124, 32.860511247710022 ], [ -91.090639708854837, 32.860594867744446 ], [ -91.090790031766943, 32.86090986163267 ], [ -91.091001290137953, 32.8609911980368 ], [ -91.092096876128437, 32.861903452089422 ] ] ] ] } },
{ "type": "Feature", "properties": { "depth_bin": "140-145 ft", "bin_order": -142.5, "survey_id": "LM_08_MVF_20190502_CS_MB_4930_4935", "date": "2019-05-02", "year": 2019, "mile": 493.0 }, "geometry": { "type": "MultiPolygon", "coordinates": [ [ [ [ -91.102043717661815, 32.869742513257918 ], [ -91.102149906880385, 32.870076685411739 ], [ -91.101974376619239, 32.870331605552941 ], [ -91.101194577226721, 32.870459539544633 ], [ -91.099915038060715, 32.87134741186923 ], [ -91.099369942102769, 32.871623797534127 ], [ -91.098344278553952, 32.872373940345426 ], [ -91.096847008284584, 32.87327160823687 ], [ -91.095758716545191, 32.874172882175309 ], [ -91.095106669029306, 32.874832660062388 ], [ -91.09478471976081, 32.874881619113083 ], [ -91.094540416963468, 32.8747529391078 ], [ -91.094448308456109, 32.874522684557739 ], [ -91.094556833254515, 32.874282009032463 ], [ -91.095050076022275, 32.873715177725927 ], [ -91.096355647373812, 32.872655331392352 ], [ -91.097820782311828, 32.871785170626914 ], [ -91.098865678663685, 32.871018433687262 ], [ -91.100810948435921, 32.869790594201049 ], [ -91.101511325427154, 32.869594012142883 ], [ -91.101839913467316, 32.869623064014142 ], [ -91.102043717661815, 32.869742513257918 ] ] ], [ [ [ -91.091222871780147, 32.861208005138636 ], [ -91.092378723229714, 32.862079961847002 ], [ -91.092446561678926, 32.862295152672786 ], [ -91.092301152447405, 32.862574700977937 ], [ -91.092348608630957, 32.862880996973821 ], [ -91.092095751554282, 32.863328253148865 ], [ -91.092261466332559, 32.863621354909306 ], [ -91.092161697335655, 32.864046117697654 ], [ -91.091422638236182, 32.864724906810721 ], [ -91.091103931447449, 32.864884497170138 ], [ -91.090807876449915, 32.86491528706987 ], [ -91.090542067381918, 32.864770771254541 ], [ -91.090184656098131, 32.864743472434604 ], [ -91.089995169127491, 32.864560483585606 ], [ -91.089986246059425, 32.864317580839121 ], [ -91.090149821096617, 32.864086120324579 ], [ -91.090227052004124, 32.863743046524995 ], [ -91.090695974141326, 32.863285469979886 ], [ -91.090421946036372, 32.863046273948648 ], [ -91.090425229124492, 32.862776140494503 ], [ -91.090324099164889, 32.862537150256117 ], [ -91.090331016044146, 32.862137129567493 ], [ -91.090557460695663, 32.861802634640512 ], [ -91.090646462568003, 32.861363129594153 ], [ -91.090903013786971, 32.861191890937484 ], [ -91.091222871780147, 32.861208005138636 ] ] ], [ [ [ -91.090311147310828, 32.860386394250931 ], [ -91.09055357255356, 32.860430954321913 ], [ -91.090725809906957, 32.86058167648401 ], [ -91.090789602135786, 32.860834792342793 ], [ -91.090735739192326, 32.861031501865803 ], [ -91.089263225704599, 32.862843026913595 ], [ -91.088866058571995, 32.863185201123926 ], [ -91.088273156158863, 32.863911405991978 ], [ -91.087539554313537, 32.865038421109027 ], [ -91.086561786913776, 32.866075373448879 ], [ -91.086129537698511, 32.866429019248393 ], [ -91.085888868444556, 32.866525156330198 ], [ -91.085818013166502, 32.866764141090727 ], [ -91.085499968663285, 32.86707868428531 ], [ -91.084901586464554, 32.867172089241897 ], [ -91.084600128213637, 32.867080586349964 ], [ -91.084446225512295, 32.8669163341957 ], [ -91.084426390165646, 32.866707604651246 ], [ -91.084508809349515, 32.866523521431979 ], [ -91.084707630495927, 32.866392444313128 ], [ -91.084814932644122, 32.866136905508903 ], [ -91.085305226458161, 32.865741283441075 ], [ -91.085584892319631, 32.865663430616316 ], [ -91.086643550837721, 32.864564333531234 ], [ -91.087590748107104, 32.863193137256616 ], [ -91.088432764084814, 32.862493487091839 ], [ -91.090019944988455, 32.860512099458077 ], [ -91.090311147310828, 32.860386394250931 ] ] ] ] } },
{ "type": "Feature", "properties": { "depth_bin": "145-150 ft", "bin_order": -147.5, "survey_id": "LM_08_MVF_20190502_CS_MB_4930_4935", "date": "2019-05-02", "year": 2019, "mile": 493.0 }, "geometry": { "type": "MultiPolygon", "coordinates": [ [ [ [ -91.101933133082625, 32.869664933690132 ], [ -91.102133699978438, 32.869825882776667 ], [ -91.102216664577668, 32.87001933169303 ], [ -91.102182617992028, 32.870205962742261 ], [ -91.102039746539674, 32.870358687902716 ], [ -91.10181797279418, 32.870444708424429 ], [ -91.101197885940238, 32.870472844915767 ], [ -91.100368725889922, 32.871083532340286 ], [ -91.099276138858642, 32.87171782763432 ], [ -91.09871703092773, 32.872165528903686 ], [ -91.096842667861765, 32.873302524050608 ], [ -91.095750982764784, 32.874211184685834 ], [ -91.095605510169193, 32.874444474357183 ], [ -91.095139472170757, 32.874859944321415 ], [ -91.094801238761789, 32.874909002586392 ], [ -91.094540534399655, 32.874766680409003 ], [ -91.094449727230682, 32.874571804373922 ], [ -91.094524735123287, 32.874337172443582 ], [ -91.095082643688585, 32.873714979388552 ], [ -91.09633971686867, 32.872696654626935 ], [ -91.097840253339854, 32.871796055860671 ], [ -91.098882080084721, 32.871032075325644 ], [ -91.099432157903848, 32.8707512166472 ], [ -91.100827349920152, 32.869804235586003 ], [ -91.101649083158193, 32.869624957688913 ], [ -91.101933133082625, 32.869664933690132 ] ] ], [ [ [ -91.090211483978848, 32.86028909931516 ], [ -91.090459550921381, 32.860292887028805 ], [ -91.090663318181953, 32.860412353652748 ], [ -91.090765216700092, 32.86059951548151 ], [ -91.090751860859356, 32.860843103699054 ], [ -91.089117388119647, 32.862926361254068 ], [ -91.088324044513158, 32.863583923367152 ], [ -91.087853241990643, 32.864188127903319 ], [ -91.087505012520907, 32.86480501446762 ], [ -91.086252768230594, 32.866118459828265 ], [ -91.085707990845705, 32.866521097798532 ], [ -91.085493869450318, 32.866878838699343 ], [ -91.08511478193293, 32.867096947149179 ], [ -91.084615831515848, 32.867011780911291 ], [ -91.084461928896928, 32.866847528777939 ], [ -91.084441977674729, 32.866625057882572 ], [ -91.08479830245841, 32.866095779268953 ], [ -91.086706269917073, 32.86417842521805 ], [ -91.087599590474682, 32.863110226722853 ], [ -91.088385056481044, 32.862450546443092 ], [ -91.089928764507349, 32.860485571813626 ], [ -91.090211483978848, 32.86028909931516 ] ] ] ] } },
{ "type": "Feature", "properties": { "depth_bin": "150-155 ft", "bin_order": -152.5, "survey_id": "LM_08_MVF_20190502_CS_MB_4930_4935", "date": "2019-05-02", "year": 2019, "mile": 493.0 }, "geometry": { "type": "MultiPolygon", "coordinates": [ [ [ [ -91.102050842026713, 32.869765621170572 ], [ -91.102203936370174, 32.869911229888579 ], [ -91.102250772548018, 32.87008199266748 ], [ -91.102072668670161, 32.870399711647281 ], [ -91.101542106117378, 32.870556339015977 ], [ -91.101162738583113, 32.870518074833832 ], [ -91.100761675294521, 32.870763748711774 ], [ -91.100385127548165, 32.871097173787348 ], [ -91.099286668383598, 32.871733569630052 ], [ -91.098652487052462, 32.87223463391885 ], [ -91.096912261085109, 32.873284951941933 ], [ -91.096061775522003, 32.874055049617198 ], [ -91.095762308991283, 32.874232190386543 ], [ -91.095638195714457, 32.874458017183471 ], [ -91.095155873749036, 32.874873586447549 ], [ -91.094859013749328, 32.874928469590245 ], [ -91.094573337336939, 32.874793964809385 ], [ -91.094482530070138, 32.874599088795293 ], [ -91.094516712230231, 32.874426201867323 ], [ -91.094927649226904, 32.874012881570494 ], [ -91.095008906720167, 32.873825769457909 ], [ -91.096356118231711, 32.872710297495694 ], [ -91.09820973538173, 32.871590581387906 ], [ -91.098785206670698, 32.871128862312759 ], [ -91.099553698673361, 32.870702864832552 ], [ -91.100730243208545, 32.869873541465211 ], [ -91.101154281461291, 32.869733624523477 ], [ -91.101814725320452, 32.869701241537392 ], [ -91.102050842026713, 32.869765621170572 ] ] ], [ [ [ -91.090418126446721, 32.860173736189516 ], [ -91.090724902293474, 32.860394179120121 ], [ -91.090719804563975, 32.860766376858884 ], [ -91.089084241621592, 32.862857850321106 ], [ -91.08784431264516, 32.863993278888778 ], [ -91.087373242872204, 32.864627161183193 ], [ -91.08687357659386, 32.865061949433027 ], [ -91.086637972353287, 32.865456520616533 ], [ -91.086304426457971, 32.86564624212658 ], [ -91.085545579350253, 32.866519691664763 ], [ -91.085428042974144, 32.866796782166702 ], [ -91.085041202243701, 32.867034689663967 ], [ -91.084631766546835, 32.866970459073016 ], [ -91.084455002397775, 32.866738184566856 ], [ -91.08450206958041, 32.86645725868047 ], [ -91.085716454057902, 32.865081315331814 ], [ -91.08621664902347, 32.864369491454504 ], [ -91.086518820154055, 32.86410966880679 ], [ -91.086693841899546, 32.863830272916978 ], [ -91.087323091310509, 32.863357250577799 ], [ -91.088255036917772, 32.862478813427657 ], [ -91.089985631989038, 32.860306176198264 ], [ -91.090170814426784, 32.860190488117262 ], [ -91.090418126446721, 32.860173736189516 ] ] ] ] } },
{ "type": "Feature", "properties": { "depth_bin": "155-160 ft", "bin_order": -157.5, "survey_id": "LM_08_MVF_20190502_CS_MB_4930_4935", "date": "2019-05-02", "year": 2019, "mile": 493.0 }, "geometry": { "type": "MultiPolygon", "coordinates": [ [ [ [ -91.101930749962847, 32.869736718742608 ], [ -91.102163848615319, 32.869852375849426 ], [ -91.10227686527233, 32.870038796180857 ], [ -91.102248226168314, 32.87026052755845 ], [ -91.102089189037102, 32.870427094161684 ], [ -91.101583917260925, 32.87065828877229 ], [ -91.101303705608572, 32.870670261204545 ], [ -91.101072959299472, 32.870592247474036 ], [ -91.100960502558408, 32.870649366176636 ], [ -91.100029259374054, 32.871374195880975 ], [ -91.099273423779778, 32.871761808069209 ], [ -91.098685054161379, 32.87223443466101 ], [ -91.096831546835588, 32.873367898701176 ], [ -91.096078294759423, 32.874082432927104 ], [ -91.09575610740319, 32.874265699797249 ], [ -91.095622264546805, 32.874499340333998 ], [ -91.095190127577268, 32.874866759224744 ], [ -91.09487541529495, 32.874942111751771 ], [ -91.094589738813113, 32.874807607006154 ], [ -91.094498931497426, 32.874612731002571 ], [ -91.09453311363248, 32.874439844069492 ], [ -91.094915981455472, 32.874064222982874 ], [ -91.09502530808507, 32.873839411597118 ], [ -91.095544908842683, 32.873477237903366 ], [ -91.09640496916677, 32.872709999483035 ], [ -91.098148460456443, 32.871656750636298 ], [ -91.098736828921474, 32.871184126426819 ], [ -91.099511276828252, 32.87075956373193 ], [ -91.100714196843057, 32.86990112394615 ], [ -91.101031628278065, 32.869779910993572 ], [ -91.101462702960859, 32.869825975297502 ], [ -91.101930749962847, 32.869736718742608 ] ] ], [ [ [ -91.09031840163658, 32.860138149989766 ], [ -91.090662267173556, 32.860288681498346 ], [ -91.090733710750612, 32.860623340667175 ], [ -91.089357420524834, 32.862430196091921 ], [ -91.088573572441533, 32.863287343700001 ], [ -91.087398768671022, 32.864254974657172 ], [ -91.087322884638752, 32.864448818014424 ], [ -91.086860938767103, 32.864846512563425 ], [ -91.086693803937905, 32.865153454397408 ], [ -91.085362448589336, 32.866742208303151 ], [ -91.085008057285407, 32.866966178580405 ], [ -91.08464758568887, 32.866915395882096 ], [ -91.084470821599268, 32.866683121398871 ], [ -91.084533939512156, 32.86637461502275 ], [ -91.086457745403337, 32.863997003988501 ], [ -91.088136229627025, 32.862555530833752 ], [ -91.089733737193143, 32.860527977279737 ], [ -91.090045582272211, 32.860215868251885 ], [ -91.09031840163658, 32.860138149989766 ] ] ] ] } },
{ "type": "Feature", "properties": { "depth_bin": "160-165 ft", "bin_order": -162.5, "survey_id": "LM_08_MVF_20190502_CS_MB_4930_4935", "date": "2019-05-02", "year": 2019, "mile": 493.0 }, "geometry": { "type": "MultiPolygon", "coordinates": [ [ [ [ -91.101922181603285, 32.869758178799039 ], [ -91.102149684061658, 32.869841779031397 ], [ -91.102333014124483, 32.870058876940426 ], [ -91.102313714740305, 32.870301351053435 ], [ -91.10213851409118, 32.870481759101708 ], [ -91.101511317027331, 32.870762659275485 ], [ -91.101238949489257, 32.870751310887805 ], [ -91.101013934546671, 32.870631544034381 ], [ -91.099883771985645, 32.871498766601896 ], [ -91.099233771023748, 32.871787913566905 ], [ -91.098685172225046, 32.872248175959236 ], [ -91.097792370062479, 32.872782451764252 ], [ -91.097519503302792, 32.872837678825427 ], [ -91.096094696334447, 32.874096074931884 ], [ -91.095812011274703, 32.874261979584887 ], [ -91.095206412694608, 32.874866660034073 ], [ -91.094891700424313, 32.874942012602617 ], [ -91.09460602391627, 32.874807507893344 ], [ -91.094513915187505, 32.87457725338524 ], [ -91.094622439882514, 32.874336577801522 ], [ -91.094935740386319, 32.874061679359208 ], [ -91.095083348811357, 32.873797427198589 ], [ -91.09553942396937, 32.873530768382231 ], [ -91.096275641608827, 32.8728207245451 ], [ -91.09686035981602, 32.872439502576952 ], [ -91.097149509262863, 32.872384177485245 ], [ -91.097506600279203, 32.872043655321221 ], [ -91.098149885004204, 32.871669994561778 ], [ -91.098736946994578, 32.871197867722906 ], [ -91.099505812803258, 32.870780449719014 ], [ -91.100714315215612, 32.869914865238954 ], [ -91.1011478286688, 32.869787789067345 ], [ -91.101462813186089, 32.869910585106581 ], [ -91.101922181603285, 32.869758178799039 ] ] ], [ [ [ -91.090118125227633, 32.860389347841654 ], [ -91.090428118623436, 32.860552667874408 ], [ -91.090475425524247, 32.860886003131796 ], [ -91.089389284594191, 32.862347550301216 ], [ -91.088718479248428, 32.863094080083478 ], [ -91.087161076281745, 32.86440060009393 ], [ -91.085248702311901, 32.866770376138163 ], [ -91.084966730931441, 32.866919189239738 ], [ -91.084647122191654, 32.866860430479392 ], [ -91.084470358205024, 32.866628155997645 ], [ -91.084530793839832, 32.866310045012533 ], [ -91.086069761332325, 32.86432914924233 ], [ -91.086769668891876, 32.863598066374031 ], [ -91.087200032142505, 32.863326810817824 ], [ -91.088173627890384, 32.862479304662664 ], [ -91.088821809623511, 32.861779949385806 ], [ -91.089710830890951, 32.860541452831328 ], [ -91.089912178930746, 32.86041192537688 ], [ -91.090118125227633, 32.860389347841654 ] ] ] ] } },
{ "type": "Feature", "properties": { "depth_bin": "165-170 ft", "bin_order": -167.5, "survey_id": "LM_08_MVF_20190502_CS_MB_4930_4935", "date": "2019-05-02", "year": 2019, "mile": 493.0 }, "geometry": { "type": "MultiPolygon", "coordinates": [ [ [ [ -91.101433701614098, 32.870034234358513 ], [ -91.101744426594564, 32.870111055310069 ], [ -91.10192124335569, 32.870343307143877 ], [ -91.101851665860423, 32.870613044808579 ], [ -91.101576450117904, 32.870762259281371 ], [ -91.101207964785218, 32.870703841993382 ], [ -91.101031149268849, 32.87047158920506 ], [ -91.101126316685125, 32.870173805951758 ], [ -91.101433701614098, 32.870034234358513 ] ] ], [ [ [ -91.100704594789008, 32.87015223181313 ], [ -91.100984351609441, 32.870396970277092 ], [ -91.100898641134307, 32.87072923748336 ], [ -91.100470975015057, 32.871052559432222 ], [ -91.100096371775066, 32.871026644857977 ], [ -91.100072814771224, 32.871336140661967 ], [ -91.099752410423449, 32.871574900336498 ], [ -91.099497413317138, 32.871632168009057 ], [ -91.099228059685871, 32.871546189709939 ], [ -91.099079075772323, 32.871300427671763 ], [ -91.099179656850794, 32.871037746607769 ], [ -91.099582879529578, 32.870813436895084 ], [ -91.099917742026108, 32.870850675512884 ], [ -91.099896925400785, 32.87064018038901 ], [ -91.10003386368976, 32.870429728903993 ], [ -91.100378526870117, 32.870174341393742 ], [ -91.100704594789008, 32.87015223181313 ] ] ], [ [ [ -91.098477278525039, 32.87170400628154 ], [ -91.098717802478646, 32.871936226775119 ], [ -91.098657670815925, 32.872240446424598 ], [ -91.098277346884046, 32.872451276725457 ], [ -91.097916843698329, 32.872400531244708 ], [ -91.097740033864781, 32.872168274051077 ], [ -91.097809625159329, 32.87189853923816 ], [ -91.098101475110084, 32.871713072239054 ], [ -91.098477278525039, 32.87170400628154 ] ] ], [ [ [ -91.09686316257941, 32.872549527499281 ], [ -91.097068036916468, 32.87257836808184 ], [ -91.097256984375747, 32.872714107282604 ], [ -91.097323421287356, 32.872880175965719 ], [ -91.097270631019015, 32.873084783128668 ], [ -91.096530130643302, 32.873710876667232 ], [ -91.096333334007355, 32.873766939357488 ], [ -91.096090869321714, 32.873722389149009 ], [ -91.095887935684274, 32.87350587214052 ], [ -91.0959258684491, 32.873231680819721 ], [ -91.096324492605348, 32.872820426562981 ], [ -91.09686316257941, 32.872549527499281 ] ] ], [ [ [ -91.095532421978575, 32.873692355241303 ], [ -91.095839255998797, 32.873912787340892 ], [ -91.095814738528716, 32.874220514811448 ], [ -91.095594685199345, 32.874389351498237 ], [ -91.095518641588043, 32.874595761964549 ], [ -91.095222814284739, 32.874880302151333 ], [ -91.094991877947024, 32.874956931127365 ], [ -91.094733126800961, 32.874912477354968 ], [ -91.094530194015121, 32.87469595820258 ], [ -91.094568131637104, 32.874421767514875 ], [ -91.094982170277561, 32.874065379452816 ], [ -91.095112308641546, 32.873799116737068 ], [ -91.095324814142828, 32.873697794916175 ], [ -91.095532421978575, 32.873692355241303 ] ] ], [ [ [ -91.088119576656268, 32.862766859232607 ], [ -91.088385863618484, 32.862978087101759 ], [ -91.088339116202334, 32.863315838038503 ], [ -91.087735636217573, 32.863895185707221 ], [ -91.087371077330303, 32.864109436750027 ], [ -91.086881877590642, 32.864612108795725 ], [ -91.085844544466184, 32.865983494665386 ], [ -91.085506512598229, 32.866110006244483 ], [ -91.085491562193027, 32.866363462600475 ], [ -91.085231955846297, 32.866715508590644 ], [ -91.084982318012095, 32.866836643294988 ], [ -91.084662709553484, 32.866777884584302 ], [ -91.084478998172031, 32.86656645165565 ], [ -91.084497765388335, 32.866255275157151 ], [ -91.08483465804494, 32.865936499934158 ], [ -91.08511238328451, 32.865859071452917 ], [ -91.085127218660446, 32.865591873808839 ], [ -91.085908099377619, 32.864467542380851 ], [ -91.086579170496634, 32.863748510228682 ], [ -91.087659016320217, 32.862864377351478 ], [ -91.087871503166241, 32.862763066627465 ], [ -91.088119576656268, 32.862766859232607 ] ] ] ] } },
{ "type": "Feature", "properties": { "depth_bin": "170-175 ft", "bin_order": -172.5, "survey_id": "LM_08_MVF_20190502_CS_MB_4930_4935", "date": "2019-05-02", "year": 2019, "mile": 493.0 }, "geometry": { "type": "Polygon", "coordinates": [ [ [ -91.087255926062184, 32.86322186518484 ], [ -91.087657553082877, 32.863194671192758 ], [ -91.087907477874296, 32.863461395829631 ], [ -91.087812275093611, 32.863759167962783 ], [ -91.087416923338949, 32.86397738203155 ], [ -91.087097323118471, 32.863918629838651 ], [ -91.086920558004678, 32.863686358698061 ], [ -91.086967964114109, 32.863446655514693 ], [ -91.087255926062184, 32.86322186518484 ] ] ] } }
]
}
