{
"type": "FeatureCollection",
"name": "LM_06_MBV_20190717_CS_MB_4370_4375_depth_polygons",
"crs": { "type": "name", "properties": { "name": "urn:ogc:def:crs:OGC:1.3:CRS84" } },
"features": [
{ "type": "Feature", "properties": { "depth_bin": "25-30 ft", "bin_order": -27.5, "survey_id": "LM_06_MBV_20190717_CS_MB_4370_4375", "date": "2019-07-17", "year": 2019, "mile": 437.0 }, "geometry": { "type": "Polygon", "coordinates": [ [ [ -90.904986997359458, 32.337766573591743 ], [ -90.90543386730694, 32.337973495252001 ], [ -90.905492436761605, 32.338465134429754 ], [ -90.90537193285887, 32.338647842548376 ], [ -90.905064662095199, 32.338843893748631 ], [ -90.90466362585083, 32.338892807915677 ], [ -90.904290830931387, 32.338654458216403 ], [ -90.904209472564617, 32.338353870610995 ], [ -90.904490044003083, 32.337881826815014 ], [ -90.904986997359458, 32.337766573591743 ] ] ] } },
{ "type": "Feature", "properties": { "depth_bin": "30-35 ft", "bin_order": -32.5, "survey_id": "LM_06_MBV_20190717_CS_MB_4370_4375", "date": "2019-07-17", "year": 2019, "mile": 437.0 }, "geometry": { "type": "MultiPolygon", "coordinates": [ [ [ [ -90.90562708318518, 32.337807698071629 ], [ -90.905710062014137, 32.338470504795175 ], [ -90.905407498721985, 32.339028119805342 ], [ -90.905105674510082, 32.339177831458052 ], [ -90.904859781905586, 32.339194275173469 ], [ -90.9041947386293, 32.338819813822859 ], [ -90.904053857507563, 32.338557288917251 ], [ -90.904023877434156, 32.338293378277335 ], [ -90.904072030157508, 32.338081210567502 ], [ -90.904326447543852, 32.33773576667781 ], [ -90.904937310923046, 32.337588134491668 ], [ -90.905400544110634, 32.337659141634774 ], [ -90.90562708318518, 32.337807698071629 ] ] ], [ [ [ -90.89772241395606, 32.334119411502073 ], [ -90.897753568708708, 32.334575726082257 ], [ -90.897511510000399, 32.335260159600551 ], [ -90.897256163851168, 32.335431061638239 ], [ -90.896900892343183, 32.335398759084917 ], [ -90.896718044990948, 32.335237438754078 ], [ -90.89653576327126, 32.334866602023382 ], [ -90.896468015474497, 32.334225855078913 ], [ -90.896522016724916, 32.334042958408013 ], [ -90.896737838786976, 32.333883325271884 ], [ -90.897282025692121, 32.333777039512661 ], [ -90.897556639928169, 32.333874481740366 ], [ -90.89772241395606, 32.334119411502073 ] ] ] ] } },
{ "type": "Feature", "properties": { "depth_bin": "35-40 ft", "bin_order": -37.5, "survey_id": "LM_06_MBV_20190717_CS_MB_4370_4375", "date": "2019-07-17", "year": 2019, "mile": 437.0 }, "geometry": { "type": "MultiPolygon", "coordinates": [ [ [ [ -90.905801021925399, 32.337572486765737 ], [ -90.9060151232691, 32.338070560815012 ], [ -90.905670047085692, 32.338785375000825 ], [ -90.905421922568621, 32.33902093850341 ], [ -90.90486363142368, 32.33930261874756 ], [ -90.904619011617385, 32.339321631567216 ], [ -90.90447161335355, 32.339513379900524 ], [ -90.903912163212325, 32.339779292290189 ], [ -90.903545896475023, 32.339706623617424 ], [ -90.903205728324181, 32.339400832224612 ], [ -90.903070240025954, 32.339008996031346 ], [ -90.902558803140522, 32.338676027974316 ], [ -90.90216396804972, 32.338091495589481 ], [ -90.902192948108109, 32.337883546351186 ], [ -90.902335260689171, 32.337731019641481 ], [ -90.902761608589614, 32.337669307114759 ], [ -90.903620451673419, 32.338072154327712 ], [ -90.903850814824622, 32.338311491169897 ], [ -90.904046071049905, 32.337717464757695 ], [ -90.904546205995274, 32.33740776414124 ], [ -90.90482933137281, 32.337342097502919 ], [ -90.905365941938243, 32.337355169497329 ], [ -90.905801021925399, 32.337572486765737 ] ] ], [ [ [ -90.897646451946798, 32.333712756707186 ], [ -90.897894188621649, 32.333842414100239 ], [ -90.898006161826132, 32.334028989713701 ], [ -90.897899129366962, 32.334891439323215 ], [ -90.897614463879165, 32.335393716734345 ], [ -90.89725693079663, 32.335554748954813 ], [ -90.896994147404854, 32.335550709478234 ], [ -90.896759341596109, 32.335417378276311 ], [ -90.896533613383269, 32.335023916560836 ], [ -90.896342872388743, 32.334094644826287 ], [ -90.896624358767895, 32.333856345139061 ], [ -90.897646451946798, 32.333712756707186 ] ] ] ] } },
{ "type": "Feature", "properties": { "depth_bin": "40-45 ft", "bin_order": -42.5, "survey_id": "LM_06_MBV_20190717_CS_MB_4370_4375", "date": "2019-07-17", "year": 2019, "mile": 437.0 }, "geometry": { "type": "MultiPolygon", "coordinates": [ [ [ [ -90.905721829178546, 32.337317102623189 ], [ -90.906103171058078, 32.337529208797349 ], [ -90.906227558828832, 32.337896862240108 ], [ -90.906157472918451, 32.338093581020757 ], [ -90.905937230115811, 32.338314722955452 ], [ -90.905751159922914, 32.338812493815972 ], [ -90.905396109095619, 32.339025336596059 ], [ -90.905112549727292, 32.339033102566795 ], [ -90.90492173470949, 32.339284331100323 ], [ -90.904433761818936, 32.339537614261317 ], [ -90.904197462013713, 32.339575837334948 ], [ -90.904052101931143, 32.339735173629371 ], [ -90.903562446342264, 32.339995088499791 ], [ -90.903312749987649, 32.340048302424449 ], [ -90.902607068921427, 32.339724606653085 ], [ -90.902053029296653, 32.339295303085663 ], [ -90.901181008876819, 32.337200800762346 ], [ -90.901352198934447, 32.336657634055953 ], [ -90.90170906927051, 32.336503244625931 ], [ -90.902219353103774, 32.336649162079148 ], [ -90.903402854339546, 32.337531440990958 ], [ -90.903750865278852, 32.337703211607987 ], [ -90.90403308269299, 32.337420994964887 ], [ -90.904503494610225, 32.337190715455989 ], [ -90.90492774973454, 32.337178491356767 ], [ -90.905721829178546, 32.337317102623189 ] ], [ [ -90.904859938361184, 32.338517483793645 ], [ -90.904959196736755, 32.338236511663794 ], [ -90.904836294534789, 32.338236931184674 ], [ -90.904740806293034, 32.338359166798568 ], [ -90.904859938361184, 32.338517483793645 ] ] ], [ [ [ -90.898398645717975, 32.33384093882831 ], [ -90.89845589387771, 32.334126434328397 ], [ -90.898301066547518, 32.3343409948247 ], [ -90.898207551277537, 32.334840617926986 ], [ -90.897934412461311, 32.335227031284859 ], [ -90.897853918450622, 32.335657188060424 ], [ -90.897517890232322, 32.335869681801 ], [ -90.897146344230066, 32.335823709224094 ], [ -90.896665580594984, 32.335421887302488 ], [ -90.896389504914097, 32.334589678118803 ], [ -90.896225142695457, 32.334373224354984 ], [ -90.896263022520841, 32.334044114237059 ], [ -90.896404641875108, 32.333916580665509 ], [ -90.896648825482742, 32.3338468249637 ], [ -90.89686199524256, 32.333863149848483 ], [ -90.897154002523607, 32.334000998417913 ], [ -90.897342558052344, 32.333761213748424 ], [ -90.897893784185499, 32.333607622116709 ], [ -90.898199440814707, 32.333652207052239 ], [ -90.898398645717975, 32.33384093882831 ] ] ] ] } },
{ "type": "Feature", "properties": { "depth_bin": "45-50 ft", "bin_order": -47.5, "survey_id": "LM_06_MBV_20190717_CS_MB_4370_4375", "date": "2019-07-17", "year": 2019, "mile": 437.0 }, "geometry": { "type": "MultiPolygon", "coordinates": [ [ [ [ -90.904570412164148, 32.336987701294518 ], [ -90.90610888211117, 32.337346222258859 ], [ -90.90629333479994, 32.337519378695973 ], [ -90.906330744892571, 32.337911591918711 ], [ -90.906074685019121, 32.338224047427289 ], [ -90.905831840184277, 32.338770897531724 ], [ -90.905509603564241, 32.338947452043207 ], [ -90.905211135783119, 32.338907171693549 ], [ -90.905009810783184, 32.338690394857885 ], [ -90.905152373525013, 32.33796424044516 ], [ -90.904614774217961, 32.338101731559107 ], [ -90.904383775935742, 32.338542370878777 ], [ -90.903903263124647, 32.338698777361408 ], [ -90.903506712467873, 32.338621069493982 ], [ -90.902411973588414, 32.337851285183241 ], [ -90.902877476223068, 32.338917296953731 ], [ -90.903611119676398, 32.339437767972896 ], [ -90.903723111147272, 32.339624339129522 ], [ -90.903675659491824, 32.339877726505676 ], [ -90.903443732060438, 32.340051187457064 ], [ -90.90318164877533, 32.340067700935677 ], [ -90.90286737128524, 32.339929582828326 ], [ -90.901891679252756, 32.339307486367851 ], [ -90.901723765495461, 32.339125673158698 ], [ -90.901452711541879, 32.339007108084338 ], [ -90.901121819187168, 32.338636496234415 ], [ -90.901045947934875, 32.338010483924862 ], [ -90.900577976136375, 32.337204748292464 ], [ -90.900291908079666, 32.336423223197237 ], [ -90.900306079335536, 32.336248360633405 ], [ -90.900500170938102, 32.335954665002497 ], [ -90.900487907929886, 32.335683865033779 ], [ -90.899244791192558, 32.333678671647782 ], [ -90.899291774202723, 32.33332723859435 ], [ -90.899485459835759, 32.333197597357199 ], [ -90.90000197630232, 32.333066497092723 ], [ -90.900399081179842, 32.333171495607218 ], [ -90.900634439734745, 32.333449405939575 ], [ -90.900694921695674, 32.33376241312331 ], [ -90.901669917233036, 32.335529950592516 ], [ -90.902006551347412, 32.335939718750026 ], [ -90.902304767205209, 32.336154047456233 ], [ -90.902521281233533, 32.336031481884866 ], [ -90.902780303882409, 32.336039591904004 ], [ -90.902976797972769, 32.335876185051312 ], [ -90.903297949739851, 32.335796017733713 ], [ -90.903819119151933, 32.335879656274145 ], [ -90.9039940877893, 32.335972691628747 ], [ -90.904109755353815, 32.336265061851982 ], [ -90.903950895098347, 32.336505924997645 ], [ -90.903721219100518, 32.336582256692125 ], [ -90.903430971905934, 32.336509426903078 ], [ -90.903074262062518, 32.336579068269309 ], [ -90.903016350327235, 32.336735791654931 ], [ -90.903436022430341, 32.336986629596041 ], [ -90.903673761055629, 32.337115879178867 ], [ -90.903873536134768, 32.33713470739638 ], [ -90.904570412164148, 32.336987701294518 ] ] ], [ [ [ -90.898775445301098, 32.333751241182469 ], [ -90.89881124327303, 32.334001151446188 ], [ -90.898658062518948, 32.334398809873726 ], [ -90.898484225280654, 32.334586631715709 ], [ -90.898386029980202, 32.335095411872871 ], [ -90.898245004453841, 32.335267204454659 ], [ -90.898015786282301, 32.335352025195995 ], [ -90.897919521351966, 32.335794328687705 ], [ -90.89758349275894, 32.336006822588892 ], [ -90.897195843886351, 32.335974665560144 ], [ -90.896885980720796, 32.335787209224975 ], [ -90.896633376078753, 32.335449517911975 ], [ -90.896357455825822, 32.334655654344246 ], [ -90.896176836261546, 32.334414670100962 ], [ -90.896214546165609, 32.33405807393261 ], [ -90.896485992153572, 32.333873358600748 ], [ -90.896825070405754, 32.333905734388608 ], [ -90.897190939698319, 32.334165757498383 ], [ -90.897237711769037, 32.334596081644563 ], [ -90.897441288462019, 32.333905541428088 ], [ -90.897762740983268, 32.333649387353468 ], [ -90.89841350162844, 32.333510851005656 ], [ -90.898639469791647, 32.33359476534374 ], [ -90.898775445301098, 32.333751241182469 ] ] ] ] } },
{ "type": "Feature", "properties": { "depth_bin": "50-55 ft", "bin_order": -52.5, "survey_id": "LM_06_MBV_20190717_CS_MB_4370_4375", "date": "2019-07-17", "year": 2019, "mile": 437.0 }, "geometry": { "type": "Polygon", "coordinates": [ [ [ -90.905988688351243, 32.337179743910127 ], [ -90.906401586299694, 32.337405622735567 ], [ -90.906491843342891, 32.3377871695237 ], [ -90.906065382151994, 32.338330830949658 ], [ -90.905935425885716, 32.338729606926208 ], [ -90.905670440166588, 32.33888665842305 ], [ -90.90544947418141, 32.338909054140281 ], [ -90.905176873213208, 32.338787202976349 ], [ -90.905059570065987, 32.338565525723993 ], [ -90.905094538867729, 32.338315752184172 ], [ -90.90530829665569, 32.337903245629327 ], [ -90.904571474251043, 32.337813750091904 ], [ -90.904429656466831, 32.337988049410264 ], [ -90.904079270584418, 32.338137977555839 ], [ -90.903615077699712, 32.338145953514008 ], [ -90.902625576150498, 32.337586248208737 ], [ -90.901619378153285, 32.336680620054693 ], [ -90.901438278769746, 32.33657405410878 ], [ -90.901345127346843, 32.336655370549629 ], [ -90.902007392495733, 32.33803841171332 ], [ -90.902119205664945, 32.338480970448011 ], [ -90.903652107681168, 32.339583994790623 ], [ -90.903678483963219, 32.339771588030359 ], [ -90.903579649500657, 32.339963442219258 ], [ -90.903371918476992, 32.340076347214527 ], [ -90.903125309261696, 32.34007224686566 ], [ -90.901258026274675, 32.338939267590291 ], [ -90.900411174525445, 32.338203219592543 ], [ -90.90029463216014, 32.337837176938002 ], [ -90.900130546816243, 32.337640422417728 ], [ -90.900178672631924, 32.337338984041473 ], [ -90.900011407319695, 32.336867517273703 ], [ -90.899583507780605, 32.336082253407213 ], [ -90.899556688921649, 32.335788691339538 ], [ -90.89944502120423, 32.335602419706703 ], [ -90.899599001994645, 32.335061931387919 ], [ -90.899512567517348, 32.334847132243887 ], [ -90.899270372089489, 32.33467278385438 ], [ -90.899062520848872, 32.334875301283475 ], [ -90.898731268815837, 32.334894671004733 ], [ -90.898658341900457, 32.335444898288365 ], [ -90.898537828988793, 32.335627599549255 ], [ -90.898318068631724, 32.335722666650113 ], [ -90.898036091649161, 32.335682419242467 ], [ -90.897810617101271, 32.335976691190631 ], [ -90.897312636201406, 32.336053503675394 ], [ -90.896901001390219, 32.335874575009861 ], [ -90.896700297804472, 32.335687734652524 ], [ -90.896327396323471, 32.334709044974851 ], [ -90.896112426557963, 32.334469931973736 ], [ -90.896148796722713, 32.334122997539069 ], [ -90.896430283681212, 32.333884698309014 ], [ -90.896828027181883, 32.333924668535062 ], [ -90.897159885665261, 32.334266978639221 ], [ -90.897295816718312, 32.334864352065431 ], [ -90.897506829341509, 32.334675313284173 ], [ -90.897733680959817, 32.334069154766112 ], [ -90.898150634119489, 32.333551446635724 ], [ -90.899476505186328, 32.333200289860216 ], [ -90.899750647083494, 32.333203139969882 ], [ -90.90018762086504, 32.333018431593061 ], [ -90.900466584386592, 32.333022391371415 ], [ -90.900766309355234, 32.333182910580412 ], [ -90.901161033127849, 32.333775705084214 ], [ -90.901431038929744, 32.333995559254781 ], [ -90.901622812146741, 32.334816802381383 ], [ -90.901910284791072, 32.335351745124115 ], [ -90.902206896042543, 32.335651028714423 ], [ -90.902387312610955, 32.335702888112401 ], [ -90.903030339507367, 32.335521501351806 ], [ -90.903575187348736, 32.335671015325808 ], [ -90.904132069740783, 32.335698582786591 ], [ -90.904438003465273, 32.335947296397691 ], [ -90.904463967595433, 32.336291211815841 ], [ -90.903998814963444, 32.336677256696532 ], [ -90.903694568721022, 32.33672806700357 ], [ -90.903743273381053, 32.336796570126566 ], [ -90.904276614025378, 32.336937942909572 ], [ -90.904967048402071, 32.336895764765281 ], [ -90.905988688351243, 32.337179743910127 ] ] ] } },
{ "type": "Feature", "properties": { "depth_bin": "55-60 ft", "bin_order": -57.5, "survey_id": "LM_06_MBV_20190717_CS_MB_4370_4375", "date": "2019-07-17", "year": 2019, "mile": 437.0 }, "geometry": { "type": "Polygon", "coordinates": [ [ [ -90.90612063916538, 32.337093582611772 ], [ -90.90651438159982, 32.337322649901793 ], [ -90.906577445624649, 32.337724687227606 ], [ -90.906196030586017, 32.338217807333294 ], [ -90.906016019435953, 32.338674267518329 ], [ -90.905759989904325, 32.338828626168542 ], [ -90.905481007764351, 32.33882467745196 ], [ -90.905254466503777, 32.338676120679409 ], [ -90.905170877991864, 32.338405945053211 ], [ -90.90544746887204, 32.337811961018097 ], [ -90.904536028297812, 32.337661064086042 ], [ -90.903978425749784, 32.337777627675536 ], [ -90.903492236242371, 32.337666481451897 ], [ -90.902868279747665, 32.337217150758335 ], [ -90.902370975869118, 32.336601076110583 ], [ -90.90166480602791, 32.336329254437068 ], [ -90.900956311598293, 32.335462508123612 ], [ -90.900614536757132, 32.334779612231408 ], [ -90.900565419368448, 32.334433908561948 ], [ -90.900088728321748, 32.333845359758214 ], [ -90.900033847998614, 32.334035119337727 ], [ -90.90026744865304, 32.334303149273254 ], [ -90.900309130765947, 32.334517770646485 ], [ -90.900651614041209, 32.335130340862776 ], [ -90.900641159383142, 32.335566046667481 ], [ -90.900506048762864, 32.335789332160836 ], [ -90.900527542959153, 32.335917861182303 ], [ -90.901053456053049, 32.337272365749712 ], [ -90.901341715445142, 32.337725311216516 ], [ -90.901440760317399, 32.338108760926048 ], [ -90.903516287678059, 32.339455011557909 ], [ -90.903636005775112, 32.339597811886037 ], [ -90.903655371956788, 32.33980656517452 ], [ -90.90353486252549, 32.339989271272735 ], [ -90.903339628233994, 32.340090236504935 ], [ -90.903093018986112, 32.340086136091379 ], [ -90.902234225952128, 32.339643828036976 ], [ -90.901465465548412, 32.339079706096655 ], [ -90.901177172111829, 32.338953374924792 ], [ -90.900266614853095, 32.338311529016998 ], [ -90.899987963749098, 32.338014213696106 ], [ -90.899406758345052, 32.33765877533731 ], [ -90.899289328226587, 32.33743298463488 ], [ -90.898906592372072, 32.337098214306003 ], [ -90.898679133717394, 32.336732179413225 ], [ -90.898344211151553, 32.336425846508014 ], [ -90.898273387098087, 32.336165451083545 ], [ -90.897901671793576, 32.33597034283207 ], [ -90.897600191872357, 32.336089209297356 ], [ -90.897329079383823, 32.33609466041419 ], [ -90.896789111477773, 32.335828872096599 ], [ -90.896586303795388, 32.335578296298635 ], [ -90.89652592358172, 32.335263695666065 ], [ -90.896093493417382, 32.334531116558537 ], [ -90.896100659413861, 32.334191929340115 ], [ -90.896213603899852, 32.334000284141368 ], [ -90.896381807433059, 32.333898658074254 ], [ -90.896627686227376, 32.333882230350873 ], [ -90.896812542626506, 32.333960267703347 ], [ -90.897127766894187, 32.334308352431648 ], [ -90.89722394415314, 32.334817325167428 ], [ -90.897376671294481, 32.335072458614455 ], [ -90.897527864170584, 32.334928577345067 ], [ -90.897735842842508, 32.334872472890929 ], [ -90.897819549794463, 32.334449463153888 ], [ -90.898040256626615, 32.334172646995867 ], [ -90.898511218360184, 32.333865809796173 ], [ -90.89858843982276, 32.333556820986445 ], [ -90.898714649522773, 32.333418113800008 ], [ -90.899493824829293, 32.333201892214745 ], [ -90.899723180778622, 32.333218139602103 ], [ -90.899928166262725, 32.333341017312407 ], [ -90.900002976810754, 32.333159124470697 ], [ -90.900174733060041, 32.333030169568133 ], [ -90.900789808864431, 32.332938477530654 ], [ -90.901048000270904, 32.333047956487995 ], [ -90.901269952285176, 32.333305148038924 ], [ -90.901606005814699, 32.333500007382391 ], [ -90.901777686027316, 32.333998310510047 ], [ -90.901902536979932, 32.334978671278861 ], [ -90.902273135994292, 32.335391787319651 ], [ -90.902566589193185, 32.335332042891558 ], [ -90.903128198344731, 32.335364818826676 ], [ -90.903588883909961, 32.335550587180023 ], [ -90.904141057597741, 32.335589587620966 ], [ -90.904817678104777, 32.335835096325866 ], [ -90.90501899669438, 32.336051873277839 ], [ -90.904980888091487, 32.336339757907844 ], [ -90.904641658862957, 32.336554349032163 ], [ -90.904330700832801, 32.336618515148906 ], [ -90.90612063916538, 32.337093582611772 ] ] ] } },
{ "type": "Feature", "properties": { "depth_bin": "60-65 ft", "bin_order": -62.5, "survey_id": "LM_06_MBV_20190717_CS_MB_4370_4375", "date": "2019-07-17", "year": 2019, "mile": 437.0 }, "geometry": { "type": "MultiPolygon", "coordinates": [ [ [ [ -90.905731929425016, 32.336719087296245 ], [ -90.906610901299445, 32.337226006618629 ], [ -90.906673879059866, 32.337614301803974 ], [ -90.90632110308043, 32.338122075410041 ], [ -90.906177206235611, 32.338563587648281 ], [ -90.905847903312008, 32.33878964945832 ], [ -90.905561774627301, 32.338796824363492 ], [ -90.905359409659951, 32.338677104659865 ], [ -90.905268264646978, 32.338446733795621 ], [ -90.905350526292423, 32.338020446693719 ], [ -90.905602996301809, 32.337700647896149 ], [ -90.904466133939579, 32.337489377540649 ], [ -90.903926800914704, 32.337563029717657 ], [ -90.903242481514042, 32.337335585829685 ], [ -90.903041164659385, 32.337118806139557 ], [ -90.902974143002425, 32.336601750170715 ], [ -90.903050262757489, 32.336388852786541 ], [ -90.903223632792461, 32.336266954578505 ], [ -90.902806109614929, 32.336142020681699 ], [ -90.90253042101574, 32.336280958181099 ], [ -90.902170353181049, 32.336265334607795 ], [ -90.901823715353032, 32.336127359978818 ], [ -90.901553990684903, 32.335904384381877 ], [ -90.901100415882965, 32.335319547149417 ], [ -90.900806419756478, 32.334201949732595 ], [ -90.900514192843744, 32.333956034533784 ], [ -90.900182272495726, 32.333454567898123 ], [ -90.900229337400432, 32.333116877364546 ], [ -90.900487511963988, 32.332945714476224 ], [ -90.901391911519255, 32.332716660377898 ], [ -90.901791530140002, 32.332684813658695 ], [ -90.902065527624416, 32.332760462300143 ], [ -90.902247374767114, 32.333063439133419 ], [ -90.901942830015273, 32.333636001740302 ], [ -90.902010585659525, 32.334026547643766 ], [ -90.90194579944324, 32.334299280558895 ], [ -90.902123736894609, 32.335008143571322 ], [ -90.902419780893226, 32.335118455691749 ], [ -90.903280797782742, 32.335222403866261 ], [ -90.903598114008958, 32.335421504343351 ], [ -90.90414028121954, 32.335465900452775 ], [ -90.904365928051732, 32.335602077159464 ], [ -90.90484927562872, 32.33571126161597 ], [ -90.905300806726231, 32.336076045186218 ], [ -90.905391234053965, 32.336315253817496 ], [ -90.905643080175807, 32.336445565910729 ], [ -90.905731929425016, 32.336719087296245 ] ] ], [ [ [ -90.903485502826769, 32.339469459548674 ], [ -90.903631636263825, 32.339714858504408 ], [ -90.903531257327444, 32.339991147742452 ], [ -90.903250601698261, 32.340125868356196 ], [ -90.902916796665679, 32.340066794578647 ], [ -90.901985519748436, 32.339495747806396 ], [ -90.901584723657649, 32.339330655998637 ], [ -90.900546322183317, 32.338547660208079 ], [ -90.900299933177422, 32.338462556734967 ], [ -90.898349085950741, 32.336783936428084 ], [ -90.897839057435419, 32.336174956461527 ], [ -90.897272827319981, 32.336112945962498 ], [ -90.896836059890944, 32.335921795516732 ], [ -90.896586814499074, 32.335660754493603 ], [ -90.896281755307243, 32.334807668026933 ], [ -90.896048017832655, 32.334525192907499 ], [ -90.896041430592305, 32.334267534963715 ], [ -90.8961812285756, 32.334000428575614 ], [ -90.896528795601327, 32.333873991611362 ], [ -90.896854074402356, 32.334011308514121 ], [ -90.897095392513904, 32.334308497095222 ], [ -90.897174975482343, 32.334794530141089 ], [ -90.897441835222395, 32.335329348013317 ], [ -90.897749288732996, 32.335143201432302 ], [ -90.898068061421441, 32.335138988984653 ], [ -90.898095354295393, 32.334773984965956 ], [ -90.898306519145265, 32.334564071948954 ], [ -90.898622804288806, 32.334532992764323 ], [ -90.899067088196048, 32.334678581388125 ], [ -90.899855142130349, 32.335679345653951 ], [ -90.900065700592421, 32.336087964056546 ], [ -90.900157047731568, 32.336538677852303 ], [ -90.900361704062917, 32.336828779275073 ], [ -90.900427510419263, 32.337232371018487 ], [ -90.90073232723438, 32.337674980309437 ], [ -90.901697584814372, 32.338386691589022 ], [ -90.903485502826769, 32.339469459548674 ] ] ] ] } },
{ "type": "Feature", "properties": { "depth_bin": "65-70 ft", "bin_order": -67.5, "survey_id": "LM_06_MBV_20190717_CS_MB_4370_4375", "date": "2019-07-17", "year": 2019, "mile": 437.0 }, "geometry": { "type": "MultiPolygon", "coordinates": [ [ [ [ -90.910617464689295, 32.333471811142097 ], [ -90.911015334497804, 32.334080608526236 ], [ -90.911041725061082, 32.334268199983171 ], [ -90.910942912471654, 32.334460060996093 ], [ -90.910735202877049, 32.3345729791208 ], [ -90.910488607423488, 32.334568893781352 ], [ -90.909876817243315, 32.334336863346543 ], [ -90.909385967333506, 32.33403724552069 ], [ -90.909245997550855, 32.333835139186007 ], [ -90.908762276362182, 32.333940820080137 ], [ -90.908578194197943, 32.334344352847516 ], [ -90.908323888338259, 32.334568618268555 ], [ -90.908063610375464, 32.334652214422661 ], [ -90.907811377447132, 32.33460959122754 ], [ -90.907558891594363, 32.334446420751398 ], [ -90.907501701213789, 32.33417467128907 ], [ -90.907834640521301, 32.333797137004922 ], [ -90.907992415976736, 32.333217516774411 ], [ -90.908154264064621, 32.332973759467471 ], [ -90.907804042922493, 32.333137297620233 ], [ -90.907486446625327, 32.33307816306268 ], [ -90.907271466741818, 32.332811682515157 ], [ -90.907290748231702, 32.332514263048331 ], [ -90.907670440231513, 32.332267279942542 ], [ -90.908011705981437, 32.332272598754543 ], [ -90.908318449852786, 32.332539919572298 ], [ -90.908269572266988, 32.33287964029693 ], [ -90.908766279658465, 32.332733895812098 ], [ -90.909326406844272, 32.332830084407881 ], [ -90.909489793549412, 32.332937224878179 ], [ -90.909577062765777, 32.333114699665686 ], [ -90.91020337763743, 32.33327961112002 ], [ -90.910617464689295, 32.333471811142097 ] ] ], [ [ [ -90.912715659935685, 32.334287829464117 ], [ -90.912726497491875, 32.334609860008875 ], [ -90.912476044065613, 32.334815035096589 ], [ -90.912102480854955, 32.334823619488844 ], [ -90.911828354730773, 32.334597388009264 ], [ -90.91183460714997, 32.334307643767083 ], [ -90.912101247593981, 32.33410239568471 ], [ -90.912452110236572, 32.334094908106344 ], [ -90.912715659935685, 32.334287829464117 ] ] ], [ [ [ -90.910943151901918, 32.33557691235648 ], [ -90.911138484870449, 32.335738122456064 ], [ -90.911181875495714, 32.33594425720014 ], [ -90.911092532334919, 32.336135665034035 ], [ -90.91084019632315, 32.336319977588047 ], [ -90.910225779210862, 32.33646846276924 ], [ -90.909873436988534, 32.336357162313419 ], [ -90.909621269893833, 32.336165372735373 ], [ -90.909575024618192, 32.335994549897144 ], [ -90.909645101367531, 32.335797829767877 ], [ -90.909968127684195, 32.335583298793154 ], [ -90.91046009657282, 32.335446502621259 ], [ -90.910943151901918, 32.33557691235648 ] ] ], [ [ [ -90.907512423952923, 32.331723748953742 ], [ -90.907624415040317, 32.331910316795025 ], [ -90.907595450034833, 32.33211826806199 ], [ -90.907356044943384, 32.332399311509832 ], [ -90.907056335466038, 32.332538380881616 ], [ -90.907173322342786, 32.332905151804617 ], [ -90.90708142530714, 32.333062105286231 ], [ -90.90684874666637, 32.333205269572133 ], [ -90.906256668973171, 32.333152470030122 ], [ -90.9060813488354, 32.332919985783484 ], [ -90.906128910299529, 32.332658646215108 ], [ -90.905743228666182, 32.332653679492779 ], [ -90.905404291534012, 32.332413985435622 ], [ -90.90541030456383, 32.332083013154609 ], [ -90.905676952063885, 32.331877778913444 ], [ -90.907091831090298, 32.331600815718687 ], [ -90.907512423952923, 32.331723748953742 ] ] ], [ [ [ -90.907024201438432, 32.333529431292341 ], [ -90.907204648850509, 32.333843953710932 ], [ -90.90717063194846, 32.334058026566197 ], [ -90.907016821523101, 32.334213429075263 ], [ -90.907094807389115, 32.334394190617466 ], [ -90.907060529876674, 32.334567034361022 ], [ -90.906783690111894, 32.334812958809515 ], [ -90.906404385854501, 32.334822141432127 ], [ -90.90616573421633, 32.334589610408244 ], [ -90.906250661750732, 32.334248701070941 ], [ -90.9060488754631, 32.334026660383877 ], [ -90.906068421018176, 32.33377047033779 ], [ -90.906228585035038, 32.33361122995737 ], [ -90.906632979433525, 32.333456585646537 ], [ -90.907024201438432, 32.333529431292341 ] ] ], [ [ [ -90.906642858186828, 32.336995072332265 ], [ -90.906774440213454, 32.337184611234804 ], [ -90.906787720282566, 32.33736613606785 ], [ -90.906501549990168, 32.337969701967928 ], [ -90.906434485055968, 32.338380934466279 ], [ -90.905998903831389, 32.338719658257467 ], [ -90.905582249577762, 32.338713081418412 ], [ -90.905411284433171, 32.338562145470476 ], [ -90.905367906107585, 32.338356009311937 ], [ -90.905463408682877, 32.337951217839034 ], [ -90.905719754327009, 32.337612303991619 ], [ -90.90516638301014, 32.337428491372933 ], [ -90.903679032395402, 32.337251151848221 ], [ -90.903309129455337, 32.336995941909827 ], [ -90.903217991167509, 32.336765569792192 ], [ -90.903406475768364, 32.336400987128528 ], [ -90.903683175183673, 32.336201543235447 ], [ -90.902927842819096, 32.335981387562164 ], [ -90.901950422186971, 32.335995747566635 ], [ -90.901422086236067, 32.335520162037241 ], [ -90.901245672941229, 32.335250176368831 ], [ -90.901156684526256, 32.334921300075528 ], [ -90.9010507355719, 32.334323163964896 ], [ -90.90109836557518, 32.334056353380689 ], [ -90.900974849151993, 32.333793785508213 ], [ -90.900606307513144, 32.333460279034476 ], [ -90.900576424517865, 32.333210111487844 ], [ -90.900675257015635, 32.333018259420122 ], [ -90.901037010847801, 32.3328058089987 ], [ -90.901706962675689, 32.332654267445903 ], [ -90.902089348707506, 32.332598393635067 ], [ -90.902356909823467, 32.33268473030212 ], [ -90.902505937067673, 32.332993555920503 ], [ -90.902197034237759, 32.333643123326866 ], [ -90.902185347678397, 32.334431838563653 ], [ -90.902286537118982, 32.334868202546573 ], [ -90.902572112777477, 32.334957553757896 ], [ -90.903193418737288, 32.334614554025684 ], [ -90.903629010647478, 32.334727256134741 ], [ -90.903830323989268, 32.334944034800557 ], [ -90.903777905591298, 32.335245584720063 ], [ -90.90507833971489, 32.335646710757985 ], [ -90.905470575230609, 32.336012520606111 ], [ -90.906101318678893, 32.336416675927836 ], [ -90.906382387743633, 32.33688325251363 ], [ -90.906642858186828, 32.336995072332265 ] ] ], [ [ [ -90.903302178952728, 32.339401500518377 ], [ -90.903539049463021, 32.339625736951938 ], [ -90.903532855509155, 32.339929222523786 ], [ -90.903250076713263, 32.34014826710208 ], [ -90.902892594178567, 32.340143007335868 ], [ -90.90059303131973, 32.338736108228851 ], [ -90.898382230784947, 32.336907479572872 ], [ -90.897677987593156, 32.336193581761144 ], [ -90.897272997761405, 32.336140432026049 ], [ -90.896722746524588, 32.335922301540535 ], [ -90.896455825400977, 32.335532770954998 ], [ -90.896449742974923, 32.335242822730415 ], [ -90.896254334240879, 32.334804461961191 ], [ -90.896032000669777, 32.334552751171756 ], [ -90.896025158377853, 32.334253863218251 ], [ -90.896165041444462, 32.334000500787255 ], [ -90.89645474934926, 32.333875178180598 ], [ -90.89676398018058, 32.333960484580921 ], [ -90.897063188510316, 32.334336127831165 ], [ -90.897352508161319, 32.335339746589511 ], [ -90.89774531295177, 32.335343494057881 ], [ -90.898376670095544, 32.335588742699962 ], [ -90.898994692066694, 32.336319440397908 ], [ -90.899286687778954, 32.336502403548472 ], [ -90.900043134627396, 32.337255266900556 ], [ -90.901642816220232, 32.338427072853463 ], [ -90.901988570432124, 32.338574284087706 ], [ -90.902161071488862, 32.338761286164903 ], [ -90.903302178952728, 32.339401500518377 ] ] ] ] } },
{ "type": "Feature", "properties": { "depth_bin": "70-75 ft", "bin_order": -72.5, "survey_id": "LM_06_MBV_20190717_CS_MB_4370_4375", "date": "2019-07-17", "year": 2019, "mile": 437.0 }, "geometry": { "type": "MultiPolygon", "coordinates": [ [ [ [ -90.91252328162922, 32.334079845249967 ], [ -90.913203728829359, 32.334670403439425 ], [ -90.913266605898983, 32.334909865834042 ], [ -90.913190423522082, 32.335109027404215 ], [ -90.912700043748771, 32.335428179354452 ], [ -90.911246500110906, 32.336075635604857 ], [ -90.911054080971866, 32.336246589147315 ], [ -90.910189132770327, 32.336667130847822 ], [ -90.909135809298533, 32.336723439428013 ], [ -90.908709759726108, 32.336651086663615 ], [ -90.908340017678796, 32.336423377376391 ], [ -90.908268256404952, 32.336092727416691 ], [ -90.908167899911902, 32.335971456855155 ], [ -90.907878046720967, 32.335861324364963 ], [ -90.907763055158028, 32.335565488354312 ], [ -90.907552081658196, 32.335465264833545 ], [ -90.90746338577172, 32.33546344572617 ], [ -90.906871387575691, 32.335884547760443 ], [ -90.906617079748969, 32.335919732562807 ], [ -90.906552316904651, 32.336253228392764 ], [ -90.906840700516526, 32.336398897250824 ], [ -90.907023645381742, 32.336750740367584 ], [ -90.90679122377307, 32.337529379430201 ], [ -90.906939871288557, 32.337747339673577 ], [ -90.906945969223699, 32.337922539670139 ], [ -90.90656922515285, 32.338418136281398 ], [ -90.906127974573337, 32.33865035443867 ], [ -90.905885166220898, 32.338687182416869 ], [ -90.905628839679167, 32.338579001772686 ], [ -90.905511535644337, 32.338357324899441 ], [ -90.905609351633927, 32.337804911376978 ], [ -90.905836491572629, 32.337503721452947 ], [ -90.905610113710622, 32.337356598778733 ], [ -90.905451794992103, 32.337089533267822 ], [ -90.90514910513555, 32.33694570970021 ], [ -90.904856090396265, 32.336592833161667 ], [ -90.904761115120905, 32.336537016588302 ], [ -90.904708203102814, 32.336739552834288 ], [ -90.904514316260418, 32.336898511646766 ], [ -90.904218498694576, 32.337001733840808 ], [ -90.903941183045632, 32.336977280808654 ], [ -90.903715806992224, 32.336778298653257 ], [ -90.903707360839732, 32.336535385524662 ], [ -90.903864393579582, 32.336336027284176 ], [ -90.904242136598057, 32.336207149398788 ], [ -90.903271201232329, 32.335977037729421 ], [ -90.903069539855167, 32.335828751404769 ], [ -90.902264297226566, 32.335756404030761 ], [ -90.901974224288438, 32.335666791290137 ], [ -90.901533939317758, 32.335286019526727 ], [ -90.901374055733896, 32.33507093412522 ], [ -90.901235818736694, 32.334632331415889 ], [ -90.901208661561711, 32.333358445039991 ], [ -90.901564596440451, 32.332863079675001 ], [ -90.901884263266268, 32.332641353232141 ], [ -90.902290136334415, 32.332543370765883 ], [ -90.902526087619762, 32.332572333852106 ], [ -90.902713639370916, 32.332708320146573 ], [ -90.902777738163664, 32.332945167250088 ], [ -90.902582648448671, 32.333368273920691 ], [ -90.902398864076744, 32.333541141668718 ], [ -90.902404865986313, 32.333919638761166 ], [ -90.902995529617698, 32.333936453855394 ], [ -90.903262814691203, 32.333871238483681 ], [ -90.903700336183476, 32.333968861925833 ], [ -90.904013768951046, 32.334266645664869 ], [ -90.904278460906198, 32.334269595801629 ], [ -90.904584946792212, 32.334412036101227 ], [ -90.904941030191225, 32.334676521615826 ], [ -90.90505006573018, 32.334852179855481 ], [ -90.905276088946692, 32.334637457607073 ], [ -90.904939650624257, 32.334527814243522 ], [ -90.904706776161575, 32.334106353803179 ], [ -90.904830932611404, 32.333810776993886 ], [ -90.905065813676757, 32.333657525111946 ], [ -90.904753782858663, 32.333557844886528 ], [ -90.904260752762468, 32.333221162188494 ], [ -90.904197900615372, 32.332981695930471 ], [ -90.904329336242498, 32.332727918193378 ], [ -90.904228399349861, 32.332522179002382 ], [ -90.904303368118732, 32.332287643417089 ], [ -90.904859609180193, 32.332035313773495 ], [ -90.905943959206724, 32.331825925962612 ], [ -90.906470973176084, 32.331781446704234 ], [ -90.906749465426785, 32.331835759040978 ], [ -90.907034993118373, 32.331610485416988 ], [ -90.907821867974192, 32.331489306759352 ], [ -90.908291249086986, 32.331668299345225 ], [ -90.90881629212177, 32.332177118855633 ], [ -90.910580457155504, 32.332817996047346 ], [ -90.910793088258401, 32.33301518682876 ], [ -90.910901771831391, 32.333265647913422 ], [ -90.911203016559824, 32.333436666128861 ], [ -90.911525336344241, 32.333453216897283 ], [ -90.911732858859267, 32.333573580221142 ], [ -90.911851883284299, 32.333753060492441 ], [ -90.911847432161906, 32.33396130168547 ], [ -90.912200479674013, 32.333935432687454 ], [ -90.91252328162922, 32.334079845249967 ] ] ], [ [ [ -90.903336353018133, 32.339507727650947 ], [ -90.903486460106649, 32.339797975104069 ], [ -90.90338599447098, 32.340060521189834 ], [ -90.903073134207503, 32.340222873696398 ], [ -90.902674489006529, 32.340150348665055 ], [ -90.899845214989398, 32.338230961456503 ], [ -90.899633110681393, 32.337987207288577 ], [ -90.89828518924304, 32.336921657544053 ], [ -90.897857319338073, 32.336418613652697 ], [ -90.89743975624387, 32.336197717006996 ], [ -90.897216083954461, 32.336412512387525 ], [ -90.896986403249059, 32.336488831585179 ], [ -90.896766631699592, 32.336459785571805 ], [ -90.896504423738676, 32.336298314016616 ], [ -90.89663583645995, 32.336565708448397 ], [ -90.89645738574562, 32.336851967100976 ], [ -90.896484528843146, 32.33730998466325 ], [ -90.896267647046997, 32.33761680421766 ], [ -90.895957633108779, 32.337718098937465 ], [ -90.896013788313397, 32.338066520148857 ], [ -90.895911644670107, 32.338318348089018 ], [ -90.89547881311249, 32.33858624106864 ], [ -90.895240069129471, 32.338591543212679 ], [ -90.895055205021876, 32.338513503270299 ], [ -90.894903765189014, 32.338361970771032 ], [ -90.894860410984307, 32.338155831989027 ], [ -90.895055366144206, 32.337839266199715 ], [ -90.895026075706241, 32.337611714979779 ], [ -90.895198266044474, 32.337251082144633 ], [ -90.895805372466128, 32.336664550173701 ], [ -90.895796120541263, 32.336481321972137 ], [ -90.895916640046352, 32.336298623633162 ], [ -90.896177756241343, 32.336199056153426 ], [ -90.896480990545513, 32.336280425558122 ], [ -90.896350805961887, 32.33604841100226 ], [ -90.896405976457473, 32.335246261844127 ], [ -90.89624328136064, 32.334850368166123 ], [ -90.895968884671618, 32.33449710630299 ], [ -90.896148939363542, 32.334014316034235 ], [ -90.896438647333568, 32.333888993467617 ], [ -90.896747878193736, 32.333974299908583 ], [ -90.897277797913333, 32.335008597238833 ], [ -90.897319198122545, 32.335375137996998 ], [ -90.897778114202936, 32.335412064390454 ], [ -90.89823132485644, 32.335644367232547 ], [ -90.899005728182686, 32.336412511379649 ], [ -90.900758220713513, 32.337869269671096 ], [ -90.902091406126729, 32.338804455327235 ], [ -90.90249289216402, 32.338970568569216 ], [ -90.903336353018133, 32.339507727650947 ] ] ] ] } },
{ "type": "Feature", "properties": { "depth_bin": "75-80 ft", "bin_order": -77.5, "survey_id": "LM_06_MBV_20190717_CS_MB_4370_4375", "date": "2019-07-17", "year": 2019, "mile": 437.0 }, "geometry": { "type": "MultiPolygon", "coordinates": [ [ [ [ -90.91291862952589, 32.334214079571971 ], [ -90.913347755004935, 32.334790693240222 ], [ -90.913342949320906, 32.335000054286475 ], [ -90.913201951269585, 32.335171864784975 ], [ -90.912602423959981, 32.335457743443591 ], [ -90.912162730589017, 32.33539381028443 ], [ -90.912133867485196, 32.3356021068969 ], [ -90.91195860566873, 32.335786660027793 ], [ -90.910972647330823, 32.336276077770016 ], [ -90.910581409754585, 32.336203243786166 ], [ -90.910432439858411, 32.335908135625942 ], [ -90.910209478757082, 32.335934948726674 ], [ -90.910452195003145, 32.336226596790134 ], [ -90.910438217643105, 32.33642894731436 ], [ -90.910328643825551, 32.336577500287937 ], [ -90.909194201491971, 32.337138363338852 ], [ -90.908880954027026, 32.337203654827086 ], [ -90.9085517325761, 32.337427842984923 ], [ -90.908115596010248, 32.337409683576183 ], [ -90.907817178265461, 32.337031166713587 ], [ -90.907219290963027, 32.336842447735002 ], [ -90.907046195706897, 32.337193711959706 ], [ -90.907306427182746, 32.337285805995826 ], [ -90.907442058634828, 32.337417952720301 ], [ -90.907519878155995, 32.337621963792657 ], [ -90.907467041125031, 32.337826502896945 ], [ -90.907067725837805, 32.338161372381883 ], [ -90.906370015230095, 32.338525564740337 ], [ -90.906120324349729, 32.338578784409705 ], [ -90.905852742161755, 32.338492454935597 ], [ -90.905710408999354, 32.338281606984815 ], [ -90.905792167621811, 32.337755731122236 ], [ -90.905979528020637, 32.337279144843613 ], [ -90.905822362179251, 32.337112342688926 ], [ -90.905715374162071, 32.336749439194577 ], [ -90.905095394232063, 32.336475605877041 ], [ -90.904802857178282, 32.336090630393016 ], [ -90.904217189570701, 32.336067972996311 ], [ -90.903780681946543, 32.335843658307546 ], [ -90.903550114931264, 32.33546907424445 ], [ -90.903246611623672, 32.335411485906455 ], [ -90.903071871254156, 32.335253393364383 ], [ -90.902892160002992, 32.335466206885272 ], [ -90.902606360015554, 32.335588353577371 ], [ -90.902192418287044, 32.335548474167688 ], [ -90.901618019920818, 32.335143430181688 ], [ -90.901496446744943, 32.334892283718794 ], [ -90.901504299083967, 32.334414630060415 ], [ -90.901388578521775, 32.334148823670056 ], [ -90.901436654174404, 32.333577314174363 ], [ -90.901548871287744, 32.333254910636633 ], [ -90.901829959657405, 32.332807320334268 ], [ -90.902130692085393, 32.332595320025831 ], [ -90.902527732861557, 32.332536379772712 ], [ -90.902794488828889, 32.332694211846572 ], [ -90.902862222941948, 32.333019435034615 ], [ -90.902721870440317, 32.333640151921379 ], [ -90.902912232508683, 32.3336799420399 ], [ -90.903168280875363, 32.333473910542722 ], [ -90.903419528573167, 32.333417869652834 ], [ -90.903520642500624, 32.333256674802087 ], [ -90.903371622498042, 32.333021769368273 ], [ -90.90337645076805, 32.332812409591604 ], [ -90.903624296839297, 32.332414406240119 ], [ -90.903779946133483, 32.332299262362881 ], [ -90.905158969595036, 32.331984984070544 ], [ -90.905519020087482, 32.332000598824195 ], [ -90.906221293480669, 32.332334330089154 ], [ -90.906323945255949, 32.332486402643568 ], [ -90.906323197175411, 32.332683018677955 ], [ -90.906496691237379, 32.33284380975379 ], [ -90.906683620408145, 32.332684346517674 ], [ -90.906648965789572, 32.332433133633529 ], [ -90.906805433340011, 32.33215501613779 ], [ -90.9071382240014, 32.331972148923256 ], [ -90.907331920415686, 32.331601923997347 ], [ -90.908410688444746, 32.331346573791947 ], [ -90.908678252723192, 32.331432897154151 ], [ -90.909175281126437, 32.331839185936289 ], [ -90.909284563809862, 32.332023776042199 ], [ -90.909813075056121, 32.332316205248254 ], [ -90.910238711465894, 32.332456529473966 ], [ -90.910426612195693, 32.33269634842457 ], [ -90.910627165907769, 32.332795268174891 ], [ -90.911212544364531, 32.333341646127195 ], [ -90.911617392033818, 32.333412754351109 ], [ -90.911840921529546, 32.333558664143112 ], [ -90.911958967821349, 32.333750332128645 ], [ -90.912218760997661, 32.333794812810979 ], [ -90.912515624229016, 32.334040174797863 ], [ -90.91291862952589, 32.334214079571971 ] ], [ [ -90.908442064057979, 32.333492312683546 ], [ -90.908780099281287, 32.333447634833739 ], [ -90.909184988728427, 32.333504158794931 ], [ -90.90942957274396, 32.333652158984869 ], [ -90.90959135200481, 32.333905136717306 ], [ -90.909889884516758, 32.33378701032909 ], [ -90.91034442532947, 32.333853475470356 ], [ -90.910006152447863, 32.333409826104052 ], [ -90.909616336271384, 32.333336965306209 ], [ -90.909021926364687, 32.333053664953461 ], [ -90.908537131577575, 32.333076790068482 ], [ -90.908442064057979, 32.333492312683546 ] ], [ [ -90.907981583468441, 32.33261274447235 ], [ -90.907942207040662, 32.332548331138135 ], [ -90.907704194357578, 32.332469426426627 ], [ -90.907708046775369, 32.332616307446848 ], [ -90.907981583468441, 32.33261274447235 ] ], [ [ -90.910149054567142, 32.334936655129717 ], [ -90.910498200630698, 32.33489920781399 ], [ -90.910947574433607, 32.334996317892042 ], [ -90.911097810983307, 32.335116537535342 ], [ -90.91116444515319, 32.335308154128406 ], [ -90.911489471949849, 32.335149371599954 ], [ -90.91117195638752, 32.334952176652351 ], [ -90.9111181528381, 32.334669795679602 ], [ -90.910726429119862, 32.334833320872413 ], [ -90.910139956859709, 32.334690333428959 ], [ -90.910149054567142, 32.334936655129717 ] ], [ [ -90.906541088084282, 32.334004605028476 ], [ -90.906543886762293, 32.333999983285636 ], [ -90.906532913528338, 32.334000258559684 ], [ -90.906541088084282, 32.334004605028476 ] ], [ [ -90.906282228408301, 32.33393361579887 ], [ -90.906278123830134, 32.3339406258983 ], [ -90.906302092307584, 32.333940024672387 ], [ -90.906282228408301, 32.33393361579887 ] ] ], [ [ [ -90.903225058308195, 32.339558231360776 ], [ -90.903405691685293, 32.339825826903464 ], [ -90.903260610950397, 32.340141687888028 ], [ -90.902909421513129, 32.340270019204397 ], [ -90.902496160637725, 32.340109923093607 ], [ -90.899796736975588, 32.338244922526279 ], [ -90.899557687927228, 32.337990503976052 ], [ -90.898530054933374, 32.337250402655009 ], [ -90.897838628061109, 32.336538470507037 ], [ -90.897469554168879, 32.336283963038646 ], [ -90.896957301690549, 32.337255436469448 ], [ -90.895982729503118, 32.338662577232711 ], [ -90.895597224862925, 32.338754873871977 ], [ -90.894990113731993, 32.33845881941965 ], [ -90.894659589167077, 32.33814316284117 ], [ -90.894634086199076, 32.337867961825332 ], [ -90.896333087388626, 32.335206573038782 ], [ -90.89622726449835, 32.334877927550295 ], [ -90.895958088333103, 32.334546029052973 ], [ -90.896116650141551, 32.334028203484671 ], [ -90.896422460220279, 32.333889065713279 ], [ -90.896731691063195, 32.33397437219336 ], [ -90.897226149926908, 32.335014954575797 ], [ -90.897245023610694, 32.335410837748462 ], [ -90.8976812447101, 32.335453727989368 ], [ -90.898166831245078, 32.335685886235062 ], [ -90.899196266259722, 32.336686620348665 ], [ -90.900427769714852, 32.337687351382172 ], [ -90.903225058308195, 32.339558231360776 ] ] ] ] } },
{ "type": "Feature", "properties": { "depth_bin": "80-85 ft", "bin_order": -82.5, "survey_id": "LM_06_MBV_20190717_CS_MB_4370_4375", "date": "2019-07-17", "year": 2019, "mile": 437.0 }, "geometry": { "type": "MultiPolygon", "coordinates": [ [ [ [ -90.912904927307352, 32.334025367363608 ], [ -90.913070873640578, 32.334219951242801 ], [ -90.913294718232123, 32.334228471613429 ], [ -90.913469694246814, 32.334321494108494 ], [ -90.913647238732253, 32.334631446431899 ], [ -90.913545668100326, 32.334969960261979 ], [ -90.913126075238679, 32.335210609306039 ], [ -90.912807582860623, 32.335217949917585 ], [ -90.912407201658752, 32.334976538444337 ], [ -90.911790401586941, 32.334877841862642 ], [ -90.911574663175003, 32.334652129759647 ], [ -90.911254562168438, 32.334619172714746 ], [ -90.911018495536524, 32.334413567868936 ], [ -90.910961602305889, 32.334094870394452 ], [ -90.910290093131479, 32.333662042624361 ], [ -90.909619898743472, 32.333048903840634 ], [ -90.908700733206203, 32.33266553270083 ], [ -90.908455604618794, 32.332477809329419 ], [ -90.908023869396203, 32.331976034816421 ], [ -90.908047908925539, 32.331530908474022 ], [ -90.908303224654986, 32.331359983176533 ], [ -90.908787805338747, 32.331364176619196 ], [ -90.909150760872294, 32.331677443562015 ], [ -90.909422979624225, 32.331797501361521 ], [ -90.909706637091318, 32.332115592260628 ], [ -90.910270910751422, 32.33242889541927 ], [ -90.911203034712869, 32.333251997591447 ], [ -90.911633316854676, 32.333371451139804 ], [ -90.91198758403408, 32.333667248652148 ], [ -90.91227820036022, 32.333723640694714 ], [ -90.912904927307352, 32.334025367363608 ] ] ], [ [ [ -90.908790348031204, 32.336171404159643 ], [ -90.909597920301962, 32.336414496516973 ], [ -90.909709921005231, 32.336601062793662 ], [ -90.909695854796681, 32.336789670160343 ], [ -90.909554847111266, 32.336961476132387 ], [ -90.907112232185852, 32.338137375373925 ], [ -90.90656973957654, 32.338238220401742 ], [ -90.906270497559746, 32.338066799524313 ], [ -90.906029838619247, 32.337592986619775 ], [ -90.906075422436288, 32.33726680205168 ], [ -90.906338737141127, 32.336630039902808 ], [ -90.905982218266487, 32.336294629032807 ], [ -90.905987041136015, 32.336085269014589 ], [ -90.906101919014688, 32.335932633691527 ], [ -90.905868034286911, 32.335966061169763 ], [ -90.905642052928116, 32.33588215929619 ], [ -90.905522336127206, 32.335739360867358 ], [ -90.905502965966761, 32.335530607597654 ], [ -90.90565558033164, 32.335306523192152 ], [ -90.906012243225064, 32.335136104086729 ], [ -90.906370477247563, 32.335187315072695 ], [ -90.906551312731281, 32.335460668341433 ], [ -90.907099140769944, 32.334991668395105 ], [ -90.907641873761264, 32.334932049657176 ], [ -90.90801048698313, 32.335147698362931 ], [ -90.908042715602733, 32.335637487054605 ], [ -90.908318021778939, 32.33583015135806 ], [ -90.908462244763825, 32.336184262456513 ], [ -90.908790348031204, 32.336171404159643 ] ], [ [ -90.906479371759445, 32.335827881461974 ], [ -90.90651081947226, 32.335651911190645 ], [ -90.906340401111862, 32.335826958534831 ], [ -90.906479371759445, 32.335827881461974 ] ] ], [ [ [ -90.904794098897057, 32.332863677416704 ], [ -90.905288246772002, 32.333259373833357 ], [ -90.905405544385786, 32.333481050785373 ], [ -90.905355768571638, 32.333763911535279 ], [ -90.905046064192518, 32.334193050378083 ], [ -90.905487780771125, 32.334279050293638 ], [ -90.905698434981687, 32.334530322521879 ], [ -90.905712505115801, 32.334849612895702 ], [ -90.905496776234841, 32.335207041084651 ], [ -90.90526710471967, 32.335283375801183 ], [ -90.904836982651616, 32.335269040578936 ], [ -90.904673597746239, 32.335161894168593 ], [ -90.904410415415867, 32.334782884747177 ], [ -90.903959933700918, 32.334805733346258 ], [ -90.903691971848161, 32.334681568096563 ], [ -90.903426945976676, 32.334431906747682 ], [ -90.903259966180897, 32.334502479582831 ], [ -90.903098377076205, 32.334791847737037 ], [ -90.902618762251535, 32.334983585718412 ], [ -90.902211006867589, 32.335000754982488 ], [ -90.901968419755093, 32.334871758994524 ], [ -90.901878516218929, 32.334676766120097 ], [ -90.901929198216493, 32.334281260928044 ], [ -90.901708358638331, 32.334057292108348 ], [ -90.90159938327831, 32.333714015473241 ], [ -90.901871408174429, 32.333061049890162 ], [ -90.902205980286979, 32.332591557014403 ], [ -90.904241472062822, 32.332198794829573 ], [ -90.904539812577667, 32.332303794294553 ], [ -90.904752155057778, 32.332534183308262 ], [ -90.904794098897057, 32.332863677416704 ] ] ], [ [ [ -90.903175246156408, 32.339632146093344 ], [ -90.903326324449708, 32.339916544723096 ], [ -90.903148492278262, 32.340206534543512 ], [ -90.902828652503274, 32.340297870613583 ], [ -90.90243175188634, 32.340165187236622 ], [ -90.901929796318697, 32.339780787436702 ], [ -90.900903519093973, 32.339201988409073 ], [ -90.899411910815317, 32.337977414713066 ], [ -90.89893527369631, 32.337685305931771 ], [ -90.897539805967625, 32.336391071467695 ], [ -90.897054342785879, 32.337241259508666 ], [ -90.896032488356582, 32.338726695517032 ], [ -90.895719532642147, 32.338801622834083 ], [ -90.895444820979776, 32.338690433216833 ], [ -90.895295573029202, 32.338500400565977 ], [ -90.895314764602404, 32.338240701606672 ], [ -90.895013591670747, 32.338340107254773 ], [ -90.894697458413674, 32.338253970755723 ], [ -90.894555152212703, 32.338043111296585 ], [ -90.894584064739107, 32.337821421500472 ], [ -90.89626873190096, 32.335159002091615 ], [ -90.896214207431953, 32.334907209162836 ], [ -90.896002483379334, 32.334704637786587 ], [ -90.895920323013712, 32.334497322845422 ], [ -90.896100377962284, 32.334014532650578 ], [ -90.896447945143464, 32.333888095916315 ], [ -90.896797396268482, 32.334054251448705 ], [ -90.896865041919398, 32.334400103668642 ], [ -90.89720327969215, 32.335077082211768 ], [ -90.897145206757472, 32.335500756312165 ], [ -90.897697943842971, 32.335536113783959 ], [ -90.898134968521987, 32.335768489375866 ], [ -90.899166004796555, 32.336778184149921 ], [ -90.900320779505165, 32.337672869913263 ], [ -90.903175246156408, 32.339632146093344 ] ] ] ] } },
{ "type": "Feature", "properties": { "depth_bin": "85-90 ft", "bin_order": -87.5, "survey_id": "LM_06_MBV_20190717_CS_MB_4370_4375", "date": "2019-07-17", "year": 2019, "mile": 437.0 }, "geometry": { "type": "MultiPolygon", "coordinates": [ [ [ [ -90.913065651709829, 32.334101614660419 ], [ -90.913594060992565, 32.334162668856834 ], [ -90.9138763209844, 32.334281464080995 ], [ -90.913996049582366, 32.334424255071276 ], [ -90.914015439241879, 32.334633007869463 ], [ -90.913847427606839, 32.334852797514337 ], [ -90.913126598464402, 32.335188210870726 ], [ -90.912808990839537, 32.33512908930053 ], [ -90.912571965511944, 32.334960960391257 ], [ -90.912412249499667, 32.334693444228094 ], [ -90.912112747117433, 32.334656469234957 ], [ -90.911908414086412, 32.334428623269986 ], [ -90.911656304664845, 32.334498363604041 ], [ -90.911399198753614, 32.334453588437057 ], [ -90.91122823109869, 32.334302660215322 ], [ -90.911100177484002, 32.333983615098475 ], [ -90.910780507687448, 32.333892941025645 ], [ -90.91030575706192, 32.333579509675275 ], [ -90.909635378807678, 32.332977688561385 ], [ -90.909071661939038, 32.332626177305116 ], [ -90.90887276480737, 32.332363021762362 ], [ -90.908534713610351, 32.332188836257743 ], [ -90.908200968034464, 32.331824050582441 ], [ -90.908225788425156, 32.331502611296486 ], [ -90.908513390094058, 32.331317795028653 ], [ -90.90886865153071, 32.331350064448785 ], [ -90.909185318285736, 32.331598266821857 ], [ -90.90944067998548, 32.331690543028571 ], [ -90.909693262980966, 32.331990016481228 ], [ -90.911423810461031, 32.333273059578474 ], [ -90.911765860285485, 32.333403534433749 ], [ -90.912011710005274, 32.333639484507223 ], [ -90.912456345322369, 32.333736566511817 ], [ -90.912886092313471, 32.333920643885975 ], [ -90.913065651709829, 32.334101614660419 ] ] ], [ [ [ -90.904061040671579, 32.332518019164787 ], [ -90.90408040726372, 32.3327267725846 ], [ -90.903934730814782, 32.333053695622688 ], [ -90.903976074362959, 32.333352322766622 ], [ -90.903541560134713, 32.333889015341725 ], [ -90.903205791746601, 32.334124561157822 ], [ -90.902817403539828, 32.33425163523988 ], [ -90.902426182585373, 32.334178776556548 ], [ -90.902192303666666, 32.333899055128107 ], [ -90.902194737570511, 32.33360231329339 ], [ -90.902080872536615, 32.33338397086753 ], [ -90.902119910811948, 32.332975882404263 ], [ -90.902291546986092, 32.332626164684562 ], [ -90.902531549371091, 32.332499371617914 ], [ -90.903583536865014, 32.332290150071685 ], [ -90.903873005657402, 32.332334794402428 ], [ -90.904061040671579, 32.332518019164787 ] ] ], [ [ [ -90.906997360416284, 32.336820007384226 ], [ -90.90781564186041, 32.336814108498906 ], [ -90.908030853307125, 32.336916408049106 ], [ -90.908149393866339, 32.337173462886511 ], [ -90.908019116238179, 32.337426390388714 ], [ -90.907799360388665, 32.337521474226335 ], [ -90.907425040763016, 32.337542097656467 ], [ -90.907042919685821, 32.337498215804025 ], [ -90.906867944834374, 32.337405184450631 ], [ -90.906750639060022, 32.337183508629359 ], [ -90.906803477229161, 32.336978969857377 ], [ -90.906997360416284, 32.336820007384226 ] ] ], [ [ [ -90.903127026291472, 32.339687337502539 ], [ -90.903242781198031, 32.339993451454852 ], [ -90.90304994340481, 32.340254837253958 ], [ -90.902722476782571, 32.340323220039075 ], [ -90.902302160195106, 32.340152028335339 ], [ -90.901579768090002, 32.339647904111303 ], [ -90.900855383826112, 32.339270921948561 ], [ -90.898954269997944, 32.337784496248617 ], [ -90.897551607417498, 32.336504047549361 ], [ -90.896096470535554, 32.338730787000479 ], [ -90.895876700175691, 32.33882584938106 ], [ -90.895594426277256, 32.338785474274708 ], [ -90.895390123930483, 32.338588566312701 ], [ -90.895370607022599, 32.338352326461937 ], [ -90.896440313389405, 32.336697307616198 ], [ -90.896943542229593, 32.335770339115953 ], [ -90.897179631354248, 32.335572384244458 ], [ -90.897528295081415, 32.335541163259961 ], [ -90.898038099871485, 32.335810153243877 ], [ -90.89948164350443, 32.337136201359129 ], [ -90.89992586595389, 32.337409672317079 ], [ -90.901418675169495, 32.338626285079727 ], [ -90.902039455067126, 32.338945126650259 ], [ -90.903127026291472, 32.339687337502539 ] ] ], [ [ [ -90.897072673586507, 32.334899001393083 ], [ -90.897061829889324, 32.335422967556156 ], [ -90.895632794977473, 32.337728623474156 ], [ -90.895186231937871, 32.338283560844772 ], [ -90.894948840030608, 32.33834039550171 ], [ -90.894684842688136, 32.338294760908745 ], [ -90.894483545052182, 32.338077968345061 ], [ -90.894503124600845, 32.33782178155154 ], [ -90.896197888194976, 32.335005096053294 ], [ -90.895904560854888, 32.334566110202552 ], [ -90.895987009159754, 32.334137462552775 ], [ -90.896096602531642, 32.333988922847269 ], [ -90.896415570916403, 32.333888240408008 ], [ -90.896713464231439, 32.333998869594097 ], [ -90.897072673586507, 32.334899001393083 ] ] ] ] } },
{ "type": "Feature", "properties": { "depth_bin": "90-95 ft", "bin_order": -92.5, "survey_id": "LM_06_MBV_20190717_CS_MB_4370_4375", "date": "2019-07-17", "year": 2019, "mile": 437.0 }, "geometry": { "type": "MultiPolygon", "coordinates": [ [ [ [ -90.913128501367211, 32.334046384047795 ], [ -90.913954958672278, 32.334264288227011 ], [ -90.914073900668086, 32.334430023559868 ], [ -90.914080012525389, 32.33460522385846 ], [ -90.913825679827184, 32.33486321758749 ], [ -90.913229443307046, 32.334958419883115 ], [ -90.912647626198591, 32.334763961738361 ], [ -90.912051163913887, 32.334389158776695 ], [ -90.911479086258993, 32.334288301596402 ], [ -90.911233841992086, 32.333983149727217 ], [ -90.910955692743286, 32.333886935099564 ], [ -90.91038616897913, 32.333496681524963 ], [ -90.908420015904923, 32.331969464531646 ], [ -90.908259114433093, 32.331728146556095 ], [ -90.908306634807261, 32.331488499495698 ], [ -90.908578049656512, 32.331303756835005 ], [ -90.908965772363857, 32.331349621391581 ], [ -90.909185367903859, 32.33153751386925 ], [ -90.909505165554535, 32.331649018327766 ], [ -90.911479482350401, 32.33325319654444 ], [ -90.91181433382765, 32.333389568784199 ], [ -90.912070744004424, 32.333597733292549 ], [ -90.912899056192032, 32.333860406620104 ], [ -90.913128501367211, 32.334046384047795 ] ] ], [ [ [ -90.900865022413541, 32.338306883592217 ], [ -90.903062445999836, 32.339715115974712 ], [ -90.903179745488785, 32.339936794906961 ], [ -90.903079364917076, 32.34021308371225 ], [ -90.902757354127914, 32.340352310108038 ], [ -90.902318864388192, 32.340234413389034 ], [ -90.900156469250291, 32.338820530734324 ], [ -90.898824510171607, 32.33774384768877 ], [ -90.897589647742819, 32.336596999774216 ], [ -90.896145119532989, 32.338744313403453 ], [ -90.895883995828797, 32.338843880471018 ], [ -90.895610699241487, 32.338799145161254 ], [ -90.895422669732184, 32.338615908132148 ], [ -90.895403237687219, 32.338393411313049 ], [ -90.897040666891186, 32.33576990519628 ], [ -90.897282667525118, 32.335598821653328 ], [ -90.897560925702635, 32.335582247578301 ], [ -90.897841042105128, 32.335711760422228 ], [ -90.899532546246547, 32.337260700931651 ], [ -90.900865022413541, 32.338306883592217 ] ] ], [ [ [ -90.897030030559037, 32.334918116719102 ], [ -90.896964194507049, 32.335340942337503 ], [ -90.895262937254031, 32.338128831248767 ], [ -90.894991475742515, 32.338313543243785 ], [ -90.894603818358334, 32.338281377970169 ], [ -90.894415791978133, 32.338098139554631 ], [ -90.894407370809702, 32.337855226883256 ], [ -90.896118827935467, 32.334923834466487 ], [ -90.8959171778897, 32.334701701331468 ], [ -90.895870959256087, 32.33453087453384 ], [ -90.895938787764194, 32.334192651251783 ], [ -90.896111934851334, 32.333979487816855 ], [ -90.896441060574801, 32.333904486518769 ], [ -90.896724747576286, 32.334039372922383 ], [ -90.896800087749966, 32.3344275139007 ], [ -90.89696785400146, 32.334625165592243 ], [ -90.897030030559037, 32.334918116719102 ] ] ] ] } },
{ "type": "Feature", "properties": { "depth_bin": "95-100 ft", "bin_order": -97.5, "survey_id": "LM_06_MBV_20190717_CS_MB_4370_4375", "date": "2019-07-17", "year": 2019, "mile": 437.0 }, "geometry": { "type": "MultiPolygon", "coordinates": [ [ [ [ -90.913186164361719, 32.333990951261235 ], [ -90.913937048289057, 32.334171733324119 ], [ -90.914125108049404, 32.334354944023659 ], [ -90.914118775152318, 32.334630945669204 ], [ -90.913852225150762, 32.334849941113369 ], [ -90.912772406349077, 32.334778321792804 ], [ -90.912548693579595, 32.334658035272874 ], [ -90.912395722989828, 32.334460553405492 ], [ -90.911656970022491, 32.334259999591943 ], [ -90.910499390779947, 32.333482420264843 ], [ -90.909095278402091, 32.332323659666265 ], [ -90.908549770522669, 32.332010103309358 ], [ -90.90833311336381, 32.331748604725263 ], [ -90.908371295578831, 32.331474461410416 ], [ -90.908691096231706, 32.331262011143217 ], [ -90.909013984303428, 32.331294427770366 ], [ -90.909537278780164, 32.331607641437238 ], [ -90.911012062444684, 32.332858983292795 ], [ -90.912070482858496, 32.333556504355343 ], [ -90.912650240718108, 32.333680702734945 ], [ -90.913186164361719, 32.333990951261235 ] ] ], [ [ [ -90.902853419454246, 32.33966985687367 ], [ -90.903084417500125, 32.339908785674538 ], [ -90.903024083636538, 32.340212923734107 ], [ -90.902685648397451, 32.340389543731739 ], [ -90.902335568612656, 32.340316798439083 ], [ -90.90172235663384, 32.339849877149447 ], [ -90.900856431128545, 32.339361420951406 ], [ -90.899847869153959, 32.338656995960903 ], [ -90.898629658654357, 32.337648516127452 ], [ -90.897623057913108, 32.336693406798126 ], [ -90.896194023746716, 32.338799068883333 ], [ -90.89597425330976, 32.338894131430429 ], [ -90.8956919791449, 32.338853756532288 ], [ -90.895472212172209, 32.338661795152646 ], [ -90.895435783426208, 32.338420753126378 ], [ -90.897025416519952, 32.335921150863889 ], [ -90.8972776080805, 32.33570938046082 ], [ -90.89762618703395, 32.335664416187832 ], [ -90.897906389105742, 32.335807671929857 ], [ -90.899475221553573, 32.337290081766461 ], [ -90.900670424750473, 32.338252785237202 ], [ -90.902853419454246, 32.33966985687367 ] ] ], [ [ [ -90.896932733080575, 32.334686422648169 ], [ -90.896981913296045, 32.334942436765814 ], [ -90.896898677473459, 32.335217544227156 ], [ -90.895181997877586, 32.338129191719148 ], [ -90.89491053620975, 32.338313903533532 ], [ -90.894490418258414, 32.338268138981434 ], [ -90.894302392142606, 32.338084900407075 ], [ -90.894293971276994, 32.337841987740383 ], [ -90.89556225305985, 32.335756017056752 ], [ -90.895993958309745, 32.334888255394766 ], [ -90.895854517015806, 32.334489717595837 ], [ -90.89600334018651, 32.334028708864935 ], [ -90.896293048384976, 32.333903386643534 ], [ -90.896634653402828, 32.333988548899399 ], [ -90.89676762501891, 32.33416490918033 ], [ -90.896765824353224, 32.334450956569611 ], [ -90.896932733080575, 32.334686422648169 ] ] ] ] } },
{ "type": "Feature", "properties": { "depth_bin": "100-105 ft", "bin_order": -102.5, "survey_id": "LM_06_MBV_20190717_CS_MB_4370_4375", "date": "2019-07-17", "year": 2019, "mile": 437.0 }, "geometry": { "type": "MultiPolygon", "coordinates": [ [ [ [ -90.913283421893098, 32.333949265849775 ], [ -90.913688404257641, 32.334019517515593 ], [ -90.914111495421139, 32.334235404659111 ], [ -90.914199891117889, 32.334514825508947 ], [ -90.914041060207325, 32.334755702669952 ], [ -90.913737436774866, 32.334846992998024 ], [ -90.913209032962925, 32.334725126618324 ], [ -90.912804518108487, 32.334736944121595 ], [ -90.912580892923728, 32.334630400656557 ], [ -90.912339423001058, 32.334358479229635 ], [ -90.911669934800827, 32.334199762479763 ], [ -90.910531590345684, 32.333454786164019 ], [ -90.909040704288302, 32.332217255373195 ], [ -90.908581622506546, 32.331927497649318 ], [ -90.908404448155181, 32.331672510624671 ], [ -90.908451968111677, 32.331432863490399 ], [ -90.90872338251009, 32.331248120497833 ], [ -90.909046270549041, 32.331280537040776 ], [ -90.909553117180693, 32.331552595452749 ], [ -90.910956419064831, 32.332754773434658 ], [ -90.912086494962423, 32.333528944097729 ], [ -90.912747275352373, 32.333666513740312 ], [ -90.913283421893098, 32.333949265849775 ] ] ], [ [ [ -90.902166652929864, 32.339241138984818 ], [ -90.902990374375221, 32.339903083722866 ], [ -90.902984006324616, 32.340179083160017 ], [ -90.902733515906462, 32.340384237298181 ], [ -90.902471431606557, 32.340400749257071 ], [ -90.902270815655768, 32.340317090461973 ], [ -90.901560130452239, 32.339795634294148 ], [ -90.900743114614869, 32.339361930627717 ], [ -90.899897289270228, 32.338794208075967 ], [ -90.898467439283877, 32.337594269221327 ], [ -90.89765559239801, 32.336789112864473 ], [ -90.896259030942886, 32.338840009084791 ], [ -90.895997907068718, 32.338939576380653 ], [ -90.895740798132792, 32.338894769146272 ], [ -90.895537303896219, 32.338716478740494 ], [ -90.895493863154869, 32.338496597091684 ], [ -90.897042711485753, 32.336099738839643 ], [ -90.897371616023619, 32.335836343960516 ], [ -90.897666781150264, 32.335781862437088 ], [ -90.897955635172082, 32.335917399777038 ], [ -90.899312915410775, 32.337222090999781 ], [ -90.900524473469389, 32.33821220957936 ], [ -90.902166652929864, 32.339241138984818 ] ] ], [ [ [ -90.896705792120116, 32.33413157197495 ], [ -90.896836396808212, 32.334970573601922 ], [ -90.89676892321981, 32.335176893472685 ], [ -90.896337308906297, 32.336058400782662 ], [ -90.895261323674816, 32.337867712654699 ], [ -90.894874691851314, 32.338274896470985 ], [ -90.89464109900517, 32.338314278157313 ], [ -90.894409393973532, 32.338254755015548 ], [ -90.894221368054289, 32.33807151632795 ], [ -90.894212862635996, 32.33781486063144 ], [ -90.894945784258695, 32.336671482166231 ], [ -90.89592137058969, 32.334798533427659 ], [ -90.895821887579714, 32.334448632821619 ], [ -90.895945478028466, 32.334056863328385 ], [ -90.89621932306666, 32.333908035904926 ], [ -90.896553100387678, 32.3339671263981 ], [ -90.896705792120116, 32.33413157197495 ] ] ] ] } },
{ "type": "Feature", "properties": { "depth_bin": "105-110 ft", "bin_order": -107.5, "survey_id": "LM_06_MBV_20190717_CS_MB_4370_4375", "date": "2019-07-17", "year": 2019, "mile": 437.0 }, "geometry": { "type": "MultiPolygon", "coordinates": [ [ [ [ -90.913248609798913, 32.333899627780298 ], [ -90.913503134371481, 32.333911414227202 ], [ -90.914180964105924, 32.334167044121408 ], [ -90.914299519258236, 32.334424093852292 ], [ -90.914169262768098, 32.33467702868694 ], [ -90.913827495652527, 32.334818235836877 ], [ -90.913272669605178, 32.334669681601703 ], [ -90.912909329172351, 32.334718428677085 ], [ -90.912659531141557, 32.334613225621695 ], [ -90.912366725486564, 32.334312536742083 ], [ -90.911620936514879, 32.334131270052225 ], [ -90.910856552999249, 32.333645707740907 ], [ -90.909068363020907, 32.332172239881558 ], [ -90.908872437628077, 32.332109808382128 ], [ -90.908548727582172, 32.331845187158962 ], [ -90.908431424013372, 32.331623512847173 ], [ -90.908484167580113, 32.331405229897548 ], [ -90.908755581825588, 32.331220485927453 ], [ -90.909110843004612, 32.331252754655196 ], [ -90.90963405049709, 32.331552225808409 ], [ -90.911072822138593, 32.332787129906215 ], [ -90.912064597400658, 32.333469756670397 ], [ -90.912795573743608, 32.33362506170964 ], [ -90.913248609798913, 32.333899627780298 ] ] ], [ [ [ -90.900411246174073, 32.338226463697708 ], [ -90.902852516735379, 32.339798524276233 ], [ -90.902964507011262, 32.339985096050597 ], [ -90.902894922182995, 32.340268480512158 ], [ -90.902621067466669, 32.34041732195557 ], [ -90.902222422903719, 32.340344795477193 ], [ -90.901387817074436, 32.339745699844897 ], [ -90.900776176853611, 32.339471729139291 ], [ -90.899963154449338, 32.338972576519289 ], [ -90.897651679399431, 32.336949667998439 ], [ -90.896339971995729, 32.338839647915698 ], [ -90.896071721541588, 32.338948670371863 ], [ -90.895810591067558, 32.338924127137034 ], [ -90.895602310719667, 32.338757419265406 ], [ -90.895558869805384, 32.338537537633471 ], [ -90.897011614293092, 32.336306028945501 ], [ -90.897404759219526, 32.335959886491729 ], [ -90.897699923673954, 32.335905404911202 ], [ -90.898021238464224, 32.336054540319971 ], [ -90.899118149937195, 32.337140504141452 ], [ -90.900411246174073, 32.338226463697708 ] ] ], [ [ [ -90.896656251420595, 32.334085685408553 ], [ -90.896745245475969, 32.334972435172325 ], [ -90.896239928682689, 32.336017605029568 ], [ -90.89494933778883, 32.33814638076133 ], [ -90.894716111636725, 32.338287281045289 ], [ -90.894381973782671, 32.338270802644082 ], [ -90.894141237132288, 32.338090493449691 ], [ -90.894115566238014, 32.33778780632646 ], [ -90.894896797095129, 32.336602983145276 ], [ -90.895808059677648, 32.334799038633356 ], [ -90.895855968265749, 32.334077540504424 ], [ -90.896016150001856, 32.333918313876445 ], [ -90.896253529643374, 32.333861476661632 ], [ -90.896488096562862, 32.333926186301632 ], [ -90.896656251420595, 32.334085685408553 ] ] ] ] } },
{ "type": "Feature", "properties": { "depth_bin": "110-115 ft", "bin_order": -112.5, "survey_id": "LM_06_MBV_20190717_CS_MB_4370_4375", "date": "2019-07-17", "year": 2019, "mile": 437.0 }, "geometry": { "type": "MultiPolygon", "coordinates": [ [ [ [ -90.913270693735015, 32.333867113713815 ], [ -90.914231296786795, 32.334101165955303 ], [ -90.914378957303072, 32.334347112014953 ], [ -90.914278529579931, 32.334609668549902 ], [ -90.913875794167708, 32.334776783421312 ], [ -90.913294910661008, 32.334629658208556 ], [ -90.912941440849266, 32.334677050970782 ], [ -90.912726228550355, 32.334574759761416 ], [ -90.91245649561084, 32.334287589363782 ], [ -90.911604399876694, 32.33407637133454 ], [ -90.910953762441494, 32.33365900616748 ], [ -90.909076775681726, 32.332116381560731 ], [ -90.908645934785085, 32.33185848739172 ], [ -90.908485033944046, 32.331617168781108 ], [ -90.908532553652407, 32.331377521604445 ], [ -90.908803967725092, 32.331192778424352 ], [ -90.909143042214836, 32.33122512088444 ], [ -90.909698710059118, 32.331538187040401 ], [ -90.909961027357198, 32.331826163082773 ], [ -90.91149982614013, 32.333063580574319 ], [ -90.9121075270522, 32.333439786709675 ], [ -90.912730212766164, 32.333529158052947 ], [ -90.913270693735015, 32.333867113713815 ] ] ], [ [ [ -90.902122717340461, 32.339315824094619 ], [ -90.902909691798314, 32.3399446782255 ], [ -90.902903323492581, 32.340220677646535 ], [ -90.902668934991908, 32.340412015548388 ], [ -90.902258015518356, 32.340404812677257 ], [ -90.901417013757779, 32.339825055198446 ], [ -90.900484190084995, 32.339376838241016 ], [ -90.899979770655406, 32.339041218904768 ], [ -90.897682162187635, 32.337057171673507 ], [ -90.896373372989729, 32.33887635223639 ], [ -90.896143685316304, 32.338952669580927 ], [ -90.895854115226768, 32.338894263965763 ], [ -90.895683166685274, 32.338743315486653 ], [ -90.895639810564646, 32.338537176902889 ], [ -90.896980516972107, 32.336512319940319 ], [ -90.897442382077344, 32.336175920737922 ], [ -90.89779841340922, 32.336124858912243 ], [ -90.898168462469442, 32.336301262751185 ], [ -90.899124353186622, 32.337243536924802 ], [ -90.900534805859337, 32.338436862815243 ], [ -90.902122717340461, 32.339315824094619 ] ] ], [ [ [ -90.896624515834489, 32.334076961178461 ], [ -90.896631849184487, 32.334959198070273 ], [ -90.895870761667823, 32.336527758898711 ], [ -90.895211401517756, 32.337648039445916 ], [ -90.894874605791657, 32.338064662426845 ], [ -90.894626235320231, 32.338185476489102 ], [ -90.894381295456625, 32.338160858374216 ], [ -90.894155938545723, 32.337961859911715 ], [ -90.894147433306017, 32.33770520421421 ], [ -90.894720433530424, 32.336820028940934 ], [ -90.894946623451162, 32.336239312200497 ], [ -90.895703778992498, 32.334824417674561 ], [ -90.895807321832208, 32.334064013968266 ], [ -90.89596750362476, 32.33390478740435 ], [ -90.896237257469451, 32.333847805843341 ], [ -90.896471824340878, 32.333912515511813 ], [ -90.896624515834489, 32.334076961178461 ] ] ] ] } },
{ "type": "Feature", "properties": { "depth_bin": "115-120 ft", "bin_order": -117.5, "survey_id": "LM_06_MBV_20190717_CS_MB_4370_4375", "date": "2019-07-17", "year": 2019, "mile": 437.0 }, "geometry": { "type": "MultiPolygon", "coordinates": [ [ [ [ -90.913365337696746, 32.333833878039293 ], [ -90.914310022053684, 32.334097732882533 ], [ -90.91442857749891, 32.334354782506061 ], [ -90.91429832147081, 32.334607717495651 ], [ -90.913963268417589, 32.334722263378431 ], [ -90.913300824853209, 32.334595716855041 ], [ -90.912989652105438, 32.334621855894923 ], [ -90.912772317204727, 32.33453024642148 ], [ -90.912382081035972, 32.334200111991095 ], [ -90.911853399006631, 32.334132306517375 ], [ -90.911604050356914, 32.334021399330439 ], [ -90.910546817939348, 32.333303539062591 ], [ -90.909109635756707, 32.332075896455244 ], [ -90.908645500149703, 32.331789771427339 ], [ -90.908528196403367, 32.331568097196943 ], [ -90.908580939700784, 32.331349814194816 ], [ -90.908852353594952, 32.331165070902877 ], [ -90.909191428006167, 32.331197413229631 ], [ -90.909714722534744, 32.331510627066692 ], [ -90.910953393708468, 32.332604999099971 ], [ -90.911792062609692, 32.333199673318454 ], [ -90.912126022115984, 32.333405570737455 ], [ -90.91274622465572, 32.333501597710914 ], [ -90.913365337696746, 32.333833878039293 ] ] ], [ [ [ -90.902202668032032, 32.339430383506489 ], [ -90.902755646036184, 32.33984019176345 ], [ -90.902858299603125, 32.339992267082728 ], [ -90.902820095786367, 32.34026640754076 ], [ -90.902516350588343, 32.340465025172406 ], [ -90.902193433391972, 32.340432590685317 ], [ -90.901609897242395, 32.339987817679237 ], [ -90.900435264657546, 32.339396501665739 ], [ -90.899917143174264, 32.33903082746005 ], [ -90.89790220062693, 32.337297021907375 ], [ -90.897366602800247, 32.337902368929257 ], [ -90.897145222024392, 32.33802837902612 ], [ -90.896469163277644, 32.338937525759604 ], [ -90.896199394254239, 32.3389945072323 ], [ -90.895935225303688, 32.338921389120159 ], [ -90.895748003590796, 32.338756769880106 ], [ -90.895704562321228, 32.338536888284814 ], [ -90.896413367616844, 32.337410586613082 ], [ -90.897087283937466, 32.33653892014479 ], [ -90.897416770300282, 32.33634036822464 ], [ -90.897799437114401, 32.336289776194107 ], [ -90.898089799952061, 32.33639284724822 ], [ -90.898689711647393, 32.336821179541602 ], [ -90.899089996951531, 32.337267101012678 ], [ -90.900493728478097, 32.338473474205436 ], [ -90.902202668032032, 32.339430383506489 ] ] ], [ [ [ -90.896530076319891, 32.333971524953782 ], [ -90.896619967546783, 32.334166521155069 ], [ -90.896573600467136, 32.334855868430331 ], [ -90.896269411274673, 32.335550196355221 ], [ -90.895492590172481, 32.336989512675224 ], [ -90.895259367878595, 32.337130414147815 ], [ -90.894973797170664, 32.33711372115814 ], [ -90.894521349487533, 32.336728202907231 ], [ -90.894474963091881, 32.33652988964554 ], [ -90.894542358129542, 32.336309828181356 ], [ -90.89508958220911, 32.335682141982304 ], [ -90.89564657165343, 32.334754387362558 ], [ -90.895799368765779, 32.333988797694715 ], [ -90.895971132315154, 32.33385984880826 ], [ -90.896172338931962, 32.333820608629232 ], [ -90.896530076319891, 32.333971524953782 ] ] ] ] } },
{ "type": "Feature", "properties": { "depth_bin": "120-125 ft", "bin_order": -122.5, "survey_id": "LM_06_MBV_20190717_CS_MB_4370_4375", "date": "2019-07-17", "year": 2019, "mile": 437.0 }, "geometry": { "type": "MultiPolygon", "coordinates": [ [ [ [ -90.913225057882315, 32.333719892796246 ], [ -90.914279506934378, 32.334045970364926 ], [ -90.914443442455209, 32.334305584817393 ], [ -90.914343014968253, 32.334568141414934 ], [ -90.913946905734164, 32.334694851875732 ], [ -90.913286396162007, 32.334551820701272 ], [ -90.913021676111001, 32.334566734268961 ], [ -90.912403603166965, 32.3341647991885 ], [ -90.911829087980365, 32.334081735039717 ], [ -90.911587513755663, 32.333966501511028 ], [ -90.910579104650694, 32.333289647954658 ], [ -90.909126595243549, 32.332035826559355 ], [ -90.90872652060122, 32.331803145400293 ], [ -90.908581893219107, 32.331575497006014 ], [ -90.908629325719502, 32.331322106766798 ], [ -90.908900739435168, 32.331137363363069 ], [ -90.909256000363342, 32.331169631672374 ], [ -90.911629228701472, 32.333049239715976 ], [ -90.912135290346839, 32.333351159650896 ], [ -90.912762236529943, 32.333474036465077 ], [ -90.913225057882315, 32.333719892796246 ] ] ], [ [ [ -90.902611817684644, 32.339788937906945 ], [ -90.902802968397367, 32.34004079894342 ], [ -90.902733383018273, 32.340324183292012 ], [ -90.902378844555741, 32.340514618502404 ], [ -90.902031722693408, 32.340460806519239 ], [ -90.90156167640373, 32.340043009462725 ], [ -90.900582519860691, 32.339568803796183 ], [ -90.900029277903712, 32.339192174869581 ], [ -90.898032699739716, 32.337461344821946 ], [ -90.89783961469486, 32.337394347425679 ], [ -90.897644295728426, 32.337592534169147 ], [ -90.897414612296885, 32.337668854024251 ], [ -90.897007900995149, 32.337529010565873 ], [ -90.896843414988382, 32.337173174095106 ], [ -90.89696017401883, 32.336830919960043 ], [ -90.897427729101778, 32.336423368565796 ], [ -90.897742168544809, 32.336369876374704 ], [ -90.897990058864764, 32.336429319944926 ], [ -90.89856003974036, 32.33679427373665 ], [ -90.900461438349637, 32.338487362771517 ], [ -90.900959248433153, 32.338831326007728 ], [ -90.901960835615796, 32.339316553857735 ], [ -90.902611817684644, 32.339788937906945 ] ] ], [ [ [ -90.896542430702496, 32.334003733018108 ], [ -90.896588650402094, 32.33417455962438 ], [ -90.896475155935306, 32.334980264425781 ], [ -90.895881258919999, 32.336023328622566 ], [ -90.895146703097851, 32.336847790715652 ], [ -90.89491701975102, 32.336924106018991 ], [ -90.894643644636616, 32.336865625789429 ], [ -90.894423076123431, 32.336655045425822 ], [ -90.894414654845477, 32.336412132707842 ], [ -90.894672113938412, 32.335934053990236 ], [ -90.895079519640902, 32.335380092525398 ], [ -90.895370721901102, 32.335137589687946 ], [ -90.895565546308148, 32.33480334547702 ], [ -90.895534314737347, 32.334565793115289 ], [ -90.895695961698223, 32.333964182535787 ], [ -90.895873754639311, 32.333819052770231 ], [ -90.89609114829301, 32.333779740543491 ], [ -90.896371489694261, 32.333852785699847 ], [ -90.896542430702496, 32.334003733018108 ] ] ], [ [ [ -90.896419458730037, 32.338208054097933 ], [ -90.896666711011122, 32.338387337276806 ], [ -90.896692220215087, 32.338662538123494 ], [ -90.896448835923195, 32.338900078322958 ], [ -90.896124674939742, 32.338921733728398 ], [ -90.895877422396623, 32.33874244948435 ], [ -90.895851915662121, 32.338467248578162 ], [ -90.896095300222854, 32.338229709532861 ], [ -90.896419458730037, 32.338208054097933 ] ] ] ] } },
{ "type": "Feature", "properties": { "depth_bin": "125-130 ft", "bin_order": -127.5, "survey_id": "LM_06_MBV_20190717_CS_MB_4370_4375", "date": "2019-07-17", "year": 2019, "mile": 437.0 }, "geometry": { "type": "MultiPolygon", "coordinates": [ [ [ [ -90.913541451695437, 32.333796901167041 ], [ -90.914173666881297, 32.333962310792678 ], [ -90.914385798529253, 32.334096707645408 ], [ -90.914474107150966, 32.334362385337165 ], [ -90.914315277237208, 32.334603262890269 ], [ -90.913969973977629, 32.334678385847845 ], [ -90.91320779759414, 32.334515196083373 ], [ -90.912485968164177, 32.334153493016807 ], [ -90.911652174698091, 32.333952461756894 ], [ -90.910676401973987, 32.333316689600359 ], [ -90.908823727782917, 32.331816445496408 ], [ -90.908639530519579, 32.331568542776985 ], [ -90.908677711708592, 32.331294399320477 ], [ -90.908949125245769, 32.331109655804944 ], [ -90.909336846305436, 32.331155519204344 ], [ -90.911348438026309, 32.332854585527265 ], [ -90.912166286649366, 32.333310735359802 ], [ -90.913086677301081, 32.333582494169967 ], [ -90.913541451695437, 32.333796901167041 ] ] ], [ [ [ -90.900621724471293, 32.338682998607261 ], [ -90.902173189996489, 32.339543535212755 ], [ -90.902520278288705, 32.339914071290934 ], [ -90.902545805455517, 32.340189271647539 ], [ -90.902334636163459, 32.340399191455212 ], [ -90.901934163398195, 32.340392529254416 ], [ -90.901541641687871, 32.340014858828575 ], [ -90.90128388521687, 32.33995566862049 ], [ -90.900159381937527, 32.339287794226621 ], [ -90.90001706122132, 32.339076940369985 ], [ -90.900070800757433, 32.33882890421178 ], [ -90.899841106093945, 32.338882004133318 ], [ -90.899606523833882, 32.338817300147078 ], [ -90.898351032847785, 32.33780813432557 ], [ -90.897808216810617, 32.337487949515626 ], [ -90.89762573185817, 32.337204808709927 ], [ -90.897711347142248, 32.336893869111861 ], [ -90.89802655066137, 32.336740532814126 ], [ -90.89844866028082, 32.336831030443705 ], [ -90.900183069826426, 32.33829809320094 ], [ -90.900272972787945, 32.33849308717781 ], [ -90.900213926380957, 32.338706016057031 ], [ -90.900621724471293, 32.338682998607261 ] ] ], [ [ [ -90.895821479577648, 32.333850464835045 ], [ -90.896100450757643, 32.333796058922246 ], [ -90.896326417238484, 32.333879977343663 ], [ -90.896459388090761, 32.334056337920963 ], [ -90.896476021007004, 32.334285009752953 ], [ -90.896358298832965, 32.334526593041048 ], [ -90.89644539757613, 32.334730781586025 ], [ -90.89641161034784, 32.334986080719808 ], [ -90.896108179218345, 32.335391077653902 ], [ -90.895805392560902, 32.335491686905911 ], [ -90.89549122335778, 32.33536738452711 ], [ -90.89537272136198, 32.335110319308853 ], [ -90.89567062115394, 32.334437632479791 ], [ -90.895646484072529, 32.334042776754416 ], [ -90.895821479577648, 32.333850464835045 ] ] ], [ [ [ -90.89513941874462, 32.335485281951541 ], [ -90.895502537656313, 32.335476205506978 ], [ -90.895727891806374, 32.335675201500692 ], [ -90.895721502753176, 32.335951199835314 ], [ -90.895471093813825, 32.336170082529506 ], [ -90.895146003540688, 32.336164657143755 ], [ -90.89492064957355, 32.335965660126654 ], [ -90.894927041060797, 32.335689661934921 ], [ -90.89513941874462, 32.335485281951541 ] ] ] ] } },
{ "type": "Feature", "properties": { "depth_bin": "130-135 ft", "bin_order": -132.5, "survey_id": "LM_06_MBV_20190717_CS_MB_4370_4375", "date": "2019-07-17", "year": 2019, "mile": 437.0 }, "geometry": { "type": "MultiPolygon", "coordinates": [ [ [ [ -90.913606287579455, 32.333810346386365 ], [ -90.914215630891462, 32.333949366925971 ], [ -90.914417998174855, 32.334069072542405 ], [ -90.914506306869797, 32.334334750215483 ], [ -90.914331377697891, 32.334589445351526 ], [ -90.914002260642079, 32.334664493866995 ], [ -90.913207622347599, 32.334487710089299 ], [ -90.912770828722046, 32.334296615470457 ], [ -90.912589000983559, 32.334079264738477 ], [ -90.912627171816737, 32.333805119737207 ], [ -90.912882486102248, 32.333634185130194 ], [ -90.913274762603024, 32.333637596116745 ], [ -90.913606287579455, 32.333810346386365 ] ] ], [ [ [ -90.911626086017648, 32.332998229062859 ], [ -90.912460312977203, 32.333419064839809 ], [ -90.912577628656379, 32.333640735847347 ], [ -90.912477196708664, 32.333903290791284 ], [ -90.912187508688746, 32.334028651136528 ], [ -90.911821878181811, 32.333972813643044 ], [ -90.911440607045193, 32.333774767058536 ], [ -90.911122304508282, 32.333552033333937 ], [ -90.911032382093779, 32.333357046188489 ], [ -90.911132817455552, 32.33309449252252 ], [ -90.911422503738763, 32.332969134520546 ], [ -90.911626086017648, 32.332998229062859 ] ] ], [ [ [ -90.909304299060807, 32.331128180958331 ], [ -90.909768910344141, 32.331530030320756 ], [ -90.909788290019918, 32.331738783430204 ], [ -90.909667804219382, 32.3319214965668 ], [ -90.909448063575454, 32.332016583980611 ], [ -90.909000181435488, 32.331908774654444 ], [ -90.908678578540659, 32.331506339132943 ], [ -90.90874822426872, 32.331236693146423 ], [ -90.909022041176925, 32.331087836621975 ], [ -90.909304299060807, 32.331128180958331 ] ] ], [ [ [ -90.897879858349242, 32.337018256480405 ], [ -90.898182648183592, 32.336917642384407 ], [ -90.898529202039981, 32.337041793328197 ], [ -90.898695306615735, 32.337304487442481 ], [ -90.898566231181675, 32.337592784083562 ], [ -90.898263439425321, 32.337693399014803 ], [ -90.89790061045818, 32.337555576676358 ], [ -90.897750780835054, 32.337306552207629 ], [ -90.897879858349242, 32.337018256480405 ] ] ] ] } }
]
}
