{
"type": "FeatureCollection",
"name": "LM_01_GCB_20220716_CS_3206_3200_depth_polygons",
"crs": { "type": "name", "properties": { "name": "urn:ogc:def:crs:OGC:1.3:CRS84" } },
"features": [
{ "type": "Feature", "properties": { "depth_bin": "10-11 ft", "survey_id": "LM_01_GCB_20220716_CS_3206_3200", "date": "2022-07-16 00:00:00+00:00", "year": 2022, "mile": 320.0, "bin_order": 7 }, "geometry": { "type": "MultiPolygon", "coordinates": [ [ [ [ -91.612500531450777, 31.149025792985718 ], [ -91.612707339687688, 31.148814516704391 ], [ -91.613027279584131, 31.148790891039923 ], [ -91.613272936263883, 31.1489687555177 ], [ -91.613300407592703, 31.149243920210889 ], [ -91.613093599662776, 31.149455197442638 ], [ -91.612773657537574, 31.149478823203935 ], [ -91.612528000550824, 31.14930095777575 ], [ -91.612500531450777, 31.149025792985718 ] ] ], [ [ [ -91.609462166836096, 31.150425872284568 ], [ -91.609706423880084, 31.15019986395188 ], [ -91.61009956504428, 31.150237456275285 ], [ -91.610684661569337, 31.15075773576978 ], [ -91.61072918257149, 31.1509637010193 ], [ -91.610658089850844, 31.151128051519041 ], [ -91.610388866901232, 31.151278593996192 ], [ -91.610074723199645, 31.151221319632299 ], [ -91.6095103501643, 31.150731636958806 ], [ -91.609462166836096, 31.150425872284568 ] ] ], [ [ [ -91.60733302733567, 31.152264416829183 ], [ -91.607539854028104, 31.152053149502084 ], [ -91.607859805605713, 31.152029537053199 ], [ -91.608105460349918, 31.152207411266573 ], [ -91.608132917259951, 31.152482576512583 ], [ -91.607926090874059, 31.152693844790249 ], [ -91.607606137067251, 31.152717457335662 ], [ -91.607360482016517, 31.152539582171709 ], [ -91.60733302733567, 31.152264416829183 ] ] ], [ [ [ -91.604860436730192, 31.154521243078126 ], [ -91.60510471524411, 31.154295244254254 ], [ -91.605462822487283, 31.154314264945377 ], [ -91.605871652028597, 31.154645247630885 ], [ -91.605866671720335, 31.154985419882095 ], [ -91.60561588364537, 31.155157922333427 ], [ -91.605296714103815, 31.155127393150618 ], [ -91.604908606754265, 31.154827008907926 ], [ -91.604860436730192, 31.154521243078126 ] ] ] ] } },
{ "type": "Feature", "properties": { "depth_bin": "11-12 ft", "survey_id": "LM_01_GCB_20220716_CS_3206_3200", "date": "2022-07-16 00:00:00+00:00", "year": 2022, "mile": 320.0, "bin_order": 6 }, "geometry": { "type": "MultiPolygon", "coordinates": [ [ [ [ -91.61227358356021, 31.148888323201842 ], [ -91.612428493347721, 31.148646407009366 ], [ -91.612736926111126, 31.148569553992132 ], [ -91.613018207493596, 31.148702783284911 ], [ -91.613107567479773, 31.148968051569582 ], [ -91.61295265882876, 31.149209968603081 ], [ -91.612644224123727, 31.149286822073467 ], [ -91.612362941604758, 31.149153591939672 ], [ -91.61227358356021, 31.148888323201842 ] ] ], [ [ [ -91.604963795422918, 31.154682194107718 ], [ -91.605118733447895, 31.154440287755559 ], [ -91.605427190364594, 31.154363453052831 ], [ -91.605708477668202, 31.15449669840612 ], [ -91.605797821874631, 31.154761971089563 ], [ -91.605642884985883, 31.155003878283154 ], [ -91.60533442612666, 31.155080713438746 ], [ -91.605053137686809, 31.154947467244018 ], [ -91.604963795422918, 31.154682194107718 ] ] ] ] } },
{ "type": "Feature", "properties": { "depth_bin": "12-13 ft", "survey_id": "LM_01_GCB_20220716_CS_3206_3200", "date": "2022-07-16 00:00:00+00:00", "year": 2022, "mile": 320.0, "bin_order": 5 }, "geometry": { "type": "MultiPolygon", "coordinates": [ [ [ [ -91.611839009859096, 31.148452550180124 ], [ -91.612020744194993, 31.148224858331428 ], [ -91.612336449241781, 31.148174377204374 ], [ -91.612601190768061, 31.148330677760313 ], [ -91.612659887298548, 31.148602201899145 ], [ -91.612478153698461, 31.148829894661098 ], [ -91.612162446525673, 31.148880376068487 ], [ -91.611897704263583, 31.148724074599293 ], [ -91.611839009859096, 31.148452550180124 ] ] ], [ [ [ -91.609344985559076, 31.150356352286785 ], [ -91.609526729533471, 31.150128664309072 ], [ -91.609842442009622, 31.150078189539247 ], [ -91.610107184404299, 31.150234495214786 ], [ -91.61016587473344, 31.150506020236666 ], [ -91.609984131494713, 31.150733709127749 ], [ -91.609668416892291, 31.150784184177791 ], [ -91.609403673761946, 31.150627877588878 ], [ -91.609344985559076, 31.150356352286785 ] ] ], [ [ [ -91.60721002809737, 31.152206882506221 ], [ -91.607391780766051, 31.151979197862939 ], [ -91.607707500339032, 31.151928728559138 ], [ -91.607972244076038, 31.152085038630442 ], [ -91.608030929206606, 31.152356564402933 ], [ -91.607849177273465, 31.152584249959695 ], [ -91.607533455573943, 31.152634719543613 ], [ -91.607268711101383, 31.152478408558824 ], [ -91.60721002809737, 31.152206882506221 ] ] ], [ [ [ -91.604624214118246, 31.15436292082202 ], [ -91.604805977147336, 31.154135240210415 ], [ -91.605121705031593, 31.154084777518708 ], [ -91.605386450162342, 31.154241092909349 ], [ -91.605445128952567, 31.154512619592523 ], [ -91.605263366658875, 31.154740301117755 ], [ -91.604947636647765, 31.154790764089444 ], [ -91.604682890781618, 31.154634447785185 ], [ -91.604624214118246, 31.15436292082202 ] ] ] ] } },
{ "type": "Feature", "properties": { "depth_bin": "13-14 ft", "survey_id": "LM_01_GCB_20220716_CS_3206_3200", "date": "2022-07-16 00:00:00+00:00", "year": 2022, "mile": 320.0, "bin_order": 4 }, "geometry": { "type": "MultiPolygon", "coordinates": [ [ [ [ -91.605598222811793, 31.146973277214364 ], [ -91.605779968750184, 31.146745594484411 ], [ -91.606095671554698, 31.146695128602897 ], [ -91.606360398307473, 31.146851441600834 ], [ -91.606419076186938, 31.147122968089832 ], [ -91.606237330983745, 31.147350651733117 ], [ -91.60592162605316, 31.147401117894585 ], [ -91.605656898565201, 31.147244803983313 ], [ -91.605598222811793, 31.146973277214364 ] ] ], [ [ [ -91.611742045959318, 31.148322202577024 ], [ -91.611986292169192, 31.14809618952636 ], [ -91.612379425860496, 31.148133774668423 ], [ -91.612555800943028, 31.148373762752037 ], [ -91.612959078667302, 31.148653464956784 ], [ -91.613003603819095, 31.148859429601714 ], [ -91.612932516690393, 31.149023781572556 ], [ -91.612663303228985, 31.149174329136954 ], [ -91.612349164828458, 31.149117060470388 ], [ -91.612056929726904, 31.148784538941158 ], [ -91.611790235849, 31.1486279666805 ], [ -91.611742045959318, 31.148322202577024 ] ] ], [ [ [ -91.603504233930039, 31.148760975202762 ], [ -91.603711060947163, 31.148549713941961 ], [ -91.604031001284142, 31.148526110674457 ], [ -91.60427663980677, 31.148703991806183 ], [ -91.604304085016395, 31.148979157654765 ], [ -91.604097258305401, 31.149190419866066 ], [ -91.603777315739535, 31.149214023229828 ], [ -91.603531676910777, 31.149036141147604 ], [ -91.603504233930039, 31.148760975202762 ] ] ], [ [ [ -91.607115330542001, 31.152064221017184 ], [ -91.607322157250692, 31.151852954034926 ], [ -91.607642108185814, 31.151829342108002 ], [ -91.607887762005106, 31.152007216714757 ], [ -91.607915218249644, 31.152282381995093 ], [ -91.607708391847481, 31.152493649927933 ], [ -91.607388438683174, 31.15251726195136 ], [ -91.60714278455734, 31.15233938639404 ], [ -91.607115330542001, 31.152064221017184 ] ] ] ] } },
{ "type": "Feature", "properties": { "depth_bin": "14-15 ft", "survey_id": "LM_01_GCB_20220716_CS_3206_3200", "date": "2022-07-16 00:00:00+00:00", "year": 2022, "mile": 320.0, "bin_order": 3 }, "geometry": { "type": "MultiPolygon", "coordinates": [ [ [ [ -91.611628467383554, 31.148247260177712 ], [ -91.611883217721058, 31.147987007684215 ], [ -91.612241303400609, 31.148006008872716 ], [ -91.612454253734697, 31.148274277303102 ], [ -91.612731166517989, 31.148459235938663 ], [ -91.612726211916396, 31.148799409509195 ], [ -91.612475452476403, 31.148971926337346 ], [ -91.612156300709685, 31.148941414683829 ], [ -91.611943349818119, 31.14867314576826 ], [ -91.611687161080781, 31.148518784679741 ], [ -91.611628467383554, 31.148247260177712 ] ] ], [ [ [ -91.609122279467272, 31.150156841665957 ], [ -91.609339602751632, 31.149911331735925 ], [ -91.609698136847655, 31.149900061934414 ], [ -91.610018063716382, 31.150161174177381 ], [ -91.610031169150488, 31.150469528286322 ], [ -91.609801268923349, 31.15066234822088 ], [ -91.609480171265702, 31.150658881029432 ], [ -91.60918096693085, 31.150428367055241 ], [ -91.609122279467272, 31.150156841665957 ] ] ], [ [ [ -91.604745217670285, 31.154421686772761 ], [ -91.60495205481692, 31.154210423982757 ], [ -91.605272014048836, 31.154186818208451 ], [ -91.605517669163817, 31.154364697324173 ], [ -91.605545118943809, 31.154639862828621 ], [ -91.605338282103503, 31.154851126569344 ], [ -91.605018320642102, 31.154874732440014 ], [ -91.604772665220793, 31.154696852373593 ], [ -91.604745217670285, 31.154421686772761 ] ] ] ] } },
{ "type": "Feature", "properties": { "depth_bin": "15-17.5 ft", "survey_id": "LM_01_GCB_20220716_CS_3206_3200", "date": "2022-07-16 00:00:00+00:00", "year": 2022, "mile": 320.0, "bin_order": 2 }, "geometry": { "type": "MultiPolygon", "coordinates": [ [ [ [ -91.608117719658367, 31.144862299496115 ], [ -91.60829945548484, 31.14463461283794 ], [ -91.608615150159878, 31.144584140514297 ], [ -91.608879875527506, 31.144740448329792 ], [ -91.608938559577666, 31.145011973931773 ], [ -91.608756824486534, 31.145239661503144 ], [ -91.608441127685751, 31.145290134106872 ], [ -91.608176401582782, 31.145133825378156 ], [ -91.608117719658367, 31.144862299496115 ] ] ], [ [ [ -91.611531158992449, 31.14810792678173 ], [ -91.611737967242732, 31.147896652033065 ], [ -91.612057904190223, 31.147873028690189 ], [ -91.612303556686101, 31.148050894918583 ], [ -91.612331025046899, 31.148326059765935 ], [ -91.612124217103514, 31.148537335464987 ], [ -91.611804277927334, 31.148560958904625 ], [ -91.611558625124573, 31.148383091725851 ], [ -91.611531158992449, 31.14810792678173 ] ] ], [ [ [ -91.608917428203284, 31.149922826364797 ], [ -91.60916168516043, 31.149696819048625 ], [ -91.609519776409286, 31.149715827977026 ], [ -91.6098131787179, 31.150002131663907 ], [ -91.609791077747445, 31.150310105679871 ], [ -91.609540309130878, 31.150482616475585 ], [ -91.609221153552568, 31.150452097429991 ], [ -91.608944887073179, 31.150197991582569 ], [ -91.608917428203284, 31.149922826364797 ] ] ], [ [ [ -91.607006158747595, 31.151965046984209 ], [ -91.6072129854672, 31.151753780174989 ], [ -91.60753293608424, 31.151730168509964 ], [ -91.607778589442773, 31.151908043314045 ], [ -91.607806045353769, 31.152183208611561 ], [ -91.607599218940678, 31.152394476371366 ], [ -91.607279266094466, 31.15241808813288 ], [ -91.607033612429419, 31.152240212378224 ], [ -91.607006158747595, 31.151965046984209 ] ] ], [ [ [ -91.604513337806296, 31.154234162809772 ], [ -91.604720175028334, 31.154022900389556 ], [ -91.605040133662442, 31.153999295173914 ], [ -91.605285787856602, 31.154177174709897 ], [ -91.605313236932119, 31.154452340250007 ], [ -91.60510640001641, 31.154663603620914 ], [ -91.604786439152846, 31.154687208932913 ], [ -91.604540784652372, 31.154509328446238 ], [ -91.604513337806296, 31.154234162809772 ] ] ] ] } },
{ "type": "Feature", "properties": { "depth_bin": "17.5-20 ft", "survey_id": "LM_01_GCB_20220716_CS_3206_3200", "date": "2022-07-16 00:00:00+00:00", "year": 2022, "mile": 320.0, "bin_order": 1 }, "geometry": { "type": "MultiPolygon", "coordinates": [ [ [ [ -91.61089713777821, 31.147489357744188 ], [ -91.611180320731052, 31.147251835529474 ], [ -91.611567273920187, 31.147322383338082 ], [ -91.611712038376808, 31.147548241334643 ], [ -91.611927609101528, 31.147649610214046 ], [ -91.612195892001935, 31.147952095334915 ], [ -91.612240415225259, 31.148158060206974 ], [ -91.612144387918022, 31.148350587916415 ], [ -91.611859314438604, 31.148477714269063 ], [ -91.611553218473745, 31.148394237843132 ], [ -91.61121227082009, 31.147951731523733 ], [ -91.610945324628034, 31.147795122109407 ], [ -91.61089713777821, 31.147489357744188 ] ] ], [ [ [ -91.608822716266417, 31.149788540191857 ], [ -91.609052616224218, 31.149595721975668 ], [ -91.609373710239879, 31.149599190127212 ], [ -91.609597907381897, 31.149796913114479 ], [ -91.609593875910321, 31.150073068165632 ], [ -91.609363975818454, 31.150265887332896 ], [ -91.609042879556895, 31.150262419090648 ], [ -91.608818682548957, 31.150064695152317 ], [ -91.608822716266417, 31.149788540191857 ] ] ], [ [ [ -91.606679627115142, 31.151662017604565 ], [ -91.60692389384073, 31.151436014884265 ], [ -91.607281990919574, 31.151455030213679 ], [ -91.607671838431997, 31.151803458011432 ], [ -91.60766686510982, 31.15214363067378 ], [ -91.607416087848321, 31.152316137025903 ], [ -91.607096927040132, 31.15228561255978 ], [ -91.606707079798326, 31.151937183050123 ], [ -91.606679627115142, 31.151662017604565 ] ] ], [ [ [ -91.604288343911421, 31.154023419310633 ], [ -91.604518263296896, 31.153830609893333 ], [ -91.604876368613262, 31.15384963216178 ], [ -91.605182750718996, 31.154121853285584 ], [ -91.60516063331049, 31.154429825841202 ], [ -91.604909845515692, 31.154602326936907 ], [ -91.604590678126542, 31.154571796063085 ], [ -91.604301430793939, 31.154331773286895 ], [ -91.604288343911421, 31.154023419310633 ] ] ] ] } },
{ "type": "Feature", "properties": { "depth_bin": "5-6 ft", "survey_id": "LM_01_GCB_20220716_CS_3206_3200", "date": "2022-07-16 00:00:00+00:00", "year": 2022, "mile": 320.0, "bin_order": 12 }, "geometry": { "type": "MultiPolygon", "coordinates": [ [ [ [ -91.613132865640623, 31.149669543773104 ], [ -91.613314599395054, 31.14944185011684 ], [ -91.613630307943623, 31.149391365925233 ], [ -91.613895055003681, 31.149547663954724 ], [ -91.613953755858461, 31.149819187585194 ], [ -91.61377202284001, 31.150046882154722 ], [ -91.613456312165368, 31.150097366626778 ], [ -91.613191564369316, 31.149941067684008 ], [ -91.613132865640623, 31.149669543773104 ] ] ], [ [ [ -91.607647223929405, 31.152605605121504 ], [ -91.607828976376851, 31.152377919866176 ], [ -91.608144697091817, 31.152327449525551 ], [ -91.608409442665106, 31.152483758742552 ], [ -91.608468129250596, 31.152755284343737 ], [ -91.608286377538747, 31.152982970512561 ], [ -91.607970654697183, 31.153033441133338 ], [ -91.607705908388311, 31.152877131002835 ], [ -91.607647223929405, 31.152605605121504 ] ] ], [ [ [ -91.608301517320129, 31.15320452707558 ], [ -91.608483269440868, 31.152976840904493 ], [ -91.608798991872263, 31.152926369012352 ], [ -91.609063740199687, 31.153082676950934 ], [ -91.609122428963758, 31.153354202295652 ], [ -91.608940677578701, 31.153581889380245 ], [ -91.60862495302068, 31.153632361552589 ], [ -91.608360203957574, 31.153476052700505 ], [ -91.608301517320129, 31.15320452707558 ] ] ], [ [ [ -91.6053192732615, 31.154931959379049 ], [ -91.605501035809027, 31.154704277788362 ], [ -91.605816765292758, 31.154653813441353 ], [ -91.606081513167098, 31.154810127470082 ], [ -91.606140194237923, 31.155081653882519 ], [ -91.605958432425865, 31.155309336386825 ], [ -91.605642700815224, 31.155359801013876 ], [ -91.605377952205416, 31.155203486071525 ], [ -91.6053192732615, 31.154931959379049 ] ] ] ] } },
{ "type": "Feature", "properties": { "depth_bin": "6-7 ft", "survey_id": "LM_01_GCB_20220716_CS_3206_3200", "date": "2022-07-16 00:00:00+00:00", "year": 2022, "mile": 320.0, "bin_order": 11 }, "geometry": { "type": "MultiPolygon", "coordinates": [ [ [ [ -91.610333756635896, 31.151284911342167 ], [ -91.610557631646969, 31.151004439213555 ], [ -91.610953167478016, 31.151008706784935 ], [ -91.611166195120077, 31.15127745095403 ], [ -91.611447952195476, 31.151463510403538 ], [ -91.611442992425154, 31.151803683629989 ], [ -91.611192222630294, 31.151976197576914 ], [ -91.610873061370995, 31.151945682469506 ], [ -91.610660033156307, 31.151676937822604 ], [ -91.610399000320683, 31.151521476090817 ], [ -91.610333756635896, 31.151284911342167 ] ] ], [ [ [ -91.607971992761804, 31.152907770016196 ], [ -91.608153745056882, 31.152680084306748 ], [ -91.608469466640102, 31.15262961319652 ], [ -91.608734213593692, 31.152785921779259 ], [ -91.608792901263001, 31.153057447253051 ], [ -91.608611149703563, 31.153285133875968 ], [ -91.608295425993731, 31.153335605266385 ], [ -91.608030678304502, 31.153179295770137 ], [ -91.607971992761804, 31.152907770016196 ] ] ] ] } },
{ "type": "Feature", "properties": { "depth_bin": "7-8 ft", "survey_id": "LM_01_GCB_20220716_CS_3206_3200", "date": "2022-07-16 00:00:00+00:00", "year": 2022, "mile": 320.0, "bin_order": 10 }, "geometry": { "type": "MultiPolygon", "coordinates": [ [ [ [ -91.612915139817119, 31.149472382093641 ], [ -91.61313245194593, 31.149226865399143 ], [ -91.613490983435767, 31.149215584943377 ], [ -91.613806249400028, 31.149478906015826 ], [ -91.61381936711166, 31.149787260131447 ], [ -91.613589475987396, 31.149980087127172 ], [ -91.613268380113041, 31.149976629448453 ], [ -91.612973837821954, 31.149743906089906 ], [ -91.612915139817119, 31.149472382093641 ] ] ], [ [ [ -91.610132862811625, 31.151013571870951 ], [ -91.610377119878294, 31.150787562283206 ], [ -91.610770263806643, 31.150825152634834 ], [ -91.611340053406224, 31.151361798552717 ], [ -91.611384576065262, 31.151567763607201 ], [ -91.611313483968544, 31.15173211447409 ], [ -91.611044260253905, 31.151882658288276 ], [ -91.610730114115484, 31.151825385458189 ], [ -91.610181048525376, 31.151319336339778 ], [ -91.610132862811625, 31.151013571870951 ] ] ], [ [ [ -91.607882384910312, 31.152765828948393 ], [ -91.608089211553164, 31.152554560750758 ], [ -91.608409164739356, 31.152530946984243 ], [ -91.608654821808045, 31.152708820204715 ], [ -91.60868228039692, 31.152983985364184 ], [ -91.608475454060695, 31.153195254512415 ], [ -91.608155498645246, 31.1532188683755 ], [ -91.607909841269944, 31.153040994204424 ], [ -91.607882384910312, 31.152765828948393 ] ] ] ] } },
{ "type": "Feature", "properties": { "depth_bin": "8-9 ft", "survey_id": "LM_01_GCB_20220716_CS_3206_3200", "date": "2022-07-16 00:00:00+00:00", "year": 2022, "mile": 320.0, "bin_order": 9 }, "geometry": { "type": "MultiPolygon", "coordinates": [ [ [ [ -91.61270516993892, 31.149264862432641 ], [ -91.612922482099904, 31.149019346086916 ], [ -91.613281012808883, 31.149008066193176 ], [ -91.613594389662381, 31.149275969159657 ], [ -91.613607506685398, 31.149584323285175 ], [ -91.613377615653661, 31.149777149910278 ], [ -91.613056520492194, 31.149773691723503 ], [ -91.612763867236964, 31.149536386511645 ], [ -91.61270516993892, 31.149264862432641 ] ] ], [ [ [ -91.610011809458342, 31.150948571454105 ], [ -91.610193553063183, 31.15072088254152 ], [ -91.610509267227656, 31.150670406188613 ], [ -91.610774012379579, 31.150826710560139 ], [ -91.610832704919787, 31.15109823532099 ], [ -91.610650962050698, 31.151325925146921 ], [ -91.610335245759899, 31.151376401780119 ], [ -91.610070499872236, 31.151220096495209 ], [ -91.610011809458342, 31.150948571454105 ] ] ], [ [ [ -91.607534266692753, 31.15251265412444 ], [ -91.607716019217534, 31.152284969028152 ], [ -91.608031739671063, 31.152234498956467 ], [ -91.608296484797222, 31.152390808394802 ], [ -91.608355171011866, 31.152662334040013 ], [ -91.608173419222638, 31.152890020049778 ], [ -91.607857696642569, 31.152940490401598 ], [ -91.607592950780813, 31.152784180049775 ], [ -91.607534266692753, 31.15251265412444 ] ] ] ] } },
{ "type": "Feature", "properties": { "depth_bin": "9-10 ft", "survey_id": "LM_01_GCB_20220716_CS_3206_3200", "date": "2022-07-16 00:00:00+00:00", "year": 2022, "mile": 320.0, "bin_order": 8 }, "geometry": { "type": "MultiPolygon", "coordinates": [ [ [ [ -91.612379748377634, 31.148959444728476 ], [ -91.612634498704679, 31.148699190771893 ], [ -91.612992587290236, 31.148718189952415 ], [ -91.613380711134184, 31.149070824171698 ], [ -91.613375758732715, 31.149410997803606 ], [ -91.613124998763951, 31.149583515868212 ], [ -91.61280584468264, 31.149553005760982 ], [ -91.612438444588435, 31.149230968935303 ], [ -91.612379748377634, 31.148959444728476 ] ] ], [ [ [ -91.609673501381764, 31.150659273158645 ], [ -91.609855245196471, 31.150431584721382 ], [ -91.61017095854163, 31.150381109172816 ], [ -91.610435702324978, 31.150537414206596 ], [ -91.610494393749008, 31.15080893909963 ], [ -91.610312650669997, 31.151036628450267 ], [ -91.609996935198538, 31.151087104279064 ], [ -91.609732190679495, 31.150930798331924 ], [ -91.609673501381764, 31.150659273158645 ] ] ], [ [ [ -91.607438340185951, 31.152368961574133 ], [ -91.607645166887949, 31.15215769408098 ], [ -91.607965118802312, 31.152134081380368 ], [ -91.608210774013202, 31.152311955403817 ], [ -91.608238231246517, 31.152587120632951 ], [ -91.608031404851104, 31.152798389076711 ], [ -91.607711450707527, 31.152822001873851 ], [ -91.607465795190066, 31.152644126899805 ], [ -91.607438340185951, 31.152368961574133 ] ] ], [ [ [ -91.605215457212964, 31.154800602474992 ], [ -91.60542229420362, 31.15458933893488 ], [ -91.605742254643218, 31.154565732027496 ], [ -91.605987911622165, 31.154743610290886 ], [ -91.606015362830533, 31.155018775723022 ], [ -91.605808526146291, 31.155230040213848 ], [ -91.605488563477167, 31.15525364721762 ], [ -91.605242906191819, 31.155075768003528 ], [ -91.605215457212964, 31.154800602474992 ] ] ] ] } },
{ "type": "Feature", "properties": { "depth_bin": "<5 ft", "survey_id": "LM_01_GCB_20220716_CS_3206_3200", "date": "2022-07-16 00:00:00+00:00", "year": 2022, "mile": 320.0, "bin_order": 13 }, "geometry": { "type": "MultiPolygon", "coordinates": [ [ [ [ -91.613260594142858, 31.149710142955744 ], [ -91.61352942293037, 31.149505805117442 ], [ -91.613883625549633, 31.149554897271678 ], [ -91.61434521796744, 31.149983721002034 ], [ -91.614389746643539, 31.150189685233336 ], [ -91.61431866079171, 31.150354037978026 ], [ -91.614049445560696, 31.150504588364548 ], [ -91.613735301834495, 31.150447322937378 ], [ -91.613273710087128, 31.150018497064838 ], [ -91.613260594142858, 31.149710142955744 ] ] ], [ [ [ -91.610828669679378, 31.151547822091747 ], [ -91.611119502037269, 31.151367136032185 ], [ -91.611466408681878, 31.151445857390545 ], [ -91.611910477778778, 31.151891808049267 ], [ -91.611937865204268, 31.152065574145812 ], [ -91.611841833037005, 31.152258101381165 ], [ -91.611556747272502, 31.152385226630155 ], [ -91.611250639177371, 31.152301749169457 ], [ -91.610823707680993, 31.151887995224289 ], [ -91.610828669679378, 31.151547822091747 ] ] ], [ [ [ -91.608621656683354, 31.152736002745282 ], [ -91.608910256123721, 31.152923713906166 ], [ -91.609428487214842, 31.153447835079447 ], [ -91.609424454672535, 31.15372398995402 ], [ -91.609194545137186, 31.153916808440592 ], [ -91.608951841070962, 31.153934722122816 ], [ -91.608768627384293, 31.153857762743748 ], [ -91.608167166674377, 31.153305356084214 ], [ -91.608079520792629, 31.153128190581945 ], [ -91.607846315107352, 31.153002272651946 ], [ -91.607755932523588, 31.152807733018328 ], [ -91.607853007417205, 31.152544477284835 ], [ -91.608138098283078, 31.152417360402378 ], [ -91.608444203719785, 31.152500845193156 ], [ -91.608621656683354, 31.152736002745282 ] ] ], [ [ [ -91.607930119899535, 31.144602652198607 ], [ -91.608160008659624, 31.14440983510725 ], [ -91.608518079759151, 31.144428846240451 ], [ -91.608807457250037, 31.144702381606617 ], [ -91.608785354952076, 31.145010355636074 ], [ -91.608534598933474, 31.145182864971058 ], [ -91.608215461471033, 31.145152343945043 ], [ -91.607926084418608, 31.144878807276722 ], [ -91.607930119899535, 31.144602652198607 ] ] ], [ [ [ -91.603360643716968, 31.148494337947891 ], [ -91.603651480007727, 31.14831366882105 ], [ -91.603965609692878, 31.148370958484048 ], [ -91.604229957382529, 31.148642148848193 ], [ -91.604172846748625, 31.148946773874684 ], [ -91.603903620397489, 31.149097302716907 ], [ -91.603589488377239, 31.149040012838604 ], [ -91.603338522467993, 31.148802310315162 ], [ -91.603360643716968, 31.148494337947891 ] ] ], [ [ [ -91.600716299312964, 31.151055191702802 ], [ -91.6009670847736, 31.150882698632753 ], [ -91.601286238319389, 31.150913238104426 ], [ -91.601486805670731, 31.151128920703943 ], [ -91.601451296790032, 31.151403403136701 ], [ -91.601200510758957, 31.151575897121766 ], [ -91.600881355036606, 31.151545357375081 ], [ -91.600680788255715, 31.151329673860534 ], [ -91.600716299312964, 31.151055191702802 ] ] ], [ [ [ -91.605457310941105, 31.154961523142266 ], [ -91.605766236020813, 31.154749031630498 ], [ -91.606113149869813, 31.15482776761008 ], [ -91.606889434100424, 31.15547584807285 ], [ -91.606954671610467, 31.155712414248718 ], [ -91.606858625540454, 31.155904937251918 ], [ -91.60657352244904, 31.156032050872451 ], [ -91.606267407602076, 31.155948561388801 ], [ -91.605491124031687, 31.15530047723221 ], [ -91.605457310941105, 31.154961523142266 ] ] ] ] } },
{ "type": "Feature", "properties": { "depth_bin": ">20 ft", "survey_id": "LM_01_GCB_20220716_CS_3206_3200", "date": "2022-07-16 00:00:00+00:00", "year": 2022, "mile": 320.0, "bin_order": 0 }, "geometry": { "type": "MultiPolygon", "coordinates": [ [ [ [ -91.608877213625405, 31.144741271897132 ], [ -91.611869136723342, 31.147602826928569 ], [ -91.611927830787621, 31.147874351355831 ], [ -91.611746096937324, 31.14810204309865 ], [ -91.611390581029823, 31.14814348851792 ], [ -91.611102563882383, 31.147955558023519 ], [ -91.608312136493666, 31.145264153720181 ], [ -91.608221759654427, 31.145069614376528 ], [ -91.608318824526648, 31.144806357711794 ], [ -91.608603891231112, 31.144679238942565 ], [ -91.608877213625405, 31.144741271897132 ] ] ], [ [ [ -91.606382802155082, 31.146876788876067 ], [ -91.609425427196086, 31.149608724300343 ], [ -91.609515810463776, 31.149803262866769 ], [ -91.609418743216295, 31.150066520182577 ], [ -91.609133661111116, 31.150193640206112 ], [ -91.608895370599285, 31.150150192549702 ], [ -91.608681586199793, 31.14999178042244 ], [ -91.605886047830992, 31.147486781114189 ], [ -91.605700094271612, 31.147218757677518 ], [ -91.605791640309405, 31.146920412548564 ], [ -91.606076716603624, 31.146793299704317 ], [ -91.606382802155082, 31.146876788876067 ] ] ], [ [ [ -91.604291351054385, 31.148685827260497 ], [ -91.607375343425815, 31.151570960753432 ], [ -91.607339851239175, 31.151845445292661 ], [ -91.607089074217882, 31.152017951021211 ], [ -91.606885314228961, 31.152024351516935 ], [ -91.606671947661184, 31.151923280293676 ], [ -91.603720729850551, 31.149213771575926 ], [ -91.603603095438473, 31.148992693481215 ], [ -91.603700177373682, 31.148729440953968 ], [ -91.603985261785965, 31.148602333020303 ], [ -91.604291351054385, 31.148685827260497 ] ] ], [ [ [ -91.604369169302032, 31.153410433466149 ], [ -91.604956984777942, 31.153969264328481 ], [ -91.604921484473721, 31.154243747867497 ], [ -91.60467069676811, 31.154416248503807 ], [ -91.604283720903922, 31.154345679334554 ], [ -91.601003550672843, 31.151680042750119 ], [ -91.60079167442278, 31.151387304635769 ], [ -91.600883240233088, 31.151088963763382 ], [ -91.601168335345477, 31.150961862436297 ], [ -91.601474429375074, 31.151045363497285 ], [ -91.604369169302032, 31.153410433466149 ] ] ] ] } }
]
}
