{
"type": "FeatureCollection",
"name": "LM_01_GCB_20160901_CS_3200_3214_depth_polygons",
"crs": { "type": "name", "properties": { "name": "urn:ogc:def:crs:OGC:1.3:CRS84" } },
"features": [
{ "type": "Feature", "properties": { "depth_bin": "-55--50 ft", "bin_order": 52.5, "survey_id": "LM_01_GCB_20160901_CS_3200_3214", "date": "2016-09-01", "year": 2016, "mile": 321.0 }, "geometry": { "type": "MultiPolygon", "coordinates": [ [ [ [ -91.596630292045674, 31.15638865690546 ], [ -91.596874594437296, 31.15616267449137 ], [ -91.59719570892112, 31.156166173664602 ], [ -91.59765528684278, 31.156446050743504 ], [ -91.597689072384767, 31.156785005992877 ], [ -91.597459132283589, 31.156977802499291 ], [ -91.597138015026843, 31.156974303901411 ], [ -91.596702544102854, 31.156723132576442 ], [ -91.596630292045674, 31.15638865690546 ] ] ], [ [ [ -91.595074901642349, 31.158796065238811 ], [ -91.595319214017024, 31.158570086154736 ], [ -91.595677334251093, 31.158589134480614 ], [ -91.595887621860555, 31.158840678172883 ], [ -91.596195293779843, 31.158848154363547 ], [ -91.596868128084054, 31.159224930847206 ], [ -91.5969857582906, 31.159446014665978 ], [ -91.596935208493917, 31.159650947821572 ], [ -91.596684392303303, 31.159823431898381 ], [ -91.596365210938316, 31.159792880207931 ], [ -91.595759530696597, 31.159455757656421 ], [ -91.595617050856688, 31.159244256035798 ], [ -91.595387783195051, 31.159258169421914 ], [ -91.595204571182421, 31.159181190819314 ], [ -91.595071810542223, 31.159005541176015 ], [ -91.595074901642349, 31.158796065238811 ] ] ] ] } },
{ "type": "Feature", "properties": { "depth_bin": "-50--45 ft", "bin_order": 47.5, "survey_id": "LM_01_GCB_20160901_CS_3200_3214", "date": "2016-09-01", "year": 2016, "mile": 321.0 }, "geometry": { "type": "MultiPolygon", "coordinates": [ [ [ [ -91.598961629216745, 31.153737658911279 ], [ -91.599191558292247, 31.153544859301565 ], [ -91.599549660873535, 31.153563896325746 ], [ -91.599845565138281, 31.153847420717721 ], [ -91.599823430601162, 31.154155391855578 ], [ -91.599572634298397, 31.154327882292865 ], [ -91.599253470071659, 31.154297338262641 ], [ -91.598957566281001, 31.154013812539706 ], [ -91.598961629216745, 31.153737658911279 ] ] ], [ [ [ -91.597526131804187, 31.156360960233247 ], [ -91.598696715413922, 31.157083827403344 ], [ -91.598755376425061, 31.157355356502286 ], [ -91.598573592810538, 31.157583027843408 ], [ -91.598339601044856, 31.157641298060092 ], [ -91.598107399643865, 31.157577952350493 ], [ -91.597168793094013, 31.156989958728946 ], [ -91.597023770421444, 31.156762307533466 ], [ -91.596629254952305, 31.156693942127951 ], [ -91.596479972746522, 31.15641335889908 ], [ -91.596606618563442, 31.156159566123534 ], [ -91.596904846852723, 31.156057120294726 ], [ -91.597169803637215, 31.156141921141252 ], [ -91.597314825780629, 31.156369572175645 ], [ -91.597526131804187, 31.156360960233247 ] ] ], [ [ [ -91.594948956413603, 31.158696986235299 ], [ -91.59510587624797, 31.158536745539816 ], [ -91.595298721668414, 31.158479770038529 ], [ -91.595823020561554, 31.158648347595729 ], [ -91.596249980360014, 31.158904917057086 ], [ -91.596316236039598, 31.159070756379649 ], [ -91.596265685044074, 31.159275689246698 ], [ -91.59597480108151, 31.159456339966169 ], [ -91.595549918116291, 31.159359313560664 ], [ -91.595006840693813, 31.159064649734482 ], [ -91.594916479457495, 31.15887010187566 ], [ -91.594948956413603, 31.158696986235299 ] ] ], [ [ [ -91.593402482325985, 31.161726814597596 ], [ -91.593693378048883, 31.161546170108071 ], [ -91.594122970294976, 31.161631226527959 ], [ -91.594323542564041, 31.161846920130976 ], [ -91.594288007858964, 31.162121399405539 ], [ -91.593997111407717, 31.162302045204498 ], [ -91.593567516287536, 31.162216988285657 ], [ -91.593366945033793, 31.162001293544485 ], [ -91.593402482325985, 31.161726814597596 ] ] ] ] } },
{ "type": "Feature", "properties": { "depth_bin": "-45--40 ft", "bin_order": 42.5, "survey_id": "LM_01_GCB_20160901_CS_3200_3214", "date": "2016-09-01", "year": 2016, "mile": 321.0 }, "geometry": { "type": "MultiPolygon", "coordinates": [ [ [ [ -91.601511107091397, 31.151777790939352 ], [ -91.601755385997961, 31.151551798405109 ], [ -91.602076485608094, 31.151555284945779 ], [ -91.602390354940042, 31.151823539921736 ], [ -91.602403435652519, 31.15213189400097 ], [ -91.602173516377448, 31.152324699684932 ], [ -91.601852414160277, 31.152321213309147 ], [ -91.601538544812868, 31.152052957037956 ], [ -91.601511107091397, 31.151777790939352 ] ] ], [ [ [ -91.599194901939171, 31.15392507027655 ], [ -91.59946377199482, 31.153720763196485 ], [ -91.599817981395404, 31.153769894272845 ], [ -91.60055012846081, 31.154307063129512 ], [ -91.600617889371492, 31.154508288231817 ], [ -91.600544236528307, 31.154707976291547 ], [ -91.600274988087889, 31.154858496756315 ], [ -91.599960839740007, 31.154801197570482 ], [ -91.599252800539674, 31.154292732534714 ], [ -91.599162434640277, 31.154098187392549 ], [ -91.599194901939171, 31.15392507027655 ] ] ], [ [ [ -91.598090606919158, 31.157215409015567 ], [ -91.598320546380435, 31.157022611366884 ], [ -91.598641663962866, 31.157026107020751 ], [ -91.598865854930395, 31.157223848335168 ], [ -91.59886179115928, 31.157500001802632 ], [ -91.598631851562857, 31.157692800402625 ], [ -91.598310731733733, 31.157689304657374 ], [ -91.598086540901335, 31.157491562391655 ], [ -91.598090606919158, 31.157215409015567 ] ] ], [ [ [ -91.594809643869198, 31.158631442500511 ], [ -91.595039593275118, 31.158438651055857 ], [ -91.595360715180377, 31.158442155033867 ], [ -91.595584902316801, 31.158639901916526 ], [ -91.595580828804586, 31.15891605493459 ], [ -91.595350879263194, 31.1591088473306 ], [ -91.595029755111085, 31.15910534326099 ], [ -91.594805568110147, 31.158907595426978 ], [ -91.594809643869198, 31.158631442500511 ] ] ], [ [ [ -91.596315351766862, 31.159411289680296 ], [ -91.596545300180011, 31.159218495533342 ], [ -91.596866424922609, 31.159221995834788 ], [ -91.597090617064495, 31.15941974022023 ], [ -91.597086547793836, 31.159695893383304 ], [ -91.59685659924537, 31.159888688481654 ], [ -91.596535472255823, 31.159885188088698 ], [ -91.596311280249267, 31.159687442751853 ], [ -91.596315351766862, 31.159411289680296 ] ] ], [ [ [ -91.59368158494118, 31.161861198790699 ], [ -91.593911544618635, 31.161668409757915 ], [ -91.594232677260209, 31.161671916874209 ], [ -91.594824864082867, 31.16195908361453 ], [ -91.594915227805998, 31.162153631529357 ], [ -91.594882749354511, 31.162326747033774 ], [ -91.594652789929256, 31.162519537794005 ], [ -91.594331654370905, 31.162516031640166 ], [ -91.593739465731176, 31.162228862595303 ], [ -91.59364910437975, 31.162034313927119 ], [ -91.59368158494118, 31.161861198790699 ] ] ] ] } },
{ "type": "Feature", "properties": { "depth_bin": "-40--35 ft", "bin_order": 37.5, "survey_id": "LM_01_GCB_20160901_CS_3200_3214", "date": "2016-09-01", "year": 2016, "mile": 321.0 }, "geometry": { "type": "MultiPolygon", "coordinates": [ [ [ [ -91.604029082429136, 31.149160271307768 ], [ -91.604258990181151, 31.148967461877849 ], [ -91.604580081423535, 31.148970941917955 ], [ -91.604804266849243, 31.149168672932131 ], [ -91.604800221581286, 31.149444827446445 ], [ -91.604570313694737, 31.149637637827389 ], [ -91.604249220206569, 31.149634157696298 ], [ -91.604025034915381, 31.149436425731093 ], [ -91.604029082429136, 31.149160271307768 ] ] ], [ [ [ -91.60141070974683, 31.151647952933516 ], [ -91.601719632416746, 31.151435470975663 ], [ -91.602066530516453, 31.151514217440475 ], [ -91.602211107620207, 31.151739003890178 ], [ -91.603186125645109, 31.152450876154202 ], [ -91.603251352107364, 31.152687443979012 ], [ -91.603155301957742, 31.152879964174648 ], [ -91.602870203473529, 31.153007069773334 ], [ -91.6025641018486, 31.152923571831284 ], [ -91.601823241343396, 31.152343811919135 ], [ -91.601708821344516, 31.152143135227181 ], [ -91.601468615914698, 31.152015614535497 ], [ -91.601378247398117, 31.151821070811383 ], [ -91.60141070974683, 31.151647952933516 ] ] ], [ [ [ -91.600850738829649, 31.154532156667315 ], [ -91.600962846367594, 31.154718146256155 ], [ -91.600935908639187, 31.154926354735629 ], [ -91.600779004528448, 31.155086603097253 ], [ -91.600586169012146, 31.155143587142042 ], [ -91.600280062815884, 31.15506008365017 ], [ -91.599989875953966, 31.15481963037546 ], [ -91.599899508070806, 31.154625085706236 ], [ -91.59999660650513, 31.154361836673019 ], [ -91.60028171269883, 31.154234737700481 ], [ -91.600520008784855, 31.154278201462738 ], [ -91.600850738829649, 31.154532156667315 ] ] ], [ [ [ -91.598840243588896, 31.153647339860687 ], [ -91.599070172675923, 31.153454540466011 ], [ -91.599391278331481, 31.153458033892619 ], [ -91.599615462805829, 31.153655773803148 ], [ -91.599611401778887, 31.15393192751246 ], [ -91.5993814725568, 31.154124727858317 ], [ -91.59906036465496, 31.15412123434038 ], [ -91.598836180315672, 31.153923493478651 ], [ -91.598840243588896, 31.153647339860687 ] ] ], [ [ [ -91.596400796600108, 31.156166124024743 ], [ -91.596651603377325, 31.155993640132262 ], [ -91.596970772173208, 31.15602419075131 ], [ -91.597171339775201, 31.156239879938266 ], [ -91.597135815998485, 31.156514360539795 ], [ -91.596885008650275, 31.156686845347437 ], [ -91.596565837677375, 31.156656294453072 ], [ -91.596365270646373, 31.156440604350959 ], [ -91.596400796600108, 31.156166124024743 ] ] ], [ [ [ -91.598227105260136, 31.157288097211875 ], [ -91.598457044636362, 31.157095299318449 ], [ -91.59877816248266, 31.157098794639232 ], [ -91.599002353908446, 31.157296535727316 ], [ -91.598998290521507, 31.157572689207829 ], [ -91.59876835101015, 31.157765488052572 ], [ -91.598447230917145, 31.157761992640435 ], [ -91.598223039626504, 31.157564250601023 ], [ -91.598227105260136, 31.157288097211875 ] ] ], [ [ [ -91.593244430699798, 31.16168927081635 ], [ -91.593474390801532, 31.161496482573749 ], [ -91.593795522802893, 31.161499990763012 ], [ -91.594019713521774, 31.161697740399269 ], [ -91.594015634979698, 31.161973893100356 ], [ -91.593785674742335, 31.162166682294426 ], [ -91.593464540493784, 31.162163174013457 ], [ -91.593240349910559, 31.161965423425723 ], [ -91.593244430699798, 31.16168927081635 ] ] ], [ [ [ -91.594254411273809, 31.162105797674265 ], [ -91.594484370443539, 31.161913007608028 ], [ -91.594805503989122, 31.1619165133203 ], [ -91.595272332916537, 31.162182307952822 ], [ -91.595306111155935, 31.162521263341297 ], [ -91.595076152071641, 31.16271405486394 ], [ -91.59475501579881, 31.162710549746432 ], [ -91.594288185860947, 31.1624447532243 ], [ -91.594254411273809, 31.162105797674265 ] ] ] ] } },
{ "type": "Feature", "properties": { "depth_bin": "-35--30 ft", "bin_order": 32.5, "survey_id": "LM_01_GCB_20160901_CS_3200_3214", "date": "2016-09-01", "year": 2016, "mile": 321.0 }, "geometry": { "type": "MultiPolygon", "coordinates": [ [ [ [ -91.606209172276024, 31.147496857048871 ], [ -91.606415990608681, 31.147285591141621 ], [ -91.606735926286021, 31.147261981000845 ], [ -91.606981566903258, 31.147439857058629 ], [ -91.607009019734917, 31.147715022604789 ], [ -91.606802201708646, 31.147926289462468 ], [ -91.606482263802604, 31.147949899699675 ], [ -91.606236622879024, 31.147772022691456 ], [ -91.606209172276024, 31.147496857048871 ] ] ], [ [ [ -91.604128018636231, 31.149290726958444 ], [ -91.604372284913509, 31.149064728998187 ], [ -91.604693376499242, 31.149068208765559 ], [ -91.605006584398026, 31.149337233266483 ], [ -91.605019673576621, 31.149645587437774 ], [ -91.604789765617554, 31.149838398203599 ], [ -91.604468671422623, 31.149834918599566 ], [ -91.604155463515895, 31.149565892806603 ], [ -91.604128018636231, 31.149290726958444 ] ] ], [ [ [ -91.602552881580635, 31.152628274841412 ], [ -91.602759719393518, 31.152417015545812 ], [ -91.603079672904471, 31.152393415051019 ], [ -91.603325319262453, 31.152571298138735 ], [ -91.603352762378975, 31.152846463980921 ], [ -91.603145924872194, 31.153057724227157 ], [ -91.602825969131928, 31.153081324818181 ], [ -91.602580322467844, 31.152903440779816 ], [ -91.602552881580635, 31.152628274841412 ] ] ], [ [ [ -91.6002365678236, 31.154798530815931 ], [ -91.600443415535509, 31.154587275605696 ], [ -91.600763376703554, 31.154563681110861 ], [ -91.601009023991423, 31.154741568598578 ], [ -91.601036460765783, 31.155016734663384 ], [ -91.600829613359792, 31.155227990824361 ], [ -91.600509649962163, 31.155251585415275 ], [ -91.600264002368377, 31.155073696976814 ], [ -91.6002365678236, 31.154798530815931 ] ] ], [ [ [ -91.596434118131654, 31.159520855381409 ], [ -91.596640984720537, 31.15930960699183 ], [ -91.596960962369053, 31.159286022468994 ], [ -91.597206614087312, 31.159463917238735 ], [ -91.597234040646484, 31.159739083630033 ], [ -91.59702717436322, 31.159950332970578 ], [ -91.596707194484537, 31.159973917589291 ], [ -91.596461542460659, 31.159796021868587 ], [ -91.596434118131654, 31.159520855381409 ] ] ], [ [ [ -91.594661699622463, 31.162334867144093 ], [ -91.594868576399179, 31.162123621994127 ], [ -91.595188563797109, 31.162100042184317 ], [ -91.595556143135738, 31.162310623144311 ], [ -91.595604286061231, 31.162616391321009 ], [ -91.595397409754113, 31.162827637654722 ], [ -91.595077419933247, 31.162851217909424 ], [ -91.594709839669818, 31.162640635568494 ], [ -91.594661699622463, 31.162334867144093 ] ] ] ] } },
{ "type": "Feature", "properties": { "depth_bin": "-30--25 ft", "bin_order": 27.5, "survey_id": "LM_01_GCB_20160901_CS_3200_3214", "date": "2016-09-01", "year": 2016, "mile": 321.0 }, "geometry": { "type": "MultiPolygon", "coordinates": [ [ [ [ -91.608593335527274, 31.145232300556927 ], [ -91.608823224563281, 31.145039482304881 ], [ -91.609144303191954, 31.145042950574457 ], [ -91.609368489494898, 31.145240673764473 ], [ -91.609364458081572, 31.145516828984199 ], [ -91.609134568911472, 31.145709648187129 ], [ -91.608813488037427, 31.14570617982687 ], [ -91.608589301868548, 31.145508455685952 ], [ -91.608593335527274, 31.145232300556927 ] ] ], [ [ [ -91.606118415344724, 31.147359093498828 ], [ -91.606387252019374, 31.147154770760569 ], [ -91.606741441471399, 31.147203882213912 ], [ -91.607207643291218, 31.147634142652322 ], [ -91.607252155535264, 31.14784010893451 ], [ -91.607181059439057, 31.148004457482511 ], [ -91.606911840314226, 31.148154992858075 ], [ -91.606597709274439, 31.148097710350772 ], [ -91.606131508114061, 31.147667447748152 ], [ -91.606118415344724, 31.147359093498828 ] ] ], [ [ [ -91.604350906828998, 31.149466324174529 ], [ -91.604580814716428, 31.149273514181353 ], [ -91.604938902949726, 31.149292535778763 ], [ -91.60524270045974, 31.149568520520017 ], [ -91.605220584895321, 31.149876493334727 ], [ -91.604969809529891, 31.150048995026062 ], [ -91.604650657320207, 31.150018464733996 ], [ -91.604363993882529, 31.149774678343753 ], [ -91.604350906828998, 31.149466324174529 ] ] ], [ [ [ -91.601285159071196, 31.151561635532754 ], [ -91.601515078176178, 31.151368831411986 ], [ -91.601836177136548, 31.151372318533493 ], [ -91.602060362124405, 31.151570054253249 ], [ -91.602056308519025, 31.15184620834091 ], [ -91.601826389279239, 31.152039013412779 ], [ -91.601505288072786, 31.152035526200098 ], [ -91.601281103219733, 31.151837789529242 ], [ -91.601285159071196, 31.151561635532754 ] ] ], [ [ [ -91.602681926468861, 31.152693330000044 ], [ -91.602911845671301, 31.152500523414574 ], [ -91.603232948638308, 31.15250400716673 ], [ -91.603457139195001, 31.152701740586167 ], [ -91.603453089458611, 31.152977894790066 ], [ -91.603223170121495, 31.153170702326701 ], [ -91.602902064908278, 31.153167218483464 ], [ -91.602677874486261, 31.152969484112859 ], [ -91.602681926468861, 31.152693330000044 ] ] ], [ [ [ -91.598717925370423, 31.153558953569867 ], [ -91.598947854475625, 31.153366154392131 ], [ -91.599268959816371, 31.153369648114861 ], [ -91.599493143827345, 31.153567388227248 ], [ -91.599489082459911, 31.153843541925866 ], [ -91.599259153219634, 31.154036342054784 ], [ -91.598938045632593, 31.154032848240707 ], [ -91.598713861756679, 31.153835107177137 ], [ -91.598717925370423, 31.153558953569867 ] ] ], [ [ [ -91.600389460779198, 31.154837266711578 ], [ -91.600619389811868, 31.154644464576325 ], [ -91.600940499692058, 31.154647954259282 ], [ -91.601164690195375, 31.154845691616 ], [ -91.601160633470187, 31.155121845457312 ], [ -91.600930704302584, 31.155314648543786 ], [ -91.600609592175985, 31.155311158769603 ], [ -91.600385401807557, 31.155113420461653 ], [ -91.600389460779198, 31.154837266711578 ] ] ], [ [ [ -91.598364258056975, 31.157359431417628 ], [ -91.598594197343473, 31.157166633278099 ], [ -91.598915315449176, 31.157170128264017 ], [ -91.599139507331529, 31.157367869124631 ], [ -91.599135444330898, 31.157644022618303 ], [ -91.598905504909268, 31.157836821709147 ], [ -91.598584384556858, 31.157833326631867 ], [ -91.598360192809636, 31.157635584819932 ], [ -91.598364258056975, 31.157359431417628 ] ] ], [ [ [ -91.594678139849648, 31.158552076526831 ], [ -91.594908089314146, 31.158359285317047 ], [ -91.595229210933638, 31.158362789615015 ], [ -91.595453397607329, 31.158560536715303 ], [ -91.595449323726498, 31.158836689721173 ], [ -91.595219374126529, 31.159029481882314 ], [ -91.594898250260201, 31.159025977492735 ], [ -91.594674063721982, 31.158828229441092 ], [ -91.594678139849648, 31.158552076526831 ] ] ], [ [ [ -91.596583471789202, 31.159559767595105 ], [ -91.596813420049543, 31.159366972967923 ], [ -91.597134545329808, 31.159370472615645 ], [ -91.597358738384855, 31.159568216556785 ], [ -91.597354669867968, 31.159844369745233 ], [ -91.597124721472326, 31.160037165323811 ], [ -91.596803593945111, 31.160033665584606 ], [ -91.59657940102538, 31.159835920692071 ], [ -91.596583471789202, 31.159559767595105 ] ] ], [ [ [ -91.594955396218737, 31.162434686026632 ], [ -91.595185354840936, 31.162241894698731 ], [ -91.595506489592466, 31.162245398695791 ], [ -91.595955585942576, 31.162471369751511 ], [ -91.596045952453224, 31.162665916941243 ], [ -91.596013475834383, 31.162839032773999 ], [ -91.595704502941757, 31.163051499182529 ], [ -91.59531707357533, 31.162974135738637 ], [ -91.59496845288345, 31.162743039690653 ], [ -91.594955396218737, 31.162434686026632 ] ] ] ] } },
{ "type": "Feature", "properties": { "depth_bin": "-25--20 ft", "bin_order": 22.5, "survey_id": "LM_01_GCB_20160901_CS_3200_3214", "date": "2016-09-01", "year": 2016, "mile": 321.0 }, "geometry": { "type": "MultiPolygon", "coordinates": [ [ [ [ -91.60872134564967, 31.145300307171457 ], [ -91.609012162259134, 31.145119625254598 ], [ -91.609326285236506, 31.145176901647499 ], [ -91.609698892157297, 31.145540195389056 ], [ -91.609655184019715, 31.145878312089689 ], [ -91.609385974743645, 31.146028852982187 ], [ -91.609071848935031, 31.145971576657736 ], [ -91.608699242857398, 31.145608281145968 ], [ -91.60872134564967, 31.145300307171457 ] ] ], [ [ [ -91.606590871590271, 31.147715633629151 ], [ -91.606881699608437, 31.147534956930233 ], [ -91.607228588457204, 31.147613689235104 ], [ -91.607983906744096, 31.148326754161879 ], [ -91.608028420941466, 31.14853272021368 ], [ -91.607932384836275, 31.148725244506338 ], [ -91.607647304966548, 31.148852361324401 ], [ -91.607341211905151, 31.148768874962162 ], [ -91.606606616508046, 31.14808640632825 ], [ -91.606540349562692, 31.147920571721126 ], [ -91.606590871590271, 31.147715633629151 ] ] ], [ [ [ -91.605346394469976, 31.149623464131285 ], [ -91.606005902820172, 31.150317654689793 ], [ -91.605970407313421, 31.150592138799791 ], [ -91.605719631310635, 31.150764641917537 ], [ -91.605332669274617, 31.1506940762815 ], [ -91.604563609930878, 31.149900490760192 ], [ -91.604581037469814, 31.149657825294586 ], [ -91.604810945385807, 31.149465014895885 ], [ -91.605093449197113, 31.149456144907681 ], [ -91.605346394469976, 31.149623464131285 ] ] ], [ [ [ -91.603934439444274, 31.149031566087476 ], [ -91.604185213850371, 31.148859066362625 ], [ -91.604504361993406, 31.148889597693739 ], [ -91.604704932758523, 31.149105275435392 ], [ -91.604669434108644, 31.149379759138643 ], [ -91.604418659132449, 31.149552259778471 ], [ -91.604099508813022, 31.14952172817258 ], [ -91.603898938617988, 31.149306049515932 ], [ -91.603934439444274, 31.149031566087476 ] ] ], [ [ [ -91.601181077313186, 31.151441763275116 ], [ -91.601431863014838, 31.15126926931493 ], [ -91.601751018046969, 31.151299807675652 ], [ -91.601951587259336, 31.151515489594182 ], [ -91.601916079524187, 31.151789972174814 ], [ -91.601665293252125, 31.151962467050065 ], [ -91.601346136043389, 31.151931928414353 ], [ -91.601145567401446, 31.151716245580786 ], [ -91.601181077313186, 31.151441763275116 ] ] ], [ [ [ -91.60281328754354, 31.15275806540771 ], [ -91.603064073979738, 31.152585568317114 ], [ -91.603383234093911, 31.152616102772228 ], [ -91.603583809758945, 31.152831782297753 ], [ -91.60354830606731, 31.153106265399828 ], [ -91.603297519060817, 31.153278763405538 ], [ -91.602978356769867, 31.153248228675537 ], [ -91.60277778167513, 31.153032548234901 ], [ -91.60281328754354, 31.15275806540771 ] ] ], [ [ [ -91.60052918370198, 31.154896094226768 ], [ -91.600820045152958, 31.154715432415653 ], [ -91.601134193821721, 31.154772729512292 ], [ -91.601414544486531, 31.155063917790365 ], [ -91.601357420214271, 31.155368540889029 ], [ -91.601088171080477, 31.155519063022368 ], [ -91.60077401999925, 31.155461765747145 ], [ -91.6005070509907, 31.155204065492278 ], [ -91.60052918370198, 31.154896094226768 ] ] ], [ [ [ -91.596267002097733, 31.156092279954734 ], [ -91.596517808906825, 31.155919796322443 ], [ -91.596836977399747, 31.155950347264891 ], [ -91.597037544541337, 31.156166036649019 ], [ -91.597002020416511, 31.15644051720594 ], [ -91.596751213036413, 31.156613001753364 ], [ -91.596432042366487, 31.156582450535581 ], [ -91.596231475795904, 31.156366760236327 ], [ -91.596267002097733, 31.156092279954734 ] ] ], [ [ [ -91.598513901865459, 31.157404556957818 ], [ -91.598764708334159, 31.157232068963143 ], [ -91.599083882156364, 31.15726261448124 ], [ -91.59939796543344, 31.157527900125125 ], [ -91.599375828114404, 31.157835870946222 ], [ -91.59912502106981, 31.158008360101537 ], [ -91.598805844739459, 31.157977814613719 ], [ -91.598491761737151, 31.157712527547918 ], [ -91.598513901865459, 31.157404556957818 ] ] ], [ [ [ -91.594555725631196, 31.158455029596048 ], [ -91.594806541804786, 31.158282549639292 ], [ -91.595125717467951, 31.158313105035209 ], [ -91.595326285385468, 31.158528797042006 ], [ -91.595290755187563, 31.158803276854563 ], [ -91.595039938442739, 31.158975757726505 ], [ -91.594720760602371, 31.158945202055154 ], [ -91.594520193256059, 31.158729509133146 ], [ -91.594555725631196, 31.158455029596048 ] ] ], [ [ [ -91.59674733137372, 31.159587052668012 ], [ -91.596998146815025, 31.159414568440347 ], [ -91.597317327183021, 31.159445118531043 ], [ -91.597877011887519, 31.159778201938266 ], [ -91.597943270982114, 31.159944040504474 ], [ -91.597892722923916, 31.160148974074517 ], [ -91.59764190704405, 31.160321460016956 ], [ -91.597322723611995, 31.160290910644143 ], [ -91.596763038002535, 31.159957824820189 ], [ -91.596696780980281, 31.159791985708001 ], [ -91.59674733137372, 31.159587052668012 ] ] ], [ [ [ -91.593123636983492, 31.161589264876245 ], [ -91.593374464128729, 31.161416788117453 ], [ -91.593693649657624, 31.161447347351739 ], [ -91.593894220555981, 31.161663041588991 ], [ -91.593858684707712, 31.161937520717547 ], [ -91.593607856991028, 31.162109998391639 ], [ -91.593288669284618, 31.162079438881772 ], [ -91.593088098957708, 31.161863743729235 ], [ -91.593123636983492, 31.161589264876245 ] ] ], [ [ [ -91.595426333538114, 31.162546158723011 ], [ -91.595677159284421, 31.162373677451914 ], [ -91.595996348980847, 31.162404231089418 ], [ -91.596196927172002, 31.162619921923813 ], [ -91.596161397469942, 31.162894401836859 ], [ -91.595910571152388, 31.163066884023337 ], [ -91.595591379278275, 31.163036330110391 ], [ -91.595390801658368, 31.162820638360621 ], [ -91.595426333538114, 31.162546158723011 ] ] ] ] } },
{ "type": "Feature", "properties": { "depth_bin": "-20--15 ft", "bin_order": 17.5, "survey_id": "LM_01_GCB_20160901_CS_3200_3214", "date": "2016-09-01", "year": 2016, "mile": 321.0 }, "geometry": { "type": "MultiPolygon", "coordinates": [ [ [ [ -91.608497516463785, 31.145122522702746 ], [ -91.608806402250295, 31.144910022429446 ], [ -91.609183440234389, 31.145012857779605 ], [ -91.609301083261684, 31.145233931147015 ], [ -91.60924185036653, 31.14545103191158 ], [ -91.609453059548642, 31.145423870267777 ], [ -91.60967690536944, 31.145506463511712 ], [ -91.610039031071111, 31.145928831373013 ], [ -91.610226502306091, 31.146006380768327 ], [ -91.610521875190329, 31.146289695888239 ], [ -91.610587116421542, 31.146526260632143 ], [ -91.610463057159862, 31.146744724836044 ], [ -91.610164871765178, 31.146847203521631 ], [ -91.609869770327094, 31.146738321444278 ], [ -91.609542043050951, 31.14633713351294 ], [ -91.609354571773054, 31.146259583121999 ], [ -91.609054959281011, 31.145979193353597 ], [ -91.608987185705928, 31.145777972083611 ], [ -91.609047923066441, 31.145596259258486 ], [ -91.608796065926725, 31.145617784750552 ], [ -91.60855544716776, 31.145490182174985 ], [ -91.608465069628721, 31.145295642987612 ], [ -91.608497516463785, 31.145122522702746 ] ] ], [ [ [ -91.606022717351323, 31.147230372207723 ], [ -91.606273483263649, 31.14705786811427 ], [ -91.606592626271222, 31.14708839411691 ], [ -91.606793198267368, 31.147304068691501 ], [ -91.606757706494037, 31.147578553244287 ], [ -91.606506940011826, 31.147751058252709 ], [ -91.606187794828003, 31.14772053197543 ], [ -91.605987223401726, 31.14750485648587 ], [ -91.606022717351323, 31.147230372207723 ] ] ], [ [ [ -91.607359278271574, 31.148413769190814 ], [ -91.607650107087011, 31.148233090795085 ], [ -91.607964239306384, 31.148290370765348 ], [ -91.608443742174785, 31.148708234814038 ], [ -91.608488257518331, 31.148914200729841 ], [ -91.608417162651676, 31.149078549973439 ], [ -91.608147942272112, 31.149229087877455 ], [ -91.607833806850167, 31.149171808268225 ], [ -91.607354304497022, 31.148753941987088 ], [ -91.607359278271574, 31.148413769190814 ] ] ], [ [ [ -91.605321537184835, 31.150379531292781 ], [ -91.60555144545603, 31.150186719599816 ], [ -91.605909537418796, 31.150205738602683 ], [ -91.606208849312765, 31.150485256649336 ], [ -91.606186736534326, 31.150793229674097 ], [ -91.605935960362231, 31.15096573320394 ], [ -91.605616804685397, 31.150935205210683 ], [ -91.605317493223566, 31.150655685816062 ], [ -91.605321537184835, 31.150379531292781 ] ] ], [ [ [ -91.602932230457839, 31.152849586226363 ], [ -91.603183016935631, 31.152677088907172 ], [ -91.603502177405446, 31.152707623077259 ], [ -91.603702753531849, 31.152923302428242 ], [ -91.60366725013705, 31.153197785568533 ], [ -91.603416463088962, 31.153370283802843 ], [ -91.603097300442357, 31.15333974935788 ], [ -91.602896724886236, 31.153124069091781 ], [ -91.602932230457839, 31.152849586226363 ] ] ], [ [ [ -91.600744562252871, 31.15511397097071 ], [ -91.600974491282926, 31.154921168207689 ], [ -91.601295602144802, 31.154924657032904 ], [ -91.601519794039078, 31.155122393804348 ], [ -91.601515738299327, 31.155398547675752 ], [ -91.601285809134396, 31.155591351390008 ], [ -91.600964696026054, 31.155587862473585 ], [ -91.600740504266653, 31.155390124750895 ], [ -91.600744562252871, 31.15511397097071 ] ] ], [ [ [ -91.598763380830405, 31.157576827551338 ], [ -91.599014187333211, 31.157404339075079 ], [ -91.599333361835846, 31.15743488399341 ], [ -91.599766787210797, 31.157741068586049 ], [ -91.599761784488436, 31.158081239786352 ], [ -91.599430105553395, 31.158266651168436 ], [ -91.599053983165049, 31.158154964412152 ], [ -91.598741241444912, 31.157884798199294 ], [ -91.598763380830405, 31.157576827551338 ] ] ], [ [ [ -91.597291556871269, 31.159876121884594 ], [ -91.597542372152233, 31.159703636597197 ], [ -91.597861553715077, 31.159734185371182 ], [ -91.598072603056764, 31.159990510073875 ], [ -91.598334503320487, 31.15998775279164 ], [ -91.598535329043969, 31.160106336547521 ], [ -91.598625698851208, 31.160300882085899 ], [ -91.598575152030932, 31.16050581595119 ], [ -91.598324336367497, 31.16067830322309 ], [ -91.598005151455894, 31.160647755501941 ], [ -91.59779410091457, 31.16039143067589 ], [ -91.597532199568434, 31.160394186824632 ], [ -91.597331374565229, 31.160275601527914 ], [ -91.59724100746223, 31.160081055159868 ], [ -91.597291556871269, 31.159876121884594 ] ] ], [ [ [ -91.592965055986141, 31.161557580938751 ], [ -91.59319501630452, 31.161364793198935 ], [ -91.593516147823166, 31.16136830207169 ], [ -91.593740337642714, 31.1615660521718 ], [ -91.593736258311523, 31.161842204845374 ], [ -91.593506297857488, 31.162034993536658 ], [ -91.593185164091693, 31.162031484572172 ], [ -91.592960974407802, 31.161833733520599 ], [ -91.592965055986141, 31.161557580938751 ] ] ], [ [ [ -91.595567125885381, 31.162609488349148 ], [ -91.595817951559198, 31.162437006802655 ], [ -91.59613714152654, 31.16246756009842 ], [ -91.596458390863532, 31.162730198627411 ], [ -91.596436242162255, 31.163038168380428 ], [ -91.596185415931643, 31.163210651102375 ], [ -91.595866223461385, 31.163180097854656 ], [ -91.595544974350091, 31.162917457868826 ], [ -91.595567125885381, 31.162609488349148 ] ] ] ] } },
{ "type": "Feature", "properties": { "depth_bin": "-15--10 ft", "bin_order": 12.5, "survey_id": "LM_01_GCB_20160901_CS_3200_3214", "date": "2016-09-01", "year": 2016, "mile": 321.0 }, "geometry": { "type": "MultiPolygon", "coordinates": [ [ [ [ -91.609350905757097, 31.145940290251311 ], [ -91.609659792447232, 31.145727787978938 ], [ -91.610006677370663, 31.145806512692403 ], [ -91.610215323446155, 31.146018491119772 ], [ -91.610259591200801, 31.146225792826463 ], [ -91.610482347164705, 31.146269725878003 ], [ -91.610652407984389, 31.146419707252409 ], [ -91.61069692726447, 31.146625672585628 ], [ -91.610600898552292, 31.146818199141567 ], [ -91.610315827818738, 31.146945322180702 ], [ -91.610009738225799, 31.146861842251841 ], [ -91.609863216852332, 31.146544592999085 ], [ -91.609605414161848, 31.146482073923181 ], [ -91.609384730835899, 31.146279244096416 ], [ -91.609350905757097, 31.145940290251311 ] ] ], [ [ [ -91.607779540726156, 31.148846966067698 ], [ -91.608009440371603, 31.14865414968229 ], [ -91.60836752734906, 31.148673161695491 ], [ -91.608652307164604, 31.148965326267056 ], [ -91.608630202822795, 31.149273300027534 ], [ -91.608379434999776, 31.149445808607496 ], [ -91.608060283370918, 31.149415286793367 ], [ -91.607775504134253, 31.149123120945969 ], [ -91.607779540726156, 31.148846966067698 ] ] ], [ [ [ -91.605566668330397, 31.150541056297087 ], [ -91.605857507043993, 31.150360382303646 ], [ -91.606204405133852, 31.150439117615822 ], [ -91.606658770269505, 31.150878030261886 ], [ -91.606686147848436, 31.151051797208936 ], [ -91.606590106324049, 31.151244320270798 ], [ -91.60630501710466, 31.151371433790423 ], [ -91.605998917339392, 31.151287944062371 ], [ -91.605561687737705, 31.150881228721055 ], [ -91.605566668330397, 31.150541056297087 ] ] ], [ [ [ -91.601670053276109, 31.151223543912632 ], [ -91.601852102998635, 31.151525573451245 ], [ -91.601661243457087, 31.151823553426567 ], [ -91.601305710321512, 31.151864970426903 ], [ -91.600959118429259, 31.151627425167916 ], [ -91.600900453961557, 31.151355896756392 ], [ -91.601082219652753, 31.151128221393957 ], [ -91.601397939106462, 31.151077767574087 ], [ -91.601670053276109, 31.151223543912632 ] ] ], [ [ [ -91.603045792402227, 31.152945009222236 ], [ -91.603336643196926, 31.152764341351165 ], [ -91.603650787237271, 31.15282163217605 ], [ -91.603927371519845, 31.153117882992714 ], [ -91.603870256661679, 31.153422507570475 ], [ -91.603601016916713, 31.153573035286744 ], [ -91.603286870450106, 31.153515744273861 ], [ -91.60302366852261, 31.153252981267485 ], [ -91.603045792402227, 31.152945009222236 ] ] ], [ [ [ -91.601651095333594, 31.155152163720945 ], [ -91.601797851628348, 31.155468085267351 ], [ -91.601573940399248, 31.155748540890862 ], [ -91.601215384200756, 31.155759787369448 ], [ -91.600881344686869, 31.15551143777158 ], [ -91.600853908277344, 31.15523627170338 ], [ -91.60106075564974, 31.155025015502545 ], [ -91.601340905596331, 31.154992382100129 ], [ -91.601651095333594, 31.155152163720945 ] ] ], [ [ [ -91.598626679391174, 31.153425895740515 ], [ -91.59887747489114, 31.15325340710303 ], [ -91.599196635473447, 31.153283951962084 ], [ -91.599397202736725, 31.153499637748052 ], [ -91.599361686694792, 31.153774119299822 ], [ -91.599110890624118, 31.153946608852383 ], [ -91.598791727865063, 31.153916063718174 ], [ -91.598591161172493, 31.153700377017103 ], [ -91.598626679391174, 31.153425895740515 ] ] ], [ [ [ -91.596139491774537, 31.156007764364961 ], [ -91.596390298575727, 31.155835280979186 ], [ -91.596709466732662, 31.155865832228493 ], [ -91.596910033406985, 31.156081521800054 ], [ -91.596874508957328, 31.156356002315224 ], [ -91.596623701585116, 31.156528486616132 ], [ -91.596304531251207, 31.156497935091483 ], [ -91.59610396514789, 31.156282244604789 ], [ -91.596139491774537, 31.156007764364961 ] ] ], [ [ [ -91.599172978533232, 31.157792633768704 ], [ -91.599423784910499, 31.157620144494736 ], [ -91.599742960306429, 31.157650688421956 ], [ -91.599943537642361, 31.157866373526559 ], [ -91.599908021031638, 31.158140855046696 ], [ -91.599657214083592, 31.1583133452359 ], [ -91.599338036510417, 31.158282801033543 ], [ -91.599137459745265, 31.158067115013672 ], [ -91.599172978533232, 31.157792633768704 ] ] ], [ [ [ -91.594406976136369, 31.158407499720322 ], [ -91.594636925769308, 31.158214708996784 ], [ -91.594958046863866, 31.158218213956431 ], [ -91.59518223262674, 31.158415961506247 ], [ -91.595178157982744, 31.158692114486154 ], [ -91.594948208214319, 31.158884906161042 ], [ -91.59462708487294, 31.158881401109774 ], [ -91.594402899245566, 31.158683652608612 ], [ -91.594406976136369, 31.158407499720322 ] ] ], [ [ [ -91.597425069105483, 31.1599523313457 ], [ -91.597756757743909, 31.159766925470116 ], [ -91.598138430267937, 31.159870204692915 ], [ -91.598693791969708, 31.160209512105009 ], [ -91.598760052774281, 31.160375350291506 ], [ -91.598709506195135, 31.160580284214721 ], [ -91.598458690562893, 31.160752771747916 ], [ -91.598139505345912, 31.160722224351545 ], [ -91.597464887380411, 31.16035181096084 ], [ -91.597374519934675, 31.160157264678439 ], [ -91.597425069105483, 31.1599523313457 ] ] ], [ [ [ -91.595842859304511, 31.162752945230668 ], [ -91.596093684888999, 31.162580463146895 ], [ -91.596412875451819, 31.162611015775209 ], [ -91.596842171852941, 31.162863904029468 ], [ -91.596908431053421, 31.163029743061593 ], [ -91.596857878875682, 31.163234676014095 ], [ -91.596607052843652, 31.163407159560037 ], [ -91.596287859539146, 31.163376607335142 ], [ -91.59585856242829, 31.163123717226316 ], [ -91.595792305020339, 31.16295787770887 ], [ -91.595842859304511, 31.162752945230668 ] ] ] ] } },
{ "type": "Feature", "properties": { "depth_bin": "-10--5 ft", "bin_order": 7.5, "survey_id": "LM_01_GCB_20160901_CS_3200_3214", "date": "2016-09-01", "year": 2016, "mile": 321.0 }, "geometry": { "type": "MultiPolygon", "coordinates": [ [ [ [ -91.609980486562094, 31.146563007759319 ], [ -91.610289373983534, 31.146350504014642 ], [ -91.610636261743011, 31.146429227107106 ], [ -91.61137910546951, 31.147152209212326 ], [ -91.611423626610261, 31.147358174328271 ], [ -91.611327598547504, 31.147550701426653 ], [ -91.611042526487537, 31.147677826024619 ], [ -91.610736433859572, 31.147594347744029 ], [ -91.610014314020589, 31.146901961480275 ], [ -91.609980486562094, 31.146563007759319 ] ] ], [ [ [ -91.608014708594922, 31.149016392571252 ], [ -91.608305538112688, 31.148835712728985 ], [ -91.608619672763993, 31.148892991165482 ], [ -91.609000909843587, 31.149248340518216 ], [ -91.60895719700666, 31.149586456668601 ], [ -91.608687975967243, 31.149736995673166 ], [ -91.608373838504193, 31.149679717326681 ], [ -91.608009737042821, 31.149356565430583 ], [ -91.608014708594922, 31.149016392571252 ] ] ], [ [ [ -91.606000850708071, 31.150944983294576 ], [ -91.606291689901909, 31.150764308343405 ], [ -91.606605829460165, 31.150821591830635 ], [ -91.606871515761739, 31.151124844562613 ], [ -91.606814411722908, 31.151429470854133 ], [ -91.606545182147656, 31.151580005079865 ], [ -91.606231040147989, 31.15152272137782 ], [ -91.605965354880183, 31.15121946736982 ], [ -91.606000850708071, 31.150944983294576 ] ] ], [ [ [ -91.603272643400786, 31.153139403786394 ], [ -91.603563494394393, 31.15295873541293 ], [ -91.603877639230262, 31.153016025705703 ], [ -91.604260248766622, 31.153371292292643 ], [ -91.604216516677667, 31.153709406065513 ], [ -91.603947276621369, 31.15385993449166 ], [ -91.603633128972618, 31.153802644291876 ], [ -91.603267654105579, 31.153479575739983 ], [ -91.603272643400786, 31.153139403786394 ] ] ], [ [ [ -91.601132371822573, 31.155346288199688 ], [ -91.601423233593877, 31.155165625044724 ], [ -91.601737384159719, 31.155222920720551 ], [ -91.60201971941828, 31.155514060212383 ], [ -91.601962596743448, 31.155818683608651 ], [ -91.601693347213569, 31.155969206988225 ], [ -91.601379194233942, 31.155911911138681 ], [ -91.601110240894982, 31.155654259603132 ], [ -91.601132371822573, 31.155346288199688 ] ] ], [ [ [ -91.595977016676869, 31.155978266057033 ], [ -91.596206957176207, 31.155785472186828 ], [ -91.596528070296216, 31.155788972986993 ], [ -91.596752253914772, 31.155986717800985 ], [ -91.596748184212899, 31.156262871071313 ], [ -91.596518243578217, 31.156455665892789 ], [ -91.596197128211656, 31.156452165001102 ], [ -91.595972944728459, 31.156254419235832 ], [ -91.595977016676869, 31.155978266057033 ] ] ], [ [ [ -91.599307071885761, 31.157869439871835 ], [ -91.59959794485745, 31.157688781244108 ], [ -91.599912102410201, 31.157746081568888 ], [ -91.600301650657428, 31.158042560547919 ], [ -91.600346151823501, 31.158248528594264 ], [ -91.600275035462317, 31.158412872482465 ], [ -91.600005775903114, 31.158563391974237 ], [ -91.599691615607185, 31.158506091802881 ], [ -91.599302067495998, 31.158209610998401 ], [ -91.599307071885761, 31.157869439871835 ] ] ], [ [ [ -91.59808918646452, 31.160340308535304 ], [ -91.598319133733483, 31.160147511205903 ], [ -91.598640261853305, 31.160151007176911 ], [ -91.598864459915518, 31.160348748620549 ], [ -91.598860395640415, 31.160624901953739 ], [ -91.598630448236307, 31.160817700234571 ], [ -91.598309317869436, 31.16081420417218 ], [ -91.598085119942368, 31.160616461777103 ], [ -91.59808918646452, 31.160340308535304 ] ] ], [ [ [ -91.595989111235014, 31.162806077383134 ], [ -91.596239936709921, 31.162633595011968 ], [ -91.596559127511881, 31.162664147284072 ], [ -91.596985349081308, 31.16292380048549 ], [ -91.597051608571761, 31.163089639451126 ], [ -91.59700105666299, 31.163294572466292 ], [ -91.596750230716921, 31.163467056292752 ], [ -91.596431037151945, 31.163436504415841 ], [ -91.596004814929671, 31.163176849375304 ], [ -91.595938557230582, 31.163011009925736 ], [ -91.595989111235014, 31.162806077383134 ] ] ] ] } },
{ "type": "Feature", "properties": { "depth_bin": "-5-0 ft", "bin_order": 2.5, "survey_id": "LM_01_GCB_20160901_CS_3200_3214", "date": "2016-09-01", "year": 2016, "mile": 321.0 }, "geometry": { "type": "MultiPolygon", "coordinates": [ [ [ [ -91.608408687902056, 31.145007286814092 ], [ -91.608638576737206, 31.144814468880195 ], [ -91.608959654582392, 31.144817937587639 ], [ -91.609183839978172, 31.145015661078791 ], [ -91.609179808065377, 31.145291816286488 ], [ -91.608949919096119, 31.145484635171268 ], [ -91.608628839005576, 31.14548116637312 ], [ -91.608404653743889, 31.145283441931099 ], [ -91.608408687902056, 31.145007286814092 ] ] ], [ [ [ -91.610739689772203, 31.147269681094677 ], [ -91.611008516658799, 31.147065348401451 ], [ -91.611362708673582, 31.147114447202192 ], [ -91.611723107745405, 31.147486296050399 ], [ -91.611679405596931, 31.147824413525676 ], [ -91.611410193726115, 31.147974958538587 ], [ -91.611096060129441, 31.14791768694348 ], [ -91.610752797523631, 31.147578035322191 ], [ -91.610739689772203, 31.147269681094677 ] ] ], [ [ [ -91.603809531422428, 31.148961435280519 ], [ -91.604039439106899, 31.148768626235864 ], [ -91.604360529649014, 31.14877210680346 ], [ -91.60458471415194, 31.148969838178385 ], [ -91.604580668279198, 31.149245992675365 ], [ -91.604350760460179, 31.149438802671046 ], [ -91.604029667672279, 31.149435322012444 ], [ -91.603805483303915, 31.1492375896865 ], [ -91.603809531422428, 31.148961435280519 ] ] ], [ [ [ -91.608336629127663, 31.149337524607091 ], [ -91.608566528909293, 31.149144707242758 ], [ -91.608887621338383, 31.149148176561273 ], [ -91.609111816412764, 31.149345900347051 ], [ -91.609107783603662, 31.149622055360471 ], [ -91.60887788368791, 31.149814873675851 ], [ -91.608556789012965, 31.149811404266622 ], [ -91.608332594072721, 31.1496136795298 ], [ -91.608336629127663, 31.149337524607091 ] ] ], [ [ [ -91.606194983933506, 31.151182524606874 ], [ -91.606424892503085, 31.150989711382365 ], [ -91.606745990858386, 31.150993186224412 ], [ -91.60697018552591, 31.151190913681887 ], [ -91.606966146215044, 31.151467068364397 ], [ -91.606736237511129, 31.151659882539992 ], [ -91.606415136909789, 31.151656407607106 ], [ -91.606190942376614, 31.15145867919852 ], [ -91.606194983933506, 31.151182524606874 ] ] ], [ [ [ -91.603625616816743, 31.153419420196478 ], [ -91.603916468049533, 31.153238751038632 ], [ -91.604230614049655, 31.153296040501438 ], [ -91.604518769270925, 31.153582444574855 ], [ -91.604461655955873, 31.153887069441733 ], [ -91.604192415752749, 31.154037598373151 ], [ -91.603878267350453, 31.153980308751304 ], [ -91.60360349463663, 31.153727392371959 ], [ -91.603625616816743, 31.153419420196478 ] ] ], [ [ [ -91.601349835841063, 31.155564583464283 ], [ -91.601579764814105, 31.155371779629071 ], [ -91.601937874998484, 31.155390810223455 ], [ -91.602352065436406, 31.155716775457197 ], [ -91.602347072346788, 31.156056947140716 ], [ -91.602096275269503, 31.156229442432529 ], [ -91.601777103629829, 31.156198904454016 ], [ -91.601362913204227, 31.155872937390026 ], [ -91.601349835841063, 31.155564583464283 ] ] ], [ [ [ -91.599417301194734, 31.157982546501422 ], [ -91.599647239980641, 31.157789746480063 ], [ -91.600005358638256, 31.157808782704247 ], [ -91.600542332449294, 31.158171959227566 ], [ -91.600608595238029, 31.158337796567213 ], [ -91.600558053868781, 31.158542731430583 ], [ -91.600307246959204, 31.158715222879554 ], [ -91.599988067769971, 31.158684680244487 ], [ -91.599451093353736, 31.158321501413674 ], [ -91.599417301194734, 31.157982546501422 ] ] ], [ [ [ -91.594263097705763, 31.158344694021764 ], [ -91.594493047462791, 31.158151903557627 ], [ -91.594814168325726, 31.158155408869767 ], [ -91.595038353636909, 31.158353156658652 ], [ -91.595034278585743, 31.158629309624189 ], [ -91.594804328693186, 31.158822101039679 ], [ -91.594483205583472, 31.158818595635907 ], [ -91.594259020407804, 31.158620846895669 ], [ -91.594263097705763, 31.158344694021764 ] ] ], [ [ [ -91.598244297861854, 31.160380294005694 ], [ -91.598495112856867, 31.160207806862875 ], [ -91.598814296505225, 31.160238353331561 ], [ -91.599014876894259, 31.1604540398993 ], [ -91.598979356348778, 31.160728520947153 ], [ -91.598728540782801, 31.160901009005304 ], [ -91.598409354956956, 31.160870462261371 ], [ -91.598208775138843, 31.160654774778322 ], [ -91.598244297861854, 31.160380294005694 ] ] ], [ [ [ -91.592835660633668, 31.161471843681966 ], [ -91.593086487959894, 31.161299367487718 ], [ -91.593405672975081, 31.161329927422134 ], [ -91.593606242965947, 31.161545622084962 ], [ -91.593570706347961, 31.161820101115275 ], [ -91.593319878450274, 31.161992578224805 ], [ -91.593000691257572, 31.161962018014801 ], [ -91.592800121838181, 31.161746322436674 ], [ -91.592835660633668, 31.161471843681966 ] ] ] ] } },
{ "type": "Feature", "properties": { "depth_bin": "0-5 ft", "bin_order": -2.5, "survey_id": "LM_01_GCB_20160901_CS_3200_3214", "date": "2016-09-01", "year": 2016, "mile": 321.0 }, "geometry": { "type": "MultiPolygon", "coordinates": [ [ [ [ -91.605896969122412, 31.147161956313507 ], [ -91.606126868239286, 31.146969143233388 ], [ -91.606447953002387, 31.146972618417188 ], [ -91.606672137899977, 31.147170346213603 ], [ -91.606668098364594, 31.147446501033585 ], [ -91.606438199113356, 31.147639315064659 ], [ -91.60611711210467, 31.147635839790009 ], [ -91.605892927341415, 31.147438111042646 ], [ -91.605896969122412, 31.147161956313507 ] ] ], [ [ [ -91.611051076505632, 31.147582802029213 ], [ -91.611280966606515, 31.147389979477527 ], [ -91.611639049858553, 31.147408982272804 ], [ -91.611937781104672, 31.147689922538014 ], [ -91.611915687827491, 31.147997897245801 ], [ -91.611664929151161, 31.148170412535066 ], [ -91.611345780400697, 31.148139898955822 ], [ -91.611047049597786, 31.147858957345896 ], [ -91.611051076505632, 31.147582802029213 ] ] ], [ [ [ -91.60844431451055, 31.149440396479598 ], [ -91.608713152445148, 31.14923606897467 ], [ -91.60906735105209, 31.149285174279097 ], [ -91.609436801983463, 31.149650424522441 ], [ -91.609393090446488, 31.149988540840813 ], [ -91.609123868897242, 31.15013908073453 ], [ -91.608809729812478, 31.150081803408014 ], [ -91.608457414836394, 31.149748750627989 ], [ -91.60844431451055, 31.149440396479598 ] ] ], [ [ [ -91.606304833164799, 31.151282379002531 ], [ -91.606534741769053, 31.151089565585306 ], [ -91.606892837426443, 31.151108581957196 ], [ -91.607190122965136, 31.151389135157491 ], [ -91.607168013026381, 31.151697108396988 ], [ -91.606917236108714, 31.151869613797004 ], [ -91.606598077001237, 31.151839088141273 ], [ -91.606300791910471, 31.151558533602842 ], [ -91.606304833164799, 31.151282379002531 ] ] ], [ [ [ -91.59848907940777, 31.153365422724363 ], [ -91.598719008476635, 31.153172623949654 ], [ -91.599040113133469, 31.15317611822357 ], [ -91.599264296213576, 31.153373858712456 ], [ -91.59926023421356, 31.153650012392315 ], [ -91.599030305009606, 31.153842812118192 ], [ -91.598709198106505, 31.153839317752919 ], [ -91.598485015161501, 31.153641576312861 ], [ -91.59848907940777, 31.153365422724363 ] ] ], [ [ [ -91.603839564669499, 31.153639999852206 ], [ -91.604069483974328, 31.153447191224821 ], [ -91.604427587711641, 31.153466214697236 ], [ -91.604735196218456, 31.153739525042038 ], [ -91.60471307750386, 31.154047497498052 ], [ -91.604462289968282, 31.154219997737574 ], [ -91.604143124044171, 31.154189465794722 ], [ -91.603852650093984, 31.153948353847042 ], [ -91.603839564669499, 31.153639999852206 ] ] ], [ [ [ -91.60168288476298, 31.155862669343477 ], [ -91.601912813829827, 31.155669864923361 ], [ -91.602270925237079, 31.155688894625754 ], [ -91.6025909397367, 31.155948039120986 ], [ -91.602568813299186, 31.156256010883872 ], [ -91.602318016067272, 31.156428506598896 ], [ -91.601998843669449, 31.156397969149094 ], [ -91.601695963208272, 31.15617102325492 ], [ -91.60168288476298, 31.155862669343477 ] ] ], [ [ [ -91.599936845248777, 31.15830260779693 ], [ -91.600166783819205, 31.15810980684839 ], [ -91.600487905321515, 31.158113298007265 ], [ -91.600712102723548, 31.158311036264578 ], [ -91.600708044132432, 31.158587189903674 ], [ -91.60047810542703, 31.158779991803591 ], [ -91.600156981677898, 31.158776500553433 ], [ -91.599932784410825, 31.158578761344771 ], [ -91.599936845248777, 31.15830260779693 ] ] ], [ [ [ -91.598361152529648, 31.160484374333763 ], [ -91.598591099627214, 31.160291576516585 ], [ -91.598912228270308, 31.160295071823786 ], [ -91.599136427243963, 31.160492812816422 ], [ -91.59913236373454, 31.16076896617561 ], [ -91.598902416501844, 31.160961764944211 ], [ -91.598581285611687, 31.160958269545642 ], [ -91.598357086773177, 31.160760527601568 ], [ -91.598361152529648, 31.160484374333763 ] ] ], [ [ [ -91.596398687781601, 31.163025465094435 ], [ -91.596628645060477, 31.162832671160082 ], [ -91.596949782003534, 31.162836171616835 ], [ -91.597173982534017, 31.163033916009319 ], [ -91.597169912926176, 31.163310069027112 ], [ -91.596939955511971, 31.163502863912989 ], [ -91.596618816321566, 31.163499363364743 ], [ -91.5963946159264, 31.163301618020725 ], [ -91.596398687781601, 31.163025465094435 ] ] ] ] } },
{ "type": "Feature", "properties": { "depth_bin": "5-10 ft", "bin_order": -7.5, "survey_id": "LM_01_GCB_20160901_CS_3200_3214", "date": "2016-09-01", "year": 2016, "mile": 321.0 }, "geometry": { "type": "MultiPolygon", "coordinates": [ [ [ [ -91.605790051434766, 31.147058690395248 ], [ -91.606019950502727, 31.146865877502091 ], [ -91.606341034903167, 31.146869352942115 ], [ -91.606565219336801, 31.147067080913949 ], [ -91.606561179507921, 31.147343235725799 ], [ -91.606331280305596, 31.147536049569915 ], [ -91.606010193659586, 31.147532574039015 ], [ -91.605786009360301, 31.147334845116223 ], [ -91.605790051434766, 31.147058690395248 ] ] ], [ [ [ -91.611265151480367, 31.147787177745947 ], [ -91.611495041673081, 31.147594354819702 ], [ -91.611853125758557, 31.147613357043003 ], [ -91.612145942359561, 31.147898781094682 ], [ -91.612123849678653, 31.148206755847028 ], [ -91.611873090798042, 31.148379271531176 ], [ -91.611553941262898, 31.148348758446229 ], [ -91.611261125160652, 31.148063333078973 ], [ -91.611265151480367, 31.147787177745947 ] ] ], [ [ [ -91.608775316881349, 31.14973853863842 ], [ -91.609005216806949, 31.14954572050468 ], [ -91.609326310647589, 31.149549188769431 ], [ -91.609550507574312, 31.149746911834331 ], [ -91.609546475973275, 31.150023066882046 ], [ -91.609316575913596, 31.150215885966844 ], [ -91.608995479827058, 31.150212417611417 ], [ -91.608771283034415, 31.150014693595441 ], [ -91.608775316881349, 31.14973853863842 ] ] ], [ [ [ -91.606522552129178, 31.151484417688373 ], [ -91.606752460812487, 31.151291603889568 ], [ -91.607110557295954, 31.151310619679109 ], [ -91.607408429736893, 31.151591991806452 ], [ -91.607386320429271, 31.151899965093619 ], [ -91.607135543340974, 31.152072470909506 ], [ -91.606816383464363, 31.152041945773664 ], [ -91.606518511473894, 31.151760572305609 ], [ -91.606522552129178, 31.151484417688373 ] ] ], [ [ [ -91.6040869760497, 31.153815579710166 ], [ -91.604316895309623, 31.15362277064369 ], [ -91.604638002252585, 31.153626251004681 ], [ -91.604862198374732, 31.153823982109238 ], [ -91.604858152533225, 31.154100136430579 ], [ -91.604628233138754, 31.154292946448255 ], [ -91.604307123949468, 31.154289465996275 ], [ -91.604082927961869, 31.154091733940518 ], [ -91.6040869760497, 31.153815579710166 ] ] ], [ [ [ -91.602498003948185, 31.155830406883698 ], [ -91.602958682576414, 31.15621309552828 ], [ -91.602986054512257, 31.156386862966936 ], [ -91.602889999800041, 31.156579382729898 ], [ -91.602685759917748, 31.156693563799415 ], [ -91.602331537901236, 31.156644440267392 ], [ -91.601929524867458, 31.15626239049914 ], [ -91.601965034752325, 31.15598790814855 ], [ -91.602215831403129, 31.155815413094263 ], [ -91.602498003948185, 31.155830406883698 ] ] ], [ [ [ -91.600060315278682, 31.158390541292338 ], [ -91.600290253827538, 31.158197740124663 ], [ -91.600648374217684, 31.158216774608295 ], [ -91.600967111855368, 31.15847810827708 ], [ -91.600944979257122, 31.15878607946895 ], [ -91.60069417235924, 31.158958571667341 ], [ -91.600374992194247, 31.158928029964819 ], [ -91.600073388477966, 31.158698895104497 ], [ -91.600060315278682, 31.158390541292338 ] ] ], [ [ [ -91.598504639799714, 31.16054855454103 ], [ -91.598734586777297, 31.160355756465314 ], [ -91.599055715656576, 31.160359251421113 ], [ -91.599387940582929, 31.160550758884796 ], [ -91.59942173317927, 31.160889713697589 ], [ -91.599191786210241, 31.161082512988482 ], [ -91.598870654873039, 31.161079018299482 ], [ -91.598538429240548, 31.160887509491786 ], [ -91.598504639799714, 31.16054855454103 ] ] ], [ [ [ -91.592655392649093, 31.161475393400792 ], [ -91.592885353366924, 31.161282606224759 ], [ -91.593206484565599, 31.161286115861529 ], [ -91.593430673533206, 31.161483866478367 ], [ -91.593426593317119, 31.161760019118692 ], [ -91.593196632463602, 31.161952807246205 ], [ -91.592875499017765, 31.161949297517697 ], [ -91.592651310185857, 31.161751545949379 ], [ -91.592655392649093, 31.161475393400792 ] ] ], [ [ [ -91.596536240311778, 31.163097539396084 ], [ -91.596766197502021, 31.162904745214917 ], [ -91.597087334707126, 31.162908245335846 ], [ -91.597311535696846, 31.163105989500195 ], [ -91.597307466476408, 31.163382142531187 ], [ -91.597077509150864, 31.163574937663878 ], [ -91.596756369698383, 31.163571437451456 ], [ -91.596532168843993, 31.163373692335586 ], [ -91.596536240311778, 31.163097539396084 ] ] ] ] } },
{ "type": "Feature", "properties": { "depth_bin": "10-15 ft", "bin_order": -12.5, "survey_id": "LM_01_GCB_20160901_CS_3200_3214", "date": "2016-09-01", "year": 2016, "mile": 321.0 }, "geometry": { "type": "MultiPolygon", "coordinates": [ [ [ [ -91.608318266867357, 31.144892451728388 ], [ -91.608548155592558, 31.144699633949809 ], [ -91.608869233038419, 31.144703102871215 ], [ -91.609093417979409, 31.144900826509634 ], [ -91.60908938582277, 31.145176981711643 ], [ -91.608859496963476, 31.145369800441099 ], [ -91.608538417272243, 31.145366331428981 ], [ -91.608314232465375, 31.145168606839693 ], [ -91.608318266867357, 31.144892451728388 ] ] ], [ [ [ -91.611472485517169, 31.147996458582803 ], [ -91.611702375827107, 31.147803635294952 ], [ -91.612060460762351, 31.147822636965486 ], [ -91.612370013198742, 31.148095139028307 ], [ -91.61234792116997, 31.148403113830085 ], [ -91.612097162146497, 31.1485756299423 ], [ -91.611778011861702, 31.148545117392104 ], [ -91.611485595650123, 31.148304812775216 ], [ -91.611472485517169, 31.147996458582803 ] ] ], [ [ [ -91.608884416712726, 31.149839526511283 ], [ -91.609153254901102, 31.149635198105006 ], [ -91.609507455260015, 31.149684302246399 ], [ -91.609873972260999, 31.150052219217848 ], [ -91.609830262028723, 31.150390335704767 ], [ -91.609561039972405, 31.150540876490435 ], [ -91.609246899265955, 31.15048360018702 ], [ -91.608897518468567, 31.150147880640272 ], [ -91.608884416712726, 31.149839526511283 ] ] ], [ [ [ -91.606739420689451, 31.151684979898008 ], [ -91.606969329449797, 31.151492165719059 ], [ -91.607327426753514, 31.151511180928459 ], [ -91.607614740411506, 31.151801178037527 ], [ -91.607592631694033, 31.152109151368801 ], [ -91.607341854397163, 31.152281657575898 ], [ -91.607022693735317, 31.15225113292972 ], [ -91.606735380631008, 31.151961134532165 ], [ -91.606739420689451, 31.151684979898008 ] ] ], [ [ [ -91.604222742756733, 31.153877301137477 ], [ -91.604513594344525, 31.153696630650813 ], [ -91.604827742262401, 31.153753918708102 ], [ -91.605094500640831, 31.154055844067667 ], [ -91.605037388812676, 31.154360469214641 ], [ -91.604768148102423, 31.154510999326789 ], [ -91.604453997746432, 31.154453711057254 ], [ -91.604200622338013, 31.154185273448697 ], [ -91.604222742756733, 31.153877301137477 ] ] ], [ [ [ -91.603696719142434, 31.148864355894936 ], [ -91.603926626804892, 31.148671547048753 ], [ -91.604247717004341, 31.148675027887904 ], [ -91.604471901044661, 31.14887275944837 ], [ -91.604467854860374, 31.149148913936234 ], [ -91.604237947063353, 31.149341723733428 ], [ -91.603916854618106, 31.149338242803271 ], [ -91.603692670712363, 31.14914051029178 ], [ -91.603696719142434, 31.148864355894936 ] ] ], [ [ [ -91.600825972651108, 31.151179874968236 ], [ -91.60105589169973, 31.150987071656765 ], [ -91.601376989310182, 31.15099055988491 ], [ -91.601601172445285, 31.151188296360438 ], [ -91.601597117569597, 31.151464450410277 ], [ -91.601367198386114, 31.151657254672855 ], [ -91.601046098529636, 31.151653766353498 ], [ -91.60082191552938, 31.151456028926873 ], [ -91.600825972651108, 31.151179874968236 ] ] ], [ [ [ -91.598260793857477, 31.153159351796003 ], [ -91.598551653966638, 31.15297869503328 ], [ -91.59886579535798, 31.153035997468834 ], [ -91.599149090261605, 31.153326007178197 ], [ -91.599091960048582, 31.153630629165864 ], [ -91.598822712550557, 31.153781146639783 ], [ -91.598508568748827, 31.153723844032761 ], [ -91.598238654454889, 31.153467322544767 ], [ -91.598260793857477, 31.153159351796003 ] ] ], [ [ [ -91.595857163578088, 31.15588545533106 ], [ -91.5960871040797, 31.155692661672816 ], [ -91.596408216870259, 31.155696162762514 ], [ -91.596632400020638, 31.155893907774022 ], [ -91.596628329986117, 31.156170061034128 ], [ -91.596398389349147, 31.156362855643646 ], [ -91.596077274312051, 31.156359354462406 ], [ -91.59585309129703, 31.156161608499644 ], [ -91.595857163578088, 31.15588545533106 ] ] ], [ [ [ -91.602304072131304, 31.156295471460361 ], [ -91.602534001065507, 31.156102665936849 ], [ -91.602855116125028, 31.156106150991572 ], [ -91.603079314051627, 31.156303885191161 ], [ -91.603075262645305, 31.156580039195887 ], [ -91.602845333576369, 31.156772845670691 ], [ -91.60252421627024, 31.156769360524862 ], [ -91.602300018478388, 31.156571625373982 ], [ -91.602304072131304, 31.156295471460361 ] ] ], [ [ [ -91.600325517073514, 31.158545309068835 ], [ -91.600555455490863, 31.158352507427004 ], [ -91.60087657786498, 31.158355997640939 ], [ -91.601100776653055, 31.158553735255168 ], [ -91.601096719150263, 31.158829888929795 ], [ -91.600866780597983, 31.159022691522996 ], [ -91.600545655977001, 31.15901920121782 ], [ -91.600321457323872, 31.15882146265222 ], [ -91.600325517073514, 31.158545309068835 ] ] ], [ [ [ -91.598779116424751, 31.160682452486583 ], [ -91.59902993131108, 31.160509964304236 ], [ -91.599349116194034, 31.160540509480644 ], [ -91.599549698437812, 31.160756195260316 ], [ -91.599514179280732, 31.161030676485982 ], [ -91.599263363823511, 31.161203165583679 ], [ -91.598944176762998, 31.161172620132056 ], [ -91.598743595090113, 31.160956933437042 ], [ -91.598779116424751, 31.160682452486583 ] ] ], [ [ [ -91.596690488258986, 31.163139652806446 ], [ -91.596941313421723, 31.162967169065301 ], [ -91.597260505633685, 31.162997719636621 ], [ -91.597461087966025, 31.163213408604737 ], [ -91.597425561604979, 31.16348788894469 ], [ -91.597174735871107, 31.163660373601235 ], [ -91.596855541481361, 31.163629822754562 ], [ -91.596654959720183, 31.163414132871033 ], [ -91.596690488258986, 31.163139652806446 ] ] ] ] } },
{ "type": "Feature", "properties": { "depth_bin": "15-20 ft", "bin_order": -17.5, "survey_id": "LM_01_GCB_20160901_CS_3200_3214", "date": "2016-09-01", "year": 2016, "mile": 321.0 }, "geometry": { "type": "MultiPolygon", "coordinates": [ [ [ [ -91.60819153574171, 31.144803733773848 ], [ -91.608421424493031, 31.144610916220248 ], [ -91.608742501622615, 31.144614385448733 ], [ -91.608966686090213, 31.144812109296456 ], [ -91.608962653580349, 31.145088264487384 ], [ -91.608732764694906, 31.145281082991861 ], [ -91.608411685319979, 31.145277613672654 ], [ -91.608187500986503, 31.145079888874061 ], [ -91.60819153574171, 31.144803733773848 ] ] ], [ [ [ -91.611710914036749, 31.148163178971462 ], [ -91.612001734205464, 31.147982490470437 ], [ -91.612348629456108, 31.148061209147762 ], [ -91.612885463245618, 31.148574449479437 ], [ -91.612929988207071, 31.148780414146476 ], [ -91.612833961595427, 31.148972942374908 ], [ -91.612548887079015, 31.149100070214693 ], [ -91.612242788465281, 31.149016595359008 ], [ -91.611705955849843, 31.148503352410376 ], [ -91.611710914036749, 31.148163178971462 ] ] ], [ [ [ -91.609210446714926, 31.150140851678973 ], [ -91.60947928510771, 31.149936522605614 ], [ -91.609833486785391, 31.149985625885975 ], [ -91.61041661400445, 31.150509498502174 ], [ -91.610461134328531, 31.150715463831457 ], [ -91.610390041353668, 31.150879814181103 ], [ -91.610120818720375, 31.151030356111541 ], [ -91.609806676019289, 31.150973081120476 ], [ -91.609244272184142, 31.150479805375682 ], [ -91.609210446714926, 31.150140851678973 ] ] ], [ [ [ -91.607539146558153, 31.151716246240145 ], [ -91.607956687565817, 31.152090308752896 ], [ -91.607977514662338, 31.152299035483487 ], [ -91.607859994646759, 31.152482536579704 ], [ -91.607643738505971, 31.152578960723098 ], [ -91.607296831344769, 31.152500229047799 ], [ -91.606924215926483, 31.152098256380469 ], [ -91.606990821582826, 31.151828085706654 ], [ -91.607260051208229, 31.151677550554435 ], [ -91.607539146558153, 31.151716246240145 ] ] ], [ [ [ -91.605679849710796, 31.146960762600838 ], [ -91.605909748749568, 31.146767949901221 ], [ -91.606230832804897, 31.1467714256062 ], [ -91.606455016779648, 31.146969153759198 ], [ -91.606450976646897, 31.147245308562269 ], [ -91.606221077473748, 31.147438122212833 ], [ -91.605899991172862, 31.147434646416979 ], [ -91.605675807332474, 31.147236917313027 ], [ -91.605679849710796, 31.146960762600838 ] ] ], [ [ [ -91.603607083827541, 31.148729966057672 ], [ -91.603857857984664, 31.148557466956682 ], [ -91.604177004983114, 31.148587999067473 ], [ -91.604377574378489, 31.148803677287933 ], [ -91.604342074936071, 31.149078160888635 ], [ -91.604091300208822, 31.14925066090461 ], [ -91.603772151034008, 31.149220128519019 ], [ -91.603571582208758, 31.149004449383561 ], [ -91.603607083827541, 31.148729966057672 ] ] ], [ [ [ -91.604437025664566, 31.154080421539824 ], [ -91.60472787750129, 31.153899750580887 ], [ -91.605042026234472, 31.153957038137268 ], [ -91.605430953660957, 31.154306081708871 ], [ -91.605387225150679, 31.154644195942812 ], [ -91.605117984143661, 31.154794726772835 ], [ -91.604803832613385, 31.154737439325398 ], [ -91.604432040343184, 31.154420593612745 ], [ -91.604437025664566, 31.154080421539824 ] ] ], [ [ [ -91.602442127963357, 31.156353681020676 ], [ -91.602692924777529, 31.156181185049274 ], [ -91.60301209674337, 31.156211720763977 ], [ -91.60332656787368, 31.15647916495212 ], [ -91.603304443618242, 31.156787136884038 ], [ -91.603053646223415, 31.156959634016623 ], [ -91.602734471742124, 31.156929098333229 ], [ -91.602420000898235, 31.156661652721947 ], [ -91.602442127963357, 31.156353681020676 ] ] ], [ [ [ -91.594126120999263, 31.158274425138323 ], [ -91.594356070848264, 31.158081634920087 ], [ -91.594677191455347, 31.158085140566744 ], [ -91.59490137631272, 31.158282888582811 ], [ -91.594897300875616, 31.158559041535128 ], [ -91.594667350891072, 31.158751832704699 ], [ -91.59434622803721, 31.158748326966411 ], [ -91.594122043315352, 31.158550577998991 ], [ -91.594126120999263, 31.158274425138323 ] ] ], [ [ [ -91.600478766233906, 31.158587289783441 ], [ -91.600729572499716, 31.158414797977585 ], [ -91.601048751099654, 31.158445338755197 ], [ -91.601249333078286, 31.158661021937444 ], [ -91.601213819829397, 31.158935503888582 ], [ -91.600963012992921, 31.15910799660973 ], [ -91.600643832215624, 31.159077455557053 ], [ -91.600443250807643, 31.158861771459499 ], [ -91.600478766233906, 31.158587289783441 ] ] ], [ [ [ -91.596828131524617, 31.16320889398953 ], [ -91.597078956636324, 31.163036409979927 ], [ -91.597398149137618, 31.163066960217819 ], [ -91.597598731930162, 31.163282648982872 ], [ -91.597563205930641, 31.163557129369064 ], [ -91.597312380247814, 31.163729614294063 ], [ -91.596993185568735, 31.163699063780818 ], [ -91.596792603347325, 31.163483374100355 ], [ -91.596828131524617, 31.16320889398953 ] ] ] ] } },
{ "type": "Feature", "properties": { "depth_bin": "20-25 ft", "bin_order": -22.5, "survey_id": "LM_01_GCB_20160901_CS_3200_3214", "date": "2016-09-01", "year": 2016, "mile": 321.0 }, "geometry": { "type": "MultiPolygon", "coordinates": [ [ [ [ -91.612221242631094, 31.1487113901455 ], [ -91.612530132428532, 31.148498881151681 ], [ -91.612877030037041, 31.148577598467703 ], [ -91.613512604780411, 31.149198080569295 ], [ -91.613557131344621, 31.149404045048843 ], [ -91.613461105302889, 31.149596573745889 ], [ -91.613176029667812, 31.149723702932 ], [ -91.612869928461762, 31.14964022949971 ], [ -91.61225507854563, 31.149050343426893 ], [ -91.612221242631094, 31.1487113901455 ] ] ], [ [ [ -91.609788450714191, 31.150600848016143 ], [ -91.61007928198724, 31.150420164253624 ], [ -91.610426184240666, 31.150498888298593 ], [ -91.610874388887353, 31.15093933167671 ], [ -91.610901774208855, 31.151113097954482 ], [ -91.610805741015398, 31.151305624410931 ], [ -91.610520656862406, 31.151432747427172 ], [ -91.610214552803171, 31.151349267608488 ], [ -91.609783485186099, 31.150941021048379 ], [ -91.609788450714191, 31.150600848016143 ] ] ], [ [ [ -91.607884036149656, 31.15200548505948 ], [ -91.60873418881657, 31.152868501091568 ], [ -91.608667587224602, 31.153138672750384 ], [ -91.608398355481853, 31.153289210756629 ], [ -91.608051445050577, 31.15321048102798 ], [ -91.607906514907157, 31.152983562650736 ], [ -91.607696343488783, 31.152883218919662 ], [ -91.607269104920832, 31.152387496816274 ], [ -91.607335709841024, 31.152117325952712 ], [ -91.607604939786398, 31.151966790093844 ], [ -91.607884036149656, 31.15200548505948 ] ] ], [ [ [ -91.598116261809551, 31.153106313939798 ], [ -91.598346190959461, 31.152913515827358 ], [ -91.598667294691495, 31.15291701100487 ], [ -91.598891476382661, 31.153114752109371 ], [ -91.598887413343178, 31.153390905756236 ], [ -91.598657484058137, 31.153583704819841 ], [ -91.598336378079864, 31.153580209550952 ], [ -91.598112196523829, 31.153382467495291 ], [ -91.598116261809551, 31.153106313939798 ] ] ], [ [ [ -91.604797076375519, 31.154353685379739 ], [ -91.605087928417419, 31.154173013619221 ], [ -91.605402078297715, 31.154230300327825 ], [ -91.605680319738397, 31.154525458786903 ], [ -91.605623209432082, 31.154830084219636 ], [ -91.605353968240777, 31.154980615534491 ], [ -91.605039815936408, 31.154923328642113 ], [ -91.604774957637986, 31.154661657819574 ], [ -91.604797076375519, 31.154353685379739 ] ] ], [ [ [ -91.602671669934466, 31.15656157344446 ], [ -91.602901598815095, 31.156368767269008 ], [ -91.603222714822238, 31.156372251433694 ], [ -91.603446914142637, 31.156569985026504 ], [ -91.60344286375981, 31.15684613906318 ], [ -91.603212934744491, 31.157038946189932 ], [ -91.602891816490697, 31.157035461934157 ], [ -91.602667617305002, 31.156837727390037 ], [ -91.602671669934466, 31.15656157344446 ] ] ], [ [ [ -91.600610541701258, 31.158665024587275 ], [ -91.600861347949149, 31.158492532525646 ], [ -91.601180526864212, 31.158523072985158 ], [ -91.601381109306416, 31.158738755973332 ], [ -91.601345596398005, 31.159013237968082 ], [ -91.601094789579463, 31.159185730945005 ], [ -91.600775608487027, 31.15915519021042 ], [ -91.600575026615473, 31.15893950630694 ], [ -91.600610541701258, 31.158665024587275 ] ] ], [ [ [ -91.598920807657308, 31.160746153835333 ], [ -91.59917162247055, 31.160573665375853 ], [ -91.599490807625969, 31.160604210208326 ], [ -91.599691390328161, 31.160819895778719 ], [ -91.599655871546929, 31.161094377052354 ], [ -91.599405056162809, 31.161266866427166 ], [ -91.599085868829832, 31.161236321319496 ], [ -91.598885286698504, 31.161020634833754 ], [ -91.598920807657308, 31.160746153835333 ] ] ], [ [ [ -91.592532083209463, 31.161380138761768 ], [ -91.592762043930122, 31.161187351803871 ], [ -91.593083174790522, 31.161190861738582 ], [ -91.593307363276864, 31.161388612558635 ], [ -91.593303282718438, 31.161664765188402 ], [ -91.593073321862065, 31.161857553097764 ], [ -91.592752188754531, 31.161854043071305 ], [ -91.592528000403888, 31.161656291299789 ], [ -91.592532083209463, 31.161380138761768 ] ] ], [ [ [ -91.596979680436149, 31.163256365106726 ], [ -91.597311381671076, 31.163070960841914 ], [ -91.597691157646466, 31.163179731012114 ], [ -91.597891741348903, 31.163395419343804 ], [ -91.597856216135924, 31.163669899830232 ], [ -91.59752451377085, 31.163855305451811 ], [ -91.597144735341118, 31.163746534725991 ], [ -91.596944152670972, 31.163530845269996 ], [ -91.596979680436149, 31.163256365106726 ] ] ] ] } },
{ "type": "Feature", "properties": { "depth_bin": "25-30 ft", "bin_order": -27.5, "survey_id": "LM_01_GCB_20160901_CS_3200_3214", "date": "2016-09-01", "year": 2016, "mile": 321.0 }, "geometry": { "type": "MultiPolygon", "coordinates": [ [ [ [ -91.612858326789734, 31.149328300234238 ], [ -91.613167217282893, 31.149115789748734 ], [ -91.613514117713748, 31.149194505422845 ], [ -91.614150926716306, 31.149813432470445 ], [ -91.614195454904561, 31.150019396759447 ], [ -91.61409942946409, 31.150211925934595 ], [ -91.613814352749515, 31.150339056493159 ], [ -91.613508248966554, 31.150255584511282 ], [ -91.612892165110011, 31.149667253390309 ], [ -91.612858326789734, 31.149328300234238 ] ] ], [ [ [ -91.60998587205296, 31.15083513394265 ], [ -91.610294773703501, 31.150622630732872 ], [ -91.610641676889315, 31.150701354221894 ], [ -91.611415632908006, 31.151398929171421 ], [ -91.611460155745718, 31.15160489420397 ], [ -91.611364123128752, 31.151797421081472 ], [ -91.611079038172846, 31.151924545303309 ], [ -91.610772932006995, 31.151841066757189 ], [ -91.610019700438201, 31.151174087489338 ], [ -91.60998587205296, 31.15083513394265 ] ] ], [ [ [ -91.607778978859642, 31.152960165650757 ], [ -91.60768709329524, 31.152730238219661 ], [ -91.60778567148202, 31.152502370293767 ], [ -91.608029960128007, 31.152380008798215 ], [ -91.608272060207085, 31.152403161475405 ], [ -91.608989210884033, 31.153047651278921 ], [ -91.609023036180588, 31.1533866048924 ], [ -91.608793126703205, 31.153579422671889 ], [ -91.608472019349605, 31.153575952676203 ], [ -91.607778978859642, 31.152960165650757 ] ] ], [ [ [ -91.60810077448636, 31.144671335872147 ], [ -91.608351529872778, 31.144498827352137 ], [ -91.608670665210909, 31.144529347980079 ], [ -91.608871236886557, 31.144745019380142 ], [ -91.608835752329625, 31.145019504818112 ], [ -91.608584996373622, 31.14519201425302 ], [ -91.608265858859468, 31.145161493350585 ], [ -91.608065287753405, 31.144945821035634 ], [ -91.60810077448636, 31.144671335872147 ] ] ], [ [ [ -91.605009282119298, 31.154577579272519 ], [ -91.605278142085993, 31.154373259750631 ], [ -91.605632357545986, 31.154422374984293 ], [ -91.60600537436531, 31.154783613256235 ], [ -91.605961647599713, 31.155121727715144 ], [ -91.605692406071682, 31.155272259722661 ], [ -91.605378252575079, 31.155214973624073 ], [ -91.60502237134375, 31.154885933221514 ], [ -91.605009282119298, 31.154577579272519 ] ] ], [ [ [ -91.602808010302056, 31.156620541755974 ], [ -91.603058807204548, 31.156448045079824 ], [ -91.603377980215598, 31.156478579916197 ], [ -91.603578563653585, 31.156694259566443 ], [ -91.60354305805761, 31.156968742463789 ], [ -91.603292260584723, 31.157141240055189 ], [ -91.602973085396457, 31.157110704943904 ], [ -91.602772502528865, 31.156895024378386 ], [ -91.602808010302056, 31.156620541755974 ] ] ], [ [ [ -91.600742101017545, 31.15874100180962 ], [ -91.600992907243139, 31.158568509492458 ], [ -91.60131208646736, 31.158599049634258 ], [ -91.6015126693691, 31.15881473242861 ], [ -91.601477156801408, 31.159089214466984 ], [ -91.601226350005177, 31.159261707699425 ], [ -91.60090716860357, 31.159231167282581 ], [ -91.60070658627248, 31.159015483572926 ], [ -91.600742101017545, 31.15874100180962 ] ] ], [ [ [ -91.599072331294096, 31.160796838910432 ], [ -91.599323145981941, 31.160624350152801 ], [ -91.59964233137049, 31.160654894615785 ], [ -91.599842914527784, 31.160870579961838 ], [ -91.599807396157019, 31.16114506128768 ], [ -91.599556580898309, 31.161317550960682 ], [ -91.599237393332189, 31.161287006222484 ], [ -91.599036810745758, 31.161071319961085 ], [ -91.599072331294096, 31.160796838910432 ] ] ], [ [ [ -91.597264020577413, 31.163380822836299 ], [ -91.597514845399218, 31.163208337971589 ], [ -91.59783403865859, 31.163238887149078 ], [ -91.598034622813103, 31.163454575269572 ], [ -91.597999097981656, 31.163729055804652 ], [ -91.59774827258876, 31.163901541584799 ], [ -91.597429077151588, 31.163870992131987 ], [ -91.597228493568153, 31.163655303096043 ], [ -91.597264020577413, 31.163380822836299 ] ] ] ] } },
{ "type": "Feature", "properties": { "depth_bin": "30-35 ft", "bin_order": -32.5, "survey_id": "LM_01_GCB_20160901_CS_3200_3214", "date": "2016-09-01", "year": 2016, "mile": 321.0 }, "geometry": { "type": "MultiPolygon", "coordinates": [ [ [ [ -91.613519108510246, 31.149908217839901 ], [ -91.613809930873501, 31.149727525357836 ], [ -91.614156834113331, 31.149806239374435 ], [ -91.61449752389106, 31.150189957996211 ], [ -91.614415505404764, 31.150522765053072 ], [ -91.614130428136946, 31.150649896290549 ], [ -91.613824323058452, 31.150566425026398 ], [ -91.613497019534663, 31.150216192852238 ], [ -91.613519108510246, 31.149908217839901 ] ] ], [ [ [ -91.610774868684928, 31.15149964440247 ], [ -91.611065700989215, 31.151318958461818 ], [ -91.611412607409591, 31.151397679959192 ], [ -91.611958378976254, 31.151904237833502 ], [ -91.612002903188056, 31.152110202704421 ], [ -91.611906871101738, 31.152302729989557 ], [ -91.611621785282281, 31.152429855380351 ], [ -91.611315676982016, 31.152346378068927 ], [ -91.610769906503805, 31.151839817529783 ], [ -91.610774868684928, 31.15149964440247 ] ] ], [ [ [ -91.608380233216252, 31.15317068026868 ], [ -91.608671075079471, 31.152990000070183 ], [ -91.60901798529413, 31.153068728122921 ], [ -91.609475862385935, 31.153503059381446 ], [ -91.609503245692778, 31.153676825835667 ], [ -91.609407206919258, 31.153869351013675 ], [ -91.609122113209267, 31.153996470600216 ], [ -91.608816002357344, 31.153912987279877 ], [ -91.608375262156358, 31.153510852961301 ], [ -91.608380233216252, 31.15317068026868 ] ] ], [ [ [ -91.605965306177694, 31.154719488433589 ], [ -91.606744160085043, 31.155314217406119 ], [ -91.606856280202891, 31.15550020221043 ], [ -91.606789671179513, 31.155770372577216 ], [ -91.60652042901539, 31.155920906286362 ], [ -91.60624132191073, 31.155882208062145 ], [ -91.605806672056019, 31.155573487000215 ], [ -91.605400152147197, 31.155242354450088 ], [ -91.605308270415264, 31.155012425505483 ], [ -91.60543489103226, 31.154758623232649 ], [ -91.605733106196368, 31.154656156513795 ], [ -91.605965306177694, 31.154719488433589 ] ] ], [ [ [ -91.605583485037769, 31.146832377638162 ], [ -91.605834250634288, 31.14665987438239 ], [ -91.606153392128618, 31.146690401431826 ], [ -91.606353962300489, 31.146906076649142 ], [ -91.606318469460462, 31.147180561064047 ], [ -91.606067703294073, 31.147353065234753 ], [ -91.605748559623535, 31.147322537910654 ], [ -91.605547990021563, 31.147106861778401 ], [ -91.605583485037769, 31.146832377638162 ] ] ], [ [ [ -91.603509328527053, 31.148621027027179 ], [ -91.603760102558752, 31.148448528110499 ], [ -91.604079249152392, 31.148479060452324 ], [ -91.604279818100693, 31.148694738815198 ], [ -91.604244318430844, 31.14896922238627 ], [ -91.60399354382902, 31.149141722217912 ], [ -91.603674395059045, 31.149111189601285 ], [ -91.603473826680855, 31.148895510323438 ], [ -91.603509328527053, 31.148621027027179 ] ] ], [ [ [ -91.600727539795358, 31.151054393831412 ], [ -91.600978325234351, 31.150881900738774 ], [ -91.601297478782215, 31.150912440182619 ], [ -91.601498046158113, 31.15112812276536 ], [ -91.601462537310084, 31.151402605202222 ], [ -91.601211751300653, 31.151575099209868 ], [ -91.600892595576241, 31.151544559491025 ], [ -91.60069202877078, 31.151328875993268 ], [ -91.600727539795358, 31.151054393831412 ] ] ], [ [ [ -91.598002105420633, 31.152995444223837 ], [ -91.59825290083748, 31.152822956791955 ], [ -91.598572059719373, 31.152853503152407 ], [ -91.598772624660995, 31.153069189856108 ], [ -91.598737107036101, 31.153343671204301 ], [ -91.598486311048504, 31.153516159551245 ], [ -91.598167149989919, 31.153485612915599 ], [ -91.597966585619062, 31.153269925296836 ], [ -91.598002105420633, 31.152995444223837 ] ] ], [ [ [ -91.595745279422701, 31.155774780620394 ], [ -91.595996086276116, 31.155602297999696 ], [ -91.596315253488839, 31.155632850200366 ], [ -91.596515818775629, 31.155848540352306 ], [ -91.596480293307863, 31.156123020736889 ], [ -91.596229485883413, 31.156295504272709 ], [ -91.595910316493743, 31.156264951796683 ], [ -91.595709751777989, 31.156049260729606 ], [ -91.595745279422701, 31.155774780620394 ] ] ], [ [ [ -91.602924192837264, 31.156715691776224 ], [ -91.603215055660215, 31.156535024632991 ], [ -91.603529211966674, 31.15659231609073 ], [ -91.603916923030098, 31.156940825050498 ], [ -91.603873187575957, 31.157278938439486 ], [ -91.603603936682717, 31.157429465749431 ], [ -91.603289777581466, 31.157372174397622 ], [ -91.602919201594887, 31.157055863490104 ], [ -91.602924192837264, 31.156715691776224 ] ] ], [ [ [ -91.600868707000558, 31.15882656685487 ], [ -91.601119513238416, 31.158654074293125 ], [ -91.601438692801722, 31.158684614130333 ], [ -91.601758632324206, 31.15894236080317 ], [ -91.601736502112857, 31.159250332182779 ], [ -91.601485695329885, 31.159422825917751 ], [ -91.60116651328093, 31.159392286126167 ], [ -91.600846573958066, 31.159134538001702 ], [ -91.600868707000558, 31.15882656685487 ] ] ], [ [ [ -91.599209134908833, 31.160867901340374 ], [ -91.599459949551999, 31.160695412316183 ], [ -91.599779135235551, 31.160725956448008 ], [ -91.599979718854726, 31.160941641592281 ], [ -91.59994420084216, 31.161216122963936 ], [ -91.599693385628143, 31.16138861290349 ], [ -91.599374197767006, 31.161358068496462 ], [ -91.599173614718694, 31.161142382436836 ], [ -91.599209134908833, 31.160867901340374 ] ] ], [ [ [ -91.592408073853903, 31.161285909478071 ], [ -91.592658901417465, 31.16111343412085 ], [ -91.592978085631202, 31.161143995093692 ], [ -91.593178654251261, 31.161359690388075 ], [ -91.593143116496108, 31.161634169273075 ], [ -91.592892288361043, 31.161806645545582 ], [ -91.592573101969847, 31.161776084297106 ], [ -91.592372533921278, 31.161560388087459 ], [ -91.592408073853903, 31.161285909478071 ] ] ], [ [ [ -91.597415054172018, 31.163430442261379 ], [ -91.597665878866422, 31.163257957099333 ], [ -91.597985072355186, 31.163288505908429 ], [ -91.598185656961576, 31.163504193805302 ], [ -91.598150132539743, 31.163778674392479 ], [ -91.597899307274261, 31.163951160469956 ], [ -91.597580111607655, 31.163920611385539 ], [ -91.597379527572372, 31.163704922573245 ], [ -91.597415054172018, 31.163430442261379 ] ] ] ] } },
{ "type": "Feature", "properties": { "depth_bin": "35-40 ft", "bin_order": -37.5, "survey_id": "LM_01_GCB_20160901_CS_3200_3214", "date": "2016-09-01", "year": 2016, "mile": 321.0 }, "geometry": { "type": "MultiPolygon", "coordinates": [ [ [ [ -91.613797923341892, 31.150285874965622 ], [ -91.614004731632221, 31.150074596636024 ], [ -91.614324675582125, 31.150050967867447 ], [ -91.614570337941004, 31.150228830003535 ], [ -91.614597813247954, 31.150503994489256 ], [ -91.614391005264764, 31.150715273769308 ], [ -91.614071059085987, 31.15073890263481 ], [ -91.613825396419969, 31.150561039548272 ], [ -91.613797923341892, 31.150285874965622 ] ] ], [ [ [ -91.611295007858942, 31.152061180447763 ], [ -91.61153926504258, 31.15183516868851 ], [ -91.611860366946289, 31.151838630863057 ], [ -91.612182197059283, 31.152100131150508 ], [ -91.612195309526058, 31.152408485164599 ], [ -91.611965408687482, 31.15260130889887 ], [ -91.611644304198421, 31.152597846910403 ], [ -91.611322473989063, 31.152336345291726 ], [ -91.611295007858942, 31.152061180447763 ] ] ], [ [ [ -91.608807167885942, 31.153596549503952 ], [ -91.609037077378645, 31.153403731700273 ], [ -91.609395182500705, 31.153422741377835 ], [ -91.609695612115175, 31.153703147783407 ], [ -91.609673509425761, 31.154011121570448 ], [ -91.60942273058825, 31.154183631745131 ], [ -91.609103562700525, 31.154153112057866 ], [ -91.608820269419724, 31.153904903473975 ], [ -91.608807167885942, 31.153596549503952 ] ] ], [ [ [ -91.606155280945003, 31.155554144699817 ], [ -91.606362117615262, 31.1553428796602 ], [ -91.606682080455883, 31.155319270487791 ], [ -91.606927741150827, 31.155497147047395 ], [ -91.606955195213473, 31.155772312335078 ], [ -91.606748358849728, 31.155983578325412 ], [ -91.60642839377951, 31.156007187594287 ], [ -91.60618273277808, 31.155829310083959 ], [ -91.606155280945003, 31.155554144699817 ] ] ], [ [ [ -91.603262300802015, 31.157022574374036 ], [ -91.603492229680015, 31.156829767154466 ], [ -91.603850345934177, 31.156848792598812 ], [ -91.604155856430808, 31.157124680074915 ], [ -91.604133734618401, 31.157432652194867 ], [ -91.603882936913408, 31.157605150920599 ], [ -91.603563759927155, 31.157574617224142 ], [ -91.603275384377724, 31.157330928228369 ], [ -91.603262300802015, 31.157022574374036 ] ] ], [ [ [ -91.601105492502569, 31.159040772925522 ], [ -91.601349791674252, 31.158814781993666 ], [ -91.60167091571634, 31.158818270272981 ], [ -91.602007178087945, 31.159064534333858 ], [ -91.602020257606554, 31.159372888107917 ], [ -91.601790319502271, 31.159565692351894 ], [ -91.60146919292329, 31.159562204295508 ], [ -91.601153652110369, 31.159346539660568 ], [ -91.601105492502569, 31.159040772925522 ] ] ], [ [ [ -91.599323448491418, 31.160975414867128 ], [ -91.599553394935739, 31.160782615322198 ], [ -91.599874525367198, 31.160786108278732 ], [ -91.600098727523275, 31.160983847674743 ], [ -91.600094666726164, 31.161260001126649 ], [ -91.599864720146812, 31.161452801623039 ], [ -91.599543587468233, 31.161449308575197 ], [ -91.599319385447203, 31.161251568227716 ], [ -91.599323448491418, 31.160975414867128 ] ] ] ] } },
{ "type": "Feature", "properties": { "depth_bin": "40-45 ft", "bin_order": -42.5, "survey_id": "LM_01_GCB_20160901_CS_3200_3214", "date": "2016-09-01", "year": 2016, "mile": 321.0 }, "geometry": { "type": "MultiPolygon", "coordinates": [ [ [ [ -91.613931162056815, 31.150346424260128 ], [ -91.614161053427694, 31.150153596670567 ], [ -91.614482150020038, 31.150157052141225 ], [ -91.614706359393026, 31.150354766568146 ], [ -91.614702342642346, 31.150630922194033 ], [ -91.614472451137885, 31.150823750734673 ], [ -91.614151352299558, 31.150820295173663 ], [ -91.613927143060153, 31.150622579795659 ], [ -91.613931162056815, 31.150346424260128 ] ] ], [ [ [ -91.611527066199258, 31.152230268537888 ], [ -91.611756966968159, 31.152037445575431 ], [ -91.612078069583404, 31.152040907227278 ], [ -91.612302278076172, 31.152238625768732 ], [ -91.612298254057578, 31.152514781032281 ], [ -91.612068353154839, 31.152707604945888 ], [ -91.611747248293412, 31.152704143203533 ], [ -91.611523039934482, 31.152506423710932 ], [ -91.611527066199258, 31.152230268537888 ] ] ], [ [ [ -91.609028237068841, 31.153797451118525 ], [ -91.609258146631149, 31.153604632926957 ], [ -91.609616252576089, 31.153623642012679 ], [ -91.609910388050992, 31.153908810923596 ], [ -91.609888285980432, 31.154216784757168 ], [ -91.609637506958606, 31.154389295340415 ], [ -91.609318338293832, 31.154358776164113 ], [ -91.609024203310526, 31.154073605931067 ], [ -91.609028237068841, 31.153797451118525 ] ] ], [ [ [ -91.606282015051164, 31.155620402174879 ], [ -91.606511934529209, 31.155427589237568 ], [ -91.606833047857577, 31.155431064305404 ], [ -91.607057252792089, 31.155628791795021 ], [ -91.607053213027868, 31.155904946297305 ], [ -91.606823293415474, 31.156097760185883 ], [ -91.606502177840568, 31.156094285027212 ], [ -91.60627797304042, 31.15589655658631 ], [ -91.606282015051164, 31.155620402174879 ] ] ], [ [ [ -91.603499694347931, 31.157208534489726 ], [ -91.603729623226542, 31.157015726850553 ], [ -91.604087740252851, 31.157034751656148 ], [ -91.60439828924703, 31.157302480031579 ], [ -91.604376168152811, 31.157610452207063 ], [ -91.604125370386683, 31.157782951399682 ], [ -91.603806192704567, 31.157752418285138 ], [ -91.603512778694878, 31.157516888334953 ], [ -91.603499694347931, 31.157208534489726 ] ] ], [ [ [ -91.601897008645693, 31.158960056898895 ], [ -91.602352398499136, 31.159240513007095 ], [ -91.602442775465761, 31.159435056099145 ], [ -91.602392237338563, 31.15963999174927 ], [ -91.602217817824098, 31.159786244030279 ], [ -91.601859246400693, 31.15979749184412 ], [ -91.601397616192244, 31.159470076317639 ], [ -91.60137017760681, 31.159194910445173 ], [ -91.601577032823613, 31.158983653763354 ], [ -91.601897008645693, 31.158960056898895 ] ] ], [ [ [ -91.593979653287235, 31.158216427152187 ], [ -91.594209603277406, 31.158023637198646 ], [ -91.594530723668697, 31.158027143204716 ], [ -91.59475490807975, 31.158224891464393 ], [ -91.594750832227191, 31.158501044401813 ], [ -91.594520882101477, 31.15869383530671 ], [ -91.594199759463393, 31.158690329208987 ], [ -91.593975575187898, 31.158492579997951 ], [ -91.593979653287235, 31.158216427152187 ] ] ], [ [ [ -91.599455812777691, 31.161054024330724 ], [ -91.599685759159797, 31.160861224549258 ], [ -91.600006889874564, 31.160864717183564 ], [ -91.600355742854063, 31.161093680804711 ], [ -91.600368817029235, 31.161402034500831 ], [ -91.600138870630673, 31.161594835489236 ], [ -91.599817737435373, 31.161591343110882 ], [ -91.599468884033328, 31.161362378032834 ], [ -91.599455812777691, 31.161054024330724 ] ] ], [ [ [ -91.592252862684248, 31.161245532712428 ], [ -91.592482823613949, 31.161052746256708 ], [ -91.5928039539818, 31.161056256874229 ], [ -91.593028141562527, 31.161254008157734 ], [ -91.59302406021591, 31.161530160760115 ], [ -91.592794099150495, 31.161722948167274 ], [ -91.592472966535524, 31.161719437457986 ], [ -91.592248779090525, 31.161521685223036 ], [ -91.592252862684248, 31.161245532712428 ] ] ], [ [ [ -91.597530484535341, 31.163540145079626 ], [ -91.597760440889061, 31.163347349106591 ], [ -91.598081579723967, 31.163350846792198 ], [ -91.598430300270891, 31.163579074637784 ], [ -91.59844336821574, 31.163887428237658 ], [ -91.598213411846913, 31.164080225417578 ], [ -91.597892270533663, 31.164076727987556 ], [ -91.59754354956074, 31.163848498685322 ], [ -91.597530484535341, 31.163540145079626 ] ] ] ] } },
{ "type": "Feature", "properties": { "depth_bin": "45-50 ft", "bin_order": -47.5, "survey_id": "LM_01_GCB_20160901_CS_3200_3214", "date": "2016-09-01", "year": 2016, "mile": 321.0 }, "geometry": { "type": "MultiPolygon", "coordinates": [ [ [ [ -91.607956720309701, 31.144615253356708 ], [ -91.608186609049284, 31.144422436217528 ], [ -91.608507685511654, 31.144425906012572 ], [ -91.608731869047389, 31.144623630247139 ], [ -91.608727835886867, 31.144899785418573 ], [ -91.608497947013149, 31.145092603508626 ], [ -91.608176868305449, 31.145089133622843 ], [ -91.607952684903864, 31.144891408437417 ], [ -91.607956720309701, 31.144615253356708 ] ] ], [ [ [ -91.603395737732939, 31.148523075706063 ], [ -91.603646511696383, 31.148350577006546 ], [ -91.603965657915239, 31.148381109619553 ], [ -91.604166226401773, 31.148596788148783 ], [ -91.604130726453619, 31.148871271683902 ], [ -91.603879951920064, 31.149043771298373 ], [ -91.603560803524886, 31.149013238410561 ], [ -91.603360235608477, 31.148797558966372 ], [ -91.603395737732939, 31.148523075706063 ] ] ], [ [ [ -91.614050541102898, 31.150420668264584 ], [ -91.614301301732226, 31.150248148434507 ], [ -91.61462045876209, 31.150278654914121 ], [ -91.614821055872099, 31.150494317615276 ], [ -91.614785585593339, 31.150768804899677 ], [ -91.614534824394809, 31.15094132564494 ], [ -91.614215665188183, 31.150910818891173 ], [ -91.614015068647362, 31.150695155274811 ], [ -91.614050541102898, 31.150420668264584 ] ] ], [ [ [ -91.611662608955172, 31.152291847065204 ], [ -91.611913378788714, 31.15211933220953 ], [ -91.612232541064657, 31.152149844763951 ], [ -91.612433136389612, 31.152365511081857 ], [ -91.612397658340171, 31.152639997406318 ], [ -91.612146887937158, 31.152812513177214 ], [ -91.611827723484282, 31.152782000348477 ], [ -91.61162712872877, 31.152566333115338 ], [ -91.611662608955172, 31.152291847065204 ] ] ], [ [ [ -91.609262400000802, 31.153967077056084 ], [ -91.60955324276344, 31.153786394908639 ], [ -91.609867394501904, 31.153843670764825 ], [ -91.610143345290979, 31.154138623416486 ], [ -91.610086249467585, 31.154443251278074 ], [ -91.609817016076875, 31.154593792178989 ], [ -91.609502861916511, 31.154536516133785 ], [ -91.609240295817443, 31.154275050713064 ], [ -91.609262400000802, 31.153967077056084 ] ] ], [ [ [ -91.606405472258416, 31.155691176018912 ], [ -91.606696325582476, 31.155510500691335 ], [ -91.607010480969677, 31.155567783623056 ], [ -91.607618658933944, 31.156070392318536 ], [ -91.607663175283534, 31.156276358340172 ], [ -91.607592073002607, 31.156440706739851 ], [ -91.607322830101353, 31.156591242093533 ], [ -91.607008671142808, 31.15653395982698 ], [ -91.606421216523032, 31.156061948312402 ], [ -91.606354944911999, 31.155896113653796 ], [ -91.606405472258416, 31.155691176018912 ] ] ], [ [ [ -91.603760073147654, 31.157354628935984 ], [ -91.604050936461448, 31.157173959932209 ], [ -91.604365095446283, 31.157231249422097 ], [ -91.604653085477523, 31.157516390409164 ], [ -91.604595969722752, 31.157821015097387 ], [ -91.604326718343771, 31.157971543895346 ], [ -91.604012556960527, 31.157914254246098 ], [ -91.603737949974104, 31.157662600937496 ], [ -91.603760073147654, 31.157354628935984 ] ] ], [ [ [ -91.602247789647578, 31.159188747359657 ], [ -91.602758025920053, 31.159464236364379 ], [ -91.602848403921186, 31.159658779196082 ], [ -91.602797866522721, 31.159863715021064 ], [ -91.602623447185522, 31.160009967853188 ], [ -91.602264874920593, 31.160021216772996 ], [ -91.601788212369669, 31.159707805483528 ], [ -91.601760772610888, 31.159432639668438 ], [ -91.601967627524047, 31.159221382356016 ], [ -91.602247789647578, 31.159188747359657 ] ] ], [ [ [ -91.600578677187997, 31.151004865516345 ], [ -91.600808596282619, 31.150812062643798 ], [ -91.601129693269201, 31.150815551470981 ], [ -91.601353875475937, 31.151013288354761 ], [ -91.601349819911263, 31.151289442382904 ], [ -91.601119900681766, 31.151482246206552 ], [ -91.600798801449187, 31.151478757288135 ], [ -91.600574619377312, 31.151281019453275 ], [ -91.600578677187997, 31.151004865516345 ] ] ], [ [ [ -91.595592851443371, 31.15572269876327 ], [ -91.595843658419881, 31.155550216442389 ], [ -91.596162825394444, 31.155580769014559 ], [ -91.596363390221299, 31.155796459392086 ], [ -91.596327864341262, 31.156070939724152 ], [ -91.596077056793689, 31.156243422960156 ], [ -91.595757887642193, 31.156212870112618 ], [ -91.595557323386387, 31.15599717881997 ], [ -91.595592851443371, 31.15572269876327 ] ] ], [ [ [ -91.599756303631537, 31.161151240917036 ], [ -91.600007118093586, 31.160978750826605 ], [ -91.600326304954052, 31.161009293633803 ], [ -91.60052689041882, 31.161224977970974 ], [ -91.600491373839432, 31.161499459525853 ], [ -91.60024055880659, 31.161671950531673 ], [ -91.599921369768481, 31.161641407449316 ], [ -91.599720784874521, 31.161425722196771 ], [ -91.599756303631537, 31.161151240917036 ] ] ], [ [ [ -91.597848083683857, 31.163608416319406 ], [ -91.598098908109677, 31.163435930308594 ], [ -91.59841810237549, 31.163466478064912 ], [ -91.598618688349376, 31.163682165321649 ], [ -91.598583165084477, 31.163956646056356 ], [ -91.598332340087609, 31.164129132982598 ], [ -91.598013143643939, 31.164098584950988 ], [ -91.597812558241117, 31.163882896778805 ], [ -91.597848083683857, 31.163608416319406 ] ] ], [ [ [ -91.598898305617084, 31.164081551851414 ], [ -91.599110184283816, 31.163920570606418 ], [ -91.599352914992735, 31.163902676323666 ], [ -91.60032823226544, 31.164305361415821 ], [ -91.600635859005351, 31.164526876892968 ], [ -91.600630858051687, 31.164867047861009 ], [ -91.600418979684292, 31.165028031600436 ], [ -91.600176246215668, 31.165045927811075 ], [ -91.599063371763108, 31.164571719287313 ], [ -91.598862782959898, 31.164356032666415 ], [ -91.598898305617084, 31.164081551851414 ] ] ] ] } },
{ "type": "Feature", "properties": { "depth_bin": "50-55 ft", "bin_order": -52.5, "survey_id": "LM_01_GCB_20160901_CS_3200_3214", "date": "2016-09-01", "year": 2016, "mile": 321.0 }, "geometry": { "type": "MultiPolygon", "coordinates": [ [ [ [ -91.611739098463431, 31.152457979710437 ], [ -91.611945916100666, 31.152246705032706 ], [ -91.612265867677039, 31.152223081620107 ], [ -91.61251153147461, 31.152400947678906 ], [ -91.61253900118966, 31.152676112356261 ], [ -91.612332183859408, 31.152887387984535 ], [ -91.612012230053892, 31.152911011493945 ], [ -91.611766565949324, 31.152733144484593 ], [ -91.611739098463431, 31.152457979710437 ] ] ], [ [ [ -91.597861482235601, 31.152957712024882 ], [ -91.598068330898784, 31.15274646061059 ], [ -91.598388286211815, 31.152722871845466 ], [ -91.598633924268114, 31.152900763640353 ], [ -91.598661353841862, 31.153175930066705 ], [ -91.598454505484341, 31.15338718243169 ], [ -91.598134547941896, 31.153410771292762 ], [ -91.597888909579936, 31.153232878547147 ], [ -91.597861482235601, 31.152957712024882 ] ] ], [ [ [ -91.606962973219225, 31.156221407061068 ], [ -91.607207251427198, 31.155995404286347 ], [ -91.607528366765138, 31.155998877676982 ], [ -91.60785423882605, 31.156256500340742 ], [ -91.607867337289406, 31.156564854203204 ], [ -91.607637417619998, 31.156757669528449 ], [ -91.607316299708671, 31.156754196334084 ], [ -91.60699042750872, 31.156496572320378 ], [ -91.606962973219225, 31.156221407061068 ] ] ], [ [ [ -91.603974881708325, 31.157593732094156 ], [ -91.604181727690289, 31.157382470899261 ], [ -91.604501697729248, 31.157358867374288 ], [ -91.604747359292631, 31.157536748075891 ], [ -91.604774807384985, 31.157811913573887 ], [ -91.604567961709336, 31.158023175719581 ], [ -91.604247989440552, 31.158046779340918 ], [ -91.604002327570839, 31.157868897688495 ], [ -91.603974881708325, 31.157593732094156 ] ] ], [ [ [ -91.593830961749589, 31.158179044844964 ], [ -91.59403783090923, 31.157967800682272 ], [ -91.594357804416347, 31.15794422251026 ], [ -91.59460344770693, 31.158122122034637 ], [ -91.594630866488799, 31.158397288799186 ], [ -91.59442399763455, 31.158608533912826 ], [ -91.594104021897365, 31.158632112180538 ], [ -91.593858378301405, 31.158454211705195 ], [ -91.593830961749589, 31.158179044844964 ] ] ], [ [ [ -91.60215282656489, 31.159671727751679 ], [ -91.602359681174292, 31.159460469806326 ], [ -91.602679658488483, 31.159436871039901 ], [ -91.602925321713343, 31.159614755221682 ], [ -91.60295276488003, 31.159889920882883 ], [ -91.602745910576814, 31.160101179779137 ], [ -91.602425931032542, 31.160124778641805 ], [ -91.602180267501495, 31.159946893509115 ], [ -91.60215282656489, 31.159671727751679 ] ] ], [ [ [ -91.598596938348251, 31.163986431669983 ], [ -91.598826893733474, 31.163793633772045 ], [ -91.599148034220462, 31.163797128842525 ], [ -91.599495868501933, 31.164028111521844 ], [ -91.599508939906642, 31.164336465097655 ], [ -91.599278984497829, 31.164529264200564 ], [ -91.598957841523273, 31.16452576938325 ], [ -91.59861000683631, 31.164294785251791 ], [ -91.598596938348251, 31.163986431669983 ] ] ] ] } }
]
}
