{
"type": "FeatureCollection",
"name": "LM_11_YBS_20250528_CS_5414_5406_depth_polygons",
"crs": { "type": "name", "properties": { "name": "urn:ogc:def:crs:OGC:1.3:CRS84" } },
"features": [
{ "type": "Feature", "properties": { "depth_bin": "10-11 ft", "survey_id": "LM_11_YBS_20250528_CS_5414_5406", "date": "2025-05-28 00:00:00+00:00", "year": 2025, "mile": 541.0, "bin_order": 7 }, "geometry": { "type": "MultiPolygon", "coordinates": [ [ [ [ -91.11131631987341, 33.404636570617733 ], [ -91.112136148343808, 33.404591172668233 ], [ -91.112381912973049, 33.404719861436675 ], [ -91.112471719875373, 33.404985418752034 ], [ -91.112343113516644, 33.405203168707942 ], [ -91.112120844034507, 33.405298505490848 ], [ -91.111426914031895, 33.405351014290027 ], [ -91.11108301095004, 33.405241863815711 ], [ -91.110962606054386, 33.404984966958736 ], [ -91.111094050835717, 33.40473190557946 ], [ -91.11131631987341, 33.404636570617733 ] ] ], [ [ [ -91.113303291515095, 33.407364671246924 ], [ -91.113605026172195, 33.407474911348942 ], [ -91.113724135901776, 33.407696429928563 ], [ -91.113648651070349, 33.407931039956033 ], [ -91.113412839113678, 33.408072233072851 ], [ -91.111865193049354, 33.408208454659146 ], [ -91.111611313348803, 33.408158678441879 ], [ -91.111166255412499, 33.408246344539414 ], [ -91.110928703615713, 33.408181935457307 ], [ -91.110760360427719, 33.407984158567722 ], [ -91.110798562351292, 33.407709991584618 ], [ -91.111056725992214, 33.407538781379721 ], [ -91.111561492443613, 33.407567965081377 ], [ -91.111916438336124, 33.407465541231396 ], [ -91.112925440445323, 33.40744862693856 ], [ -91.113303291515095, 33.407364671246924 ] ] ], [ [ [ -91.113336619887193, 33.41047441356708 ], [ -91.113594787263665, 33.410303198261708 ], [ -91.113921695923452, 33.410335230440175 ], [ -91.114125848920835, 33.410551746317097 ], [ -91.114087655716375, 33.410825914529944 ], [ -91.113829487657682, 33.410997130827653 ], [ -91.113502576574561, 33.410965098323423 ], [ -91.113298424259384, 33.410748581454158 ], [ -91.113336619887193, 33.41047441356708 ] ] ], [ [ [ -91.117297487057144, 33.413092828816296 ], [ -91.117555655075662, 33.412921605330247 ], [ -91.117882575479527, 33.412953627446186 ], [ -91.118086744443787, 33.413170137273077 ], [ -91.118048562076069, 33.413444306992503 ], [ -91.117790393375657, 33.413615531471066 ], [ -91.117463470548046, 33.413583509029579 ], [ -91.11725930226568, 33.413366998210194 ], [ -91.117297487057144, 33.413092828816296 ] ] ], [ [ [ -91.113378898000803, 33.413360001532908 ], [ -91.113637074124995, 33.413188786511718 ], [ -91.113963993571645, 33.413220818944545 ], [ -91.114168153076491, 33.41343733489704 ], [ -91.114129958288046, 33.413711502962478 ], [ -91.113871781481549, 33.41388271897614 ], [ -91.113544859611224, 33.413850686217515 ], [ -91.113340700788683, 33.413634169272562 ], [ -91.113378898000803, 33.413360001532908 ] ] ], [ [ [ -91.11510792504005, 33.41607161893446 ], [ -91.115366106243414, 33.415900400545709 ], [ -91.115693036670649, 33.415932428784203 ], [ -91.115897206625476, 33.416148942172491 ], [ -91.11585901563501, 33.416423110806036 ], [ -91.11560083374944, 33.41659433018738 ], [ -91.11527390089816, 33.416562301623195 ], [ -91.115069731625539, 33.416345787242307 ], [ -91.11510792504005, 33.41607161893446 ] ] ], [ [ [ -91.11124352492341, 33.410578125943104 ], [ -91.111520463200534, 33.410428962233468 ], [ -91.111842052871907, 33.410487718695485 ], [ -91.112019912656024, 33.410719976953487 ], [ -91.111949853895979, 33.410989683913151 ], [ -91.111754017103721, 33.411119556655265 ], [ -91.111546776160623, 33.411142122031706 ], [ -91.111351322561802, 33.41108009155721 ], [ -91.111198209514882, 33.410919091544628 ], [ -91.110975261630273, 33.411158967463528 ], [ -91.110448103830024, 33.411228517464842 ], [ -91.110210544618468, 33.411164106769164 ], [ -91.110055690773947, 33.41099986393408 ], [ -91.110061670105225, 33.410723876951181 ], [ -91.110298591576907, 33.410532270304223 ], [ -91.11087100553992, 33.410485476112925 ], [ -91.111177944209714, 33.410702679448953 ], [ -91.11124352492341, 33.410578125943104 ] ] ], [ [ [ -91.10930049384757, 33.413674329197981 ], [ -91.109558678517843, 33.413503122992552 ], [ -91.110008668965705, 33.41352201998636 ], [ -91.110237142370821, 33.413720718201482 ], [ -91.110231162915085, 33.413996705078908 ], [ -91.109954243608172, 33.414199627219915 ], [ -91.109504249692094, 33.414180729908011 ], [ -91.109275776871669, 33.413982030372452 ], [ -91.10930049384757, 33.413674329197981 ] ] ], [ [ [ -91.108746847880226, 33.416564469583832 ], [ -91.109005042422623, 33.416393264946088 ], [ -91.109331971514507, 33.41642530994082 ], [ -91.109536126241764, 33.416641833275285 ], [ -91.109497915051151, 33.416915999218524 ], [ -91.109239719825908, 33.417087204848777 ], [ -91.108912788310079, 33.417055159527941 ], [ -91.108708634265682, 33.416838635200968 ], [ -91.108746847880226, 33.416564469583832 ] ] ] ] } },
{ "type": "Feature", "properties": { "depth_bin": "11-12 ft", "survey_id": "LM_11_YBS_20250528_CS_5414_5406", "date": "2025-05-28 00:00:00+00:00", "year": 2025, "mile": 541.0, "bin_order": 6 }, "geometry": { "type": "MultiPolygon", "coordinates": [ [ [ [ -91.11278811819048, 33.404720130477898 ], [ -91.113025016963732, 33.404528517662264 ], [ -91.113354073211255, 33.404533523171381 ], [ -91.113582532020203, 33.40473221493496 ], [ -91.113576565179955, 33.405008202745613 ], [ -91.113339666210365, 33.405199816597865 ], [ -91.113010607453703, 33.405194810962804 ], [ -91.112782148841092, 33.404996118162622 ], [ -91.11278811819048, 33.404720130477898 ] ] ], [ [ [ -91.113132739242431, 33.407461252992697 ], [ -91.113507995378342, 33.407338681628957 ], [ -91.113767625573189, 33.407446543994951 ], [ -91.113886735688425, 33.407668062432471 ], [ -91.113833599186876, 33.4078726498797 ], [ -91.113575439687992, 33.408043866014779 ], [ -91.113304438817693, 33.408033282514005 ], [ -91.113013464428093, 33.408157135470908 ], [ -91.112769528151659, 33.408112568304063 ], [ -91.112565384041332, 33.407896050431653 ], [ -91.112603580265628, 33.407621882688069 ], [ -91.11282175584094, 33.407461985707073 ], [ -91.113132739242431, 33.407461252992697 ] ] ], [ [ [ -91.117579665050926, 33.410150806280143 ], [ -91.117837823546651, 33.409979581805281 ], [ -91.118164733114838, 33.410011602809142 ], [ -91.118368896277687, 33.410228112052089 ], [ -91.11833071654128, 33.41050228205772 ], [ -91.118072557363774, 33.410673507524983 ], [ -91.117745645372182, 33.41064148619563 ], [ -91.117541482891113, 33.410424975960282 ], [ -91.117579665050926, 33.410150806280143 ] ] ], [ [ [ -91.113179384512506, 33.410458363054929 ], [ -91.113437552132297, 33.410287148085736 ], [ -91.113764460653769, 33.410319180674762 ], [ -91.113968613212236, 33.410535696796124 ], [ -91.11393041952536, 33.410809864944092 ], [ -91.113672251223363, 33.410981080905643 ], [ -91.113345340278556, 33.410949047990847 ], [ -91.113141188402309, 33.410732530877134 ], [ -91.113179384512506, 33.410458363054929 ] ] ], [ [ [ -91.111970727418424, 33.410412772152561 ], [ -91.112230364513863, 33.410520637941737 ], [ -91.11234404068054, 33.410707059442643 ], [ -91.112315064936311, 33.410915029285505 ], [ -91.112116617661925, 33.411092090583537 ], [ -91.110889974112666, 33.411183890372428 ], [ -91.11055701387653, 33.410989880979756 ], [ -91.110530707447211, 33.410714731477114 ], [ -91.110744093379424, 33.410504570837766 ], [ -91.111970727418424, 33.410412772152561 ] ] ], [ [ [ -91.118108532076761, 33.413009681126539 ], [ -91.118366698332309, 33.412838455884994 ], [ -91.118693618830179, 33.412870475862107 ], [ -91.118897789690394, 33.41308698441965 ], [ -91.118859609909961, 33.413361154482843 ], [ -91.118601442972604, 33.413532380716916 ], [ -91.118274520050974, 33.413500360414339 ], [ -91.118070349872582, 33.413283850864261 ], [ -91.118108532076761, 33.413009681126539 ] ] ], [ [ [ -91.113196166804826, 33.413400387214715 ], [ -91.113433089253618, 33.413208774669272 ], [ -91.113762178308974, 33.413213780238721 ], [ -91.113990659840454, 33.413412471817374 ], [ -91.113984692326824, 33.413688459306428 ], [ -91.113747769681652, 33.413880072888809 ], [ -91.113418678116091, 33.413875067193445 ], [ -91.113190196780977, 33.41367637457784 ], [ -91.113196166804826, 33.413400387214715 ] ] ], [ [ [ -91.115375793313319, 33.415901902269155 ], [ -91.115687745176146, 33.416065217429612 ], [ -91.115720171020129, 33.416404150970941 ], [ -91.115483244346549, 33.416595767665719 ], [ -91.114988120372246, 33.416612066581791 ], [ -91.11475962845428, 33.416413376564968 ], [ -91.114765594133132, 33.416137389073981 ], [ -91.114964048233944, 33.415960323885962 ], [ -91.115375793313319, 33.415901902269155 ] ] ], [ [ [ -91.111483418784573, 33.404795430215714 ], [ -91.111720320512447, 33.404603820002983 ], [ -91.112049376796108, 33.404608828982006 ], [ -91.112277832701565, 33.404807523049911 ], [ -91.112271861718924, 33.405083510649476 ], [ -91.112034959794556, 33.405275121898811 ], [ -91.111705901001741, 33.405270112793765 ], [ -91.111477445292763, 33.40507141768925 ], [ -91.111483418784573, 33.404795430215714 ] ] ], [ [ [ -91.111675532947103, 33.407509719173795 ], [ -91.112029552864669, 33.407675420408502 ], [ -91.112061962948189, 33.40801435473243 ], [ -91.111785067390642, 33.408217281965001 ], [ -91.111330673712501, 33.408204932056179 ], [ -91.111102211538906, 33.408006236109209 ], [ -91.11110818688212, 33.407730248826162 ], [ -91.111306628132326, 33.407553188854656 ], [ -91.111675532947103, 33.407509719173795 ] ] ], [ [ [ -91.11045555027124, 33.41343253928153 ], [ -91.110735298436907, 33.413495855373938 ], [ -91.110890157802032, 33.413660097498258 ], [ -91.110910113728949, 33.413868812171515 ], [ -91.110788438975817, 33.414051649891803 ], [ -91.110566144895159, 33.414146982906665 ], [ -91.110035113865692, 33.414192885176178 ], [ -91.109691178400183, 33.414083729824078 ], [ -91.109570766765131, 33.413826831677078 ], [ -91.109702230122252, 33.413573772725414 ], [ -91.109924523577376, 33.413478441233174 ], [ -91.11045555027124, 33.41343253928153 ] ] ] ] } },
{ "type": "Feature", "properties": { "depth_bin": "12-13 ft", "survey_id": "LM_11_YBS_20250528_CS_5414_5406", "date": "2025-05-28 00:00:00+00:00", "year": 2025, "mile": 541.0, "bin_order": 5 }, "geometry": { "type": "MultiPolygon", "coordinates": [ [ [ [ -91.117961846721812, 33.407197122458633 ], [ -91.118198741619949, 33.407005499667413 ], [ -91.118527808186613, 33.4070104917813 ], [ -91.118756285464414, 33.407209174576479 ], [ -91.118750334424263, 33.407485163099203 ], [ -91.118513439330286, 33.407676786927134 ], [ -91.118184370254141, 33.407671794687666 ], [ -91.117955893172166, 33.407473110855761 ], [ -91.117961846721812, 33.407197122458633 ] ] ], [ [ [ -91.115956650600822, 33.407174226192545 ], [ -91.116152099221765, 33.407236249251596 ], [ -91.116306958598301, 33.407400484734623 ], [ -91.116333873631902, 33.407574288975141 ], [ -91.116234173972174, 33.407766253227152 ], [ -91.116024114716055, 33.407879409953651 ], [ -91.115616721776732, 33.407924769943733 ], [ -91.115303552631474, 33.407839870230177 ], [ -91.115153688997921, 33.407594113362578 ], [ -91.115254917858934, 33.40733146094103 ], [ -91.115464976692905, 33.407218305497004 ], [ -91.115956650600822, 33.407174226192545 ] ] ], [ [ [ -91.11358540573319, 33.40732148792987 ], [ -91.114450262984505, 33.407352491142944 ], [ -91.114661382871361, 33.40751891731324 ], [ -91.114698695812336, 33.407759895674857 ], [ -91.114545261237666, 33.407966027183299 ], [ -91.114312914740268, 33.40804263629115 ], [ -91.113611991973414, 33.408041583097628 ], [ -91.113282487165165, 33.40790469178895 ], [ -91.113192675202257, 33.407639134987043 ], [ -91.113353060227752, 33.407398095277109 ], [ -91.11358540573319, 33.40732148792987 ] ] ], [ [ [ -91.113233652681586, 33.41029765476415 ], [ -91.113636344784766, 33.410337113655878 ], [ -91.113820949730282, 33.410639843772195 ], [ -91.113657724874315, 33.410916196817219 ], [ -91.113218003794287, 33.411023436381576 ], [ -91.112916257618778, 33.410913194983642 ], [ -91.112795840237396, 33.410656299664907 ], [ -91.112927289165881, 33.410403236674419 ], [ -91.113233652681586, 33.41029765476415 ] ] ], [ [ [ -91.117459510042679, 33.413068693377873 ], [ -91.117717677685988, 33.412897469540155 ], [ -91.118044598080573, 33.412929491227878 ], [ -91.118248767406897, 33.413146000800815 ], [ -91.118210585560504, 33.41342017058934 ], [ -91.117952417235315, 33.413591395419587 ], [ -91.117625494416984, 33.413559373406343 ], [ -91.11742132577254, 33.413342862840899 ], [ -91.117459510042679, 33.413068693377873 ] ] ], [ [ [ -91.11269990076984, 33.413262068132561 ], [ -91.113642478795867, 33.413263075096388 ], [ -91.113833142669762, 33.413446056828384 ], [ -91.113853105641837, 33.413654771280171 ], [ -91.113699658052653, 33.413860901122675 ], [ -91.113509146668619, 33.413932950549196 ], [ -91.112768330842854, 33.413977605445787 ], [ -91.112438805504183, 33.413840711278112 ], [ -91.112348990929149, 33.413575153981228 ], [ -91.11250938996946, 33.413334116046215 ], [ -91.11269990076984, 33.413262068132561 ] ] ], [ [ [ -91.11504760538287, 33.415957560017098 ], [ -91.115359556783744, 33.416120875987467 ], [ -91.115391981357462, 33.416459809567783 ], [ -91.115115065378191, 33.416662743307711 ], [ -91.114667145093662, 33.41666102734893 ], [ -91.114438653813934, 33.416462336763118 ], [ -91.114444620519208, 33.416186349325365 ], [ -91.114643075362707, 33.416009284679269 ], [ -91.11504760538287, 33.415957560017098 ] ] ], [ [ [ -91.113520104140477, 33.404460823922768 ], [ -91.113791081023834, 33.404546823242228 ], [ -91.113935501755805, 33.404757483261392 ], [ -91.113887801640402, 33.404997169179026 ], [ -91.113669634317375, 33.405157068381079 ], [ -91.113056820625957, 33.405245558469609 ], [ -91.112483822249914, 33.405205327250854 ], [ -91.112200095265422, 33.405289775971831 ], [ -91.11196255055026, 33.405225369097543 ], [ -91.111807703283276, 33.405061128556397 ], [ -91.111813675728499, 33.404785141029777 ], [ -91.112050576733253, 33.404593530159261 ], [ -91.112419491257342, 33.404615319329125 ], [ -91.112619190270735, 33.404536522499647 ], [ -91.113520104140477, 33.404460823922768 ] ] ], [ [ [ -91.112299423490086, 33.410390482458475 ], [ -91.112611350001345, 33.410553804603701 ], [ -91.112643762865176, 33.410892738743556 ], [ -91.11236685912246, 33.411095666913035 ], [ -91.111915107284361, 33.411087341506843 ], [ -91.11168663650156, 33.410888646412275 ], [ -91.111692610649584, 33.41061265916445 ], [ -91.111929528378795, 33.410421049260982 ], [ -91.112299423490086, 33.410390482458475 ] ] ], [ [ [ -91.1089106342409, 33.416568007019094 ], [ -91.109168828489516, 33.416396802029368 ], [ -91.109495757676399, 33.416428846594719 ], [ -91.109699912831758, 33.416645369673915 ], [ -91.109661702151627, 33.416919535685544 ], [ -91.109403507220151, 33.417090741667764 ], [ -91.109076575609322, 33.41705869677633 ], [ -91.108872421136795, 33.416842172704634 ], [ -91.1089106342409, 33.416568007019094 ] ] ] ] } },
{ "type": "Feature", "properties": { "depth_bin": "13-14 ft", "survey_id": "LM_11_YBS_20250528_CS_5414_5406", "date": "2025-05-28 00:00:00+00:00", "year": 2025, "mile": 541.0, "bin_order": 4 }, "geometry": { "type": "MultiPolygon", "coordinates": [ [ [ [ -91.116285758287162, 33.407151730487307 ], [ -91.116545391662328, 33.407259587140388 ], [ -91.11666450873453, 33.407481103153906 ], [ -91.116589031939327, 33.407715715263052 ], [ -91.1163932092864, 33.407845595898102 ], [ -91.116022226225496, 33.407877831955219 ], [ -91.115779021070409, 33.407782925086657 ], [ -91.115498843495971, 33.407936471569066 ], [ -91.114439603877713, 33.408034864414766 ], [ -91.114202049918731, 33.40797046153785 ], [ -91.114047193678658, 33.407806223543474 ], [ -91.114053159663797, 33.407530235782517 ], [ -91.114290063719352, 33.407338620802221 ], [ -91.115430393211795, 33.407220934483789 ], [ -91.115715701095553, 33.407318218572712 ], [ -91.115914778166953, 33.407183966328354 ], [ -91.116285758287162, 33.407151730487307 ] ] ], [ [ [ -91.115460103534105, 33.410302447100783 ], [ -91.115718266435636, 33.410131227204992 ], [ -91.116045175512923, 33.410163253789726 ], [ -91.116249333575695, 33.410379766346225 ], [ -91.116211147117454, 33.410653935457056 ], [ -91.11595298353393, 33.410825156345226 ], [ -91.115626072033294, 33.410793129434872 ], [ -91.115421914652515, 33.410576615885979 ], [ -91.115460103534105, 33.410302447100783 ] ] ], [ [ [ -91.117945635303286, 33.413005957208718 ], [ -91.118203801850456, 33.412834732317101 ], [ -91.118530722253254, 33.412866752721207 ], [ -91.118734892687357, 33.413083261532712 ], [ -91.118696712399412, 33.413357431528034 ], [ -91.11843854517042, 33.413528657412172 ], [ -91.118111622343875, 33.413496636682574 ], [ -91.117907452591595, 33.413280126878547 ], [ -91.117945635303286, 33.413005957208718 ] ] ], [ [ [ -91.114680143036821, 33.415976112878631 ], [ -91.114917718911414, 33.416040515537745 ], [ -91.115072590696897, 33.416204752808412 ], [ -91.115092556948596, 33.416413467098828 ], [ -91.114970886944505, 33.416596309036251 ], [ -91.114748590436236, 33.416691649446783 ], [ -91.11417207810652, 33.416719503738562 ], [ -91.113870311254274, 33.416609264025034 ], [ -91.113749883985591, 33.416352369481871 ], [ -91.113881339607701, 33.41609930590392 ], [ -91.114103635444209, 33.416003967020238 ], [ -91.114680143036821, 33.415976112878631 ] ] ], [ [ [ -91.113283059733931, 33.404688191420796 ], [ -91.113519957376781, 33.40449657761733 ], [ -91.113849013597829, 33.40450158180969 ], [ -91.114077473499748, 33.404700272698889 ], [ -91.114071508231689, 33.404976260589734 ], [ -91.113834610392544, 33.405167875429797 ], [ -91.113505551662357, 33.405162871111536 ], [ -91.113277091956732, 33.404964179185733 ], [ -91.113283059733931, 33.404688191420796 ] ] ], [ [ [ -91.112581962727347, 33.404534905712588 ], [ -91.112893869407273, 33.404698226576357 ], [ -91.112926282332097, 33.405037160907447 ], [ -91.112649398487335, 33.405240090565016 ], [ -91.112195711688813, 33.405242964661376 ], [ -91.111967254886935, 33.405044270421875 ], [ -91.111973226823849, 33.404768282869085 ], [ -91.112171659347439, 33.404591221134638 ], [ -91.112581962727347, 33.404534905712588 ] ] ], [ [ [ -91.112740809780931, 33.410344365649721 ], [ -91.11315785308571, 33.410340034391872 ], [ -91.113375866086216, 33.410442070481494 ], [ -91.113494978899539, 33.4106635893027 ], [ -91.113419490491907, 33.410898198972646 ], [ -91.113100703357489, 33.411051924352115 ], [ -91.11269866705554, 33.410999138955582 ], [ -91.11240509361302, 33.411090789482508 ], [ -91.112167533138845, 33.411026382497873 ], [ -91.111989672366732, 33.410794124426772 ], [ -91.112059730817435, 33.410524417426707 ], [ -91.112295551665753, 33.410383227246086 ], [ -91.112612371680541, 33.410411071728753 ], [ -91.112740809780931, 33.410344365649721 ] ] ], [ [ [ -91.112577425272789, 33.413277148371328 ], [ -91.112949131384298, 33.413412947024554 ], [ -91.113021003556241, 33.413747584429636 ], [ -91.112769142365224, 33.413972298276228 ], [ -91.112318789473662, 33.41399107616995 ], [ -91.112068187788438, 33.413812119444593 ], [ -91.112041876167581, 33.413536970183806 ], [ -91.112218679533498, 33.413344448844747 ], [ -91.112577425272789, 33.413277148371328 ] ] ], [ [ [ -91.110992467340864, 33.413370495231277 ], [ -91.111230033134831, 33.413434904638358 ], [ -91.11136754492604, 33.41356688191 ], [ -91.111411799826854, 33.413772951042574 ], [ -91.111337833405628, 33.413936870166609 ], [ -91.110895780104016, 33.414121804961603 ], [ -91.110607982857218, 33.41415057687469 ], [ -91.110412523363166, 33.414088544735129 ], [ -91.11023466155261, 33.413856284199504 ], [ -91.110304728315811, 33.413586578594426 ], [ -91.110500572876902, 33.413456708461098 ], [ -91.110992467340864, 33.413370495231277 ] ] ], [ [ [ -91.109662271524044, 33.416357518476524 ], [ -91.109974213553784, 33.416520847684815 ], [ -91.11000661719153, 33.41685978192325 ], [ -91.109729687959955, 33.417062703136061 ], [ -91.109279022190293, 33.417065656236908 ], [ -91.109050542672179, 33.416866956126036 ], [ -91.109056526513356, 33.416590969564751 ], [ -91.10925499283141, 33.416413913972022 ], [ -91.109662271524044, 33.416357518476524 ] ] ] ] } },
{ "type": "Feature", "properties": { "depth_bin": "14-15 ft", "survey_id": "LM_11_YBS_20250528_CS_5414_5406", "date": "2025-05-28 00:00:00+00:00", "year": 2025, "mile": 541.0, "bin_order": 3 }, "geometry": { "type": "MultiPolygon", "coordinates": [ [ [ [ -91.113446047128321, 33.404663395259725 ], [ -91.113682944358573, 33.404471781129182 ], [ -91.114012000517064, 33.404476784886057 ], [ -91.114240460743119, 33.404675475486428 ], [ -91.114234495996016, 33.404951463404309 ], [ -91.113997598569483, 33.405143078571456 ], [ -91.11366853990188, 33.405138074688693 ], [ -91.113440079872092, 33.404939383051712 ], [ -91.113446047128321, 33.404663395259725 ] ] ], [ [ [ -91.117799560660387, 33.407238245036552 ], [ -91.118036456015872, 33.407046622573013 ], [ -91.118365522706867, 33.40705161512269 ], [ -91.118593999703151, 33.407250298206513 ], [ -91.118588048140509, 33.407526286701646 ], [ -91.118351152589184, 33.40771791020191 ], [ -91.118022083388709, 33.407712917526624 ], [ -91.117793606588279, 33.407514233406083 ], [ -91.117799560660387, 33.407238245036552 ] ] ], [ [ [ -91.116612153272342, 33.407141068695928 ], [ -91.116924077081848, 33.407304379947213 ], [ -91.116956506185417, 33.407643313672757 ], [ -91.116679622693482, 33.407846252288714 ], [ -91.116227294029756, 33.407833935236695 ], [ -91.115998821179673, 33.407635247944476 ], [ -91.11600478095464, 33.407359259865508 ], [ -91.116241680424821, 33.407167640984468 ], [ -91.116612153272342, 33.407141068695928 ] ] ], [ [ [ -91.117600924756871, 33.413067820024466 ], [ -91.117877823392192, 33.412864880018091 ], [ -91.118290962608754, 33.412874971056667 ], [ -91.118541575094667, 33.413053915581436 ], [ -91.118567907225696, 33.41332906419612 ], [ -91.118316061032374, 33.413553789869212 ], [ -91.117862931895985, 33.413555017461398 ], [ -91.117594968740221, 33.413343808102852 ], [ -91.117600924756871, 33.413067820024466 ] ] ], [ [ [ -91.114030615218198, 33.416025217058319 ], [ -91.114268190682935, 33.416089620949613 ], [ -91.114423061286971, 33.416253858990679 ], [ -91.114443025983846, 33.416462573330044 ], [ -91.114289574480182, 33.416668703690014 ], [ -91.114099057287163, 33.416740753794208 ], [ -91.11335667289022, 33.416788528228558 ], [ -91.113027136145433, 33.416651635278413 ], [ -91.112937317288512, 33.416386078357249 ], [ -91.113097720299407, 33.416145039888832 ], [ -91.113288236916858, 33.416072991300382 ], [ -91.114030615218198, 33.416025217058319 ] ] ], [ [ [ -91.112663461059014, 33.410341705467204 ], [ -91.1130492362078, 33.41044629489253 ], [ -91.113159870857757, 33.410773412902159 ], [ -91.112935494806095, 33.411017748483864 ], [ -91.112485855436915, 33.41107836298572 ], [ -91.112215552948172, 33.410920868146995 ], [ -91.112157210518944, 33.410649206634524 ], [ -91.112310655628463, 33.410443078529731 ], [ -91.112663461059014, 33.410341705467204 ] ] ], [ [ [ -91.112378785212641, 33.413297894919637 ], [ -91.112596804456004, 33.413399932560743 ], [ -91.112715918918539, 33.413621452102795 ], [ -91.112640425480507, 33.413856061028994 ], [ -91.112444583011339, 33.413985934615305 ], [ -91.111091485315967, 33.414097474685946 ], [ -91.110896025556997, 33.414035443300293 ], [ -91.110741165549115, 33.413871201168909 ], [ -91.11074714336327, 33.413595214204591 ], [ -91.110984071511254, 33.413403606552784 ], [ -91.112378785212641, 33.413297894919637 ] ] ] ] } },
{ "type": "Feature", "properties": { "depth_bin": "15-17.5 ft", "survey_id": "LM_11_YBS_20250528_CS_5414_5406", "date": "2025-05-28 00:00:00+00:00", "year": 2025, "mile": 541.0, "bin_order": 2 }, "geometry": { "type": "MultiPolygon", "coordinates": [ [ [ [ -91.117539986243401, 33.404324054202483 ], [ -91.117798126996107, 33.404152829056791 ], [ -91.118125014810346, 33.404184849428781 ], [ -91.118329164950978, 33.404401358448879 ], [ -91.118290988552488, 33.404675528771115 ], [ -91.118032847118187, 33.404846754908981 ], [ -91.117705956881252, 33.404814734211577 ], [ -91.117501807422201, 33.404598224199276 ], [ -91.117539986243401, 33.404324054202483 ] ] ], [ [ [ -91.114990786605802, 33.404366950986145 ], [ -91.115261764812502, 33.404452947133244 ], [ -91.115406189037827, 33.404663605561488 ], [ -91.115377223286742, 33.404871576638357 ], [ -91.115178796348673, 33.405048643701448 ], [ -91.113949546326708, 33.405150466077608 ], [ -91.11361660123913, 33.404956465292649 ], [ -91.113590285994206, 33.404681315910871 ], [ -91.113803649328432, 33.404471149035146 ], [ -91.114990786605802, 33.404366950986145 ] ] ], [ [ [ -91.117551463591624, 33.407093082772327 ], [ -91.118204786877769, 33.407071896298866 ], [ -91.118370355299277, 33.407178829991167 ], [ -91.118461707297939, 33.407373694356764 ], [ -91.11840858164507, 33.407578284156102 ], [ -91.118109317291186, 33.407757487571985 ], [ -91.1174992714448, 33.407743668642375 ], [ -91.117295116021694, 33.40752715816447 ], [ -91.117333297230033, 33.407252988421583 ], [ -91.117551463591624, 33.407093082772327 ] ] ], [ [ [ -91.116355938408475, 33.40732074734985 ], [ -91.116614090525644, 33.407149525139872 ], [ -91.116940988926814, 33.407181548997059 ], [ -91.117145142675398, 33.407398060010408 ], [ -91.117106960792199, 33.407672229666325 ], [ -91.116848807993222, 33.407843452868597 ], [ -91.11652190716903, 33.407811428685854 ], [ -91.116317754102255, 33.407594916680232 ], [ -91.116355938408475, 33.40732074734985 ] ] ], [ [ [ -91.117421413881374, 33.410160271042038 ], [ -91.117679572700368, 33.409989046908819 ], [ -91.118006482224999, 33.410021068329129 ], [ -91.118210645002961, 33.410237577819387 ], [ -91.118172464765777, 33.410511747758328 ], [ -91.117914305264989, 33.410682972883954 ], [ -91.117587393316967, 33.410650951138159 ], [ -91.117383231220799, 33.410434440655486 ], [ -91.117421413881374, 33.410160271042038 ] ] ], [ [ [ -91.113296434094394, 33.416091964008345 ], [ -91.113542232119826, 33.416220651448292 ], [ -91.113634887684213, 33.416450895020944 ], [ -91.113532336027617, 33.416678169248598 ], [ -91.113281132516448, 33.416799295991879 ], [ -91.109770074673648, 33.417060011657163 ], [ -91.109499063923238, 33.416974002486214 ], [ -91.10935463540693, 33.416763337357501 ], [ -91.109424707653375, 33.416493632547279 ], [ -91.109701668134548, 33.416344473804976 ], [ -91.113296434094394, 33.416091964008345 ] ] ], [ [ [ -91.111886694322763, 33.413338956706539 ], [ -91.112134678942041, 33.413363258498698 ], [ -91.112324772024934, 33.413499006117519 ], [ -91.112390065409301, 33.413735757680108 ], [ -91.11229034950415, 33.413927718028219 ], [ -91.111997300657109, 33.414053399472714 ], [ -91.111734087502583, 33.41399874502757 ], [ -91.111419682163188, 33.414072717316998 ], [ -91.111190786434975, 33.41398909022179 ], [ -91.111040924937086, 33.41374332864924 ], [ -91.111142174081579, 33.413480680517907 ], [ -91.111393370556314, 33.413359557816257 ], [ -91.111698433106497, 33.413409656069767 ], [ -91.111886694322763, 33.413338956706539 ] ] ] ] } },
{ "type": "Feature", "properties": { "depth_bin": "17.5-20 ft", "survey_id": "LM_11_YBS_20250528_CS_5414_5406", "date": "2025-05-28 00:00:00+00:00", "year": 2025, "mile": 541.0, "bin_order": 1 }, "geometry": { "type": "MultiPolygon", "coordinates": [ [ [ [ -91.114738989191309, 33.404628824016115 ], [ -91.114952349721463, 33.404418655060361 ], [ -91.11528040574008, 33.404396579803226 ], [ -91.115530988247883, 33.404575529575212 ], [ -91.115557309620385, 33.404850678763104 ], [ -91.11534394938738, 33.405060848760087 ], [ -91.115015890869557, 33.405082924096071 ], [ -91.114765308064634, 33.404903973282842 ], [ -91.114738989191309, 33.404628824016115 ] ] ], [ [ [ -91.117509248681003, 33.407049303616454 ], [ -91.11778898251481, 33.407112603316008 ], [ -91.117943844867739, 33.407276836857854 ], [ -91.117963817034692, 33.407485551139395 ], [ -91.117810390491371, 33.407691686984471 ], [ -91.116882027735315, 33.407831406493223 ], [ -91.116552518138761, 33.407694523718902 ], [ -91.116462696285012, 33.407428968935847 ], [ -91.116623072067853, 33.407187924657713 ], [ -91.117509248681003, 33.407049303616454 ] ] ], [ [ [ -91.117228286475068, 33.41023098962571 ], [ -91.117441655598071, 33.410020816835868 ], [ -91.117769732459152, 33.409998735726965 ], [ -91.118020335850218, 33.410177681057256 ], [ -91.118046665913909, 33.410452829815569 ], [ -91.117833297088382, 33.410663003646853 ], [ -91.117505217727469, 33.410685084834789 ], [ -91.117254614038927, 33.410506138463063 ], [ -91.117228286475068, 33.41023098962571 ] ] ], [ [ [ -91.115607807626731, 33.410323907617894 ], [ -91.115844716309681, 33.410132289894918 ], [ -91.116173794220401, 33.41013728866298 ], [ -91.116402273756563, 33.410335975800486 ], [ -91.116396314565989, 33.410611963810084 ], [ -91.116159405686929, 33.410803582569898 ], [ -91.115830325266359, 33.410798583676069 ], [ -91.115601845926292, 33.410599895501733 ], [ -91.115607807626731, 33.410323907617894 ] ] ], [ [ [ -91.111667313853388, 33.416390901183853 ], [ -91.111904247971083, 33.416199292050912 ], [ -91.112233348015678, 33.41620430206958 ], [ -91.112461833419644, 33.416402996527992 ], [ -91.112455860393183, 33.416678983640487 ], [ -91.112218926078924, 33.416870593810486 ], [ -91.111889823523754, 33.416865583665789 ], [ -91.111661338316352, 33.416666888170319 ], [ -91.111667313853388, 33.416390901183853 ] ] ] ] } },
{ "type": "Feature", "properties": { "depth_bin": "5-6 ft", "survey_id": "LM_11_YBS_20250528_CS_5414_5406", "date": "2025-05-28 00:00:00+00:00", "year": 2025, "mile": 541.0, "bin_order": 12 }, "geometry": { "type": "MultiPolygon", "coordinates": [ [ [ [ -91.10966935568284, 33.405041542572157 ], [ -91.109857141299628, 33.404814853591041 ], [ -91.110181041457452, 33.40476592875968 ], [ -91.110451321529069, 33.40492342738267 ], [ -91.110509655664671, 33.405195089614026 ], [ -91.110321870826397, 33.405421779601113 ], [ -91.109997968275167, 33.405470704712627 ], [ -91.109727687425035, 33.405313205083665 ], [ -91.10966935568284, 33.405041542572157 ] ] ], [ [ [ -91.114867718205318, 33.410200144261495 ], [ -91.115522727987354, 33.410167062875921 ], [ -91.115712819883925, 33.410302805306593 ], [ -91.115779647434209, 33.410468866343443 ], [ -91.115726513299009, 33.410673454610347 ], [ -91.115468348754462, 33.410844674453443 ], [ -91.115017266778693, 33.410896387206883 ], [ -91.114815503078376, 33.410850727926245 ], [ -91.114611347649003, 33.410634213110285 ], [ -91.114649539100938, 33.410360044667406 ], [ -91.114867718205318, 33.410200144261495 ] ] ], [ [ [ -91.109066083812465, 33.410817170786544 ], [ -91.109279473411632, 33.410607012804277 ], [ -91.10960755347412, 33.410584953446765 ], [ -91.109858140916614, 33.410763914730964 ], [ -91.109884445223642, 33.411039064300191 ], [ -91.109671055921126, 33.411249223323985 ], [ -91.109342973358622, 33.411271282760012 ], [ -91.109092385619476, 33.411092320434271 ], [ -91.109066083812465, 33.410817170786544 ] ] ], [ [ [ -91.116772707719591, 33.413186940312393 ], [ -91.116986085489657, 33.412976768693206 ], [ -91.117314173565234, 33.412954689193249 ], [ -91.117564784169204, 33.413133635628292 ], [ -91.117591113219007, 33.413408784340085 ], [ -91.117377735746445, 33.413618957000836 ], [ -91.117049645170653, 33.413641036579804 ], [ -91.116799034269192, 33.41346208910322 ], [ -91.116772707719591, 33.413186940312393 ] ] ], [ [ [ -91.115302529447519, 33.413291220609786 ], [ -91.115515910903056, 33.413081051657478 ], [ -91.115843999550862, 33.413058976075455 ], [ -91.116094607278654, 33.41323792538445 ], [ -91.11612093168857, 33.413513074242722 ], [ -91.115907550530366, 33.413723244236593 ], [ -91.115579459382317, 33.413745319897565 ], [ -91.115328851357191, 33.413566369546999 ], [ -91.115302529447519, 33.413291220609786 ] ] ] ] } },
{ "type": "Feature", "properties": { "depth_bin": "6-7 ft", "survey_id": "LM_11_YBS_20250528_CS_5414_5406", "date": "2025-05-28 00:00:00+00:00", "year": 2025, "mile": 541.0, "bin_order": 11 }, "geometry": { "type": "MultiPolygon", "coordinates": [ [ [ [ -91.117669744232231, 33.404361594543566 ], [ -91.117883097265704, 33.404151420265634 ], [ -91.118211151920164, 33.404129337192018 ], [ -91.118461739995354, 33.404308281231856 ], [ -91.118488070605679, 33.404583430129733 ], [ -91.118274717869625, 33.404793605448845 ], [ -91.117946660716044, 33.404815688601516 ], [ -91.117696072343449, 33.40463674352047 ], [ -91.117669744232231, 33.404361594543566 ] ] ], [ [ [ -91.117890129888735, 33.410135838089381 ], [ -91.118127033242061, 33.409944215806114 ], [ -91.118456110875883, 33.409949208496009 ], [ -91.118684595350118, 33.410147891597845 ], [ -91.118678643420054, 33.410423879978339 ], [ -91.118441739870889, 33.41061550329843 ], [ -91.118112659727217, 33.410610510482933 ], [ -91.117884175448836, 33.410411826344266 ], [ -91.117890129888735, 33.410135838089381 ] ] ], [ [ [ -91.115180993627121, 33.410242626021677 ], [ -91.115474025179338, 33.410116936368482 ], [ -91.115787202579028, 33.410201835914293 ], [ -91.115937072151411, 33.410447592137892 ], [ -91.115835841232297, 33.410710244936702 ], [ -91.115542808122584, 33.41083593538211 ], [ -91.115219493917905, 33.41074304623897 ], [ -91.115055774610269, 33.410866915752941 ], [ -91.114731816796038, 33.410930471221569 ], [ -91.114360118031357, 33.410794678135645 ], [ -91.114270300210322, 33.410529122012015 ], [ -91.114430688040329, 33.410288081096311 ], [ -91.114825574494063, 33.410186318850144 ], [ -91.115180993627121, 33.410242626021677 ] ] ], [ [ [ -91.115158562676456, 33.413268793178247 ], [ -91.115395480627583, 33.413077176714907 ], [ -91.115724569558864, 33.413082177061689 ], [ -91.115953055412533, 33.413280865172233 ], [ -91.115947094135649, 33.413556852979276 ], [ -91.115710175988369, 33.413748470479575 ], [ -91.115381084546868, 33.413743470006999 ], [ -91.115152598889367, 33.413544780859517 ], [ -91.115158562676456, 33.413268793178247 ] ] ], [ [ [ -91.116231802992289, 33.415875495267805 ], [ -91.116540517156494, 33.416095927688339 ], [ -91.116515824548358, 33.416403631064284 ], [ -91.116216525337734, 33.416582828472748 ], [ -91.115766478501314, 33.416540645758182 ], [ -91.115562308013011, 33.416324132146762 ], [ -91.115600499873153, 33.416049963631636 ], [ -91.115858680093979, 33.415878744180311 ], [ -91.116231802992289, 33.415875495267805 ] ] ], [ [ [ -91.11042323466144, 33.40472383016391 ], [ -91.1107772409772, 33.404889534563914 ], [ -91.110809645683034, 33.405228469151957 ], [ -91.110532756519973, 33.405431393882367 ], [ -91.110079262481733, 33.405422799305661 ], [ -91.109850810245703, 33.40522410132472 ], [ -91.109856788915408, 33.404948114117296 ], [ -91.110055225993662, 33.40477105594033 ], [ -91.11042323466144, 33.40472383016391 ] ] ], [ [ [ -91.10947746004895, 33.407859540295796 ], [ -91.109714374652071, 33.407667934453066 ], [ -91.110043442106701, 33.407672949155859 ], [ -91.110271900935317, 33.407871646948493 ], [ -91.110265922915488, 33.408147634091947 ], [ -91.11002900811566, 33.408339240971401 ], [ -91.109699938151522, 33.408334226142443 ], [ -91.109471479519627, 33.408135527313071 ], [ -91.10947746004895, 33.407859540295796 ] ] ], [ [ [ -91.109243846147564, 33.410787613061316 ], [ -91.109480769518328, 33.410596008048387 ], [ -91.109809847969458, 33.410601023756939 ], [ -91.110038313582066, 33.410799722142151 ], [ -91.110032334159726, 33.411075709117966 ], [ -91.109795410592184, 33.411267315167734 ], [ -91.109466329631189, 33.411262299332996 ], [ -91.109237864215331, 33.411063599910939 ], [ -91.109243846147564, 33.410787613061316 ] ] ], [ [ [ -91.108630585642601, 33.413771289552919 ], [ -91.108867518737554, 33.41357968613169 ], [ -91.109196608324268, 33.413584703860465 ], [ -91.109425079961071, 33.413783403511026 ], [ -91.109419097922569, 33.414059390256135 ], [ -91.109182164630781, 33.414250994714308 ], [ -91.108853072533819, 33.414245976859327 ], [ -91.108624601093865, 33.414047276171807 ], [ -91.108630585642601, 33.413771289552919 ] ] ], [ [ [ -91.108079621780888, 33.416674491128759 ], [ -91.108316564242969, 33.416482889165501 ], [ -91.10864566467518, 33.416487908738844 ], [ -91.108874142282971, 33.416686609540093 ], [ -91.108868157843148, 33.416962596068018 ], [ -91.108631215184161, 33.417154199068314 ], [ -91.108302112241333, 33.417149179368714 ], [ -91.108073634830475, 33.416950477530413 ], [ -91.108079621780888, 33.416674491128759 ] ] ] ] } },
{ "type": "Feature", "properties": { "depth_bin": "7-8 ft", "survey_id": "LM_11_YBS_20250528_CS_5414_5406", "date": "2025-05-28 00:00:00+00:00", "year": 2025, "mile": 541.0, "bin_order": 10 }, "geometry": { "type": "MultiPolygon", "coordinates": [ [ [ [ -91.11016571828786, 33.404959484447595 ], [ -91.110379090293662, 33.404749323787833 ], [ -91.110707148113505, 33.404727260716498 ], [ -91.110957721693026, 33.404906219426024 ], [ -91.110984028637475, 33.405181369067748 ], [ -91.110770656928338, 33.405391530768796 ], [ -91.11044259660919, 33.405413593918688 ], [ -91.110192022733017, 33.405234634167876 ], [ -91.11016571828786, 33.404959484447595 ] ] ], [ [ [ -91.110125272515162, 33.407626022093709 ], [ -91.110511032374589, 33.407730618931325 ], [ -91.110621654453595, 33.408057738886122 ], [ -91.11039727888685, 33.408302069971064 ], [ -91.109944757665048, 33.408339445106101 ], [ -91.109674468285021, 33.408181945120894 ], [ -91.109616135237772, 33.407910282641645 ], [ -91.109803927538579, 33.407683594062426 ], [ -91.110125272515162, 33.407626022093709 ] ] ], [ [ [ -91.114137999189737, 33.410442323440364 ], [ -91.114374911297176, 33.41025070865404 ], [ -91.114703989375755, 33.41025571133612 ], [ -91.114932465724834, 33.410454401072258 ], [ -91.11492650185906, 33.410730388842872 ], [ -91.114689589555368, 33.410922004666041 ], [ -91.114360508966953, 33.410917001858117 ], [ -91.114132032814112, 33.41071831108512 ], [ -91.114137999189737, 33.410442323440364 ] ] ], [ [ [ -91.118239874147392, 33.413072384010121 ], [ -91.118453248212475, 33.412862209728431 ], [ -91.118781335677198, 33.412840126317214 ], [ -91.119031949122203, 33.413019069883326 ], [ -91.119058282800808, 33.413294218449082 ], [ -91.118844909033356, 33.413504393772293 ], [ -91.118516819068475, 33.413526477262636 ], [ -91.118266205325824, 33.413347532655017 ], [ -91.118239874147392, 33.413072384010121 ] ] ], [ [ [ -91.116948675928555, 33.413125200917072 ], [ -91.11718558971009, 33.412933580877052 ], [ -91.117514678439022, 33.412938576456639 ], [ -91.117743168176148, 33.4131372614019 ], [ -91.117737212593724, 33.413413249499762 ], [ -91.117500298616207, 33.413604870576727 ], [ -91.117171207377055, 33.41359987487148 ], [ -91.116942717835926, 33.413401188889267 ], [ -91.116948675928555, 33.413125200917072 ] ] ], [ [ [ -91.114993077487625, 33.413268763946917 ], [ -91.115229995786592, 33.413077147812565 ], [ -91.115559084686382, 33.413082148598299 ], [ -91.115787570147702, 33.41328083700062 ], [ -91.11578160834739, 33.413556824781367 ], [ -91.115544689852257, 33.413748441952656 ], [ -91.115215598442248, 33.413743441041127 ], [ -91.114987113177108, 33.413544751601847 ], [ -91.114993077487625, 33.413268763946917 ] ] ], [ [ [ -91.115400610928859, 33.416091865271873 ], [ -91.115613999347119, 33.415881696472489 ], [ -91.115942098557483, 33.415859621008636 ], [ -91.11619271426045, 33.416038570331807 ], [ -91.116219039386479, 33.416313719092052 ], [ -91.11600565126561, 33.416523888933121 ], [ -91.115677549554661, 33.416545964475937 ], [ -91.115426933554303, 33.416367014111088 ], [ -91.115400610928859, 33.416091865271873 ] ] ], [ [ [ -91.109407211176219, 33.410781863983907 ], [ -91.109644134187377, 33.410590258645442 ], [ -91.109973212647887, 33.410595273919938 ], [ -91.110201678633388, 33.410793972016833 ], [ -91.110195699729019, 33.411069959018938 ], [ -91.109958776521111, 33.411261565394248 ], [ -91.109629695550723, 33.411256549993574 ], [ -91.109401229761971, 33.411057850859848 ], [ -91.109407211176219, 33.410781863983907 ] ] ], [ [ [ -91.10927216354105, 33.413502172572215 ], [ -91.109657947888479, 33.413606772848361 ], [ -91.109768573082448, 33.413933893420506 ], [ -91.109580766419029, 33.414160581253498 ], [ -91.109096949969668, 33.414261289128504 ], [ -91.108826644391343, 33.414103786845629 ], [ -91.108768310966113, 33.413832124166568 ], [ -91.108921769854817, 33.413626000834917 ], [ -91.10927216354105, 33.413502172572215 ] ] ], [ [ [ -91.108849479133127, 33.416418280779254 ], [ -91.109161419749611, 33.416581611985457 ], [ -91.109193820227546, 33.416920546322956 ], [ -91.108916888994713, 33.417123465644849 ], [ -91.108462733472678, 33.417113520863666 ], [ -91.108234255770313, 33.41691481931074 ], [ -91.108240242204545, 33.416638832881858 ], [ -91.108477184228121, 33.416447230594727 ], [ -91.108849479133127, 33.416418280779254 ] ] ] ] } },
{ "type": "Feature", "properties": { "depth_bin": "8-9 ft", "survey_id": "LM_11_YBS_20250528_CS_5414_5406", "date": "2025-05-28 00:00:00+00:00", "year": 2025, "mile": 541.0, "bin_order": 9 }, "geometry": { "type": "MultiPolygon", "coordinates": [ [ [ [ -91.118123696513763, 33.407173014369562 ], [ -91.118360591003551, 33.406981391253666 ], [ -91.118689657509961, 33.406986382935123 ], [ -91.118918135110889, 33.407185065443457 ], [ -91.11891218458797, 33.407461053992954 ], [ -91.118675289902384, 33.407652678145581 ], [ -91.118346220886494, 33.407647686338528 ], [ -91.118117743481378, 33.407449002793477 ], [ -91.118123696513763, 33.407173014369562 ] ] ], [ [ [ -91.115279010225535, 33.410334746958 ], [ -91.11551591963034, 33.410143129889995 ], [ -91.115844997519602, 33.410148129531571 ], [ -91.116073476303598, 33.41034681724944 ], [ -91.116067516070714, 33.410622805206295 ], [ -91.1158306064698, 33.410814423311123 ], [ -91.115501526070673, 33.410809423543768 ], [ -91.115273047482802, 33.410610734789081 ], [ -91.115279010225535, 33.410334746958 ] ] ], [ [ [ -91.113887299710044, 33.410292389815666 ], [ -91.114546236447296, 33.410273221764861 ], [ -91.114711806021717, 33.41038016034647 ], [ -91.114803152708106, 33.410575027143587 ], [ -91.114750016225614, 33.410779614906083 ], [ -91.114450733479316, 33.410958808754671 ], [ -91.113835077199354, 33.410942972799852 ], [ -91.11363092408034, 33.410726456450242 ], [ -91.113669118654656, 33.410452288422782 ], [ -91.113887299710044, 33.410292389815666 ] ] ], [ [ [ -91.117133048281332, 33.413081666125557 ], [ -91.11739121657159, 33.412910442991802 ], [ -91.117718136851835, 33.412942465537867 ], [ -91.117922305369532, 33.413158975620711 ], [ -91.117884122493891, 33.413433145272045 ], [ -91.117625953521724, 33.413604369398307 ], [ -91.117299030817733, 33.413572346526713 ], [ -91.117094862981943, 33.413355835451334 ], [ -91.117133048281332, 33.413081666125557 ] ] ], [ [ [ -91.114368991951025, 33.413101375938474 ], [ -91.115396557108483, 33.413104993629091 ], [ -91.115625042241788, 33.413303682319381 ], [ -91.115619079922254, 33.413579670073268 ], [ -91.115420632759211, 33.413756736610729 ], [ -91.113909741326253, 33.413909282413833 ], [ -91.113672172021481, 33.413844878031782 ], [ -91.113534656196805, 33.413712903184312 ], [ -91.113508339946947, 33.413437754069307 ], [ -91.113721725949517, 33.413227588374113 ], [ -91.114368991951025, 33.413101375938474 ] ] ], [ [ [ -91.115275233055939, 33.416036679447856 ], [ -91.115533413841192, 33.415865460694611 ], [ -91.115860344221488, 33.415897488489591 ], [ -91.116064514528034, 33.416114001615171 ], [ -91.116026324081929, 33.416388170320687 ], [ -91.115768142614485, 33.416559390066546 ], [ -91.115441209810143, 33.416527361945853 ], [ -91.115237040185804, 33.416310847827688 ], [ -91.115275233055939, 33.416036679447856 ] ] ], [ [ [ -91.111110827996072, 33.404641284730147 ], [ -91.111306267203346, 33.404703315131833 ], [ -91.11146111289321, 33.404867556252704 ], [ -91.111488017687549, 33.405041361245964 ], [ -91.111388310729893, 33.40523332140269 ], [ -91.111178251860821, 33.405346469956299 ], [ -91.110773112850055, 33.405390014706683 ], [ -91.110459958009343, 33.405305103211063 ], [ -91.110310112315645, 33.40505934102611 ], [ -91.110411352242764, 33.404796692866555 ], [ -91.110621410682086, 33.404683545591176 ], [ -91.111110827996072, 33.404641284730147 ] ] ], [ [ [ -91.109987327241143, 33.407789328083922 ], [ -91.110245492632913, 33.407618119634549 ], [ -91.110572389605224, 33.40765016026085 ], [ -91.110776528058409, 33.407866681228967 ], [ -91.110738325972662, 33.408140848193867 ], [ -91.110480159898415, 33.408312057635442 ], [ -91.110153260503196, 33.408280016683172 ], [ -91.109949122732473, 33.408063494722875 ], [ -91.109987327241143, 33.407789328083922 ] ] ], [ [ [ -91.109587599192409, 33.41073264910677 ], [ -91.109845774329941, 33.410561441900569 ], [ -91.110172682082279, 33.410593483949064 ], [ -91.11037682603525, 33.410810005685313 ], [ -91.110338620947218, 33.411084172314418 ], [ -91.110080445127096, 33.411255380512912 ], [ -91.109753534951494, 33.411223338138413 ], [ -91.109549391681128, 33.41100681540987 ], [ -91.109587599192409, 33.41073264910677 ] ] ], [ [ [ -91.108585018549988, 33.416574631671281 ], [ -91.108843213424421, 33.416403427383102 ], [ -91.109170142473417, 33.416435472803819 ], [ -91.109374296807957, 33.41665199639116 ], [ -91.109336085104871, 33.416926162266073 ], [ -91.109077889547549, 33.417097367546752 ], [ -91.108750958074623, 33.417065321799925 ], [ -91.108546804422943, 33.416848797220069 ], [ -91.108585018549988, 33.416574631671281 ] ] ] ] } },
{ "type": "Feature", "properties": { "depth_bin": "9-10 ft", "survey_id": "LM_11_YBS_20250528_CS_5414_5406", "date": "2025-05-28 00:00:00+00:00", "year": 2025, "mile": 541.0, "bin_order": 8 }, "geometry": { "type": "MultiPolygon", "coordinates": [ [ [ [ -91.110816876578838, 33.404881672241942 ], [ -91.111030246871891, 33.40467151039725 ], [ -91.11135830431941, 33.404649445586678 ], [ -91.111608879085125, 33.40482840302144 ], [ -91.111635188079504, 33.40510355259962 ], [ -91.111421818083187, 33.405313715485597 ], [ -91.111093758136377, 33.405335780374756 ], [ -91.110843183073925, 33.405156821898721 ], [ -91.110816876578838, 33.404881672241942 ] ] ], [ [ [ -91.11041599977996, 33.407590779179813 ], [ -91.111183746190235, 33.407570388213962 ], [ -91.111373825542344, 33.407706136915444 ], [ -91.111439112767584, 33.407942888945236 ], [ -91.111339402068054, 33.408134848857323 ], [ -91.111129335962943, 33.408247997030188 ], [ -91.110724971807329, 33.408291700816001 ], [ -91.110441794886214, 33.408290136146476 ], [ -91.110254539239236, 33.408212336015794 ], [ -91.110104689551022, 33.40796657353637 ], [ -91.110205933900772, 33.407703925801471 ], [ -91.11041599977996, 33.407590779179813 ] ] ], [ [ [ -91.117715510348248, 33.410193777157708 ], [ -91.117928878243163, 33.409983603483838 ], [ -91.118256954904552, 33.409961521076269 ], [ -91.11850755924128, 33.410140465453978 ], [ -91.118533890842087, 33.410415614163767 ], [ -91.118320523244705, 33.410625788879059 ], [ -91.117992444083484, 33.410647871365697 ], [ -91.117741839449238, 33.410468925946574 ], [ -91.117715510348248, 33.410193777157708 ] ] ], [ [ [ -91.113475695239686, 33.410526987207838 ], [ -91.113689073845109, 33.410316821228335 ], [ -91.114017152278876, 33.410294750123143 ], [ -91.114267748411706, 33.410473702790618 ], [ -91.114294066637768, 33.410748851921596 ], [ -91.114080688329437, 33.410959018942556 ], [ -91.113752607395739, 33.410981090126555 ], [ -91.113502010965803, 33.410802136417608 ], [ -91.113475695239686, 33.410526987207838 ] ] ], [ [ [ -91.110297999272518, 33.410516501089639 ], [ -91.110652028297409, 33.410682206518736 ], [ -91.110684433542758, 33.411021140898384 ], [ -91.110407525036152, 33.411224064513135 ], [ -91.109954782443864, 33.411218597240136 ], [ -91.109726315979515, 33.411019898681801 ], [ -91.109732296357024, 33.410743911752306 ], [ -91.109930747454513, 33.41056685440374 ], [ -91.110297999272518, 33.410516501089639 ] ] ], [ [ [ -91.109115886259858, 33.413728874320348 ], [ -91.109352818214774, 33.41353726992881 ], [ -91.10968190773383, 33.413542286364695 ], [ -91.109910380414973, 33.413740985157105 ], [ -91.109904399921092, 33.414016971981525 ], [ -91.109667467769384, 33.414208577410001 ], [ -91.109338375740094, 33.41420356084793 ], [ -91.109109903255742, 33.414004861018562 ], [ -91.109115886259858, 33.413728874320348 ] ] ] ] } },
{ "type": "Feature", "properties": { "depth_bin": "<5 ft", "survey_id": "LM_11_YBS_20250528_CS_5414_5406", "date": "2025-05-28 00:00:00+00:00", "year": 2025, "mile": 541.0, "bin_order": 13 }, "geometry": { "type": "MultiPolygon", "coordinates": [ [ [ [ -91.129730273123556, 33.414894190007551 ], [ -91.129920975384593, 33.415077148252237 ], [ -91.129940977177156, 33.415285861416663 ], [ -91.129819339282591, 33.415468719098882 ], [ -91.129555208670425, 33.415568649700987 ], [ -91.124011300796283, 33.415990637143828 ], [ -91.122924484678776, 33.416009505922837 ], [ -91.122542297085076, 33.416105822425102 ], [ -91.122156284897628, 33.416071564998724 ], [ -91.121399076993825, 33.416186576235049 ], [ -91.120722949821953, 33.416183566517233 ], [ -91.120257483857799, 33.416291685617757 ], [ -91.119010454939811, 33.416338479800878 ], [ -91.116991093797296, 33.416537052486539 ], [ -91.116174548662656, 33.416546072370259 ], [ -91.115969492662742, 33.416426610218601 ], [ -91.115878137847631, 33.416231744148831 ], [ -91.115979375880343, 33.415969091757042 ], [ -91.116272426032836, 33.41584340096049 ], [ -91.120137193269017, 33.415579113418332 ], [ -91.120674022598664, 33.415464051475354 ], [ -91.121383090680411, 33.415467082681971 ], [ -91.122793283041915, 33.415299048615218 ], [ -91.124020180753249, 33.415272546224458 ], [ -91.127448272045683, 33.415025555240199 ], [ -91.128994517446088, 33.414859103495566 ], [ -91.129730273123556, 33.414894190007551 ] ] ], [ [ [ -91.119108937351598, 33.404118711290202 ], [ -91.119261207741502, 33.404238739760181 ], [ -91.119329346513894, 33.40444017515604 ], [ -91.119252571434558, 33.404639413296742 ], [ -91.119095226810046, 33.404754746951646 ], [ -91.118192004355649, 33.404837947316651 ], [ -91.117859050422567, 33.404643957626071 ], [ -91.117832721794443, 33.404368808665978 ], [ -91.118046074467671, 33.404158634094713 ], [ -91.118699184893231, 33.404074712052022 ], [ -91.119108937351598, 33.404118711290202 ] ] ], [ [ [ -91.118896824693394, 33.406957803339814 ], [ -91.119229789650817, 33.407151790564861 ], [ -91.11922246089506, 33.407491758574757 ], [ -91.118923198421641, 33.407670964026437 ], [ -91.118473979297505, 33.407632112063524 ], [ -91.11826982162205, 33.407415603111367 ], [ -91.118307999714801, 33.407141432954681 ], [ -91.118526164085353, 33.406981525515228 ], [ -91.118896824693394, 33.406957803339814 ] ] ], [ [ [ -91.119935854174315, 33.409902047771453 ], [ -91.12012595271996, 33.410037783661153 ], [ -91.120191265366302, 33.410274531890735 ], [ -91.120091570660747, 33.410466499354619 ], [ -91.119881509406156, 33.410579662517698 ], [ -91.118396452760308, 33.410624688535577 ], [ -91.11816755858591, 33.41054107436053 ], [ -91.118032630392221, 33.410364901043025 ], [ -91.118070810979631, 33.410090731154149 ], [ -91.118328968378151, 33.409919505615029 ], [ -91.119935854174315, 33.409902047771453 ] ] ], [ [ [ -91.119835993542566, 33.412780463621544 ], [ -91.120009318305804, 33.412931173093028 ], [ -91.120053593536568, 33.413137239864213 ], [ -91.119953894947074, 33.413329207008445 ], [ -91.119783812877941, 33.413431050365453 ], [ -91.118765646109793, 33.413521643384072 ], [ -91.118570181558994, 33.413459623946622 ], [ -91.118415307586332, 33.41329539091668 ], [ -91.118421260997366, 33.413019402705878 ], [ -91.118658171383615, 33.412827779725333 ], [ -91.119592040294933, 33.41273590933541 ], [ -91.119835993542566, 33.412780463621544 ] ] ], [ [ [ -91.110050462312188, 33.404754622956837 ], [ -91.110280001044444, 33.404902899961506 ], [ -91.110338334631876, 33.40517456225507 ], [ -91.110184894874266, 33.405380688246481 ], [ -91.109837662982457, 33.405476908356114 ], [ -91.101472186148115, 33.406122373750136 ], [ -91.10106648953456, 33.40608101149607 ], [ -91.100852875315525, 33.405829992115002 ], [ -91.100922963136028, 33.405560292277677 ], [ -91.101199901545684, 33.405411151567726 ], [ -91.108090639444811, 33.404850961179143 ], [ -91.110050462312188, 33.404754622956837 ] ] ], [ [ [ -91.109472623171285, 33.407645640898771 ], [ -91.109882351851567, 33.407686983411075 ], [ -91.110093463410692, 33.40785341707349 ], [ -91.110119768043702, 33.408128566710239 ], [ -91.109906386760628, 33.40833872650272 ], [ -91.103068984881148, 33.408872883342802 ], [ -91.102789257811665, 33.40880955062547 ], [ -91.102611426917704, 33.408577280060904 ], [ -91.10264042463443, 33.408369313199792 ], [ -91.102767949805056, 33.408230467964216 ], [ -91.103429827198511, 33.408085266499192 ], [ -91.105381225946203, 33.408008241949588 ], [ -91.109472623171285, 33.407645640898771 ] ] ], [ [ [ -91.109480109856733, 33.410602180080176 ], [ -91.109670192798973, 33.410737931469875 ], [ -91.109735477212723, 33.410974684204454 ], [ -91.109606854583717, 33.41119243057242 ], [ -91.1093845667626, 33.411287761720956 ], [ -91.104735291823388, 33.411673729376069 ], [ -91.104464303066848, 33.411587709892203 ], [ -91.104319895279986, 33.411377039467247 ], [ -91.10438997779508, 33.41110733767718 ], [ -91.104666928755606, 33.410958189761168 ], [ -91.109480109856733, 33.410602180080176 ] ] ], [ [ [ -91.116951384171898, 33.412947817347572 ], [ -91.117264059198902, 33.41300753268218 ], [ -91.117432426708419, 33.413205301445714 ], [ -91.117412973831435, 33.413447755108635 ], [ -91.117214530482073, 33.413624824659323 ], [ -91.115865253973638, 33.413736057602371 ], [ -91.115627683503277, 33.413671656931982 ], [ -91.115490164870693, 33.413539684156049 ], [ -91.115463842454105, 33.413264535234397 ], [ -91.115677223466122, 33.413054365987669 ], [ -91.116951384171898, 33.412947817347572 ] ] ], [ [ [ -91.108992258921717, 33.413563067018295 ], [ -91.109221818194811, 33.413711346534804 ], [ -91.109287103202064, 33.413948099433526 ], [ -91.109158474719123, 33.414165845043911 ], [ -91.108936178704909, 33.414261175061455 ], [ -91.105746109054692, 33.414516470955263 ], [ -91.105475110495362, 33.414430453371871 ], [ -91.105330695843023, 33.414219783963794 ], [ -91.105400777985622, 33.413950081689634 ], [ -91.105677736603354, 33.413800931837379 ], [ -91.108992258921717, 33.413563067018295 ] ] ], [ [ [ -91.107819792601532, 33.416452383367712 ], [ -91.108401978401474, 33.416483669120844 ], [ -91.108589249650862, 33.416561472517998 ], [ -91.108739108536824, 33.416807236875982 ], [ -91.10863784788684, 33.417069882521005 ], [ -91.108386636914858, 33.417190999060132 ], [ -91.107865970822019, 33.417170339435891 ], [ -91.107215443483241, 33.417274222207432 ], [ -91.106843731000126, 33.417138406177408 ], [ -91.106753930775085, 33.416872845440416 ], [ -91.106914351444885, 33.416631815623404 ], [ -91.107819792601532, 33.416452383367712 ] ] ] ] } },
{ "type": "Feature", "properties": { "depth_bin": ">20 ft", "survey_id": "LM_11_YBS_20250528_CS_5414_5406", "date": "2025-05-28 00:00:00+00:00", "year": 2025, "mile": 541.0, "bin_order": 0 }, "geometry": { "type": "MultiPolygon", "coordinates": [ [ [ [ -91.117760894136026, 33.404155832244037 ], [ -91.118062624068529, 33.404266061360303 ], [ -91.118181741356878, 33.404487576009181 ], [ -91.118106271588545, 33.404722189382795 ], [ -91.11787047536103, 33.404863391603755 ], [ -91.115298977070594, 33.405066920250199 ], [ -91.115061430369721, 33.40500251925188 ], [ -91.114893083307223, 33.404804747764217 ], [ -91.114931270411489, 33.404530578869995 ], [ -91.115189416646217, 33.404359359361941 ], [ -91.117760894136026, 33.404155832244037 ] ] ], [ [ [ -91.117523358489436, 33.409998247979644 ], [ -91.117783001823895, 33.410106102344457 ], [ -91.117902125627296, 33.410327617318828 ], [ -91.117826649279294, 33.410562230109768 ], [ -91.117630821769183, 33.410692112483908 ], [ -91.116112838662971, 33.410797852136739 ], [ -91.115917382216622, 33.410735828770804 ], [ -91.115762517987932, 33.410571592702972 ], [ -91.115768479173838, 33.410295604792317 ], [ -91.116005387439031, 33.410103986746421 ], [ -91.117523358489436, 33.409998247979644 ] ] ] ] } }
]
}
