{
"type": "FeatureCollection",
"name": "LM_12_EYB_20250522_CS_5602_5584_depth_polygons",
"crs": { "type": "name", "properties": { "name": "urn:ogc:def:crs:OGC:1.3:CRS84" } },
"features": [
{ "type": "Feature", "properties": { "depth_bin": "10-11 ft", "survey_id": "LM_12_EYB_20250522_CS_5602_5584", "date": "2025-05-22 00:00:00+00:00", "year": 2025, "mile": 559.0, "bin_order": 7 }, "geometry": { "type": "MultiPolygon", "coordinates": [ [ [ [ -91.164584478537108, 33.573626880893499 ], [ -91.164798157845553, 33.573416641570688 ], [ -91.165126848057184, 33.573394456245246 ], [ -91.165378008685252, 33.573573320721103 ], [ -91.165404513456011, 33.5738484593547 ], [ -91.165190834452815, 33.574058699724858 ], [ -91.164862141721883, 33.574080885133519 ], [ -91.164610980788581, 33.57390201961033 ], [ -91.164584478537108, 33.573626880893499 ] ] ], [ [ [ -91.167292071960517, 33.577067817329159 ], [ -91.167505753812335, 33.576857573504249 ], [ -91.167834456771146, 33.576835381411989 ], [ -91.168085632883347, 33.577014240820063 ], [ -91.168112146805043, 33.577289379053632 ], [ -91.167898465258816, 33.577499623925995 ], [ -91.167569759780307, 33.577521816101687 ], [ -91.16731858336253, 33.577342955646145 ], [ -91.167292071960517, 33.577067817329159 ] ] ], [ [ [ -91.165217288582852, 33.57933336932949 ], [ -91.165430981147992, 33.57912312952098 ], [ -91.165759692994826, 33.57910094325873 ], [ -91.16601087096349, 33.579279806895379 ], [ -91.166037378622477, 33.579554945279106 ], [ -91.165823686362771, 33.57976518613517 ], [ -91.165494971995926, 33.579787372480709 ], [ -91.165243793721856, 33.5796085077965 ], [ -91.165217288582852, 33.57933336932949 ] ] ], [ [ [ -91.163804895542171, 33.581787603667806 ], [ -91.164042188735749, 33.58159591112414 ], [ -91.164371925010187, 33.581600803994306 ], [ -91.164600951117919, 33.581799416188133 ], [ -91.164595106535273, 33.582075404114178 ], [ -91.164357813149451, 33.582267097701624 ], [ -91.164028074343562, 33.582262204708691 ], [ -91.163799048428061, 33.582063591471083 ], [ -91.163804895542171, 33.581787603667806 ] ] ], [ [ [ -91.162683730983957, 33.585083176456173 ], [ -91.162921035933394, 33.584891486549758 ], [ -91.163250784534952, 33.584896382828568 ], [ -91.163479816320304, 33.585094997205772 ], [ -91.163473967439799, 33.585370984811021 ], [ -91.16323666229799, 33.585562675761331 ], [ -91.162906911164555, 33.585557779359661 ], [ -91.162677879571589, 33.585359163938556 ], [ -91.162683730983957, 33.585083176456173 ] ] ], [ [ [ -91.161896305057368, 33.58797176858581 ], [ -91.162110027725774, 33.587761535787472 ], [ -91.162438772882538, 33.587739359518508 ], [ -91.162689967856082, 33.587918230277729 ], [ -91.162716466253528, 33.588193368741294 ], [ -91.162502743890371, 33.588403602587562 ], [ -91.162173996212474, 33.588425778939659 ], [ -91.161922800933709, 33.5882469071325 ], [ -91.161896305057368, 33.58797176858581 ] ] ], [ [ [ -91.161518661129364, 33.574958956079747 ], [ -91.161755939739734, 33.574767267260228 ], [ -91.162085649624728, 33.574772165347795 ], [ -91.162314652994738, 33.574970781196072 ], [ -91.16230880264537, 33.575246769072727 ], [ -91.162071523842556, 33.575438458935736 ], [ -91.161741811426964, 33.575433560725266 ], [ -91.161512808249384, 33.575234943833486 ], [ -91.161518661129364, 33.574958956079747 ] ] ], [ [ [ -91.158741596678666, 33.576536196513949 ], [ -91.158978885661767, 33.576344513423045 ], [ -91.159346496927881, 33.576365117605647 ], [ -91.159634359248955, 33.576658746324291 ], [ -91.159609745347751, 33.576966454403426 ], [ -91.159351152390002, 33.577137747400947 ], [ -91.159023596205714, 33.577105813866424 ], [ -91.158735734611099, 33.576812183766172 ], [ -91.158741596678666, 33.576536196513949 ] ] ], [ [ [ -91.156079571850668, 33.578397173801562 ], [ -91.15631687177067, 33.578205496245481 ], [ -91.156646593719316, 33.578210409263413 ], [ -91.156875592840578, 33.578409034963258 ], [ -91.156869724418499, 33.578685021841842 ], [ -91.156632424305485, 33.578876700441533 ], [ -91.156302699825829, 33.578871787300315 ], [ -91.156073700897593, 33.578673160556853 ], [ -91.156079571850668, 33.578397173801562 ] ] ], [ [ [ -91.144908671077147, 33.585067365288459 ], [ -91.145146013657126, 33.584875710828527 ], [ -91.145475758891351, 33.584880654468172 ], [ -91.145704748283961, 33.585079300378055 ], [ -91.145698842817069, 33.58535528521638 ], [ -91.145461500042856, 33.585546940720171 ], [ -91.145131752276853, 33.585541996956472 ], [ -91.144902763078491, 33.585343350002738 ], [ -91.144908671077147, 33.585067365288459 ] ] ] ] } },
{ "type": "Feature", "properties": { "depth_bin": "11-12 ft", "survey_id": "LM_12_EYB_20250522_CS_5602_5584", "date": "2025-05-22 00:00:00+00:00", "year": 2025, "mile": 559.0, "bin_order": 6 }, "geometry": { "type": "MultiPolygon", "coordinates": [ [ [ [ -91.164759617741495, 33.572844019715852 ], [ -91.165282592721439, 33.573462499835394 ], [ -91.165327039358772, 33.573668551826046 ], [ -91.165166465609389, 33.573909647149272 ], [ -91.164849259664734, 33.57398508312977 ], [ -91.164536656581987, 33.573821873198504 ], [ -91.164166305150886, 33.573323372478917 ], [ -91.164121861430829, 33.573117320159483 ], [ -91.164250609895845, 33.572899526091334 ], [ -91.164473264659861, 33.572804110912735 ], [ -91.164759617741495, 33.572844019715852 ] ] ], [ [ [ -91.166658699722149, 33.576241472996365 ], [ -91.166977219019401, 33.576030451376035 ], [ -91.167363794078881, 33.576134896342587 ], [ -91.16765010110295, 33.576477098890088 ], [ -91.167664781517558, 33.576702680067754 ], [ -91.167860997368749, 33.576764653835859 ], [ -91.168016244282796, 33.576928834062741 ], [ -91.168036356239966, 33.577137540293371 ], [ -91.167914553399953, 33.577320425873239 ], [ -91.167607698663829, 33.577421530969595 ], [ -91.167305309138385, 33.577311402790386 ], [ -91.167200858594313, 33.577159503918665 ], [ -91.167199717469501, 33.576967452383307 ], [ -91.166939168245605, 33.576859665610108 ], [ -91.16667026185462, 33.576549719020186 ], [ -91.166658699722149, 33.576241472996365 ] ] ], [ [ [ -91.165136677916479, 33.579188893030192 ], [ -91.165373960892381, 33.57899719751483 ], [ -91.165703687530439, 33.579002086504723 ], [ -91.165932710227736, 33.579200696182653 ], [ -91.165926870458449, 33.579476684430894 ], [ -91.165689587290487, 33.579668380989929 ], [ -91.165359858121278, 33.579663491877355 ], [ -91.165130835616068, 33.579464881155751 ], [ -91.165136677916479, 33.579188893030192 ] ] ], [ [ [ -91.152495679903922, 33.574813808051545 ], [ -91.152732977220623, 33.57462213720239 ], [ -91.153062684878108, 33.574627059307318 ], [ -91.153291666391567, 33.574825691151361 ], [ -91.153285787359223, 33.575101677632048 ], [ -91.153048489849155, 33.575293349524657 ], [ -91.152718779661157, 33.575288427296208 ], [ -91.152489798341065, 33.575089794408704 ], [ -91.152495679903922, 33.574813808051545 ] ] ], [ [ [ -91.158640065701277, 33.576427307413049 ], [ -91.15887735458972, 33.576235624511234 ], [ -91.159207069523703, 33.576240530455237 ], [ -91.159436069756126, 33.576439151496636 ], [ -91.159430209920345, 33.576715138861054 ], [ -91.15919292083916, 33.576906822806428 ], [ -91.158863203374395, 33.576901916739317 ], [ -91.158634203334714, 33.576703294654372 ], [ -91.158640065701277, 33.576427307413049 ] ] ], [ [ [ -91.153139658141356, 33.579864294690438 ], [ -91.153376968466887, 33.579672623175981 ], [ -91.153706695447781, 33.579677544214775 ], [ -91.153935691280267, 33.579876175216341 ], [ -91.153929813174727, 33.58015216157186 ], [ -91.153692502655844, 33.580343834129991 ], [ -91.153362773143783, 33.580338912967726 ], [ -91.153133777504635, 33.580140280922478 ], [ -91.153139658141356, 33.579864294690438 ] ] ], [ [ [ -91.162586591863331, 33.584971705398154 ], [ -91.162823896701454, 33.584780015671811 ], [ -91.163153644861012, 33.584784912195211 ], [ -91.163382676132599, 33.584983526738228 ], [ -91.163376826967479, 33.585259514333394 ], [ -91.163139521936969, 33.585451205103631 ], [ -91.162809771245563, 33.585446308457378 ], [ -91.162580740166362, 33.58524769287046 ], [ -91.162586591863331, 33.584971705398154 ] ] ], [ [ [ -91.142242817414953, 33.58720068309875 ], [ -91.142480171719171, 33.587009034219328 ], [ -91.142809924569676, 33.587013985238158 ], [ -91.143038913009292, 33.587212636003379 ], [ -91.143032998578164, 33.587488620329097 ], [ -91.142795644079428, 33.587680270252442 ], [ -91.14246588869689, 33.587675319109401 ], [ -91.14223690045182, 33.587476667300251 ], [ -91.142242817414953, 33.58720068309875 ] ] ], [ [ [ -91.139831484946328, 33.589201118381524 ], [ -91.140068850057958, 33.589009474559369 ], [ -91.140398610067052, 33.589014432262672 ], [ -91.140627597823112, 33.589213087424035 ], [ -91.140621675266559, 33.589489071282365 ], [ -91.140384309960112, 33.589680716148514 ], [ -91.140054547418799, 33.58967575832083 ], [ -91.139825559857513, 33.589477102115474 ], [ -91.139831484946328, 33.589201118381524 ] ] ] ] } },
{ "type": "Feature", "properties": { "depth_bin": "12-13 ft", "survey_id": "LM_12_EYB_20250522_CS_5602_5584", "date": "2025-05-22 00:00:00+00:00", "year": 2025, "mile": 559.0, "bin_order": 5 }, "geometry": { "type": "MultiPolygon", "coordinates": [ [ [ [ -91.163955030855448, 33.572821025203467 ], [ -91.164168709557202, 33.572610786926539 ], [ -91.164497396783091, 33.572588603173251 ], [ -91.164748553795263, 33.572767468826612 ], [ -91.164775056438089, 33.573042607553298 ], [ -91.164561378041498, 33.573252846877551 ], [ -91.164232688296408, 33.573275030714001 ], [ -91.163981530979058, 33.573096164013315 ], [ -91.163955030855448, 33.572821025203467 ] ] ], [ [ [ -91.158513683906236, 33.576363407154005 ], [ -91.158727384504004, 33.576153179135098 ], [ -91.159056085903288, 33.576131010356427 ], [ -91.159307241064027, 33.57630988692933 ], [ -91.159333726914795, 33.576585026124064 ], [ -91.159120026621693, 33.576795255190497 ], [ -91.158791322702683, 33.57681742405201 ], [ -91.158540167237277, 33.576638546431589 ], [ -91.158513683906236, 33.576363407154005 ] ] ], [ [ [ -91.167120266308231, 33.576835470289211 ], [ -91.167333947962504, 33.576625226748355 ], [ -91.167662650059128, 33.576603035083672 ], [ -91.167913825149512, 33.57678189481237 ], [ -91.167940338488336, 33.577057033071803 ], [ -91.167726657139639, 33.577267277660091 ], [ -91.167397952523359, 33.577289469408186 ], [ -91.1671467771274, 33.577110608632033 ], [ -91.167120266308231, 33.576835470289211 ] ] ], [ [ [ -91.155844899447999, 33.578224755334219 ], [ -91.156097150766954, 33.577999972045305 ], [ -91.156426871893288, 33.578004885622214 ], [ -91.156758924691758, 33.578267156415805 ], [ -91.156770451484988, 33.57857540208532 ], [ -91.156533151473539, 33.578767080500498 ], [ -91.15620342742919, 33.578762167108863 ], [ -91.155871374559965, 33.57849989483644 ], [ -91.155844899447999, 33.578224755334219 ] ] ], [ [ [ -91.143977581063851, 33.580680266889935 ], [ -91.144191326863819, 33.580470065692587 ], [ -91.144520046532975, 33.580447936247118 ], [ -91.144771182329507, 33.580626841624699 ], [ -91.14479762252428, 33.580901982222414 ], [ -91.144583877027529, 33.581112184467607 ], [ -91.144255154837921, 33.581134313994951 ], [ -91.14400401873813, 33.580955407569554 ], [ -91.143977581063851, 33.580680266889935 ] ] ], [ [ [ -91.163889550056368, 33.581929251412269 ], [ -91.164103252438977, 33.581719014306898 ], [ -91.164431974336367, 33.581696831926664 ], [ -91.164683156701429, 33.58187569835021 ], [ -91.164709660527237, 33.582150836793289 ], [ -91.164495958449962, 33.582361074946334 ], [ -91.164167234032234, 33.582383257409795 ], [ -91.163916051361838, 33.582204389938575 ], [ -91.163889550056368, 33.581929251412269 ] ] ], [ [ [ -91.144772213568032, 33.584986778842307 ], [ -91.145009556207668, 33.584795124644678 ], [ -91.145339301109857, 33.58480006863752 ], [ -91.145568289973212, 33.584998714784611 ], [ -91.145562384089885, 33.585274699605172 ], [ -91.145325041256015, 33.585466354846659 ], [ -91.144995293822063, 33.585461410729771 ], [ -91.144766305152956, 33.585262763538836 ], [ -91.144772213568032, 33.584986778842307 ] ] ], [ [ [ -91.161819909135005, 33.587825365291586 ], [ -91.162057223721334, 33.587633677442184 ], [ -91.162386982594327, 33.587638576373585 ], [ -91.162616019269038, 33.587837192445143 ], [ -91.162610167031588, 33.588113179794057 ], [ -91.162372852252773, 33.588304868687487 ], [ -91.162043090847575, 33.588299969633162 ], [ -91.161814054365351, 33.588101352517597 ], [ -91.161819909135005, 33.587825365291586 ] ] ] ] } },
{ "type": "Feature", "properties": { "depth_bin": "13-14 ft", "survey_id": "LM_12_EYB_20250522_CS_5602_5584", "date": "2025-05-22 00:00:00+00:00", "year": 2025, "mile": 559.0, "bin_order": 4 }, "geometry": { "type": "MultiPolygon", "coordinates": [ [ [ [ -91.157842351400063, 33.570785796669909 ], [ -91.158030394480903, 33.570559048373646 ], [ -91.158354896320219, 33.570510019074732 ], [ -91.158625769846523, 33.570667429269655 ], [ -91.158684341580482, 33.570939070915962 ], [ -91.158496299289737, 33.571165820223257 ], [ -91.158171795039195, 33.571214849807653 ], [ -91.157900920722795, 33.571057438601706 ], [ -91.157842351400063, 33.570785796669909 ] ] ], [ [ [ -91.149700633346697, 33.576743767414662 ], [ -91.149914355568811, 33.576533555395002 ], [ -91.150243059533381, 33.576511410165814 ], [ -91.150494196697764, 33.576690304043872 ], [ -91.150520654531903, 33.57696544416239 ], [ -91.15030693261356, 33.57717565722966 ], [ -91.149978226129079, 33.577197802541093 ], [ -91.149727088660939, 33.577018907615425 ], [ -91.149700633346697, 33.576743767414662 ] ] ], [ [ [ -91.155741486082349, 33.578114611432675 ], [ -91.155955197698347, 33.577904388635062 ], [ -91.156283906114709, 33.577882227479527 ], [ -91.156535060181056, 33.578061109611959 ], [ -91.156561537466857, 33.578336249046018 ], [ -91.156347826155269, 33.578546472891226 ], [ -91.156019115218925, 33.578568634129432 ], [ -91.155767960848152, 33.578389750949384 ], [ -91.155741486082349, 33.578114611432675 ] ] ], [ [ [ -91.165020643568994, 33.579143669008076 ], [ -91.165208687586585, 33.578916910067029 ], [ -91.165533217799521, 33.578867862918315 ], [ -91.165804130515966, 33.579025258514228 ], [ -91.165862729300287, 33.57929689736433 ], [ -91.165674686073828, 33.579523657316564 ], [ -91.165350153448912, 33.579572704751321 ], [ -91.165079239941321, 33.57941530814422 ], [ -91.165020643568994, 33.579143669008076 ] ] ], [ [ [ -91.150301042875469, 33.581315068902001 ], [ -91.150514775506238, 33.581104856326462 ], [ -91.150843496793925, 33.581082710102109 ], [ -91.151094648048613, 33.581261603128617 ], [ -91.151121108486464, 33.581536743038157 ], [ -91.150907376159594, 33.581746956661497 ], [ -91.15057865235147, 33.581769102968167 ], [ -91.150327500792869, 33.581590208893878 ], [ -91.150301042875469, 33.581315068902001 ] ] ], [ [ [ -91.139697216573381, 33.589140713064893 ], [ -91.139910994277656, 33.58893052060801 ], [ -91.140239746696423, 33.588908403704643 ], [ -91.140490896904439, 33.589087318079102 ], [ -91.140517324730297, 33.589362458858474 ], [ -91.140303547328969, 33.589572652363564 ], [ -91.139974792388614, 33.589594769348601 ], [ -91.139723641877637, 33.589415853925949 ], [ -91.139697216573381, 33.589140713064893 ] ] ] ] } },
{ "type": "Feature", "properties": { "depth_bin": "14-15 ft", "survey_id": "LM_12_EYB_20250522_CS_5602_5584", "date": "2025-05-22 00:00:00+00:00", "year": 2025, "mile": 559.0, "bin_order": 3 }, "geometry": { "type": "MultiPolygon", "coordinates": [ [ [ [ -91.161059906951294, 33.569178342739143 ], [ -91.161247938160784, 33.568951589092066 ], [ -91.161572432526199, 33.568902551074295 ], [ -91.161843307353962, 33.569059954289614 ], [ -91.161901888402539, 33.569331594784039 ], [ -91.161713857983401, 33.569558349442019 ], [ -91.161389361207043, 33.569607387745435 ], [ -91.161118485588929, 33.56944998351922 ], [ -91.161059906951294, 33.569178342739143 ] ] ], [ [ [ -91.163855424339715, 33.572711083365476 ], [ -91.164069102990879, 33.572500845256087 ], [ -91.164397789811176, 33.572478661753884 ], [ -91.16464894630036, 33.572657527594814 ], [ -91.164675448609145, 33.572932666335646 ], [ -91.164461770263145, 33.573142905492361 ], [ -91.164133080923648, 33.573165089077726 ], [ -91.163881924129299, 33.572986222189471 ], [ -91.163855424339715, 33.572711083365476 ] ] ], [ [ [ -91.161296741734986, 33.574767610173573 ], [ -91.161548968952332, 33.574542814826046 ], [ -91.161916573576434, 33.574563411137305 ], [ -91.162213974313644, 33.574855212001616 ], [ -91.162189370369234, 33.575162921006672 ], [ -91.161930787804238, 33.575334219799977 ], [ -91.161603237124311, 33.575302293287237 ], [ -91.161323233688321, 33.575042749205323 ], [ -91.161296741734986, 33.574767610173573 ] ] ], [ [ [ -91.164917644611762, 33.579009460914214 ], [ -91.165131337042254, 33.578799221610581 ], [ -91.165460047694637, 33.578777036104746 ], [ -91.165711224108676, 33.578955900306255 ], [ -91.165737730763539, 33.579231038732416 ], [ -91.165524038638409, 33.579441279083611 ], [ -91.165195325466087, 33.57946346467272 ], [ -91.164944148746656, 33.579284599423652 ], [ -91.164917644611762, 33.579009460914214 ] ] ], [ [ [ -91.153011486031559, 33.579795151457894 ], [ -91.153225208385081, 33.579584933797918 ], [ -91.153553923544109, 33.57956278014435 ], [ -91.153805076408688, 33.579741667748671 ], [ -91.153831545252061, 33.580016807419227 ], [ -91.15361782320268, 33.580227026126906 ], [ -91.153289105523413, 33.580249179862967 ], [ -91.153037952354694, 33.580070291210944 ], [ -91.153011486031559, 33.579795151457894 ] ] ], [ [ [ -91.142110007400845, 33.58714158994119 ], [ -91.142323774282701, 33.586931392879769 ], [ -91.142652518785823, 33.586909269274571 ], [ -91.14290366862167, 33.587088178775652 ], [ -91.14293010383696, 33.587363319364776 ], [ -91.142716337258278, 33.587573517474297 ], [ -91.142387590233824, 33.587595641161315 ], [ -91.142136440094831, 33.587416730612141 ], [ -91.142110007400845, 33.58714158994119 ] ] ] ] } },
{ "type": "Feature", "properties": { "depth_bin": "15-17.5 ft", "survey_id": "LM_12_EYB_20250522_CS_5602_5584", "date": "2025-05-22 00:00:00+00:00", "year": 2025, "mile": 559.0, "bin_order": 2 }, "geometry": { "type": "MultiPolygon", "coordinates": [ [ [ [ -91.16405035266321, 33.572932617697631 ], [ -91.164264031429894, 33.572722379261108 ], [ -91.164592719068182, 33.572700195268368 ], [ -91.164843876598695, 33.572879060742672 ], [ -91.16487037956216, 33.573154199455594 ], [ -91.164656701100682, 33.573364438939436 ], [ -91.164328010943166, 33.573386623015352 ], [ -91.16407685310746, 33.573207756493716 ], [ -91.16405035266321, 33.572932617697631 ] ] ], [ [ [ -91.161091619062447, 33.574557902020523 ], [ -91.161343846155034, 33.574333107081422 ], [ -91.161711449813794, 33.574353703971227 ], [ -91.162002646498308, 33.57464227583533 ], [ -91.161978041902515, 33.574949984785057 ], [ -91.161719459596839, 33.575121283149485 ], [ -91.161391909822868, 33.57508935610592 ], [ -91.161118110330477, 33.574833041080844 ], [ -91.161091619062447, 33.574557902020523 ] ] ], [ [ [ -91.15835658264163, 33.576093738652716 ], [ -91.158633929009625, 33.575890727124971 ], [ -91.158997355323862, 33.575941393700909 ], [ -91.1592367991488, 33.576262856904364 ], [ -91.159176270254576, 33.576567063624289 ], [ -91.158898864773249, 33.576716314756268 ], [ -91.158576627234396, 33.576657659784878 ], [ -91.158337184900262, 33.576336195368846 ], [ -91.15835658264163, 33.576093738652716 ] ] ], [ [ [ -91.155634814533599, 33.578013998281413 ], [ -91.155848526139479, 33.577803775665259 ], [ -91.156177234186472, 33.577781614780861 ], [ -91.156428387740561, 33.577960497115313 ], [ -91.156454864671247, 33.578235636563917 ], [ -91.156241153369763, 33.578445860227681 ], [ -91.155912442802801, 33.578468021194723 ], [ -91.155661288944316, 33.578289137812675 ], [ -91.155634814533599, 33.578013998281413 ] ] ], [ [ [ -91.150852838865191, 33.58182452083517 ], [ -91.151066571520289, 33.581614307319597 ], [ -91.151395294677442, 33.581592159691233 ], [ -91.151646448551674, 33.581771051672149 ], [ -91.151672910824686, 33.582046191507018 ], [ -91.151459178473559, 33.582256406070385 ], [ -91.151130452795897, 33.582278553781123 ], [ -91.150879298617681, 33.582099660752398 ], [ -91.150852838865191, 33.58182452083517 ] ] ], [ [ [ -91.147425205766609, 33.583224787985486 ], [ -91.147638950070331, 33.5830145808401 ], [ -91.14796767899125, 33.582992442538384 ], [ -91.148218829368219, 33.583171341339188 ], [ -91.148245280931334, 33.583446481492217 ], [ -91.148031536931242, 33.583656689685498 ], [ -91.147702805489601, 33.583678828069353 ], [ -91.147451654808989, 33.583499928220661 ], [ -91.147425205766609, 33.583224787985486 ] ] ], [ [ [ -91.142013647777915, 33.587002065163972 ], [ -91.142251002002013, 33.58681041671732 ], [ -91.142580754054052, 33.586815368321133 ], [ -91.142809741444523, 33.587014019480876 ], [ -91.142803826328162, 33.587290003779536 ], [ -91.142566471909518, 33.587481653270103 ], [ -91.142236717325488, 33.587476701542059 ], [ -91.142007730129578, 33.587278049338387 ], [ -91.142013647777915, 33.587002065163972 ] ] ], [ [ [ -91.139597263909295, 33.589006541082291 ], [ -91.139834628962959, 33.5888148977035 ], [ -91.140164388187856, 33.58881985600577 ], [ -91.140393374892895, 33.589018511570821 ], [ -91.140387451634126, 33.589294495401099 ], [ -91.14015008638566, 33.589486139823855 ], [ -91.139820324628531, 33.58948118139719 ], [ -91.139591338118308, 33.58928252478816 ], [ -91.139597263909295, 33.589006541082291 ] ] ] ] } },
{ "type": "Feature", "properties": { "depth_bin": "17.5-20 ft", "survey_id": "LM_12_EYB_20250522_CS_5602_5584", "date": "2025-05-22 00:00:00+00:00", "year": 2025, "mile": 559.0, "bin_order": 1 }, "geometry": { "type": "MultiPolygon", "coordinates": [ [ [ [ -91.163142888654164, 33.571787311264842 ], [ -91.163253694096852, 33.571638604527713 ], [ -91.163476346565503, 33.571543191052818 ], [ -91.163862897123508, 33.571647646214444 ], [ -91.163983413462773, 33.57190768050615 ], [ -91.16416283579143, 33.572018830745478 ], [ -91.16441637663273, 33.572375665513107 ], [ -91.16442294295112, 33.572550842237312 ], [ -91.1643011395701, 33.572733724347636 ], [ -91.163994297549124, 33.572834820956523 ], [ -91.163691928764891, 33.572724684561251 ], [ -91.163394478487533, 33.572233073873306 ], [ -91.163169386033459, 33.572062450194437 ], [ -91.163142888654164, 33.571787311264842 ] ] ], [ [ [ -91.160996736518925, 33.574443941223088 ], [ -91.16121042634191, 33.574233708487611 ], [ -91.161539120120608, 33.574211532835285 ], [ -91.161790275278804, 33.574390404403815 ], [ -91.161816768746718, 33.574665543394893 ], [ -91.161603079228613, 33.574875777177795 ], [ -91.161274382930472, 33.574897952913105 ], [ -91.161023227467368, 33.57471908029715 ], [ -91.160996736518925, 33.574443941223088 ] ] ], [ [ [ -91.158046746261803, 33.575771309201805 ], [ -91.158324092253537, 33.575568298348443 ], [ -91.158687516999478, 33.57561896578536 ], [ -91.159049495105947, 33.575991731888628 ], [ -91.159002500590731, 33.576329468946938 ], [ -91.15872509560937, 33.576478719710202 ], [ -91.158402859085797, 33.57642006431788 ], [ -91.158058277739727, 33.576079555013457 ], [ -91.158046746261803, 33.575771309201805 ] ] ], [ [ [ -91.152607287814519, 33.574909527201335 ], [ -91.152844585167145, 33.574717856141383 ], [ -91.153174293209318, 33.57472277796132 ], [ -91.153403275230872, 33.574921409613104 ], [ -91.153397396532455, 33.575197396106901 ], [ -91.153160098986461, 33.57538906821032 ], [ -91.152830388413747, 33.575384146266877 ], [ -91.152601406585561, 33.575185513571611 ], [ -91.152607287814519, 33.574909527201335 ] ] ], [ [ [ -91.15554026744941, 33.577869388331195 ], [ -91.15577756701029, 33.57767771178581 ], [ -91.156107286851835, 33.577682626172731 ], [ -91.156336283352246, 33.577881252797972 ], [ -91.156330413330792, 33.578157239616232 ], [ -91.15609311357683, 33.578348917205219 ], [ -91.15576339120436, 33.578344002694962 ], [ -91.155534394897032, 33.578145375026139 ], [ -91.15554026744941, 33.577869388331195 ] ] ], [ [ [ -91.152723546886435, 33.579440767010581 ], [ -91.153000916932754, 33.579237769031579 ], [ -91.153364353094119, 33.579288452499192 ], [ -91.153723264991982, 33.579664276348616 ], [ -91.153676247128956, 33.580002010420095 ], [ -91.153398821487897, 33.580151248441531 ], [ -91.153076575705242, 33.580092578863152 ], [ -91.152735059259101, 33.579749012518185 ], [ -91.152723546886435, 33.579440767010581 ] ] ], [ [ [ -91.150191819143444, 33.581187397438654 ], [ -91.15042913948173, 33.580995731964883 ], [ -91.150758870945211, 33.581000661027687 ], [ -91.150987863104348, 33.581199297336383 ], [ -91.15098197532113, 33.581475283173312 ], [ -91.150744654789165, 33.581666949690792 ], [ -91.150414920794404, 33.581662020504318 ], [ -91.150185928828904, 33.58146338315192 ], [ -91.150191819143444, 33.581187397438654 ] ] ] ] } },
{ "type": "Feature", "properties": { "depth_bin": "5-6 ft", "survey_id": "LM_12_EYB_20250522_CS_5602_5584", "date": "2025-05-22 00:00:00+00:00", "year": 2025, "mile": 559.0, "bin_order": 12 }, "geometry": { "type": "MultiPolygon", "coordinates": [ [ [ [ -91.166323343315952, 33.575770813034566 ], [ -91.166641861603054, 33.575559792231829 ], [ -91.167028434135588, 33.575664238169622 ], [ -91.167146472054625, 33.575955471136652 ], [ -91.167373945405018, 33.576211885634663 ], [ -91.167249167971633, 33.576535468343309 ], [ -91.166942315362419, 33.576636571868569 ], [ -91.166639929452117, 33.57652644217022 ], [ -91.166521892573442, 33.576235208776488 ], [ -91.16631750554744, 33.576046801496368 ], [ -91.166323343315952, 33.575770813034566 ] ] ], [ [ [ -91.163203682605939, 33.576120717297677 ], [ -91.164029526291756, 33.577016979957619 ], [ -91.164010144048888, 33.57725943805908 ], [ -91.163772863126084, 33.577451131067832 ], [ -91.163443142742821, 33.577446237132207 ], [ -91.162959712720436, 33.576982392678012 ], [ -91.162891776876933, 33.576792216953542 ], [ -91.162669326166466, 33.576646434157929 ], [ -91.162636687309231, 33.576307512899426 ], [ -91.162873967386631, 33.576115822015915 ], [ -91.163203682605939, 33.576120717297677 ] ] ], [ [ [ -91.167497639572204, 33.577228024721244 ], [ -91.167756217525238, 33.577056714158111 ], [ -91.168083777857703, 33.577088624667134 ], [ -91.168288441898099, 33.577305063733874 ], [ -91.168250319745155, 33.577579244995299 ], [ -91.167991741110228, 33.577750556558094 ], [ -91.167664178332885, 33.577718645725298 ], [ -91.167459514974396, 33.577502205658924 ], [ -91.167497639572204, 33.577228024721244 ] ] ], [ [ [ -91.164851300143908, 33.578880442065 ], [ -91.165088582847176, 33.578688747080875 ], [ -91.165418308259532, 33.578693636791677 ], [ -91.165647329496011, 33.578892246957871 ], [ -91.165641488886507, 33.579168235175722 ], [ -91.165404205991123, 33.579359931203498 ], [ -91.165074478047671, 33.579355041370015 ], [ -91.164845457003324, 33.579156430160147 ], [ -91.164851300143908, 33.578880442065 ] ] ], [ [ [ -91.165629941599576, 33.579735962204133 ], [ -91.165907283783639, 33.579532934297227 ], [ -91.166270730555325, 33.579583580131825 ], [ -91.166614157725633, 33.579975190936239 ], [ -91.166567189647722, 33.580312931585745 ], [ -91.166289783793772, 33.580462199234866 ], [ -91.165967526514137, 33.580403562914562 ], [ -91.165624100748346, 33.580011950381611 ], [ -91.165629941599576, 33.579735962204133 ] ] ], [ [ [ -91.163108395023016, 33.585481777062789 ], [ -91.163367006633877, 33.585310477019355 ], [ -91.163694595849293, 33.585342400112793 ], [ -91.163899267079103, 33.585558846457104 ], [ -91.163861126210094, 33.585833025426339 ], [ -91.163602513916615, 33.586004326469677 ], [ -91.163274922255468, 33.585972403052118 ], [ -91.163070251708248, 33.585755955707903 ], [ -91.163108395023016, 33.585481777062789 ] ] ], [ [ [ -91.161985188963016, 33.575520125762509 ], [ -91.162222468181142, 33.575328436081556 ], [ -91.162552180286099, 33.575333332998142 ], [ -91.162781186187885, 33.575531948051847 ], [ -91.162775337199093, 33.575807935975774 ], [ -91.162538057788581, 33.575999626700252 ], [ -91.162208343152969, 33.575994729660771 ], [ -91.161979337443555, 33.575796113563555 ], [ -91.161985188963016, 33.575520125762509 ] ] ], [ [ [ -91.159711035083447, 33.577452074464695 ], [ -91.160010820452158, 33.5772727922553 ], [ -91.160366570943509, 33.577353028581449 ], [ -91.160697380106726, 33.577750093498437 ], [ -91.160611067512818, 33.578082349787373 ], [ -91.160317517349128, 33.578208125842096 ], [ -91.160003693067637, 33.578123318845961 ], [ -91.159686421092218, 33.577759782523231 ], [ -91.159711035083447, 33.577452074464695 ] ] ], [ [ [ -91.15348133152014, 33.580161681631317 ], [ -91.153799896138608, 33.579950695652585 ], [ -91.154155650887688, 33.580030949989492 ], [ -91.154473850873558, 33.580436826931255 ], [ -91.154387511449414, 33.580769077838966 ], [ -91.154093943675477, 33.580894838454029 ], [ -91.1537801166469, 33.58081001557678 ], [ -91.153475451904868, 33.580437667903311 ], [ -91.15348133152014, 33.580161681631317 ] ] ], [ [ [ -91.142468401132149, 33.587389822728042 ], [ -91.142727057340409, 33.587218567483561 ], [ -91.143054643472681, 33.587250545231406 ], [ -91.143259265744675, 33.587467024070712 ], [ -91.143221058720457, 33.587741194340232 ], [ -91.142962401827447, 33.587912450584362 ], [ -91.142634813249728, 33.587880472511031 ], [ -91.142430191662484, 33.587663992672084 ], [ -91.142468401132149, 33.587389822728042 ] ] ], [ [ [ -91.140071500879756, 33.589371014698642 ], [ -91.140330167690109, 33.589199764884313 ], [ -91.140657760084949, 33.589231749198177 ], [ -91.14086238061158, 33.589448231893243 ], [ -91.140824164856255, 33.589722401049634 ], [ -91.140565497360839, 33.58989365186364 ], [ -91.140237902520383, 33.589861667224106 ], [ -91.140033282678814, 33.58964518352937 ], [ -91.140071500879756, 33.589371014698642 ] ] ] ] } },
{ "type": "Feature", "properties": { "depth_bin": "6-7 ft", "survey_id": "LM_12_EYB_20250522_CS_5602_5584", "date": "2025-05-22 00:00:00+00:00", "year": 2025, "mile": 559.0, "bin_order": 11 }, "geometry": { "type": "MultiPolygon", "coordinates": [ [ [ [ -91.164769700588224, 33.573852656337095 ], [ -91.164983380045854, 33.573642416705205 ], [ -91.165312071092885, 33.573620230915623 ], [ -91.1655632327532, 33.573799095044166 ], [ -91.165589738148412, 33.574074233650734 ], [ -91.16537605899606, 33.574284474329986 ], [ -91.165047365429714, 33.574306660202787 ], [ -91.164796203464121, 33.574127795026897 ], [ -91.164769700588224, 33.573852656337095 ] ] ], [ [ [ -91.161775564770153, 33.575327351440293 ], [ -91.162027792491898, 33.575102555148696 ], [ -91.162395399666465, 33.575123150119204 ], [ -91.162679603786771, 33.575421578540123 ], [ -91.162655001233333, 33.575729287661552 ], [ -91.162396417797694, 33.575900587387437 ], [ -91.16206886475598, 33.575868662032391 ], [ -91.161802058333961, 33.575602490403071 ], [ -91.161775564770153, 33.575327351440293 ] ] ], [ [ [ -91.159148396566167, 33.576969851465407 ], [ -91.159425744068372, 33.576766838221488 ], [ -91.15978917460771, 33.576817502604065 ], [ -91.160266901488143, 33.57724813336138 ], [ -91.160311337619234, 33.577454186696848 ], [ -91.160237307471789, 33.577618129311873 ], [ -91.159959900250556, 33.577767382747574 ], [ -91.159637657985527, 33.577708730393397 ], [ -91.159159931921096, 33.577278097255871 ], [ -91.159148396566167, 33.576969851465407 ] ] ], [ [ [ -91.156668982162515, 33.579083547892942 ], [ -91.156882694109569, 33.578873323528605 ], [ -91.157211406095854, 33.578851160027867 ], [ -91.157462564879864, 33.579030040410395 ], [ -91.157489045267596, 33.579305179714929 ], [ -91.15727533362508, 33.579515405126905 ], [ -91.156946619118699, 33.579537568710364 ], [ -91.15669546003015, 33.579358687280198 ], [ -91.156668982162515, 33.579083547892942 ] ] ], [ [ [ -91.153348224760123, 33.580102052705357 ], [ -91.153561947118035, 33.579891834471304 ], [ -91.153890663402521, 33.579869679960389 ], [ -91.154141817854381, 33.580048566926273 ], [ -91.154168287817086, 33.580323706551326 ], [ -91.153954565763399, 33.580533925833087 ], [ -91.153625846958633, 33.580556080426526 ], [ -91.153374692202561, 33.580377192412918 ], [ -91.153348224760123, 33.580102052705357 ] ] ], [ [ [ -91.164407031504723, 33.582440050659244 ], [ -91.164644325278331, 33.582248356994775 ], [ -91.164974064145582, 33.582253248344003 ], [ -91.165203093340111, 33.582451859507664 ], [ -91.165197250530085, 33.582727847497814 ], [ -91.164959956564275, 33.582919542206099 ], [ -91.164630215165488, 33.582914650734139 ], [ -91.164401186163133, 33.582716038526662 ], [ -91.164407031504723, 33.582440050659244 ] ] ], [ [ [ -91.162981871254274, 33.585413256064342 ], [ -91.163219176511035, 33.585221565603774 ], [ -91.163548926423374, 33.585226461130389 ], [ -91.163777959755123, 33.585425074997929 ], [ -91.163772111750802, 33.58570106263462 ], [ -91.163534806301698, 33.585892754139088 ], [ -91.163205053857453, 33.585887858489649 ], [ -91.162976020718048, 33.585689243578209 ], [ -91.162981871254274, 33.585413256064342 ] ] ] ] } },
{ "type": "Feature", "properties": { "depth_bin": "7-8 ft", "survey_id": "LM_12_EYB_20250522_CS_5602_5584", "date": "2025-05-22 00:00:00+00:00", "year": 2025, "mile": 559.0, "bin_order": 10 }, "geometry": { "type": "MultiPolygon", "coordinates": [ [ [ [ -91.161689027593127, 33.575210862246458 ], [ -91.161902717775419, 33.5750006283468 ], [ -91.162231414384138, 33.5749784509497 ], [ -91.162482573185358, 33.575157321214931 ], [ -91.162509068975311, 33.575432460107628 ], [ -91.162295379097998, 33.575642695054732 ], [ -91.161966679969751, 33.575664872534851 ], [ -91.161715520863538, 33.575486001222188 ], [ -91.161689027593127, 33.575210862246458 ] ] ], [ [ [ -91.167022834605504, 33.576723867465141 ], [ -91.167315110578727, 33.576487728208264 ], [ -91.167712056847691, 33.576559952576716 ], [ -91.167847330179839, 33.576736079543416 ], [ -91.167846839529332, 33.576933206206533 ], [ -91.168074998068477, 33.577016573228157 ], [ -91.168196734298675, 33.577159170288439 ], [ -91.168223789706161, 33.577332964081307 ], [ -91.168123989444851, 33.577524962386249 ], [ -91.167830451254403, 33.577650756715919 ], [ -91.167516620693306, 33.577565968596247 ], [ -91.167381346836422, 33.577389841269245 ], [ -91.167381838598402, 33.577192714657606 ], [ -91.167049345097226, 33.576999005821989 ], [ -91.167022834605504, 33.576723867465141 ] ] ], [ [ [ -91.159378257651525, 33.577167443296617 ], [ -91.159696797284951, 33.576956441171333 ], [ -91.16005254615726, 33.577036678350801 ], [ -91.160174268831057, 33.577179282861508 ], [ -91.160196717624757, 33.577376149605776 ], [ -91.160427568107949, 33.577440076203629 ], [ -91.16058280163584, 33.577604265308871 ], [ -91.160609841787917, 33.577778060243695 ], [ -91.160510024392309, 33.577970051803568 ], [ -91.160216474481842, 33.578095827628566 ], [ -91.15990265071305, 33.578011020391692 ], [ -91.15978092739698, 33.577868415607426 ], [ -91.159758479478128, 33.577671548830239 ], [ -91.159527628940495, 33.577607620981581 ], [ -91.159389793817468, 33.577475689084892 ], [ -91.159378257651525, 33.577167443296617 ] ] ], [ [ [ -91.156384329631621, 33.578744596374946 ], [ -91.156598041369634, 33.578534372486637 ], [ -91.156926752102038, 33.578512209700165 ], [ -91.157177909321788, 33.578691090616807 ], [ -91.157204388751182, 33.578966229962425 ], [ -91.156990677317665, 33.579176454898381 ], [ -91.156661964065208, 33.579198617767553 ], [ -91.156410806540961, 33.579019735803271 ], [ -91.156384329631621, 33.578744596374946 ] ] ], [ [ [ -91.165515965228323, 33.579662313516977 ], [ -91.165729657943345, 33.579452073205935 ], [ -91.166058371003942, 33.579429886190503 ], [ -91.166309550539239, 33.579608749264516 ], [ -91.166336059200091, 33.579883887605718 ], [ -91.166122366790532, 33.580094128964326 ], [ -91.16579365120991, 33.580116316063076 ], [ -91.165542471369122, 33.579937451941504 ], [ -91.165515965228323, 33.579662313516977 ] ] ], [ [ [ -91.164296851649539, 33.582361895308246 ], [ -91.164510554195502, 33.582151657515674 ], [ -91.164839277687719, 33.582129474106182 ], [ -91.165090462144846, 33.58230833976134 ], [ -91.165116967334498, 33.582583478147015 ], [ -91.164903265093898, 33.582793716987268 ], [ -91.164574539081315, 33.582815900480028 ], [ -91.16432335431881, 33.582637033777168 ], [ -91.164296851649539, 33.582361895308246 ] ] ], [ [ [ -91.142365117532961, 33.587294637336186 ], [ -91.14260247184562, 33.587102988224316 ], [ -91.14293222507645, 33.587107938929393 ], [ -91.143161214045463, 33.587306589483354 ], [ -91.143155299982723, 33.587582573824022 ], [ -91.142917945475546, 33.587774223979821 ], [ -91.142588189712683, 33.587769273150528 ], [ -91.142359200938188, 33.587570621552644 ], [ -91.142365117532961, 33.587294637336186 ] ] ], [ [ [ -91.162143959560836, 33.58813795982168 ], [ -91.162381274349883, 33.587946271364274 ], [ -91.162711034472139, 33.587951169472149 ], [ -91.162940072710853, 33.588149784987017 ], [ -91.162934221436018, 33.588425772372204 ], [ -91.162696906454528, 33.588617461873632 ], [ -91.162367143800026, 33.588612563642862 ], [ -91.162138105753769, 33.588413947083964 ], [ -91.162143959560836, 33.58813795982168 ] ] ] ] } },
{ "type": "Feature", "properties": { "depth_bin": "8-9 ft", "survey_id": "LM_12_EYB_20250522_CS_5602_5584", "date": "2025-05-22 00:00:00+00:00", "year": 2025, "mile": 559.0, "bin_order": 9 }, "geometry": { "type": "MultiPolygon", "coordinates": [ [ [ [ -91.160986557264025, 33.569025741107346 ], [ -91.161200233117441, 33.568815507763155 ], [ -91.16152890628301, 33.568793331423912 ], [ -91.161780046258926, 33.56897220262973 ], [ -91.161806538868916, 33.569247341794629 ], [ -91.161592863320294, 33.569457576186025 ], [ -91.161264187635965, 33.569479752608217 ], [ -91.16101304735524, 33.569300880355215 ], [ -91.160986557264025, 33.569025741107346 ] ] ], [ [ [ -91.164688468184309, 33.573704280676758 ], [ -91.164925736507641, 33.573512585386077 ], [ -91.165255442209371, 33.573517474869348 ], [ -91.165484449950299, 33.573716085020344 ], [ -91.165478609965874, 33.573992073444067 ], [ -91.165241341450454, 33.574183769778202 ], [ -91.164911633218253, 33.574178880172227 ], [ -91.164682625669428, 33.57398026897777 ], [ -91.164688468184309, 33.573704280676758 ] ] ], [ [ [ -91.161612614753579, 33.575064843422332 ], [ -91.161849893466083, 33.574873154428467 ], [ -91.162179603771051, 33.574878052279296 ], [ -91.162408607632884, 33.575076667967139 ], [ -91.162402757559093, 33.575352655853628 ], [ -91.16216547865416, 33.575544345891011 ], [ -91.16183576581858, 33.575539447917265 ], [ -91.161606762149177, 33.575340831185919 ], [ -91.161612614753579, 33.575064843422332 ] ] ], [ [ [ -91.159033446297087, 33.576868829461674 ], [ -91.159270735608146, 33.576677145829592 ], [ -91.159600452293873, 33.576682050782203 ], [ -91.159829454581057, 33.576880671151855 ], [ -91.159823595899425, 33.577156658557648 ], [ -91.159586306395667, 33.577348343233297 ], [ -91.159256587179115, 33.577343438157577 ], [ -91.15902758508463, 33.577144816744386 ], [ -91.159033446297087, 33.576868829461674 ] ] ], [ [ [ -91.156930155135441, 33.578455268622037 ], [ -91.157373923115969, 33.578906114984783 ], [ -91.157411405487707, 33.579147080751966 ], [ -91.157223341108732, 33.579373827121181 ], [ -91.156898805337434, 33.579422852236767 ], [ -91.156680322954202, 33.579320879095079 ], [ -91.156321974914249, 33.578946524052476 ], [ -91.156263406442719, 33.578674881688819 ], [ -91.156385235361071, 33.578492008519156 ], [ -91.156649842650296, 33.578392039088271 ], [ -91.156930155135441, 33.578455268622037 ] ] ], [ [ [ -91.165419071839978, 33.579524953243897 ], [ -91.165656355173354, 33.579333257206606 ], [ -91.165986083141561, 33.579338145487064 ], [ -91.166215107362518, 33.579536754683637 ], [ -91.166209268417902, 33.579812742960577 ], [ -91.165971984892465, 33.580004440041563 ], [ -91.165642254393049, 33.57999955163843 ], [ -91.165413230364166, 33.579800941398169 ], [ -91.165419071839978, 33.579524953243897 ] ] ], [ [ [ -91.164215851682926, 33.582214590121644 ], [ -91.164453145220293, 33.582022896810798 ], [ -91.16478288319469, 33.582027788640588 ], [ -91.165011911362768, 33.582226400130267 ], [ -91.165006067993957, 33.582502388100899 ], [ -91.164768774264388, 33.582694082455546 ], [ -91.164439033758484, 33.582689190502997 ], [ -91.164210005782607, 33.582490577969523 ], [ -91.164215851682926, 33.582214590121644 ] ] ], [ [ [ -91.155244017235162, 33.572894073287074 ], [ -91.155481303266768, 33.5727023967234 ], [ -91.155811004137334, 33.572707311260615 ], [ -91.156039987337564, 33.572905938116683 ], [ -91.156034117477844, 33.573181925110966 ], [ -91.15579683125317, 33.57337360271805 ], [ -91.155467127852305, 33.573368688057492 ], [ -91.155238144845129, 33.573170060158027 ], [ -91.155244017235162, 33.572894073287074 ] ] ], [ [ [ -91.153257125469509, 33.579960908359084 ], [ -91.153494435821102, 33.579769236622219 ], [ -91.15382416319126, 33.579774157360475 ], [ -91.154053159548198, 33.579972788159409 ], [ -91.154047281795073, 33.580248774528933 ], [ -91.153809971250141, 33.580440447309464 ], [ -91.153480241348802, 33.580435526447729 ], [ -91.153251245185203, 33.580236894605122 ], [ -91.153257125469509, 33.579960908359084 ] ] ], [ [ [ -91.150432576784539, 33.581375041535601 ], [ -91.150709958361404, 33.581172049148371 ], [ -91.151073400914541, 33.581222739563891 ], [ -91.151254184482696, 33.581470958386177 ], [ -91.15154866967184, 33.581659410926171 ], [ -91.15159308667144, 33.581865466627065 ], [ -91.15151903610699, 33.582029403223835 ], [ -91.15124160032353, 33.582178636012429 ], [ -91.150919348800514, 33.582119960624397 ], [ -91.150738564951524, 33.581871741323909 ], [ -91.15044408091893, 33.5816832868964 ], [ -91.150432576784539, 33.581375041535601 ] ] ], [ [ [ -91.145024529394348, 33.585164107259843 ], [ -91.145261872004298, 33.584972452580672 ], [ -91.145591617628185, 33.584977395924113 ], [ -91.14582060754185, 33.585176041634298 ], [ -91.145814702422214, 33.585452026486443 ], [ -91.145577359618017, 33.585643682209451 ], [ -91.145247611462366, 33.585638738741977 ], [ -91.145018621742921, 33.585440091987948 ], [ -91.145024529394348, 33.585164107259843 ] ] ], [ [ [ -91.139946598775708, 33.589295534751216 ], [ -91.140183963912406, 33.589103890710994 ], [ -91.140513724302266, 33.589108848119764 ], [ -91.140742712571821, 33.589307503082637 ], [ -91.140736790360663, 33.589583486954801 ], [ -91.140499425029191, 33.589775132039023 ], [ -91.140169662107056, 33.58977017450588 ], [ -91.139940674032289, 33.589571518499007 ], [ -91.139946598775708, 33.589295534751216 ] ] ] ] } },
{ "type": "Feature", "properties": { "depth_bin": "9-10 ft", "survey_id": "LM_12_EYB_20250522_CS_5602_5584", "date": "2025-05-22 00:00:00+00:00", "year": 2025, "mile": 559.0, "bin_order": 8 }, "geometry": { "type": "MultiPolygon", "coordinates": [ [ [ [ -91.164396743633247, 33.573402688111571 ], [ -91.164610422802468, 33.573192449102571 ], [ -91.164939112185067, 33.573170264248162 ], [ -91.165190271779863, 33.573349129076355 ], [ -91.165216775918424, 33.573624267737209 ], [ -91.165003097054424, 33.573834507793542 ], [ -91.164674405152553, 33.573856692731148 ], [ -91.164423245252522, 33.573677826855622 ], [ -91.164396743633247, 33.573402688111571 ] ] ], [ [ [ -91.165315338309554, 33.579444310299088 ], [ -91.165529030931523, 33.57923407032596 ], [ -91.165857743188056, 33.579211883816839 ], [ -91.166108921679296, 33.579390747268988 ], [ -91.166135429667619, 33.579665885638668 ], [ -91.165921737351084, 33.579876126659357 ], [ -91.165593022574541, 33.579898313251782 ], [ -91.165341843777881, 33.579719448752073 ], [ -91.165315338309554, 33.579444310299088 ] ] ], [ [ [ -91.163986443921971, 33.582039376172268 ], [ -91.164238686504746, 33.581814576069888 ], [ -91.164568423647168, 33.581819468444465 ], [ -91.16489240148573, 33.582088010554365 ], [ -91.164903957104215, 33.582396256280788 ], [ -91.164666663460181, 33.582587950444811 ], [ -91.164336923376823, 33.582583058233766 ], [ -91.164012945552983, 33.58231451468469 ], [ -91.163986443921971, 33.582039376172268 ] ] ], [ [ [ -91.162780883235655, 33.585195993434461 ], [ -91.163018188300171, 33.585004303348121 ], [ -91.163385837751918, 33.585024896771877 ], [ -91.163676604198187, 33.585315804116441 ], [ -91.163652000670822, 33.585623512993585 ], [ -91.163393388630354, 33.585794813612246 ], [ -91.163065797861606, 33.585762889669041 ], [ -91.162775032107604, 33.585471980926876 ], [ -91.162780883235655, 33.585195993434461 ] ] ], [ [ [ -91.155108317985039, 33.572812778899646 ], [ -91.155345604072849, 33.572621102596557 ], [ -91.155675304609147, 33.572626017484794 ], [ -91.15590428728045, 33.572824644576713 ], [ -91.155898417006938, 33.573100631553508 ], [ -91.155661130726045, 33.573292308899994 ], [ -91.155331427659462, 33.573287393888414 ], [ -91.155102445181242, 33.573088765753099 ], [ -91.155108317985039, 33.572812778899646 ] ] ], [ [ [ -91.158935671300569, 33.576758101533741 ], [ -91.159172960503767, 33.57656641808304 ], [ -91.15950267675035, 33.576571323281946 ], [ -91.159731678524324, 33.576769943818498 ], [ -91.159725819556044, 33.577045931214052 ], [ -91.159488530160118, 33.577237615708306 ], [ -91.159158811382738, 33.577232710386312 ], [ -91.158929809801492, 33.577034088806201 ], [ -91.158935671300569, 33.576758101533741 ] ] ], [ [ [ -91.156173008461749, 33.578531761289781 ], [ -91.156386720144823, 33.578321537759358 ], [ -91.156715430094025, 33.578299375508259 ], [ -91.156966586261092, 33.578478256824177 ], [ -91.156993064984931, 33.578753396199069 ], [ -91.156779353606325, 33.57896362077711 ], [ -91.156450641137084, 33.578985783110888 ], [ -91.156199484665564, 33.57880690074736 ], [ -91.156173008461749, 33.578531761289781 ] ] ], [ [ [ -91.147562506878572, 33.583283488776303 ], [ -91.147799838755759, 33.583091828803703 ], [ -91.148129577700644, 33.583096765142038 ], [ -91.148358568901415, 33.583295406238847 ], [ -91.148352672281192, 33.583571391571716 ], [ -91.148115340210055, 33.583763052588097 ], [ -91.147785598733634, 33.583758116125907 ], [ -91.147556607726798, 33.583559473985311 ], [ -91.147562506878572, 33.583283488776303 ] ] ], [ [ [ -91.162019990574578, 33.58804351449168 ], [ -91.162257305357642, 33.587851826269933 ], [ -91.162587065097625, 33.587856724696081 ], [ -91.162816102801699, 33.588055340425392 ], [ -91.162810251153061, 33.588331327795579 ], [ -91.162572936177526, 33.588523017061334 ], [ -91.16224317390531, 33.588518118512297 ], [ -91.162014136393694, 33.588319501738958 ], [ -91.162019990574578, 33.58804351449168 ] ] ] ] } },
{ "type": "Feature", "properties": { "depth_bin": "<5 ft", "survey_id": "LM_12_EYB_20250522_CS_5602_5584", "date": "2025-05-22 00:00:00+00:00", "year": 2025, "mile": 559.0, "bin_order": 13 }, "geometry": { "type": "MultiPolygon", "coordinates": [ [ [ [ -91.168817163421693, 33.577922987630394 ], [ -91.171042631583404, 33.58080096074265 ], [ -91.171069155505947, 33.581076098537572 ], [ -91.170855471108695, 33.581286348323864 ], [ -91.170487195893728, 33.581296037606741 ], [ -91.170199821061473, 33.581064180230044 ], [ -91.167590558387175, 33.577730592435266 ], [ -91.167523517348272, 33.577564555825752 ], [ -91.167576651911162, 33.577359949876239 ], [ -91.167835230122165, 33.577188639159367 ], [ -91.168162790990152, 33.577220549476287 ], [ -91.168817163421693, 33.577922987630394 ] ] ], [ [ [ -91.166619269611516, 33.579965301664551 ], [ -91.169855914109547, 33.583743448869072 ], [ -91.169850085826468, 33.584019437520929 ], [ -91.169612798051332, 33.584211141346927 ], [ -91.169363439173679, 33.584227978110889 ], [ -91.169117089549488, 33.58409938572661 ], [ -91.166214525309954, 33.580761075969775 ], [ -91.165885218682078, 33.58027985237414 ], [ -91.166010007208456, 33.579956271581537 ], [ -91.166316872736971, 33.579855170854437 ], [ -91.166619269611516, 33.579965301664551 ] ] ], [ [ [ -91.16522234725953, 33.582437478087044 ], [ -91.16944836312743, 33.586864242763511 ], [ -91.16941023896652, 33.587138423961981 ], [ -91.169151633066775, 33.58730973681444 ], [ -91.16894232719082, 33.587315240000336 ], [ -91.16872381014845, 33.587213287109051 ], [ -91.164970241068659, 33.583347115180352 ], [ -91.164497816329288, 33.582786498584355 ], [ -91.164491250081639, 33.582611322108072 ], [ -91.164613067961255, 33.582428440543396 ], [ -91.16491994384802, 33.582327343671636 ], [ -91.16522234725953, 33.582437478087044 ] ] ], [ [ [ -91.163906609848311, 33.585512737405793 ], [ -91.170158415222616, 33.591843152901816 ], [ -91.170184938023397, 33.592118290439039 ], [ -91.169971223023978, 33.592328537351591 ], [ -91.169683296661276, 33.592359938425687 ], [ -91.169464766241319, 33.59225798646483 ], [ -91.16700133639533, 33.589815648986736 ], [ -91.166804842122531, 33.589512233722786 ], [ -91.164481722788921, 33.587275949998016 ], [ -91.164196886572725, 33.58688734303162 ], [ -91.16364810181787, 33.586424777039369 ], [ -91.163182047670901, 33.585861748981515 ], [ -91.163175484154152, 33.585686572600096 ], [ -91.163297309386508, 33.585503692657866 ], [ -91.163604197718172, 33.585402599518815 ], [ -91.163906609848311, 33.585512737405793 ] ] ], [ [ [ -91.168343295676323, 33.593092869847617 ], [ -91.168645318089133, 33.593264609952342 ], [ -91.16886534446509, 33.5935709940942 ], [ -91.168795285343577, 33.59384072666667 ], [ -91.168517838639971, 33.593989997673127 ], [ -91.168231413972961, 33.59395009528594 ], [ -91.167746480632715, 33.593614769792929 ], [ -91.163094408018111, 33.589353198332269 ], [ -91.162298957322037, 33.588571035519784 ], [ -91.162230594131344, 33.588369621089399 ], [ -91.162290992630844, 33.588192452411157 ], [ -91.161982967585828, 33.588206799336199 ], [ -91.161752866637116, 33.588058602700492 ], [ -91.161687329590364, 33.587821874381291 ], [ -91.16181610768966, 33.587604084285232 ], [ -91.162123005132315, 33.587502995164684 ], [ -91.162425422408404, 33.587613136822611 ], [ -91.162544883573531, 33.587834615061595 ], [ -91.162485811022151, 33.588047159189934 ], [ -91.162753003030048, 33.588023603485112 ], [ -91.162971514534235, 33.588125566746385 ], [ -91.168343295676323, 33.593092869847617 ] ] ], [ [ [ -91.162464116771304, 33.608079437271471 ], [ -91.16871097857053, 33.613487930889313 ], [ -91.168672836306342, 33.613762110265831 ], [ -91.168414146950781, 33.613933418148676 ], [ -91.168086447702791, 33.613901503995528 ], [ -91.167503403299278, 33.613464888080216 ], [ -91.160095214693598, 33.607033351883622 ], [ -91.159877306113458, 33.606715329573085 ], [ -91.160007621187731, 33.606426854461645 ], [ -91.160398513959308, 33.606333951753619 ], [ -91.16086139024722, 33.606608844439727 ], [ -91.162464116771304, 33.608079437271471 ] ] ], [ [ [ -91.167207566671593, 33.576380992285493 ], [ -91.167613628788942, 33.576450637950686 ], [ -91.167763911947759, 33.576696340012191 ], [ -91.167662617289565, 33.576959027233613 ], [ -91.167369080438732, 33.577084820521257 ], [ -91.166996593208978, 33.576949161767324 ], [ -91.166903643809064, 33.57671895308733 ], [ -91.166996946279085, 33.576501781960403 ], [ -91.166737722556334, 33.576500655316309 ], [ -91.166532225969348, 33.576381264536671 ], [ -91.166378687381609, 33.576097841193558 ], [ -91.164901352157258, 33.574276182747795 ], [ -91.164835815035786, 33.574039455657847 ], [ -91.16499638994226, 33.573798360807892 ], [ -91.165313595085749, 33.573722924420473 ], [ -91.165601617558465, 33.573857335770462 ], [ -91.16718597933702, 33.575868556304918 ], [ -91.16729954081579, 33.576128445516524 ], [ -91.167207566671593, 33.576380992285493 ] ] ], [ [ [ -91.161565680418207, 33.590090458790165 ], [ -91.167578484790184, 33.595226797784974 ], [ -91.167664662095561, 33.595386534704268 ], [ -91.167594597525948, 33.595656266345728 ], [ -91.167317142914712, 33.59580553435066 ], [ -91.167068618708186, 33.595781325425463 ], [ -91.166808163615954, 33.595609300280216 ], [ -91.161053070658141, 33.590710131583478 ], [ -91.160862350202265, 33.590429205787416 ], [ -91.160958221727071, 33.590131429627768 ], [ -91.161251812275907, 33.590005653618121 ], [ -91.161565680418207, 33.590090458790165 ] ] ], [ [ [ -91.163543577806962, 33.594862220886874 ], [ -91.166496045080933, 33.596980811203622 ], [ -91.166814623510277, 33.59730779727991 ], [ -91.166841136490874, 33.59758293500191 ], [ -91.166627399525524, 33.597793175230443 ], [ -91.166381173206958, 33.597830380315969 ], [ -91.166151743621981, 33.597746838808689 ], [ -91.165886362268466, 33.597486509485378 ], [ -91.162949489980434, 33.595382828884212 ], [ -91.161824983537016, 33.594451424016448 ], [ -91.16133979197356, 33.594156833228645 ], [ -91.161003405668637, 33.59378777463003 ], [ -91.16065114716065, 33.593613204045567 ], [ -91.160358555821929, 33.593316598247185 ], [ -91.16029301933726, 33.593079869374392 ], [ -91.160392856235944, 33.592887879040568 ], [ -91.16068645707881, 33.592762104770379 ], [ -91.161000334457682, 33.592846911660736 ], [ -91.161214349613786, 33.593067520419055 ], [ -91.161655795270136, 33.593318635916518 ], [ -91.161942344252395, 33.593642001572221 ], [ -91.162331061639634, 33.593870593326663 ], [ -91.163543577806962, 33.594862220886874 ] ] ], [ [ [ -91.162390571483002, 33.60237538470416 ], [ -91.166701431671498, 33.605816795239811 ], [ -91.166695588470844, 33.606092782418429 ], [ -91.166458231158231, 33.606284477266868 ], [ -91.166208808195478, 33.606301305448703 ], [ -91.166021079870802, 33.606223575706188 ], [ -91.161873182309918, 33.602950336362504 ], [ -91.161397795048117, 33.602658636788306 ], [ -91.160607898299872, 33.601940070300657 ], [ -91.160211271521817, 33.601713650777995 ], [ -91.16009179900027, 33.601492170310564 ], [ -91.160193148607135, 33.601229492026746 ], [ -91.16036356481078, 33.601127607053421 ], [ -91.160612973385881, 33.601110790185864 ], [ -91.161209886322013, 33.601423498124085 ], [ -91.162048925850115, 33.602187945906429 ], [ -91.162390571483002, 33.60237538470416 ] ] ], [ [ [ -91.160309737666353, 33.596387153130152 ], [ -91.165706614383794, 33.600631802657333 ], [ -91.165700769159486, 33.600907789913599 ], [ -91.165463424505006, 33.601099483409726 ], [ -91.165214016433183, 33.60111631009508 ], [ -91.16502630009424, 33.601038579189343 ], [ -91.160407001718426, 33.59747571489671 ], [ -91.159646833751523, 33.596826158969861 ], [ -91.159602391501195, 33.59662010572535 ], [ -91.159702234365071, 33.59642811624343 ], [ -91.159995848383602, 33.596302344121547 ], [ -91.160309737666353, 33.596387153130152 ] ] ], [ [ [ -91.163773212224157, 33.581428489294758 ], [ -91.164097752544123, 33.58137944627709 ], [ -91.164389762923989, 33.581567520223636 ], [ -91.164478648083076, 33.581924822729519 ], [ -91.164253946000642, 33.582169234713938 ], [ -91.163925222282231, 33.582191416557258 ], [ -91.163674040672305, 33.582012548624888 ], [ -91.163578213512579, 33.58169015771368 ], [ -91.163773212224157, 33.581428489294758 ] ] ], [ [ [ -91.163225150576295, 33.576022349951337 ], [ -91.16363326663614, 33.5765826933198 ], [ -91.163572121019925, 33.576887589916197 ], [ -91.163919855286849, 33.576913804191719 ], [ -91.164124508202732, 33.577130249789533 ], [ -91.164086373039893, 33.577404429332461 ], [ -91.163827787130813, 33.577575731933635 ], [ -91.163538124309028, 33.577559507396998 ], [ -91.16334760076893, 33.577423826768168 ], [ -91.163279242657552, 33.577222412787769 ], [ -91.163356721810544, 33.577022467152645 ], [ -91.163086436846044, 33.577024461243575 ], [ -91.162880944375019, 33.576905064534856 ], [ -91.162094444436292, 33.57593549755223 ], [ -91.162082898577609, 33.575627251624667 ], [ -91.16232017789342, 33.575435561762028 ], [ -91.162649890423751, 33.575440458432034 ], [ -91.163225150576295, 33.576022349951337 ] ] ], [ [ [ -91.16260983904219, 33.584728338931356 ], [ -91.162927086443645, 33.584652910214537 ], [ -91.16321514046308, 33.58478732799977 ], [ -91.163305263844109, 33.585052852833506 ], [ -91.163144661968289, 33.585293944207123 ], [ -91.162827412354801, 33.58536937340174 ], [ -91.162539357088733, 33.585234954680267 ], [ -91.162449235919738, 33.584969429368741 ], [ -91.16260983904219, 33.584728338931356 ] ] ], [ [ [ -91.160958741799462, 33.568629643171398 ], [ -91.161317635551313, 33.56856003028156 ], [ -91.161588508849121, 33.568717434011226 ], [ -91.161726943247032, 33.569070881182654 ], [ -91.161531968119249, 33.569332547603437 ], [ -91.161207472114555, 33.569381585456519 ], [ -91.16093659753183, 33.56922418086161 ], [ -91.160795342301583, 33.568906046633543 ], [ -91.160958741799462, 33.568629643171398 ] ] ], [ [ [ -91.157645132109792, 33.570142531082894 ], [ -91.157843483151538, 33.570086430725311 ], [ -91.158087897711226, 33.570130924406413 ], [ -91.158516131310023, 33.570564859161124 ], [ -91.158574702644103, 33.57083650084963 ], [ -91.158386660310114, 33.571063249991617 ], [ -91.158188307311747, 33.571119351147956 ], [ -91.157943889928163, 33.571074857575717 ], [ -91.157515656894034, 33.570640920885467 ], [ -91.157457089005831, 33.570369278804392 ], [ -91.157645132109792, 33.570142531082894 ] ] ], [ [ [ -91.15503753289002, 33.572455991773047 ], [ -91.155396446558299, 33.572386396804077 ], [ -91.155740147365705, 33.572577677276875 ], [ -91.155860894769958, 33.572834536546743 ], [ -91.155729299588188, 33.57308763467789 ], [ -91.155380260709848, 33.573186343800046 ], [ -91.154994852073358, 33.572989246394137 ], [ -91.154876933572851, 33.572697072888076 ], [ -91.15503753289002, 33.572455991773047 ] ] ], [ [ [ -91.152439237631299, 33.574452490216729 ], [ -91.152804581482556, 33.574412686787447 ], [ -91.153129132605471, 33.574622822653225 ], [ -91.153219215658154, 33.574888353843356 ], [ -91.153058606561459, 33.575129432182187 ], [ -91.152699679877685, 33.575199019887656 ], [ -91.152334302669288, 33.57497967215852 ], [ -91.152244222277972, 33.574714140416575 ], [ -91.152439237631299, 33.574452490216729 ] ] ], [ [ [ -91.149660152370785, 33.576381691296369 ], [ -91.150019086011511, 33.576312112674351 ], [ -91.150361582718062, 33.576528402236363 ], [ -91.150451658889878, 33.576793935143435 ], [ -91.150291038478983, 33.577035009435576 ], [ -91.149932101995674, 33.577104588744604 ], [ -91.149589604211442, 33.57688829797128 ], [ -91.149499530627722, 33.576622764526839 ], [ -91.149660152370785, 33.576381691296369 ] ] ], [ [ [ -91.159773432798701, 33.577201422092273 ], [ -91.1600562501947, 33.577146574814861 ], [ -91.160285619756067, 33.577230125851962 ], [ -91.160420878581945, 33.577406260448022 ], [ -91.160418857086782, 33.577608089289804 ], [ -91.160651199351094, 33.577691806192639 ], [ -91.161018695939021, 33.578027843852979 ], [ -91.161108806480442, 33.578293370097256 ], [ -91.16094821206822, 33.578534459085759 ], [ -91.160757368334529, 33.578606568356101 ], [ -91.160508895706712, 33.578582347913503 ], [ -91.160034116209559, 33.578190293524159 ], [ -91.159959535235842, 33.577863202510201 ], [ -91.15972719325103, 33.577779484317247 ], [ -91.159582391718288, 33.577568869602771 ], [ -91.159611330021178, 33.577360892025546 ], [ -91.159773432798701, 33.577201422092273 ] ] ], [ [ [ -91.146815345431477, 33.578031680804905 ], [ -91.147180706228241, 33.577991894612715 ], [ -91.147597669063515, 33.578260630062012 ], [ -91.147687738210138, 33.578526164684263 ], [ -91.14752710683868, 33.578767234951222 ], [ -91.147127335035535, 33.578827593426531 ], [ -91.146710371093448, 33.5785588563716 ], [ -91.146620304947561, 33.578293321139888 ], [ -91.146815345431477, 33.578031680804905 ] ] ], [ [ [ -91.156911820028398, 33.579016465384278 ], [ -91.157311587426889, 33.57895607508047 ], [ -91.157714158473155, 33.579230417343481 ], [ -91.157922141889003, 33.579534494129661 ], [ -91.157791864766267, 33.579822969369026 ], [ -91.157569184818257, 33.579918371556232 ], [ -91.157360262616024, 33.579906659024452 ], [ -91.156869145527139, 33.579549720397246 ], [ -91.156751212764533, 33.579257548454741 ], [ -91.156911820028398, 33.579016465384278 ] ] ], [ [ [ -91.153580447052732, 33.580272212008282 ], [ -91.153899011861682, 33.580061225783425 ], [ -91.154147486219401, 33.580085459581696 ], [ -91.154764919722268, 33.5805416570551 ], [ -91.154885674143145, 33.580798517241945 ], [ -91.154754062940611, 33.581051613518675 ], [ -91.154363280395032, 33.581144502406993 ], [ -91.153868125966113, 33.580883816762572 ], [ -91.153551493031316, 33.58048018755688 ], [ -91.153580447052732, 33.580272212008282 ] ] ], [ [ [ -91.150713961691238, 33.58131073271791 ], [ -91.150954607018889, 33.581253539372661 ], [ -91.151192659423145, 33.581317887277287 ], [ -91.151495077557669, 33.581686932807301 ], [ -91.151922504676065, 33.5819258739552 ], [ -91.152275777738453, 33.58223531322632 ], [ -91.152396526778702, 33.582492175606312 ], [ -91.152264905620086, 33.582745268833627 ], [ -91.152042212401611, 33.582840660564166 ], [ -91.151793730973552, 33.58281642229759 ], [ -91.151064924419714, 33.582283339809386 ], [ -91.15094647895414, 33.582068147227886 ], [ -91.150756483313202, 33.581972590366959 ], [ -91.15053241330564, 33.581712644356365 ], [ -91.150551834760861, 33.58147018984792 ], [ -91.150713961691238, 33.58131073271791 ] ] ], [ [ [ -91.147798762775778, 33.583247551134207 ], [ -91.148031559254392, 33.583170896372238 ], [ -91.148276004415976, 33.583215410439308 ], [ -91.14946339703377, 33.584107560326274 ], [ -91.14958413994178, 33.584364425183551 ], [ -91.149452507601836, 33.584617514968365 ], [ -91.149229806619587, 33.584712901337724 ], [ -91.148943423473739, 33.584672955559896 ], [ -91.147756028987232, 33.583780800676038 ], [ -91.147638122313126, 33.583488621082935 ], [ -91.147798762775778, 33.583247551134207 ] ] ], [ [ [ -91.145773849508643, 33.585114423643532 ], [ -91.147911042737221, 33.586775745612215 ], [ -91.148001120438835, 33.587041279993926 ], [ -91.147840472977563, 33.587282349844699 ], [ -91.147565397728542, 33.587360107790019 ], [ -91.14729382213315, 33.587274163981455 ], [ -91.145217970599418, 33.585661066089777 ], [ -91.145097239225407, 33.585404197400408 ], [ -91.145228885371395, 33.58515111275684 ], [ -91.145535791341729, 33.585050065126872 ], [ -91.145773849508643, 33.585114423643532 ] ] ], [ [ [ -91.143493544458934, 33.587509218012819 ], [ -91.146555845839472, 33.589900047793122 ], [ -91.14676196326198, 33.590167043974787 ], [ -91.146723765665527, 33.590441215550648 ], [ -91.146465107018074, 33.590612479011945 ], [ -91.146068117948374, 33.590540185013403 ], [ -91.142660809882742, 33.587898490267399 ], [ -91.142541400414387, 33.587676994550463 ], [ -91.142616988274625, 33.587442376057076 ], [ -91.142813192053609, 33.587312470134862 ], [ -91.143020850238784, 33.587289867265106 ], [ -91.143493544458934, 33.587509218012819 ] ] ], [ [ [ -91.143909583174917, 33.580294489316223 ], [ -91.144309363530837, 33.580234141563544 ], [ -91.144617316938962, 33.580456389823269 ], [ -91.144707378800774, 33.580721926292824 ], [ -91.144546734957061, 33.580962992185555 ], [ -91.144146951341213, 33.581023340589603 ], [ -91.143838997252487, 33.580801091150299 ], [ -91.143748938012479, 33.580535554139686 ], [ -91.143909583174917, 33.580294489316223 ] ] ], [ [ [ -91.142092538544276, 33.582616366833584 ], [ -91.142492330672425, 33.582556025385763 ], [ -91.142872523309165, 33.582838455531551 ], [ -91.142962581881505, 33.583103993076676 ], [ -91.142801928553098, 33.583345056298043 ], [ -91.142442960726029, 33.583414612705639 ], [ -91.142100579152114, 33.583204400611905 ], [ -91.141929051536735, 33.582892741825269 ], [ -91.142092538544276, 33.582616366833584 ] ] ], [ [ [ -91.139271353427944, 33.5846086426656 ], [ -91.139630328346456, 33.584539095733682 ], [ -91.139984702019703, 33.584767978055339 ], [ -91.140074753354625, 33.585033517390769 ], [ -91.139914088332759, 33.585274576391861 ], [ -91.139555110525123, 33.585344124043132 ], [ -91.139200735764561, 33.585115240468788 ], [ -91.13911068706723, 33.584849700589025 ], [ -91.139271353427944, 33.5846086426656 ] ] ], [ [ [ -91.136783299304881, 33.586312808414228 ], [ -91.137183111477626, 33.586252484875992 ], [ -91.137597138289834, 33.586561314025225 ], [ -91.13768718381624, 33.586826854839501 ], [ -91.137526508731426, 33.587067910330738 ], [ -91.137126692951938, 33.587128234850923 ], [ -91.136712665283213, 33.586819404118003 ], [ -91.136622622785609, 33.586553862696462 ], [ -91.136783299304881, 33.586312808414228 ] ] ], [ [ [ -91.140285704649926, 33.589367683084781 ], [ -91.140560792108005, 33.589289941798391 ], [ -91.140832366524066, 33.589375900355293 ], [ -91.143168584074374, 33.591357616615532 ], [ -91.144356499424759, 33.592407770701421 ], [ -91.144421991516026, 33.592644506544957 ], [ -91.1442931624469, 33.592862276613424 ], [ -91.14402849716619, 33.592962217389257 ], [ -91.143748149089063, 33.592898957471995 ], [ -91.142169416465862, 33.591594718193598 ], [ -91.14019051024502, 33.58984547966341 ], [ -91.140125031573049, 33.589608741944787 ], [ -91.140285704649926, 33.589367683084781 ] ] ] ] } },
{ "type": "Feature", "properties": { "depth_bin": ">20 ft", "survey_id": "LM_12_EYB_20250522_CS_5602_5584", "date": "2025-05-22 00:00:00+00:00", "year": 2025, "mile": 559.0, "bin_order": 0 }, "geometry": { "type": "MultiPolygon", "coordinates": [ [ [ [ -91.161268542161693, 33.569112391525323 ], [ -91.161617558507245, 33.569013664941927 ], [ -91.16193013883246, 33.569176881598551 ], [ -91.164574885414439, 33.572534471305133 ], [ -91.164612386014696, 33.572775435709687 ], [ -91.16442435458184, 33.57300219435546 ], [ -91.164059020386134, 33.57304203249884 ], [ -91.163721858678215, 33.572786861986941 ], [ -91.161184227510049, 33.569536235757845 ], [ -91.161139792438306, 33.569330182552797 ], [ -91.161268542161693, 33.569112391525323 ] ] ], [ [ [ -91.158653797968299, 33.570730307023673 ], [ -91.161709308912194, 33.574265935646743 ], [ -91.161735802103237, 33.574541074650426 ], [ -91.16152211271698, 33.574751308301174 ], [ -91.161234242960589, 33.57478269165869 ], [ -91.160987932359191, 33.574654084210742 ], [ -91.158767079138968, 33.572004772929844 ], [ -91.158005937526838, 33.571204555400051 ], [ -91.157915842921781, 33.570939027178362 ], [ -91.158044603169003, 33.570721239916182 ], [ -91.158351443814411, 33.570620158016041 ], [ -91.158653797968299, 33.570730307023673 ] ] ], [ [ [ -91.166855264303649, 33.576233302661791 ], [ -91.167162115553381, 33.57613219930149 ], [ -91.167464500837212, 33.576242327705778 ], [ -91.167585288126375, 33.576499176732099 ], [ -91.167453720503744, 33.576752288164798 ], [ -91.167146867328782, 33.576853392176346 ], [ -91.166844480391092, 33.576743262947481 ], [ -91.166723695027159, 33.576486413269926 ], [ -91.166855264303649, 33.576233302661791 ] ] ], [ [ [ -91.155444176099422, 33.572884853773601 ], [ -91.155708766942467, 33.572784885725682 ], [ -91.156022567414027, 33.572869702890699 ], [ -91.157240513265805, 33.574080527863046 ], [ -91.158703809942494, 33.575657779183857 ], [ -91.158741295063948, 33.575898744745842 ], [ -91.158587645694823, 33.576104918920862 ], [ -91.158187892235887, 33.576165313851952 ], [ -91.157873088512531, 33.57593938041326 ], [ -91.155380916258352, 33.573339369187991 ], [ -91.155315405971052, 33.573102637925352 ], [ -91.155444176099422, 33.572884853773601 ] ] ], [ [ [ -91.153418949760876, 33.5749105170609 ], [ -91.156252591486265, 33.577809710891408 ], [ -91.156214431129712, 33.57808388712396 ], [ -91.155955828362082, 33.578255172652057 ], [ -91.155628269660426, 33.578223230029636 ], [ -91.152746451819112, 33.575355936602278 ], [ -91.152680947538869, 33.575119204210338 ], [ -91.152809727396871, 33.574901423195719 ], [ -91.153116588554568, 33.574800355057612 ], [ -91.153418949760876, 33.5749105170609 ] ] ], [ [ [ -91.150456269633196, 33.576627797331234 ], [ -91.153358583130483, 33.579294480051679 ], [ -91.153417142753042, 33.579566123470009 ], [ -91.153229067252994, 33.579792863364759 ], [ -91.152824148515137, 33.579820151426759 ], [ -91.152345810732186, 33.579440849991116 ], [ -91.149908518186535, 33.577166554626487 ], [ -91.149816934621398, 33.576971709950726 ], [ -91.149870110193021, 33.576767112997437 ], [ -91.150128719788739, 33.576595840413439 ], [ -91.150456269633196, 33.576627797331234 ] ] ], [ [ [ -91.147084455569953, 33.5783145148797 ], [ -91.147307141937148, 33.578219131799983 ], [ -91.147555608549794, 33.578243378606246 ], [ -91.14818627689101, 33.57868759462562 ], [ -91.150814497839804, 33.5810113378841 ], [ -91.150904579408703, 33.581276870484587 ], [ -91.150775784604662, 33.581494648817035 ], [ -91.150553093158337, 33.581590037937936 ], [ -91.15034416845981, 33.581578313451757 ], [ -91.149929121984044, 33.581288804298012 ], [ -91.147624818521052, 33.579230618252126 ], [ -91.147045723521487, 33.578797824176817 ], [ -91.146955656123254, 33.578532289155532 ], [ -91.147084455569953, 33.5783145148797 ] ] ], [ [ [ -91.145559492969255, 33.581126996380533 ], [ -91.148095305790562, 33.583080093931777 ], [ -91.148121756946338, 33.583355234100772 ], [ -91.147908012892813, 33.583565442080946 ], [ -91.147661821082764, 33.583602611073374 ], [ -91.147432448259991, 33.583519036545184 ], [ -91.14471756271665, 33.581524661705743 ], [ -91.144545801034539, 33.581322440559362 ], [ -91.144233131226599, 33.581157751759825 ], [ -91.144082909058369, 33.580912023281108 ], [ -91.144158485993742, 33.580677403257937 ], [ -91.144354671764575, 33.580547494152995 ], [ -91.144562313372035, 33.580524888103824 ], [ -91.145042488980906, 33.580733300460714 ], [ -91.145331582028049, 33.581023217116325 ], [ -91.145559492969255, 33.581126996380533 ] ] ], [ [ [ -91.142401145255945, 33.582859945921911 ], [ -91.142633944956884, 33.582783301443783 ], [ -91.142914259718211, 33.582846562839116 ], [ -91.145125664464004, 33.584594473879577 ], [ -91.145457783645895, 33.584942181860711 ], [ -91.145464311304508, 33.585117357981339 ], [ -91.145342449860365, 33.585300219103665 ], [ -91.145077809212879, 33.585400163071078 ], [ -91.144797484460327, 33.585336906268644 ], [ -91.142809423621799, 33.583795421052343 ], [ -91.142267495229433, 33.583274805987685 ], [ -91.142247444841857, 33.583066097828699 ], [ -91.142401145255945, 33.582859945921911 ] ] ], [ [ [ -91.140003153837029, 33.584793084579161 ], [ -91.142710261359696, 33.586953371881258 ], [ -91.142672052911877, 33.587227541951137 ], [ -91.142413396572806, 33.587398797075693 ], [ -91.142163261348998, 33.587395040719443 ], [ -91.141876959761191, 33.587247267667017 ], [ -91.139447241939521, 33.58533969993718 ], [ -91.139327844047799, 33.585118201432046 ], [ -91.139403437944836, 33.584883585032344 ], [ -91.139680901715394, 33.584734379856819 ], [ -91.140003153837029, 33.584793084579161 ] ] ], [ [ [ -91.137073796703532, 33.586612224714358 ], [ -91.13729651498744, 33.586516860889503 ], [ -91.137545001501195, 33.586541128496485 ], [ -91.138151737247043, 33.587009376483977 ], [ -91.140210994178048, 33.588831255574497 ], [ -91.140301049830683, 33.589096794747988 ], [ -91.140172216321602, 33.589314560467592 ], [ -91.139949493606238, 33.589409929293154 ], [ -91.139700997991653, 33.589385666223883 ], [ -91.138980660050905, 33.588822064801924 ], [ -91.137035002988938, 33.58709552822247 ], [ -91.136944959246065, 33.586829987003163 ], [ -91.137073796703532, 33.586612224714358 ] ] ] ] } }
]
}
