{
"type": "FeatureCollection",
"name": "LM_15_CVB_20210425_CS_6026_6000_depth_polygons",
"crs": { "type": "name", "properties": { "name": "urn:ogc:def:crs:OGC:1.3:CRS84" } },
"features": [
{ "type": "Feature", "properties": { "depth_bin": "10-11 ft", "survey_id": "LM_15_CVB_20210425_CS_6026_6000", "date": "2021-04-25 00:00:00+00:00", "year": 2021, "mile": 601.0, "bin_order": 7 }, "geometry": { "type": "MultiPolygon", "coordinates": [ [ [ [ -91.085842862000888, 33.967520042178748 ], [ -91.086057755309469, 33.967309992402598 ], [ -91.086387968998707, 33.967288070874538 ], [ -91.086640070184984, 33.96746711887149 ], [ -91.086666381627452, 33.967742253257214 ], [ -91.086451488622899, 33.967952304096983 ], [ -91.086121272363954, 33.967974225705561 ], [ -91.08586917087365, 33.967795176645005 ], [ -91.085842862000888, 33.967520042178748 ] ] ], [ [ [ -91.082688186142988, 33.972682793963514 ], [ -91.082926776584671, 33.972491312506186 ], [ -91.083257998568598, 33.972496473541575 ], [ -91.083487828573269, 33.972695253896184 ], [ -91.083481635155067, 33.972971211483113 ], [ -91.083243044509871, 33.973162693999527 ], [ -91.082911819945679, 33.973157532835387 ], [ -91.082681990144536, 33.972958751421679 ], [ -91.082688186142988, 33.972682793963514 ] ] ], [ [ [ -91.080394098649194, 33.974954526888588 ], [ -91.080632700619404, 33.974763050345445 ], [ -91.08096393096649, 33.974768217857182 ], [ -91.081306058738605, 33.974959430899432 ], [ -91.0813384498137, 33.975298347055769 ], [ -91.081099847802662, 33.975489824955588 ], [ -91.080768614630927, 33.975484657713693 ], [ -91.080426486090204, 33.975293443160496 ], [ -91.080394098649194, 33.974954526888588 ] ] ], [ [ [ -91.090198298206204, 33.975838364670544 ], [ -91.090436881692071, 33.975646868458981 ], [ -91.090768117366835, 33.975652009699296 ], [ -91.090997973689369, 33.975850776813338 ], [ -91.09099180379998, 33.976126735470423 ], [ -91.090753220111353, 33.976318232741242 ], [ -91.090421981855869, 33.976313091372667 ], [ -91.090192125736081, 33.97611432319939 ], [ -91.090198298206204, 33.975838364670544 ] ] ], [ [ [ -91.078194850769748, 33.97733201431739 ], [ -91.078433464373575, 33.977140542511165 ], [ -91.078764703512832, 33.977145716258768 ], [ -91.078994534617038, 33.977344504940305 ], [ -91.078988325598161, 33.977620461591158 ], [ -91.078749711790294, 33.977811934456639 ], [ -91.07841847007019, 33.977806760579973 ], [ -91.078188639170023, 33.977607970839188 ], [ -91.078194850769748, 33.97733201431739 ] ] ], [ [ [ -91.051243666362708, 33.985304117865986 ], [ -91.051537694815337, 33.985068327447344 ], [ -91.051936398604141, 33.985140982402555 ], [ -91.052162615342255, 33.985617773790501 ], [ -91.052065860481335, 33.985915418689082 ], [ -91.051770738933172, 33.986040874265328 ], [ -91.0514555636762, 33.985955748064697 ], [ -91.051319931806304, 33.985779490351341 ], [ -91.051243666362708, 33.985304117865986 ] ] ], [ [ [ -91.054617767475335, 33.985632083606042 ], [ -91.054896719582757, 33.985429372847264 ], [ -91.055261792414512, 33.985480400249656 ], [ -91.055492019195654, 33.985843530023899 ], [ -91.055421225580432, 33.986113158374415 ], [ -91.055142291677171, 33.986262114297631 ], [ -91.05481861401698, 33.9862031407771 ], [ -91.054597927595537, 33.985874495299811 ], [ -91.054617767475335, 33.985632083606042 ] ] ], [ [ [ -91.057748451964102, 33.985807691198112 ], [ -91.057963460262272, 33.98559769511202 ], [ -91.058293748389303, 33.985575851799041 ], [ -91.058545839858823, 33.985754956720001 ], [ -91.058572063120067, 33.986030093394064 ], [ -91.058357055123295, 33.986240090544769 ], [ -91.058026764423829, 33.986261933936518 ], [ -91.057774672652926, 33.986082827950938 ], [ -91.057748451964102, 33.985807691198112 ] ] ], [ [ [ -91.061709309451132, 33.985980045003807 ], [ -91.061947983600845, 33.985788607568352 ], [ -91.062279253064574, 33.98579382685088 ], [ -91.062509066508852, 33.985992645558539 ], [ -91.062502802189314, 33.986268599138015 ], [ -91.062264127833757, 33.986460037633023 ], [ -91.0619328557882, 33.986454818220331 ], [ -91.061703042549752, 33.986255998453117 ], [ -91.061709309451132, 33.985980045003807 ] ] ] ] } },
{ "type": "Feature", "properties": { "depth_bin": "11-12 ft", "survey_id": "LM_15_CVB_20210425_CS_6026_6000", "date": "2021-04-25 00:00:00+00:00", "year": 2021, "mile": 601.0, "bin_order": 6 }, "geometry": { "type": "MultiPolygon", "coordinates": [ [ [ [ -91.086005684689837, 33.967546086717043 ], [ -91.086220577680635, 33.96733603664569 ], [ -91.086550791450804, 33.967314114682551 ], [ -91.086802893069262, 33.967493162359403 ], [ -91.086829205042037, 33.967768296727506 ], [ -91.086614312355266, 33.967978347862477 ], [ -91.086284096015405, 33.968000269906135 ], [ -91.086031994092906, 33.967821221165671 ], [ -91.086005684689837, 33.967546086717043 ] ] ], [ [ [ -91.093895559468351, 33.969540255284457 ], [ -91.094110438990086, 33.969330190997319 ], [ -91.094440659519094, 33.969308248050829 ], [ -91.094692784165218, 33.969487280268133 ], [ -91.094719121945744, 33.96976241375652 ], [ -91.094504242728902, 33.969972479107277 ], [ -91.094174019630046, 33.969994422134853 ], [ -91.093921894679042, 33.96981538885391 ], [ -91.093895559468351, 33.969540255284457 ] ] ], [ [ [ -91.084575876484919, 33.970253651170545 ], [ -91.084790780015396, 33.97004360404059 ], [ -91.085121004469698, 33.970021686298701 ], [ -91.085373110658381, 33.970200737003942 ], [ -91.085399418410205, 33.970475871433699 ], [ -91.085184515183656, 33.9706859196274 ], [ -91.084854288159306, 33.97070783744973 ], [ -91.084602181666682, 33.970528785680742 ], [ -91.084575876484919, 33.970253651170545 ] ] ], [ [ [ -91.074759601596512, 33.978526455200324 ], [ -91.07497455027314, 33.978316427046025 ], [ -91.075304808050163, 33.978294536884817 ], [ -91.075556916219, 33.978473607619826 ], [ -91.075583193447827, 33.978748742795553 ], [ -91.075368245074245, 33.978958772014032 ], [ -91.075037984725981, 33.978980662255083 ], [ -91.074785876254097, 33.978801590455895 ], [ -91.074759601596512, 33.978526455200324 ] ] ], [ [ [ -91.050082545902441, 33.982007896136096 ], [ -91.050297562346273, 33.981797913658191 ], [ -91.050627836640487, 33.981776090480096 ], [ -91.050879900401526, 33.981955210268282 ], [ -91.050906098309284, 33.982230347832832 ], [ -91.050691082165955, 33.982440331375287 ], [ -91.05036080529969, 33.982462154631619 ], [ -91.050108741238134, 33.982283033778884 ], [ -91.050082545902441, 33.982007896136096 ] ] ], [ [ [ -91.059510920825986, 33.982162225912269 ], [ -91.059725915304284, 33.981952226155393 ], [ -91.060056189059324, 33.981930377588284 ], [ -91.060308274023328, 33.982109478749479 ], [ -91.060334502456456, 33.982384615360459 ], [ -91.060119508279683, 33.9825946161818 ], [ -91.059789231952692, 33.982616464827771 ], [ -91.059537146687177, 33.982437362602113 ], [ -91.059510920825986, 33.982162225912269 ] ] ], [ [ [ -91.05570466911314, 33.982205130153673 ], [ -91.055919672737815, 33.981995137384317 ], [ -91.056249947120179, 33.981973299081311 ], [ -91.056502023825018, 33.982152407770812 ], [ -91.056528239950296, 33.982427544764334 ], [ -91.056313236626735, 33.98263753859819 ], [ -91.055982959672377, 33.982659376979797 ], [ -91.055730882666438, 33.98248026722581 ], [ -91.05570466911314, 33.982205130153673 ] ] ], [ [ [ -91.053359420461305, 33.982506450521761 ], [ -91.053598102421972, 33.982315029508051 ], [ -91.053929356767966, 33.982320270802248 ], [ -91.054159141021273, 33.982519104217737 ], [ -91.054152850536582, 33.982795056585481 ], [ -91.053914168369218, 33.982986478658574 ], [ -91.053582911441879, 33.982981237233652 ], [ -91.053353127395269, 33.982782402758779 ], [ -91.053359420461305, 33.982506450521761 ] ] ], [ [ [ -91.065500234767867, 33.985861889012945 ], [ -91.065738900435861, 33.985670443907786 ], [ -91.066070170184346, 33.985675652968304 ], [ -91.066299992513095, 33.985874464889356 ], [ -91.066293740473597, 33.986150419093171 ], [ -91.066055074600158, 33.986341865257877 ], [ -91.065723802269829, 33.986336656067429 ], [ -91.065493980146513, 33.986137843086823 ], [ -91.065500234767867, 33.985861889012945 ] ] ] ] } },
{ "type": "Feature", "properties": { "depth_bin": "12-13 ft", "survey_id": "LM_15_CVB_20210425_CS_6026_6000", "date": "2021-04-25 00:00:00+00:00", "year": 2021, "mile": 601.0, "bin_order": 5 }, "geometry": { "type": "MultiPolygon", "coordinates": [ [ [ [ -91.086152965908298, 33.967617201568537 ], [ -91.086342113762953, 33.967390612882866 ], [ -91.086668158685796, 33.967341828277391 ], [ -91.08694010972313, 33.967499424909803 ], [ -91.086998662210959, 33.967771085536732 ], [ -91.086809515155835, 33.967997675249876 ], [ -91.086483467771984, 33.968046460141842 ], [ -91.086211515935119, 33.967888862481956 ], [ -91.086152965908298, 33.967617201568537 ] ] ], [ [ [ -91.07485456408422, 33.978668273375312 ], [ -91.075043767015728, 33.978441704334095 ], [ -91.075369859434375, 33.978392951447873 ], [ -91.075641822565345, 33.978550573294008 ], [ -91.075700344659836, 33.978822237859774 ], [ -91.075511142527205, 33.979048807929146 ], [ -91.075185047645803, 33.979097561101312 ], [ -91.074913083715984, 33.978939938227015 ], [ -91.07485456408422, 33.978668273375312 ] ] ], [ [ [ -91.054532119112864, 33.985570498635795 ], [ -91.054721390660816, 33.985343963519298 ], [ -91.055047518562333, 33.985295265904988 ], [ -91.055319463258272, 33.985452931993557 ], [ -91.055377923797593, 33.985724603856141 ], [ -91.055188653046756, 33.985951140001504 ], [ -91.054862522680949, 33.98599983790055 ], [ -91.054590577187923, 33.98584217078313 ], [ -91.054532119112864, 33.985570498635795 ] ] ], [ [ [ -91.057669356066953, 33.985716643142148 ], [ -91.057858619871269, 33.985490102921844 ], [ -91.058184746963164, 33.985441396943912 ], [ -91.058456698257672, 33.985599056308175 ], [ -91.058515168938669, 33.985870727024761 ], [ -91.058325905931781, 33.986097268273859 ], [ -91.057999776375709, 33.98614597453674 ], [ -91.057727824283774, 33.985988314143668 ], [ -91.057669356066953, 33.985716643142148 ] ] ] ] } },
{ "type": "Feature", "properties": { "depth_bin": "13-14 ft", "survey_id": "LM_15_CVB_20210425_CS_6026_6000", "date": "2021-04-25 00:00:00+00:00", "year": 2021, "mile": 601.0, "bin_order": 4 }, "geometry": { "type": "MultiPolygon", "coordinates": [ [ [ [ -91.086316817804985, 33.967635222135634 ], [ -91.086531710292462, 33.9674251715049 ], [ -91.086861924369998, 33.967403248715762 ], [ -91.0871140269265, 33.967582295783835 ], [ -91.087140339918477, 33.967857430117036 ], [ -91.086925447735069, 33.968067481811396 ], [ -91.086595231087813, 33.968089404681088 ], [ -91.086343128227256, 33.967910356549382 ], [ -91.086316817804985, 33.967635222135634 ] ] ], [ [ [ -91.084727786018931, 33.970305786343545 ], [ -91.084942689326425, 33.970095738941467 ], [ -91.085272913964275, 33.970073820797438 ], [ -91.085525020635558, 33.970252871206078 ], [ -91.085551328886325, 33.970528005618526 ], [ -91.085336425882801, 33.97073805408435 ], [ -91.085006198674876, 33.970759972308841 ], [ -91.084754091699651, 33.970580920836454 ], [ -91.084727786018931, 33.970305786343545 ] ] ], [ [ [ -91.082816816344845, 33.972785055964877 ], [ -91.08303173073314, 33.972575012359165 ], [ -91.083361965229756, 33.972553099702097 ], [ -91.083614074762849, 33.972732154074201 ], [ -91.083640377201988, 33.973007288604947 ], [ -91.083425463117493, 33.973217333274505 ], [ -91.083095226050474, 33.973239246011914 ], [ -91.082843116213596, 33.973060190575964 ], [ -91.082816816344845, 33.972785055964877 ] ] ], [ [ [ -91.080695341384299, 33.975064373697514 ], [ -91.080933943027063, 33.974872896560363 ], [ -91.08126517385864, 33.974878063275909 ], [ -91.081495005174887, 33.975076847343402 ], [ -91.081488804763737, 33.975352804501021 ], [ -91.081250202917218, 33.975544282697356 ], [ -91.080918969505078, 33.975539115852918 ], [ -91.080689138392586, 33.97534033072624 ], [ -91.080695341384299, 33.975064373697514 ] ] ], [ [ [ -91.088000685029712, 33.977607102099007 ], [ -91.088239278376307, 33.977415610542401 ], [ -91.088570520485277, 33.977420757932094 ], [ -91.088800376046578, 33.977619529087832 ], [ -91.088794198646283, 33.977895487311407 ], [ -91.088555605096701, 33.978086979927312 ], [ -91.088224360406812, 33.978081832409202 ], [ -91.087994505048499, 33.977883060194181 ], [ -91.088000685029712, 33.977607102099007 ] ] ], [ [ [ -91.084003411880289, 33.980228563273435 ], [ -91.084218343104013, 33.980018518378692 ], [ -91.084548606350992, 33.979996603540627 ], [ -91.084800739708498, 33.980175656117289 ], [ -91.084827047090229, 33.980450790290064 ], [ -91.084612116170547, 33.980660836248958 ], [ -91.084281850352227, 33.980682751167492 ], [ -91.084029716690679, 33.980503697526707 ], [ -91.084003411880289, 33.980228563273435 ] ] ], [ [ [ -91.07188485926784, 33.979969016048379 ], [ -91.072123494086753, 33.979777557309397 ], [ -91.072454742223783, 33.979782748393745 ], [ -91.0726845648379, 33.979981548526176 ], [ -91.072678334813929, 33.98025750403437 ], [ -91.072439699790309, 33.9804489638327 ], [ -91.072108449072132, 33.980443772618862 ], [ -91.071878626662738, 33.980244971427091 ], [ -91.07188485926784, 33.979969016048379 ] ] ], [ [ [ -91.066354251937582, 33.981861888075883 ], [ -91.066592904134666, 33.98167044074048 ], [ -91.066924158532757, 33.981675646965982 ], [ -91.067153972623316, 33.981874457107942 ], [ -91.067147724283743, 33.982150411630641 ], [ -91.066909071881341, 33.98234186002545 ], [ -91.066577814901905, 33.982336653670089 ], [ -91.066348001016664, 33.982137842468724 ], [ -91.066354251937582, 33.981861888075883 ] ] ], [ [ [ -91.05593683871399, 33.982569077416819 ], [ -91.056151842749827, 33.982359084265269 ], [ -91.05648211851755, 33.982337245386915 ], [ -91.056734196770449, 33.982516353644954 ], [ -91.056760413699692, 33.982791490603645 ], [ -91.056545409965011, 33.983001484819702 ], [ -91.056215131625237, 33.983023323776671 ], [ -91.05596305307121, 33.98284421445414 ], [ -91.05593683871399, 33.982569077416819 ] ] ], [ [ [ -91.051219479925678, 33.985137489896886 ], [ -91.051458174135718, 33.98494607353998 ], [ -91.051789438266511, 33.984951320950081 ], [ -91.052019224108449, 33.98515015835806 ], [ -91.052012926085453, 33.985426110256192 ], [ -91.051774231668446, 33.985617527672588 ], [ -91.051442964955996, 33.985612280131612 ], [ -91.05121317932101, 33.985413441664136 ], [ -91.051219479925678, 33.985137489896886 ] ] ], [ [ [ -91.061647061960755, 33.985852469928354 ], [ -91.061885735872849, 33.98566103260243 ], [ -91.062217004829392, 33.985666252035422 ], [ -91.062446817794026, 33.985865070846323 ], [ -91.062440553303361, 33.986141024421357 ], [ -91.062201879185423, 33.986332462806828 ], [ -91.061870607647052, 33.98632724324365 ], [ -91.061640794888262, 33.986128423373209 ], [ -91.061647061960755, 33.985852469928354 ] ] ] ] } },
{ "type": "Feature", "properties": { "depth_bin": "14-15 ft", "survey_id": "LM_15_CVB_20210425_CS_6026_6000", "date": "2021-04-25 00:00:00+00:00", "year": 2021, "mile": 601.0, "bin_order": 3 }, "geometry": { "type": "MultiPolygon", "coordinates": [ [ [ [ -91.08646389380479, 33.967709278732521 ], [ -91.08665304107403, 33.967482689550465 ], [ -91.086979086214271, 33.96743390412734 ], [ -91.087251038144473, 33.967591500099779 ], [ -91.087309591677624, 33.967863160611003 ], [ -91.087120445207958, 33.968089750820518 ], [ -91.08679439760671, 33.968138536530155 ], [ -91.086522444876934, 33.967980939530257 ], [ -91.08646389380479, 33.967709278732521 ] ] ], [ [ [ -91.092209641007344, 33.973195656487569 ], [ -91.092424534177923, 33.972985595721809 ], [ -91.092754769103848, 33.972963657814041 ], [ -91.093006900461745, 33.973142693635893 ], [ -91.093033233337181, 33.973417827183212 ], [ -91.092818340471368, 33.973627889012754 ], [ -91.092488102975125, 33.973649827001488 ], [ -91.092235971312448, 33.973470790115869 ], [ -91.092209641007344, 33.973195656487569 ] ] ], [ [ [ -91.07498339319811, 33.978730404981299 ], [ -91.075198341882157, 33.978520376441097 ], [ -91.075528600423567, 33.978498485704819 ], [ -91.07578070966602, 33.978677556012421 ], [ -91.075806987648804, 33.97895269115881 ], [ -91.075592039267846, 33.979162720763199 ], [ -91.075261778155152, 33.979184611579356 ], [ -91.075009668609624, 33.979005540207559 ], [ -91.07498339319811, 33.978730404981299 ] ] ], [ [ [ -91.072683239387544, 33.984783147634744 ], [ -91.072872462286199, 33.984556582815998 ], [ -91.073198579201502, 33.984507836585273 ], [ -91.073470557009358, 33.984665463621319 ], [ -91.073529075363524, 33.984937128871373 ], [ -91.073339853263775, 33.985163694718537 ], [ -91.07301373388492, 33.985212441235134 ], [ -91.072741755278145, 33.985054813170677 ], [ -91.072683239387544, 33.984783147634744 ] ] ], [ [ [ -91.051154678173972, 33.98503880196639 ], [ -91.051369700088046, 33.984828817886061 ], [ -91.051699986024801, 33.98480699223898 ], [ -91.051952060780863, 33.984986110137839 ], [ -91.051978262595512, 33.985261247499544 ], [ -91.051763240982098, 33.985471232644528 ], [ -91.051432952472936, 33.985493058369926 ], [ -91.051180877416186, 33.985313939406424 ], [ -91.051154678173972, 33.98503880196639 ] ] ], [ [ [ -91.05760769150001, 33.985558485528209 ], [ -91.057822699473434, 33.985348489670429 ], [ -91.058152986649546, 33.985326646702383 ], [ -91.058405077098996, 33.985505751882833 ], [ -91.058431299868545, 33.985780888578951 ], [ -91.058216292196505, 33.985990885501344 ], [ -91.057886002447987, 33.986012728548147 ], [ -91.057633911697181, 33.985833622303076 ], [ -91.05760769150001, 33.985558485528209 ] ] ] ] } },
{ "type": "Feature", "properties": { "depth_bin": "15-17.5 ft", "survey_id": "LM_15_CVB_20210425_CS_6026_6000", "date": "2021-04-25 00:00:00+00:00", "year": 2021, "mile": 601.0, "bin_order": 2 }, "geometry": { "type": "MultiPolygon", "coordinates": [ [ [ [ -91.086648654137377, 33.967681227850584 ], [ -91.086927472991448, 33.967478439217132 ], [ -91.087376854609403, 33.96753131593762 ], [ -91.087606681791868, 33.967730088616321 ], [ -91.087600502833254, 33.968006047091372 ], [ -91.087321683717107, 33.968208837229973 ], [ -91.086872298597868, 33.968155960191964 ], [ -91.086642472095861, 33.967957186173223 ], [ -91.086648654137377, 33.967681227850584 ] ] ], [ [ [ -91.084892867337075, 33.970331985368269 ], [ -91.085131446213566, 33.970140499167996 ], [ -91.085462659510895, 33.970145653957857 ], [ -91.085801704830871, 33.97033975925175 ], [ -91.085834112970943, 33.97067867501837 ], [ -91.085595534039143, 33.970870162568481 ], [ -91.085264317907203, 33.970865008040086 ], [ -91.084925271855639, 33.97067090125055 ], [ -91.084892867337075, 33.970331985368269 ] ] ], [ [ [ -91.082976266920994, 33.972815633738549 ], [ -91.083214857130258, 33.97262415171673 ], [ -91.083546079685149, 33.972629311994432 ], [ -91.083775910729727, 33.972828091841983 ], [ -91.083769718211215, 33.973104049469512 ], [ -91.083531127798466, 33.973295532550431 ], [ -91.083199902663281, 33.973290372143992 ], [ -91.082970071822203, 33.973091591237342 ], [ -91.082976266920994, 33.972815633738549 ] ] ], [ [ [ -91.081250491949064, 33.97490589837323 ], [ -91.081835475380629, 33.975080723102778 ], [ -91.081980704582719, 33.975291432781077 ], [ -91.081910004320875, 33.975561080015602 ], [ -91.081631149072365, 33.975710099063228 ], [ -91.081031234165579, 33.975581252917472 ], [ -91.080816348476404, 33.975330173338669 ], [ -91.080845658188736, 33.975122238178898 ], [ -91.081008689915379, 33.974962912503585 ], [ -91.081250491949064, 33.97490589837323 ] ] ], [ [ [ -91.090069356851203, 33.975745411195923 ], [ -91.090329321179837, 33.975574320021494 ], [ -91.090658356711032, 33.975606485460887 ], [ -91.09086372065488, 33.975823065671015 ], [ -91.090825113101715, 33.976097191619026 ], [ -91.090565148070723, 33.976268283807336 ], [ -91.090236110047982, 33.976236118035501 ], [ -91.090030746806463, 33.976019536811499 ], [ -91.090069356851203, 33.975745411195923 ] ] ], [ [ [ -91.087870311277328, 33.977516188185668 ], [ -91.088130285353657, 33.977345102043351 ], [ -91.088459326558919, 33.977377273564095 ], [ -91.088664688779559, 33.977593857342555 ], [ -91.088626073115122, 33.977867982255624 ], [ -91.088366098336166, 33.978039069411849 ], [ -91.088037054639173, 33.978006897558501 ], [ -91.08783169312116, 33.977790312766139 ], [ -91.087870311277328, 33.977516188185668 ] ] ], [ [ [ -91.078333301725735, 33.977405618098814 ], [ -91.0785719152463, 33.977214146022462 ], [ -91.07890315469794, 33.977219319407212 ], [ -91.079132986327195, 33.977418107845679 ], [ -91.079126777738452, 33.977694064515667 ], [ -91.078888164013861, 33.977885537651289 ], [ -91.078556921981374, 33.977880364137491 ], [ -91.078327090556144, 33.97768157463976 ], [ -91.078333301725735, 33.977405618098814 ] ] ], [ [ [ -91.075125318969967, 33.978785417088332 ], [ -91.07536394339003, 33.978593951659761 ], [ -91.075733240950086, 33.978614862693249 ], [ -91.076048051864589, 33.978889324058777 ], [ -91.076022952819571, 33.979196982076076 ], [ -91.075762949917817, 33.979368041539878 ], [ -91.075433907549311, 33.979335835954579 ], [ -91.07513653521265, 33.979093643125296 ], [ -91.075125318969967, 33.978785417088332 ] ] ], [ [ [ -91.063000388217176, 33.98168059190872 ], [ -91.063239047085588, 33.981489151321675 ], [ -91.063570300123331, 33.981494366551402 ], [ -91.063800105618668, 33.981693182679045 ], [ -91.063793846483762, 33.981969136662528 ], [ -91.063555187409662, 33.982160578308964 ], [ -91.063223931790631, 33.98215536294915 ], [ -91.062994126500953, 33.981956545762131 ], [ -91.063000388217176, 33.98168059190872 ] ] ], [ [ [ -91.057553060728708, 33.985401463709238 ], [ -91.057791742115512, 33.985210034593734 ], [ -91.058123008517995, 33.985215264988128 ], [ -91.058352810395903, 33.985414091090554 ], [ -91.058346532779964, 33.985690044015954 ], [ -91.05810785118689, 33.985881474190982 ], [ -91.057776582202663, 33.985876243666134 ], [ -91.057546780531027, 33.985677416504188 ], [ -91.057553060728708, 33.985401463709238 ] ] ], [ [ [ -91.054506889525271, 33.985373575432241 ], [ -91.054745577368237, 33.985182152465363 ], [ -91.055076843063006, 33.985187391056947 ], [ -91.055306637483866, 33.985386222603459 ], [ -91.055300350029555, 33.985662175030775 ], [ -91.055061661979991, 33.985853599057137 ], [ -91.054730393703494, 33.985848360334906 ], [ -91.054500599489245, 33.985649527728889 ], [ -91.054506889525271, 33.985373575432241 ] ] ], [ [ [ -91.065441019164254, 33.985708618018613 ], [ -91.065701061624395, 33.985537581936129 ], [ -91.066030122817011, 33.985569814239064 ], [ -91.066235444920494, 33.98578643391776 ], [ -91.066196752532662, 33.986060548819218 ], [ -91.065936709367321, 33.986231585915547 ], [ -91.065607645682562, 33.986199353278479 ], [ -91.065402324284278, 33.985982732585931 ], [ -91.065441019164254, 33.985708618018613 ] ] ], [ [ [ -91.061598485343026, 33.985696524136131 ], [ -91.061858535061035, 33.985525496447096 ], [ -91.062187594240285, 33.985557738982216 ], [ -91.0623929062385, 33.985774364738113 ], [ -91.062354201572745, 33.98604847800182 ], [ -91.062094151149154, 33.986219506704622 ], [ -91.061765089477859, 33.98618726383512 ], [ -91.061559778185241, 33.985970637065428 ], [ -91.061598485343026, 33.985696524136131 ] ] ] ] } },
{ "type": "Feature", "properties": { "depth_bin": "17.5-20 ft", "survey_id": "LM_15_CVB_20210425_CS_6026_6000", "date": "2021-04-25 00:00:00+00:00", "year": 2021, "mile": 601.0, "bin_order": 1 }, "geometry": { "type": "MultiPolygon", "coordinates": [ [ [ [ -91.086961523654324, 33.967765295094758 ], [ -91.087200090631754, 33.967573804399606 ], [ -91.087531294379815, 33.967578953282072 ], [ -91.087761122058865, 33.967777725687476 ], [ -91.087754943587996, 33.968053684185286 ], [ -91.087516376407535, 33.968245175939337 ], [ -91.087185170079806, 33.968240026928413 ], [ -91.086955342603787, 33.968041253464115 ], [ -91.086961523654324, 33.967765295094758 ] ] ], [ [ [ -91.093751707145927, 33.969466539915061 ], [ -91.093990264486152, 33.969275035738583 ], [ -91.094321476141687, 33.969280166573022 ], [ -91.094551324640975, 33.969478926935686 ], [ -91.094545167707395, 33.969754886450588 ], [ -91.094306610164836, 33.969946391686051 ], [ -91.093975395929377, 33.969941260723601 ], [ -91.093745547632409, 33.969742499301958 ], [ -91.093751707145927, 33.969466539915061 ] ] ], [ [ [ -91.085187310907727, 33.970453816527019 ], [ -91.085425889506112, 33.97026232974811 ], [ -91.085757103332824, 33.970267483761717 ], [ -91.085986933644534, 33.970466259507482 ], [ -91.085980748817988, 33.970742217598279 ], [ -91.08574217001636, 33.970933705436209 ], [ -91.085410953609653, 33.970928551294016 ], [ -91.085181123501172, 33.970729774489214 ], [ -91.085187310907727, 33.970453816527019 ] ] ], [ [ [ -91.083140076549924, 33.972852459792591 ], [ -91.083400044943915, 33.972681383365568 ], [ -91.083729065847436, 33.972713566886789 ], [ -91.083934405038917, 33.972930157921375 ], [ -91.083895777107841, 33.973204281095498 ], [ -91.083635808010897, 33.973375358536167 ], [ -91.08330678461634, 33.973343174682093 ], [ -91.083101446127813, 33.97312658263386 ], [ -91.083140076549924, 33.972852459792591 ] ] ], [ [ [ -91.081330564445096, 33.975230513653941 ], [ -91.081590543755553, 33.975059441489392 ], [ -91.081919572858865, 33.975091630132688 ], [ -91.082124912730279, 33.975308224148577 ], [ -91.082086277560805, 33.975582346416907 ], [ -91.081826297547124, 33.975753419595151 ], [ -91.081497265952564, 33.975721230618831 ], [ -91.08129192678436, 33.975504635589246 ], [ -91.081330564445096, 33.975230513653941 ] ] ], [ [ [ -91.087696304869425, 33.977498803589093 ], [ -91.087934898554963, 33.977307312632959 ], [ -91.088266140184999, 33.977312460827612 ], [ -91.088495994730053, 33.977511232521273 ], [ -91.08848981637145, 33.977787190700631 ], [ -91.08825122248291, 33.977978682716063 ], [ -91.087919978271955, 33.97797353439298 ], [ -91.087690123929931, 33.977774761640028 ], [ -91.087696304869425, 33.977498803589093 ] ] ], [ [ [ -91.078489686216685, 33.97745263509259 ], [ -91.078749677913208, 33.977281569422679 ], [ -91.079078714092432, 33.977313765915021 ], [ -91.079284051584764, 33.977530364536648 ], [ -91.079245405974618, 33.977804485469441 ], [ -91.078985413574514, 33.977975552153097 ], [ -91.078656374903829, 33.97794335532754 ], [ -91.078451038115062, 33.977726755692167 ], [ -91.078489686216685, 33.97745263509259 ] ] ], [ [ [ -91.075397442385025, 33.97893044656103 ], [ -91.075657444604047, 33.978759387837854 ], [ -91.075986484874903, 33.978791592753929 ], [ -91.076191817631255, 33.979008196341923 ], [ -91.076153161231517, 33.979282315874492 ], [ -91.075893158308546, 33.979453375611406 ], [ -91.075564115546129, 33.97942117036191 ], [ -91.075358783493712, 33.97920456576017 ], [ -91.075397442385025, 33.97893044656103 ] ] ], [ [ [ -91.083883027612785, 33.980116359764374 ], [ -91.084121637097368, 33.979924876830424 ], [ -91.084452888140603, 33.979930035636784 ], [ -91.084682740199071, 33.980128814315641 ], [ -91.084676548910423, 33.980404771761933 ], [ -91.084437939222383, 33.980596255755287 ], [ -91.084106685597931, 33.980591096820241 ], [ -91.083876833742906, 33.980392317081979 ], [ -91.083883027612785, 33.980116359764374 ] ] ], [ [ [ -91.079886458070462, 33.982167009634935 ], [ -91.08014646194691, 33.981995941534286 ], [ -91.080475516928374, 33.982028134910486 ], [ -91.080680868831607, 33.982244731555987 ], [ -91.080642224799305, 33.982518852810358 ], [ -91.080382220219263, 33.982689921924973 ], [ -91.080053162745727, 33.982657728215585 ], [ -91.079847811546074, 33.982441130556147 ], [ -91.079886458070462, 33.982167009634935 ] ] ], [ [ [ -91.06917794601496, 33.985554562054652 ], [ -91.069437980893596, 33.985383517788257 ], [ -91.069767043406401, 33.985415740118739 ], [ -91.069972374958496, 33.985632353878017 ], [ -91.069933694613084, 33.985906470380634 ], [ -91.069673659029647, 33.986077515660931 ], [ -91.069344594024614, 33.98604529299655 ], [ -91.069139263177334, 33.985828678223378 ], [ -91.06917794601496, 33.985554562054652 ] ] ], [ [ [ -91.063058160965539, 33.981809594841977 ], [ -91.06329682008527, 33.981618154154624 ], [ -91.063628073634732, 33.981623369246137 ], [ -91.063857879602466, 33.981822185278617 ], [ -91.063851620623879, 33.982098139265744 ], [ -91.063612961298489, 33.982289581012495 ], [ -91.063281705167711, 33.982284365790903 ], [ -91.063051899405636, 33.982085548699025 ], [ -91.063058160965539, 33.981809594841977 ] ] ], [ [ [ -91.053415761268113, 33.982635548486648 ], [ -91.05365444348358, 33.982444127375558 ], [ -91.053985698341478, 33.982449368535498 ], [ -91.054215483063899, 33.982648201858474 ], [ -91.054209192730738, 33.982924154229678 ], [ -91.053970510308559, 33.983115576400159 ], [ -91.053639252869317, 33.983110335109494 ], [ -91.053409468353593, 33.982911500727113 ], [ -91.053415761268113, 33.982635548486648 ] ] ], [ [ [ -91.051092188018913, 33.98473807795262 ], [ -91.051412542912104, 33.984527430828152 ], [ -91.051769846221958, 33.984608030764974 ], [ -91.051954767632935, 33.98498865004246 ], [ -91.051852579381034, 33.985251196503327 ], [ -91.051557459891939, 33.985376651649766 ], [ -91.051242287295693, 33.985291524986998 ], [ -91.051097120035905, 33.9850807813785 ], [ -91.051092188018913, 33.98473807795262 ] ] ], [ [ [ -91.054377371438264, 33.984947704320398 ], [ -91.054678830217654, 33.984768746676927 ], [ -91.055067068339866, 33.984873596429424 ], [ -91.055281417478071, 33.985359739522288 ], [ -91.055150116890573, 33.985648054839906 ], [ -91.05484165893796, 33.985748817558779 ], [ -91.054538014438094, 33.985638374736645 ], [ -91.054329103496926, 33.985187328721054 ], [ -91.054377371438264, 33.984947704320398 ] ] ], [ [ [ -91.057501383634744, 33.985244764626145 ], [ -91.05776143970823, 33.985073745829332 ], [ -91.058090495054756, 33.985105999217502 ], [ -91.058295795277118, 33.985322631429916 ], [ -91.05825707779023, 33.985596742971381 ], [ -91.057997021010763, 33.985767762781897 ], [ -91.057667963172349, 33.985735509059069 ], [ -91.057462663655969, 33.985518875832959 ], [ -91.057501383634744, 33.985244764626145 ] ] ], [ [ [ -91.065271622964715, 33.985495466229303 ], [ -91.06555055050724, 33.985292730398065 ], [ -91.065915630715693, 33.985343726367937 ], [ -91.066160764031309, 33.985663881980912 ], [ -91.066099547029069, 33.985968002400426 ], [ -91.065820631043167, 33.986116983218125 ], [ -91.065496945138236, 33.986058037571347 ], [ -91.065251813321396, 33.985737880701386 ], [ -91.065271622964715, 33.985495466229303 ] ] ], [ [ [ -91.061524031357109, 33.985572758167955 ], [ -91.061784080826797, 33.985401730625227 ], [ -91.062113139492894, 33.98543397334263 ], [ -91.062318451013738, 33.985650599210047 ], [ -91.062279746186022, 33.985924712449133 ], [ -91.062019696010751, 33.986095741005656 ], [ -91.061690634852624, 33.986063497953836 ], [ -91.061485324037363, 33.985846871072653 ], [ -91.061524031357109, 33.985572758167955 ] ] ] ] } },
{ "type": "Feature", "properties": { "depth_bin": "5-6 ft", "survey_id": "LM_15_CVB_20210425_CS_6026_6000", "date": "2021-04-25 00:00:00+00:00", "year": 2021, "mile": 601.0, "bin_order": 12 }, "geometry": { "type": "MultiPolygon", "coordinates": [ [ [ [ -91.083977304788505, 33.970022217892307 ], [ -91.084192209129057, 33.969812171831549 ], [ -91.084522432759172, 33.969790255670674 ], [ -91.084882926659944, 33.969960194387504 ], [ -91.084955046253853, 33.970294831989463 ], [ -91.084740142450229, 33.970504879390511 ], [ -91.084409916073568, 33.970526796040353 ], [ -91.084049420846412, 33.970356855901777 ], [ -91.083977304788505, 33.970022217892307 ] ] ], [ [ [ -91.082373502225281, 33.972601280126177 ], [ -91.082588417180844, 33.972391237310937 ], [ -91.082918651018872, 33.972369325823166 ], [ -91.083170759053303, 33.972548381058466 ], [ -91.08319706003158, 33.972823515640627 ], [ -91.082982145379759, 33.973033559519713 ], [ -91.082651908971357, 33.973055471087811 ], [ -91.082399800633169, 33.972876414788665 ], [ -91.082373502225281, 33.972601280126177 ] ] ], [ [ [ -91.07992181337957, 33.974827687769903 ], [ -91.080136740033311, 33.974617649712599 ], [ -91.080466982815878, 33.974595745134877 ], [ -91.080719091801853, 33.974774805384605 ], [ -91.080745385181089, 33.975049940148281 ], [ -91.080530458830864, 33.975259979269545 ], [ -91.080200213477596, 33.975281883927437 ], [ -91.079948104188091, 33.975102822613756 ], [ -91.07992181337957, 33.974827687769903 ] ] ], [ [ [ -91.055769172144409, 33.982331541163667 ], [ -91.055984175950186, 33.982121548291168 ], [ -91.056314450815691, 33.982099709831814 ], [ -91.056566528022685, 33.982278818403358 ], [ -91.056592744374996, 33.982553955386408 ], [ -91.056377740870346, 33.98276394932342 ], [ -91.056047463432819, 33.982785787861367 ], [ -91.055795385924725, 33.982606678225324 ], [ -91.055769172144409, 33.982331541163667 ] ] ], [ [ [ -91.057886676706914, 33.986057186596803 ], [ -91.058101685336609, 33.985847190287082 ], [ -91.05843197441601, 33.985825346636041 ], [ -91.058684066900852, 33.98600445130252 ], [ -91.058710290645621, 33.986279587954776 ], [ -91.058495282317338, 33.986489585329124 ], [ -91.058164990665489, 33.986511429058957 ], [ -91.057912897879234, 33.986332323327836 ], [ -91.057886676706914, 33.986057186596803 ] ] ], [ [ [ -91.054760873413585, 33.986055439901556 ], [ -91.05497588945768, 33.985845449326526 ], [ -91.055306178908339, 33.985823614100426 ], [ -91.055558264503887, 33.986002724946999 ], [ -91.05558447813425, 33.986277861914324 ], [ -91.055369462391241, 33.98648785355401 ], [ -91.055039170368076, 33.986509688858696 ], [ -91.054787084471457, 33.986330576947438 ], [ -91.054760873413585, 33.986055439901556 ] ] ], [ [ [ -91.061839494672554, 33.986233183354209 ], [ -91.062078169279474, 33.986041745687935 ], [ -91.06240943975088, 33.986046964653951 ], [ -91.062639254163059, 33.98624578314481 ], [ -91.062632990204662, 33.986521736734211 ], [ -91.062394315391899, 33.986713175460046 ], [ -91.062063042338636, 33.986707956363851 ], [ -91.061833228132286, 33.986509136813446 ], [ -91.061839494672554, 33.986233183354209 ] ] ], [ [ [ -91.051636813976756, 33.986322849130431 ], [ -91.051875510741738, 33.986131432081343 ], [ -91.052206779553742, 33.986136678527878 ], [ -91.052436569461079, 33.986335515265331 ], [ -91.052430272506228, 33.986611467178818 ], [ -91.052191575534323, 33.986802885287446 ], [ -91.051860304140504, 33.986797638710065 ], [ -91.051630514440077, 33.986598800913065 ], [ -91.051636813976756, 33.986322849130431 ] ] ] ] } },
{ "type": "Feature", "properties": { "depth_bin": "6-7 ft", "survey_id": "LM_15_CVB_20210425_CS_6026_6000", "date": "2021-04-25 00:00:00+00:00", "year": 2021, "mile": 601.0, "bin_order": 11 }, "geometry": { "type": "MultiPolygon", "coordinates": [ [ [ [ -91.092341778579026, 33.973298046352589 ], [ -91.09253092380996, 33.9730714482141 ], [ -91.092856987864934, 33.973022647865946 ], [ -91.09312896858323, 33.973180231687309 ], [ -91.093187543914766, 33.973451889939412 ], [ -91.09299839948423, 33.973678489105467 ], [ -91.092672332967794, 33.97372728974058 ], [ -91.092400351449086, 33.973569704891666 ], [ -91.092341778579026, 33.973298046352589 ] ] ], [ [ [ -91.051462217557358, 33.985996798067696 ], [ -91.051727087713758, 33.98573813506718 ], [ -91.051977628906798, 33.985721578660289 ], [ -91.052166059039621, 33.985799502828684 ], [ -91.052413323229871, 33.986272130942581 ], [ -91.052316568376554, 33.986569776013226 ], [ -91.052021444854645, 33.986695232112417 ], [ -91.051706266930609, 33.986610106469719 ], [ -91.051516700657956, 33.986304709154943 ], [ -91.051462217557358, 33.985996798067696 ] ] ] ] } },
{ "type": "Feature", "properties": { "depth_bin": "7-8 ft", "survey_id": "LM_15_CVB_20210425_CS_6026_6000", "date": "2021-04-25 00:00:00+00:00", "year": 2021, "mile": 601.0, "bin_order": 10 }, "geometry": { "type": "MultiPolygon", "coordinates": [ [ [ [ -91.085534210793782, 33.967420448614476 ], [ -91.085749104572159, 33.967210399391931 ], [ -91.086079317913146, 33.967188478681763 ], [ -91.086331418137064, 33.96736752728178 ], [ -91.086357728566796, 33.967642661702484 ], [ -91.086142835092389, 33.967852711988648 ], [ -91.085812619181723, 33.967874632779328 ], [ -91.085560518653821, 33.967695583115677 ], [ -91.085534210793782, 33.967420448614476 ] ] ], [ [ [ -91.084280009182521, 33.970131058193211 ], [ -91.084494913091788, 33.969921011590763 ], [ -91.08482513710689, 33.969899094629241 ], [ -91.085077242295668, 33.970078145910591 ], [ -91.085103549072585, 33.970353280374695 ], [ -91.084888645467217, 33.970563328040875 ], [ -91.084558418882082, 33.970585245082837 ], [ -91.084306313389405, 33.970406192737755 ], [ -91.084280009182521, 33.970131058193211 ] ] ], [ [ [ -91.082523762817218, 33.972656807931187 ], [ -91.082738677562645, 33.972446764847206 ], [ -91.08306891159765, 33.972424852962185 ], [ -91.083321020120792, 33.9726039079044 ], [ -91.083347321593223, 33.972879042469351 ], [ -91.083132407151552, 33.973089086617179 ], [ -91.082802170546159, 33.973110998582534 ], [ -91.082550061719246, 33.972931942576466 ], [ -91.082523762817218, 33.972656807931187 ] ] ], [ [ [ -91.080087380365356, 33.974852021435268 ], [ -91.08032598269611, 33.974660545498089 ], [ -91.080657212586104, 33.974665713821743 ], [ -91.080887041882733, 33.974864498963491 ], [ -91.080880839556968, 33.975140456032236 ], [ -91.080642237022388, 33.975331933028585 ], [ -91.080311004551874, 33.975326764575996 ], [ -91.080081175459057, 33.975127978375077 ], [ -91.080087380365356, 33.974852021435268 ] ] ], [ [ [ -91.07805166520582, 33.97726382579706 ], [ -91.078290278918828, 33.977072354271193 ], [ -91.078621517765782, 33.977077528395142 ], [ -91.078851348347428, 33.977276317328531 ], [ -91.078845138881832, 33.977552273959247 ], [ -91.078606524964798, 33.977743746544377 ], [ -91.07827528353701, 33.977738572291365 ], [ -91.078045453159405, 33.977539782298706 ], [ -91.07805166520582, 33.97726382579706 ] ] ], [ [ [ -91.084145677971065, 33.980296063394647 ], [ -91.084360609035187, 33.980086018247206 ], [ -91.084690872526664, 33.980064103034984 ], [ -91.084943006389551, 33.980243155335181 ], [ -91.084969314241505, 33.980518289491165 ], [ -91.084754383481439, 33.980728335702757 ], [ -91.084424117418621, 33.980750250995463 ], [ -91.084171983251679, 33.980571197631114 ], [ -91.084145677971065, 33.980296063394647 ] ] ], [ [ [ -91.053251277743627, 33.982391450271834 ], [ -91.053489959601649, 33.982200029461907 ], [ -91.053821213480234, 33.982205271031717 ], [ -91.054050997175153, 33.98240410463319 ], [ -91.054044706368188, 33.982680056988329 ], [ -91.053806024303469, 33.982871478857639 ], [ -91.053474767843554, 33.982866237157097 ], [ -91.053244984355345, 33.982667402496233 ], [ -91.053251277743627, 33.982391450271834 ] ] ], [ [ [ -91.065584972036461, 33.985980232510038 ], [ -91.06582363786687, 33.985788787248772 ], [ -91.066154908091121, 33.985793996097001 ], [ -91.066384730930253, 33.98599280787397 ], [ -91.066378479136816, 33.98626876208629 ], [ -91.066139813100946, 33.986460208407124 ], [ -91.065808540294839, 33.986454999428965 ], [ -91.065578717661154, 33.986256186592449 ], [ -91.065584972036461, 33.985980232510038 ] ] ], [ [ [ -91.057814081534175, 33.985934039394678 ], [ -91.058029090010621, 33.985724043203348 ], [ -91.058359378620466, 33.985702199730945 ], [ -91.058611470594542, 33.985881304531681 ], [ -91.058637694086514, 33.986156441195135 ], [ -91.058422685911466, 33.986366438451086 ], [ -91.058092394729186, 33.98638828200226 ], [ -91.057840302453727, 33.986209176136896 ], [ -91.057814081534175, 33.985934039394678 ] ] ], [ [ [ -91.054722695468726, 33.985892988614431 ], [ -91.054961384360382, 33.985701565277687 ], [ -91.05529265211284, 33.985706803358262 ], [ -91.055522448395052, 33.985905634551976 ], [ -91.055516161515456, 33.986181586991357 ], [ -91.055277472417217, 33.986373011387634 ], [ -91.054946202082974, 33.986367773176411 ], [ -91.05471640600733, 33.986168940923186 ], [ -91.054722695468726, 33.985892988614431 ] ] ], [ [ [ -91.061774422722607, 33.986107081079126 ], [ -91.062013097102238, 33.985915643528273 ], [ -91.062344367071617, 33.985920862652556 ], [ -91.062574181001096, 33.9861196812518 ], [ -91.062567916862079, 33.986395634836221 ], [ -91.062329242276604, 33.986587073446628 ], [ -91.061997969725383, 33.986581854192167 ], [ -91.061768156001733, 33.986383034533375 ], [ -91.061774422722607, 33.986107081079126 ] ] ] ] } },
{ "type": "Feature", "properties": { "depth_bin": "8-9 ft", "survey_id": "LM_15_CVB_20210425_CS_6026_6000", "date": "2021-04-25 00:00:00+00:00", "year": 2021, "mile": 601.0, "bin_order": 9 }, "geometry": { "type": "MultiPolygon", "coordinates": [ [ [ [ -91.085676711371235, 33.967506844799075 ], [ -91.085865860194573, 33.967280256877132 ], [ -91.086191904902435, 33.967231473528308 ], [ -91.086463854667073, 33.96738907117421 ], [ -91.086522405569951, 33.967660731977787 ], [ -91.086333257546102, 33.967887320927218 ], [ -91.086007210377232, 33.967936104562497 ], [ -91.08573525981312, 33.967778505889115 ], [ -91.085676711371235, 33.967506844799075 ] ] ], [ [ [ -91.084427864384153, 33.97019470514384 ], [ -91.084642768110427, 33.969984658278072 ], [ -91.084972992354253, 33.969962740926903 ], [ -91.085225098049506, 33.970141791920511 ], [ -91.085251405313983, 33.970416926367385 ], [ -91.085036501891622, 33.970626974296898 ], [ -91.08470627507775, 33.970648891728516 ], [ -91.084454169078569, 33.970469839671154 ], [ -91.084427864384153, 33.97019470514384 ] ] ], [ [ [ -91.080225533761237, 33.974934387822636 ], [ -91.080440459975677, 33.974724349221432 ], [ -91.080770703135016, 33.974702443839931 ], [ -91.081022813093128, 33.974881503496881 ], [ -91.081049107470449, 33.97515663822599 ], [ -91.080834181559538, 33.975366677891166 ], [ -91.080503935829498, 33.975388583352846 ], [ -91.080251825567828, 33.975209522631943 ], [ -91.080225533761237, 33.974934387822636 ] ] ], [ [ [ -91.090325583960777, 33.975940022110713 ], [ -91.090540488848632, 33.975729965121978 ], [ -91.090870734661763, 33.975708032663725 ], [ -91.091122869699475, 33.975887072415397 ], [ -91.091149196891664, 33.976162206070939 ], [ -91.090934292308447, 33.97637226412359 ], [ -91.090604043924628, 33.976394196662696 ], [ -91.090351908582278, 33.976215155847129 ], [ -91.090325583960777, 33.975940022110713 ] ] ], [ [ [ -91.074360487846931, 33.978279704098476 ], [ -91.074575436819288, 33.978069676646392 ], [ -91.074905693687242, 33.97804778752684 ], [ -91.07515780027471, 33.978226859032787 ], [ -91.075184076176185, 33.978501994257137 ], [ -91.074969127506833, 33.978712022773394 ], [ -91.074638868067666, 33.97873391197276 ], [ -91.074386761177195, 33.978554839402648 ], [ -91.074360487846931, 33.978279704098476 ] ] ], [ [ [ -91.051423834301204, 33.985832483658804 ], [ -91.051638857675343, 33.985622499180096 ], [ -91.051969146662501, 33.985600672917677 ], [ -91.0522212242725, 33.98577979034463 ], [ -91.052247427072857, 33.986054927654365 ], [ -91.052032403999434, 33.986264913197736 ], [ -91.05170211243977, 33.986286739538542 ], [ -91.05145003452904, 33.986107621046877 ], [ -91.051423834301204, 33.985832483658804 ] ] ], [ [ [ -91.065645739395251, 33.986135511230508 ], [ -91.065860729813323, 33.98592550069732 ], [ -91.066191018254244, 33.985903636143874 ], [ -91.066443128047723, 33.986082725472976 ], [ -91.066469376909666, 33.986357861337254 ], [ -91.066254386793815, 33.986567872935005 ], [ -91.065924095780545, 33.986589737567741 ], [ -91.065671985684844, 33.986410647174075 ], [ -91.065645739395251, 33.986135511230508 ] ] ] ] } },
{ "type": "Feature", "properties": { "depth_bin": "9-10 ft", "survey_id": "LM_15_CVB_20210425_CS_6026_6000", "date": "2021-04-25 00:00:00+00:00", "year": 2021, "mile": 601.0, "bin_order": 8 }, "geometry": { "type": "MultiPolygon", "coordinates": [ [ [ [ -91.088126108265371, 33.977726929204955 ], [ -91.088315274764184, 33.977500338426083 ], [ -91.088641357721869, 33.977451549952683 ], [ -91.088913343905233, 33.977609143208028 ], [ -91.088971908062632, 33.977880802927217 ], [ -91.088782742363975, 33.978107394733897 ], [ -91.088456656944146, 33.978156183494058 ], [ -91.088184669960611, 33.97799858921092 ], [ -91.088126108265371, 33.977726929204955 ] ] ], [ [ [ -91.074487057414487, 33.978367947414057 ], [ -91.074740741604103, 33.97814339243962 ], [ -91.075071983913546, 33.978148576260672 ], [ -91.075412811098516, 33.978402205725189 ], [ -91.075424028399439, 33.978710431788222 ], [ -91.075185403769652, 33.978901897323382 ], [ -91.074854158516388, 33.978896713707123 ], [ -91.074534481736904, 33.978673773550845 ], [ -91.074487057414487, 33.978367947414057 ] ] ], [ [ [ -91.06926924975599, 33.981049315967709 ], [ -91.069484218130981, 33.980839298180868 ], [ -91.069814486376458, 33.980817423161639 ], [ -91.070066589651859, 33.980996504943398 ], [ -91.070092849491459, 33.981271640599751 ], [ -91.069877881418975, 33.981481659450893 ], [ -91.069547610601845, 33.981503534549603 ], [ -91.069295507023952, 33.981324451703536 ], [ -91.06926924975599, 33.981049315967709 ] ] ], [ [ [ -91.055845246575643, 33.9824533502862 ], [ -91.056060250522876, 33.982243357288773 ], [ -91.056390525852251, 33.982221518641254 ], [ -91.056642603573763, 33.982400627071605 ], [ -91.056668820189884, 33.982675764043172 ], [ -91.056453816543751, 33.982885758105098 ], [ -91.056123538642382, 33.98290759683124 ], [ -91.055871460619727, 33.982728487336381 ], [ -91.055845246575643, 33.9824533502862 ] ] ], [ [ [ -91.051285060974919, 33.985436958855978 ], [ -91.05157908979443, 33.985201168355132 ], [ -91.051977794240358, 33.985273823197574 ], [ -91.052208026913021, 33.985749602044812 ], [ -91.052111272036029, 33.98604724697342 ], [ -91.051816150083368, 33.98617270264252 ], [ -91.051500974294839, 33.986087576541401 ], [ -91.051365342132755, 33.985911318871118 ], [ -91.051285060974919, 33.985436958855978 ] ] ] ] } },
{ "type": "Feature", "properties": { "depth_bin": "<5 ft", "survey_id": "LM_15_CVB_20210425_CS_6026_6000", "date": "2021-04-25 00:00:00+00:00", "year": 2021, "mile": 601.0, "bin_order": 13 }, "geometry": { "type": "MultiPolygon", "coordinates": [ [ [ [ -91.08031721911118, 33.965734690700238 ], [ -91.085961529939212, 33.967160957406868 ], [ -91.086191352741253, 33.967359732594225 ], [ -91.086185169297508, 33.96763569085747 ], [ -91.086022161563562, 33.967795024388835 ], [ -91.085780382628741, 33.967852048766794 ], [ -91.084381936082778, 33.967539082701286 ], [ -91.080242851585581, 33.966483226439465 ], [ -91.07992709389373, 33.96631636261445 ], [ -91.079836888893354, 33.96605078750693 ], [ -91.079998484419534, 33.965809851390048 ], [ -91.08031721911118, 33.965734690700238 ] ] ], [ [ [ -91.079749974572721, 33.967916431427682 ], [ -91.084524304699585, 33.969794489379737 ], [ -91.08467497875867, 33.970040293339828 ], [ -91.084572910002237, 33.970302871692795 ], [ -91.084320012581912, 33.970423871437184 ], [ -91.084070440045039, 33.970399460108979 ], [ -91.079282225322885, 33.96855181804726 ], [ -91.079052416177333, 33.968353030428837 ], [ -91.079043566829966, 33.968110164831977 ], [ -91.079337460192647, 33.967874302604514 ], [ -91.079749974572721, 33.967916431427682 ] ] ], [ [ [ -91.094155596629534, 33.96945686635339 ], [ -91.094421497628375, 33.969357080338007 ], [ -91.094873842668122, 33.969425560659651 ], [ -91.095052736486124, 33.969657862019837 ], [ -91.094982082692141, 33.969927518579176 ], [ -91.094703267689766, 33.97007656881221 ], [ -91.094208794864784, 33.970012628855599 ], [ -91.094024452444131, 33.969745229247899 ], [ -91.094155596629534, 33.96945686635339 ] ] ], [ [ [ -91.082810400054754, 33.972320503051755 ], [ -91.083040228522094, 33.972519284196061 ], [ -91.083034033698979, 33.972795241718501 ], [ -91.082795442604223, 33.972986723354012 ], [ -91.082503938058892, 33.97299410454152 ], [ -91.080185893982929, 33.972012544823038 ], [ -91.080030142796417, 33.971848245167507 ], [ -91.080021290795926, 33.971605379662925 ], [ -91.080236208706097, 33.971395341039525 ], [ -91.080566438968759, 33.971373435753016 ], [ -91.082810400054754, 33.972320503051755 ] ] ], [ [ [ -91.092641652432548, 33.973157710798546 ], [ -91.092960405368743, 33.973082517984615 ], [ -91.093496894035766, 33.973270567094715 ], [ -91.093647600116057, 33.973516361026412 ], [ -91.093545553907191, 33.973778947490516 ], [ -91.093165693093511, 33.973903191429955 ], [ -91.092629201320094, 33.97371514078197 ], [ -91.092477203468789, 33.973433972539212 ], [ -91.092641652432548, 33.973157710798546 ] ] ], [ [ [ -91.090578611171594, 33.975863279310843 ], [ -91.090929376192776, 33.97576481859516 ], [ -91.091425712425348, 33.975943400301503 ], [ -91.091604609396384, 33.97617570659159 ], [ -91.091533938395486, 33.976445360341394 ], [ -91.091170508814699, 33.976600019575805 ], [ -91.090631787973507, 33.976419042151484 ], [ -91.090447444178722, 33.976151637354832 ], [ -91.090578611171594, 33.975863279310843 ] ] ], [ [ [ -91.088402652715644, 33.977591962991752 ], [ -91.088753427143558, 33.977493508839224 ], [ -91.089400621491578, 33.977725883969583 ], [ -91.089579516301384, 33.977958193081292 ], [ -91.089508837205244, 33.978227845323211 ], [ -91.089311633736514, 33.978357625037063 ], [ -91.089103014155185, 33.97838010299219 ], [ -91.088455815821817, 33.978147726176324 ], [ -91.088271475540026, 33.977880318294474 ], [ -91.088402652715644, 33.977591962991752 ] ] ], [ [ [ -91.084403305747799, 33.980211309180106 ], [ -91.084795992076778, 33.980118712948425 ], [ -91.085409198955205, 33.980410446973821 ], [ -91.085559892843321, 33.980656250180964 ], [ -91.085457812458216, 33.980918828497096 ], [ -91.085286535660742, 33.981020574962898 ], [ -91.085036011401712, 33.98103719995666 ], [ -91.084422801493702, 33.980745463987198 ], [ -91.084272110805216, 33.980499659497085 ], [ -91.084403305747799, 33.980211309180106 ] ] ], [ [ [ -91.080351230135832, 33.974564249444789 ], [ -91.080581058429942, 33.97476303512753 ], [ -91.080589911906245, 33.975005900540246 ], [ -91.08041182247905, 33.975198317216631 ], [ -91.080085744572528, 33.975247084018285 ], [ -91.077242750893319, 33.974265557396109 ], [ -91.077050983631906, 33.974082494145158 ], [ -91.07703104793822, 33.973873790245882 ], [ -91.077257071083736, 33.973629595896874 ], [ -91.0776927491344, 33.973621012354272 ], [ -91.080351230135832, 33.974564249444789 ] ] ], [ [ [ -91.080078475731185, 33.982183029019538 ], [ -91.080471175247411, 33.982090447102223 ], [ -91.08091448617121, 33.982342648117445 ], [ -91.081065169974693, 33.982588456431877 ], [ -91.080963073337031, 33.982851030382584 ], [ -91.080791787498015, 33.982952770238917 ], [ -91.080541257126185, 33.982969385844115 ], [ -91.080097944208205, 33.982717183433309 ], [ -91.079947263041035, 33.982471374026588 ], [ -91.080078475731185, 33.982183029019538 ] ] ], [ [ [ -91.075878683615244, 33.976027578193168 ], [ -91.076102496745605, 33.975932367999022 ], [ -91.076352082298612, 33.975956795957345 ], [ -91.078549352081865, 33.977049259322854 ], [ -91.078728215243629, 33.977281583179099 ], [ -91.078657502837643, 33.977551228049798 ], [ -91.078420028035325, 33.977692285424624 ], [ -91.078129044190035, 33.977675815221268 ], [ -91.076200496118034, 33.976743822780499 ], [ -91.075776013796371, 33.976419039145341 ], [ -91.075756080969313, 33.976210335203156 ], [ -91.075878683615244, 33.976027578193168 ] ] ], [ [ [ -91.074402735845695, 33.977723731314654 ], [ -91.074960571740164, 33.978050449664849 ], [ -91.075080297156958, 33.978272010318825 ], [ -91.074978188176189, 33.978534579016525 ], [ -91.074683123637683, 33.978660091784583 ], [ -91.074475660387264, 33.978631126056257 ], [ -91.074093900794338, 33.978417788677305 ], [ -91.073837820563753, 33.978095390146677 ], [ -91.073913990895264, 33.977860846278269 ], [ -91.074111215365534, 33.977731092017109 ], [ -91.074402735845695, 33.977723731314654 ] ] ], [ [ [ -91.076517741408253, 33.983455940047037 ], [ -91.076741573779387, 33.983360729446645 ], [ -91.077029236931921, 33.983400885335776 ], [ -91.077861865135162, 33.984020176443984 ], [ -91.078074577259741, 33.984360569601975 ], [ -91.077943354189443, 33.984648912024909 ], [ -91.07771951959964, 33.984744124723925 ], [ -91.077469907939758, 33.984719698673231 ], [ -91.076851031041016, 33.984261302981643 ], [ -91.076415063860409, 33.983847400878723 ], [ -91.076395128634431, 33.983638697164295 ], [ -91.076517741408253, 33.983455940047037 ] ] ], [ [ [ -91.071297418383011, 33.979256260419042 ], [ -91.071605835113758, 33.979155454827314 ], [ -91.071909481163402, 33.979265855574482 ], [ -91.072554365449847, 33.97984819934554 ], [ -91.072598750386433, 33.980054271456638 ], [ -91.072469112341452, 33.980271927029989 ], [ -91.072245283864817, 33.980367130013192 ], [ -91.071995687067343, 33.98034269332986 ], [ -91.071374136334953, 33.979888490790117 ], [ -91.071166181481345, 33.979544595314422 ], [ -91.071297418383011, 33.979256260419042 ] ] ], [ [ [ -91.069134324235506, 33.98058718435631 ], [ -91.06949501874513, 33.980517905366113 ], [ -91.069841547453251, 33.980705017637924 ], [ -91.069995481217376, 33.981069713343494 ], [ -91.069830943934946, 33.981345941402097 ], [ -91.069512142379594, 33.981421072393104 ], [ -91.06922294472146, 33.981286402898185 ], [ -91.068971069877776, 33.980898784251693 ], [ -91.069134324235506, 33.98058718435631 ] ] ], [ [ [ -91.062903053531642, 33.981219540531278 ], [ -91.063253868865601, 33.981121160713293 ], [ -91.063543055853458, 33.981255843904393 ], [ -91.06377824989211, 33.981662861919609 ], [ -91.063614974077097, 33.98197445390101 ], [ -91.063296165479656, 33.982049568496116 ], [ -91.063006976283376, 33.981914884660739 ], [ -91.062771785363182, 33.981507865289728 ], [ -91.062903053531642, 33.981219540531278 ] ] ], [ [ [ -91.06629249753334, 33.981505488546411 ], [ -91.066643310635641, 33.981407098967111 ], [ -91.066932504318729, 33.981541774399879 ], [ -91.067114701364773, 33.981887866373455 ], [ -91.066950153239404, 33.982164090164055 ], [ -91.066631346428295, 33.98223921348216 ], [ -91.066342150947293, 33.982104537289906 ], [ -91.06616124014829, 33.981793817293408 ], [ -91.06629249753334, 33.981505488546411 ] ] ], [ [ [ -91.060275829956112, 33.982009731888624 ], [ -91.060228147284221, 33.982347388975974 ], [ -91.059864639921869, 33.982501952701604 ], [ -91.05953307207065, 33.98236485555767 ], [ -91.059374895827887, 33.982008197606135 ], [ -91.059507456860288, 33.981755249914187 ], [ -91.059815895216474, 33.981654474732728 ], [ -91.060088602616631, 33.981740646412632 ], [ -91.060275829956112, 33.982009731888624 ] ] ], [ [ [ -91.072947740540954, 33.9846788256949 ], [ -91.073181704032223, 33.984602357031441 ], [ -91.073427236707786, 33.984647055010761 ], [ -91.07397564536339, 33.985162354120966 ], [ -91.074162702893261, 33.985470277429854 ], [ -91.073999456333439, 33.985781884080353 ], [ -91.073807623343157, 33.985853820422314 ], [ -91.073558009968025, 33.9858293863604 ], [ -91.073180509643009, 33.985510449342087 ], [ -91.07279947910348, 33.985060012662032 ], [ -91.072804205455029, 33.984850686646048 ], [ -91.072947740540954, 33.9846788256949 ] ] ], [ [ [ -91.069329701739406, 33.985594856904449 ], [ -91.069680528822161, 33.985496459182542 ], [ -91.069969741194399, 33.985631128033695 ], [ -91.07039252633237, 33.986264170895225 ], [ -91.070363186091782, 33.98647210219363 ], [ -91.07023470574444, 33.986610869721176 ], [ -91.06991588458807, 33.986686001028986 ], [ -91.069626668814351, 33.986551331952001 ], [ -91.069213432469084, 33.985952771175349 ], [ -91.069207070623989, 33.98577760615381 ], [ -91.069329701739406, 33.985594856904449 ] ] ], [ [ [ -91.065844448847088, 33.986104045845018 ], [ -91.066195281575403, 33.986005658287951 ], [ -91.066484489722342, 33.986140335195977 ], [ -91.066642661099621, 33.986495995712751 ], [ -91.066478101844027, 33.986772218314684 ], [ -91.066159277256375, 33.986847339743456 ], [ -91.065870067320205, 33.986712662019663 ], [ -91.065713182119765, 33.986392373611942 ], [ -91.065844448847088, 33.986104045845018 ] ] ], [ [ [ -91.062014783809857, 33.986237528757655 ], [ -91.062407518923209, 33.986145005919681 ], [ -91.06270062863959, 33.986333349042049 ], [ -91.063571867247617, 33.98789353017473 ], [ -91.063620248612352, 33.988204083853226 ], [ -91.063394147002825, 33.988448249893722 ], [ -91.063063848336967, 33.988470106557671 ], [ -91.062811739180276, 33.988291010366041 ], [ -91.061898483187505, 33.986595434978703 ], [ -91.061892136398271, 33.986420270116255 ], [ -91.062014783809857, 33.986237528757655 ] ] ], [ [ [ -91.059832509856307, 33.989756565582852 ], [ -91.057958067359692, 33.986389114930013 ], [ -91.057996786290047, 33.98611500356207 ], [ -91.058256844163395, 33.985943983798066 ], [ -91.058547849933746, 33.985960501856319 ], [ -91.058760221654651, 33.98612705504776 ], [ -91.060575332485428, 33.989401442705031 ], [ -91.060595229523884, 33.989610147502319 ], [ -91.060440560257476, 33.989816152317673 ], [ -91.060121719627361, 33.989891257473737 ], [ -91.059832509856307, 33.989756565582852 ] ] ], [ [ [ -91.055667992114124, 33.981662305027037 ], [ -91.056069704649943, 33.981602314498161 ], [ -91.056386193557444, 33.981855033333495 ], [ -91.056517635251751, 33.982217656765577 ], [ -91.056321346577676, 33.982479096383962 ], [ -91.055995230078295, 33.982527797799271 ], [ -91.055723293109665, 33.982370133416502 ], [ -91.055504687225437, 33.981973885205761 ], [ -91.055667992114124, 33.981662305027037 ] ] ], [ [ [ -91.055567138016684, 33.98607352712871 ], [ -91.057439509294866, 33.990661851777418 ], [ -91.057368717014512, 33.990931481125287 ], [ -91.057089770111389, 33.991080440925984 ], [ -91.056840148008064, 33.991055972575928 ], [ -91.056673571998246, 33.990948929059208 ], [ -91.056367409809027, 33.990344241286529 ], [ -91.054810775436053, 33.98639507962293 ], [ -91.054815546126662, 33.986185755881209 ], [ -91.054959118775315, 33.986013917306167 ], [ -91.05527794861473, 33.985938825147109 ], [ -91.055567138016684, 33.98607352712871 ] ] ], [ [ [ -91.05013343598884, 33.981577609634165 ], [ -91.050494147347649, 33.981508387078691 ], [ -91.050766071405121, 33.981666062613655 ], [ -91.050884148226771, 33.982027010489546 ], [ -91.050687843212955, 33.982288440533679 ], [ -91.050361724985422, 33.982337126921294 ], [ -91.050089799644212, 33.982179450459576 ], [ -91.049968834684748, 33.981853808812957 ], [ -91.05013343598884, 33.981577609634165 ] ] ], [ [ [ -91.051806764373325, 33.986318343603863 ], [ -91.052208501075825, 33.986258366594683 ], [ -91.052491561201961, 33.986503297421898 ], [ -91.054240941903402, 33.99155263739641 ], [ -91.054170138723947, 33.991822264486878 ], [ -91.053932584902455, 33.991963271463682 ], [ -91.053641560155654, 33.991946741812548 ], [ -91.053450330779171, 33.991810874033519 ], [ -91.05299050390353, 33.990668635104107 ], [ -91.052884380839501, 33.990184058597684 ], [ -91.051648869344575, 33.986665015931329 ], [ -91.051678255061944, 33.986457090698401 ], [ -91.051806764373325, 33.986318343603863 ] ] ] ] } },
{ "type": "Feature", "properties": { "depth_bin": ">20 ft", "survey_id": "LM_15_CVB_20210425_CS_6026_6000", "date": "2021-04-25 00:00:00+00:00", "year": 2021, "mile": 601.0, "bin_order": 0 }, "geometry": { "type": "MultiPolygon", "coordinates": [ [ [ [ -91.087529627307319, 33.967575136712775 ], [ -91.094159262989123, 33.969252866260128 ], [ -91.094389111025436, 33.969451626911336 ], [ -91.094382953574225, 33.969727586401383 ], [ -91.094144395762612, 33.969919091313145 ], [ -91.093852901357721, 33.969926499799257 ], [ -91.087388209416915, 33.96827877265838 ], [ -91.087181918257002, 33.968159228399031 ], [ -91.087088813475333, 33.967928966212732 ], [ -91.087221269919993, 33.967675984510379 ], [ -91.087529627307319, 33.967575136712775 ] ] ], [ [ [ -91.085867488840222, 33.970311592050294 ], [ -91.092676956748349, 33.972942704233965 ], [ -91.092882319905428, 33.973159281117539 ], [ -91.092843720431262, 33.973433408075024 ], [ -91.092662751726806, 33.973578671545333 ], [ -91.09241541404424, 33.973615688698246 ], [ -91.091393180867428, 33.973245643075323 ], [ -91.085523006576466, 33.970969476692588 ], [ -91.085331227970556, 33.970786425904961 ], [ -91.085322360829537, 33.970543560226893 ], [ -91.085537263353118, 33.97033351176372 ], [ -91.085867488840222, 33.970311592050294 ] ] ], [ [ [ -91.083846811639376, 33.972745419154911 ], [ -91.09057554349053, 33.975591784810632 ], [ -91.090726244749703, 33.975837582086974 ], [ -91.090624186545156, 33.976100165629802 ], [ -91.090371279503927, 33.976221177415951 ], [ -91.090121687759833, 33.976196777749109 ], [ -91.083894378547626, 33.973591632628668 ], [ -91.083334058485704, 33.973299472550934 ], [ -91.083242249920644, 33.973104580923909 ], [ -91.083276998674876, 33.972931742285127 ], [ -91.083515588575921, 33.972740259671184 ], [ -91.083846811639376, 33.972745419154911 ] ] ], [ [ [ -91.081992236417406, 33.975119628768503 ], [ -91.08818344022248, 33.977301849698001 ], [ -91.088362330799725, 33.97753416045142 ], [ -91.088291648309763, 33.97780381189132 ], [ -91.08809444409836, 33.97793358963164 ], [ -91.087802922472022, 33.977940982810217 ], [ -91.081977030220798, 33.97592431814364 ], [ -91.081519176903598, 33.975686217207141 ], [ -91.081447067373233, 33.975351578174475 ], [ -91.081661991789204, 33.975141537384317 ], [ -91.081992236417406, 33.975119628768503 ] ] ], [ [ [ -91.079142419495128, 33.977354516094223 ], [ -91.084374239606092, 33.979907718590262 ], [ -91.084553124650583, 33.980140034623723 ], [ -91.084482427666671, 33.980409683277927 ], [ -91.084203560357508, 33.980558707657593 ], [ -91.08391590251091, 33.980518568749467 ], [ -91.078761835171576, 33.977993618882145 ], [ -91.078606076473704, 33.977829317291835 ], [ -91.078597228756209, 33.977586452026294 ], [ -91.078812165839437, 33.977376416725356 ], [ -91.079142419495128, 33.977354516094223 ] ] ], [ [ [ -91.075634440647633, 33.978910320584276 ], [ -91.075868385912287, 33.978833846110859 ], [ -91.076149923596716, 33.978897298541455 ], [ -91.080291554695805, 33.981891758011109 ], [ -91.080550405132271, 33.982161437220604 ], [ -91.080463301278499, 33.982493592010414 ], [ -91.080210361467778, 33.982614581630401 ], [ -91.07988667690239, 33.982555673950685 ], [ -91.076225970223518, 33.979934572178387 ], [ -91.075517198203599, 33.979357320509756 ], [ -91.075479827433952, 33.979116346585805 ], [ -91.075634440647633, 33.978910320584276 ] ] ], [ [ [ -91.072651462564366, 33.979909685211645 ], [ -91.077041398731552, 33.983394391427332 ], [ -91.077131610578462, 33.983659968210603 ], [ -91.076969970841276, 33.98390089845293 ], [ -91.076736012341144, 33.983977374517053 ], [ -91.076454457580596, 33.983913922883936 ], [ -91.075064174956552, 33.98283555219313 ], [ -91.072092451781586, 33.98045586001853 ], [ -91.071972731485999, 33.980234296692061 ], [ -91.072048909088224, 33.97999975429957 ], [ -91.072327794375695, 33.979850758143833 ], [ -91.072651462564366, 33.979909685211645 ] ] ], [ [ [ -91.069491750455555, 33.980999737308878 ], [ -91.069725706463402, 33.980923274936302 ], [ -91.070007245694498, 33.98098674149189 ], [ -91.070838955580754, 33.981799700180076 ], [ -91.073363491442137, 33.98456017455986 ], [ -91.073429031801865, 33.984796937430545 ], [ -91.07326737953791, 33.985037862327232 ], [ -91.072948566607266, 33.985113001813161 ], [ -91.072659350899187, 33.984978339856418 ], [ -91.069395622032189, 33.981477421698926 ], [ -91.069330095061716, 33.981240657033609 ], [ -91.069491750455555, 33.980999737308878 ] ] ], [ [ [ -91.067187947981793, 33.981894817726094 ], [ -91.069880842422734, 33.985477245891964 ], [ -91.069874602049694, 33.985753200697211 ], [ -91.069635945020124, 33.985944654141868 ], [ -91.069385404795028, 33.985961246628733 ], [ -91.069138090704243, 33.985832427736824 ], [ -91.067258703493579, 33.98336702351186 ], [ -91.066445217797437, 33.98224998419159 ], [ -91.066425307216065, 33.982041279667811 ], [ -91.06657994737418, 33.981835266086215 ], [ -91.066898752696844, 33.9817601428459 ], [ -91.067187947981793, 33.981894817726094 ] ] ], [ [ [ -91.063241232644259, 33.981810896238123 ], [ -91.063465074213966, 33.981715710147277 ], [ -91.063714671698406, 33.981740164196871 ], [ -91.064091329091355, 33.982147331631325 ], [ -91.066000229049891, 33.985385717418069 ], [ -91.065993976156477, 33.985661671594926 ], [ -91.065794051287455, 33.985838592925042 ], [ -91.065463763050801, 33.985860456417505 ], [ -91.065211656047083, 33.985681365168261 ], [ -91.063200954260139, 33.982331346158688 ], [ -91.063108682383785, 33.982063848335549 ], [ -91.063241232644259, 33.981810896238123 ] ] ], [ [ [ -91.061469270169638, 33.985819160709696 ], [ -91.059592960179529, 33.982451607601519 ], [ -91.059622324665213, 33.982243679609773 ], [ -91.059860992421875, 33.982052245914957 ], [ -91.060192246980833, 33.98205747031399 ], [ -91.060404612721911, 33.982224020538247 ], [ -91.062236708612701, 33.985492844630656 ], [ -91.062245509400384, 33.985735709190536 ], [ -91.062067356333813, 33.985928096767289 ], [ -91.061741229067408, 33.985976813052893 ], [ -91.061469270169638, 33.985819160709696 ] ] ], [ [ [ -91.050170275026233, 33.982099471313013 ], [ -91.050490621838989, 33.981888826238354 ], [ -91.050740214783062, 33.981913306513199 ], [ -91.051043745703595, 33.982237516232622 ], [ -91.051865715778987, 33.984687517882271 ], [ -91.051817441017079, 33.984927141064965 ], [ -91.05159763809182, 33.98508686038091 ], [ -91.051347098734212, 33.985103416077699 ], [ -91.051158670917985, 33.985025490725789 ], [ -91.050922833314488, 33.984625735848418 ], [ -91.050406051035367, 33.9829212820786 ], [ -91.050140887688428, 33.982307396248387 ], [ -91.050170275026233, 33.982099471313013 ] ] ], [ [ [ -91.05613043304038, 33.982541917298242 ], [ -91.056354283850766, 33.98244674450693 ], [ -91.056564161335231, 33.982458661090398 ], [ -91.056899813272508, 33.98275667568754 ], [ -91.058223370458109, 33.985200170375371 ], [ -91.058203540955944, 33.98544258302784 ], [ -91.058003601103735, 33.98561949115129 ], [ -91.057673312772067, 33.98564133367617 ], [ -91.057421223547891, 33.985462227038646 ], [ -91.056027664121871, 33.982933357942677 ], [ -91.05600777903048, 33.98272465263635 ], [ -91.05613043304038, 33.982541917298242 ] ] ], [ [ [ -91.053592177419787, 33.982628172329051 ], [ -91.05378401848175, 33.982556267833466 ], [ -91.054033614650209, 33.982580741521502 ], [ -91.054339159912828, 33.982903447669237 ], [ -91.055129478257641, 33.984929799005982 ], [ -91.055081212426501, 33.985169423776682 ], [ -91.054861414670469, 33.985329149113227 ], [ -91.05453014846816, 33.985323909922563 ], [ -91.054300356090479, 33.98512507699192 ], [ -91.053443834704908, 33.983009333186786 ], [ -91.053448608139007, 33.982800009499961 ], [ -91.053592177419787, 33.982628172329051 ] ] ] ] } }
]
}
