{
"type": "FeatureCollection",
"name": "LM_14_VBO_20210427_CS_5822_5810_depth_polygons",
"crs": { "type": "name", "properties": { "name": "urn:ogc:def:crs:OGC:1.3:CRS84" } },
"features": [
{ "type": "Feature", "properties": { "depth_bin": "10-11 ft", "survey_id": "LM_14_VBO_20210427_CS_5822_5810", "date": "2021-04-27 00:00:00+00:00", "year": 2021, "mile": 581.0, "bin_order": 7 }, "geometry": { "type": "MultiPolygon", "coordinates": [ [ [ [ -91.079354858275295, 33.772259230265391 ], [ -91.079543567139453, 33.772032630912292 ], [ -91.079868867040673, 33.771983837227026 ], [ -91.080140203432492, 33.77214143168834 ], [ -91.080198631695637, 33.772413098319596 ], [ -91.080009923622185, 33.772639698692998 ], [ -91.079684621283093, 33.772688492661601 ], [ -91.079413284100596, 33.772530897179983 ], [ -91.079354858275295, 33.772259230265391 ] ] ], [ [ [ -91.094038877038628, 33.776742181422179 ], [ -91.094227558757339, 33.776515558752031 ], [ -91.094552869340163, 33.776466726664957 ], [ -91.094824247983439, 33.776624290134251 ], [ -91.094882725318769, 33.776895951337863 ], [ -91.094694044392369, 33.777122575028152 ], [ -91.094368731371688, 33.777171407399557 ], [ -91.094097351936071, 33.777013842910122 ], [ -91.094038877038628, 33.776742181422179 ] ] ], [ [ [ -91.076732097009483, 33.777315284667466 ], [ -91.076920824345564, 33.77708869013285 ], [ -91.077246144657025, 33.777039904124472 ], [ -91.077517491441796, 33.777197504624112 ], [ -91.077575913992533, 33.777469172118138 ], [ -91.077387187447073, 33.777695767673322 ], [ -91.077061864697086, 33.777744553964943 ], [ -91.076790517121694, 33.777586952444743 ], [ -91.076732097009483, 33.777315284667466 ] ] ], [ [ [ -91.095225132055447, 33.784422267503359 ], [ -91.09541382859716, 33.784195643760285 ], [ -91.0957391679366, 33.784146809583959 ], [ -91.096010572425499, 33.784304371171402 ], [ -91.096069057555752, 33.784576031803105 ], [ -91.095880361806792, 33.784802656566583 ], [ -91.095555020028613, 33.784851491027418 ], [ -91.095283614746947, 33.784693928419571 ], [ -91.095225132055447, 33.784422267503359 ] ] ] ] } },
{ "type": "Feature", "properties": { "depth_bin": "11-12 ft", "survey_id": "LM_14_VBO_20210427_CS_5822_5810", "date": "2021-04-27 00:00:00+00:00", "year": 2021, "mile": 581.0, "bin_order": 6 }, "geometry": { "type": "MultiPolygon", "coordinates": [ [ [ [ -91.073183744716047, 33.776785896614015 ], [ -91.073379481026421, 33.776524403653376 ], [ -91.073785338734766, 33.776497409949322 ], [ -91.074014643400716, 33.776696194938175 ], [ -91.074046933710889, 33.777106004681769 ], [ -91.073808889573613, 33.777297492879654 ], [ -91.07347842262476, 33.777292332503812 ], [ -91.073266517847699, 33.777125816412422 ], [ -91.073183744716047, 33.776785896614015 ] ] ], [ [ [ -91.095281056145168, 33.78483209104072 ], [ -91.0954697534969, 33.784605467252341 ], [ -91.095795094374338, 33.784556632984106 ], [ -91.096066500228389, 33.78471419448686 ], [ -91.096124985751203, 33.784985855090746 ], [ -91.095936289192281, 33.785212479899535 ], [ -91.095610945876032, 33.785261314452292 ], [ -91.095339539229201, 33.785103751929121 ], [ -91.095281056145168, 33.78483209104072 ] ] ] ] } },
{ "type": "Feature", "properties": { "depth_bin": "12-13 ft", "survey_id": "LM_14_VBO_20210427_CS_5822_5810", "date": "2021-04-27 00:00:00+00:00", "year": 2021, "mile": 581.0, "bin_order": 5 }, "geometry": { "type": "MultiPolygon", "coordinates": [ [ [ [ -91.090712335337386, 33.777222331562129 ], [ -91.090901026685799, 33.776995714339279 ], [ -91.091226340550961, 33.776946891159895 ], [ -91.091497714206596, 33.777104461779409 ], [ -91.09155618120576, 33.777376124187334 ], [ -91.091367490649361, 33.77760274243041 ], [ -91.091042174346157, 33.777651565893912 ], [ -91.090770799898493, 33.777493994254158 ], [ -91.090712335337386, 33.777222331562129 ] ] ], [ [ [ -91.073249048093246, 33.777021570405502 ], [ -91.07351317771483, 33.776762827427561 ], [ -91.073881607952003, 33.776783714400295 ], [ -91.074086477097339, 33.777000311195252 ], [ -91.07406823523084, 33.777411363447889 ], [ -91.073808860495987, 33.777582445226962 ], [ -91.073480589504442, 33.77755026039118 ], [ -91.07328924939425, 33.777367201345704 ], [ -91.073249048093246, 33.777021570405502 ] ] ], [ [ [ -91.07670913546751, 33.777178956300077 ], [ -91.076897862545124, 33.776952361787522 ], [ -91.077223182346927, 33.77690357582113 ], [ -91.077494528669433, 33.777061176358075 ], [ -91.077552951076058, 33.777332843862872 ], [ -91.077364224789079, 33.777559439395993 ], [ -91.077038902548722, 33.777608225645629 ], [ -91.076767555435609, 33.777450624088132 ], [ -91.07670913546751, 33.777178956300077 ] ] ] ] } },
{ "type": "Feature", "properties": { "depth_bin": "13-14 ft", "survey_id": "LM_14_VBO_20210427_CS_5822_5810", "date": "2021-04-27 00:00:00+00:00", "year": 2021, "mile": 581.0, "bin_order": 4 }, "geometry": { "type": "MultiPolygon", "coordinates": [ [ [ [ -91.093097188363799, 33.770470521362121 ], [ -91.093285857912136, 33.770243899523869 ], [ -91.093611145007941, 33.770195069070134 ], [ -91.093882502605425, 33.77035263401752 ], [ -91.093940973664274, 33.770624295677983 ], [ -91.093752304907909, 33.770850918536169 ], [ -91.093427015374957, 33.770899749274086 ], [ -91.093155656985488, 33.770742183306773 ], [ -91.093097188363799, 33.770470521362121 ] ] ], [ [ [ -91.08319409502127, 33.771966113051533 ], [ -91.083408480919246, 33.771756044852715 ], [ -91.083737939744793, 33.771734103724377 ], [ -91.083989480785846, 33.771913142426058 ], [ -91.08401575492438, 33.772188283261094 ], [ -91.083801369326693, 33.77239835251585 ], [ -91.083471907955968, 33.772420293723265 ], [ -91.083220366614626, 33.77224125396566 ], [ -91.08319409502127, 33.771966113051533 ] ] ], [ [ [ -91.094028654506914, 33.776571680966448 ], [ -91.094243026919216, 33.776361593560097 ], [ -91.094572502123157, 33.77633962401805 ], [ -91.094824079812739, 33.776518641743628 ], [ -91.094850389402566, 33.776793781327804 ], [ -91.094636017291762, 33.777003869790171 ], [ -91.094306539542217, 33.777025839412055 ], [ -91.094054961551151, 33.776846820630475 ], [ -91.094028654506914, 33.776571680966448 ] ] ], [ [ [ -91.076682857448446, 33.777043637837139 ], [ -91.076871584278436, 33.776817043352146 ], [ -91.07719690357591, 33.776768257436686 ], [ -91.077468249432783, 33.776925858018103 ], [ -91.077526671685263, 33.777197525534881 ], [ -91.077337945645908, 33.777424121040426 ], [ -91.077012623909908, 33.77747290723913 ], [ -91.076741277262414, 33.777315305637146 ], [ -91.076682857448446, 33.777043637837139 ] ] ], [ [ [ -91.080288545078162, 33.777527809060409 ], [ -91.080502952365123, 33.777317746823279 ], [ -91.080832432921383, 33.777295814245349 ], [ -91.081083983305803, 33.77747485907755 ], [ -91.081110248927018, 33.777750000032228 ], [ -91.080895841940119, 33.777960063325537 ], [ -91.080566358837956, 33.777981995982394 ], [ -91.08031480815346, 33.777802950094028 ], [ -91.080288545078162, 33.777527809060409 ] ] ], [ [ [ -91.095279416695945, 33.78466129092579 ], [ -91.095493807311883, 33.784451202198184 ], [ -91.095823313464635, 33.784429230403639 ], [ -91.096074916719459, 33.784608246264874 ], [ -91.096101231515419, 33.784883385465164 ], [ -91.095886841201263, 33.785093475249077 ], [ -91.095557332501926, 33.785115447123587 ], [ -91.095305728945334, 33.784936430206045 ], [ -91.095279416695945, 33.78466129092579 ] ] ] ] } },
{ "type": "Feature", "properties": { "depth_bin": "14-15 ft", "survey_id": "LM_14_VBO_20210427_CS_5822_5810", "date": "2021-04-27 00:00:00+00:00", "year": 2021, "mile": 581.0, "bin_order": 3 }, "geometry": { "type": "MultiPolygon", "coordinates": [ [ [ [ -91.075939884214648, 33.772380025740112 ], [ -91.076154288280549, 33.772169970820912 ], [ -91.076483749576283, 33.772148049193866 ], [ -91.076735275942909, 33.772327102195206 ], [ -91.076761526857965, 33.772602243751841 ], [ -91.076547123091615, 33.772812299727072 ], [ -91.076217659250545, 33.772834221432724 ], [ -91.075966132584369, 33.772655167375362 ], [ -91.075939884214648, 33.772380025740112 ] ] ], [ [ [ -91.076598121046317, 33.776326701046116 ], [ -91.07670935204483, 33.776178090944015 ], [ -91.076932631748875, 33.776082858162937 ], [ -91.077181638921488, 33.776107264983075 ], [ -91.077372443881771, 33.776243084939601 ], [ -91.0775129481042, 33.776990630353254 ], [ -91.077314353902196, 33.777287439513827 ], [ -91.076989032676934, 33.777336225668925 ], [ -91.076717686494007, 33.77717862402833 ], [ -91.076598693854493, 33.776742066689025 ], [ -91.076598121046317, 33.776326701046116 ] ] ], [ [ [ -91.073184835518532, 33.776548643759952 ], [ -91.073422878828239, 33.776357156720849 ], [ -91.07375334217528, 33.776362317120288 ], [ -91.073982646419736, 33.776561102157537 ], [ -91.07397646810152, 33.776837066997111 ], [ -91.073738424588711, 33.777028555087441 ], [ -91.073407958686303, 33.77702339455891 ], [ -91.073178654644948, 33.77682460847042 ], [ -91.073184835518532, 33.776548643759952 ] ] ], [ [ [ -91.090698502870467, 33.777052237089002 ], [ -91.090912884386697, 33.776842155811174 ], [ -91.091242361846071, 33.776820195261656 ], [ -91.091493933621422, 33.776999219576233 ], [ -91.09152023259162, 33.777274359486178 ], [ -91.091305851376532, 33.777484441820064 ], [ -91.090976371371468, 33.777506402449205 ], [ -91.090724799294946, 33.777327377078556 ], [ -91.090698502870467, 33.777052237089002 ] ] ], [ [ [ -91.084085510444197, 33.777293115591718 ], [ -91.084323532677132, 33.777101606756752 ], [ -91.084654000998228, 33.777106738065775 ], [ -91.084883333353929, 33.777305503758342 ], [ -91.084877189817746, 33.77758147033083 ], [ -91.084639167382846, 33.777772980217094 ], [ -91.084308696506199, 33.777767848779682 ], [ -91.084079364352476, 33.777569082035832 ], [ -91.084085510444197, 33.777293115591718 ] ] ], [ [ [ -91.095270217073718, 33.784491685479836 ], [ -91.095508236194576, 33.784300155093156 ], [ -91.095838734321219, 33.784305257403524 ], [ -91.096068111941108, 33.784504003636982 ], [ -91.096062002613408, 33.784779971689041 ], [ -91.095823983291709, 33.784971503127345 ], [ -91.095493482608546, 33.784966400689328 ], [ -91.095264105189514, 33.784767653404266 ], [ -91.095270217073718, 33.784491685479836 ] ] ] ] } },
{ "type": "Feature", "properties": { "depth_bin": "15-17.5 ft", "survey_id": "LM_14_VBO_20210427_CS_5822_5810", "date": "2021-04-27 00:00:00+00:00", "year": 2021, "mile": 581.0, "bin_order": 2 }, "geometry": { "type": "MultiPolygon", "coordinates": [ [ [ [ -91.08950056369585, 33.770983847077794 ], [ -91.089689243639484, 33.770757231127902 ], [ -91.090014534260519, 33.770708410302845 ], [ -91.090285886448314, 33.770865982979032 ], [ -91.090344346331207, 33.771137645941081 ], [ -91.090155667179232, 33.771364262911014 ], [ -91.089830374120851, 33.771413084020033 ], [ -91.089559021141412, 33.771255510323812 ], [ -91.08950056369585, 33.770983847077794 ] ] ], [ [ [ -91.076549707522602, 33.77605532321661 ], [ -91.076802761650768, 33.775830736034891 ], [ -91.077207126180625, 33.775870370691727 ], [ -91.077345133178127, 33.776002396943809 ], [ -91.077416475172669, 33.776237705516216 ], [ -91.077345955987582, 33.776507363561969 ], [ -91.077067757737154, 33.776656399023302 ], [ -91.076744846007372, 33.776597508296341 ], [ -91.076575907904584, 33.776399673510568 ], [ -91.076549707522602, 33.77605532321661 ] ] ], [ [ [ -91.080175754122124, 33.776847120469547 ], [ -91.080286979817814, 33.776698506959775 ], [ -91.080510257264379, 33.776603267617226 ], [ -91.080759267313638, 33.776627667299216 ], [ -91.080950079315102, 33.776763481946801 ], [ -91.081015510664827, 33.777000243537941 ], [ -91.080899651074631, 33.777206010711545 ], [ -91.081090754639192, 33.777511873464526 ], [ -91.080892171204084, 33.777808688752586 ], [ -91.080566849549228, 33.777857484344814 ], [ -91.080295494817733, 33.777699890303317 ], [ -91.080230065033589, 33.777463128406112 ], [ -91.080345926571752, 33.777257361937735 ], [ -91.08018461396577, 33.777089992535018 ], [ -91.080175754122124, 33.776847120469547 ] ] ], [ [ [ -91.087291062249136, 33.777170218257865 ], [ -91.087544092851886, 33.776945608209139 ], [ -91.087948469308031, 33.776985207991693 ], [ -91.088126968366282, 33.777217511769777 ], [ -91.088069632685489, 33.77762469019148 ], [ -91.087791448101029, 33.777773750341687 ], [ -91.087468523467166, 33.777714887304469 ], [ -91.087299557892848, 33.777517066308192 ], [ -91.087291062249136, 33.777170218257865 ] ] ] ] } },
{ "type": "Feature", "properties": { "depth_bin": "17.5-20 ft", "survey_id": "LM_14_VBO_20210427_CS_5822_5810", "date": "2021-04-27 00:00:00+00:00", "year": 2021, "mile": 581.0, "bin_order": 1 }, "geometry": { "type": "MultiPolygon", "coordinates": [ [ [ [ -91.084519541357551, 33.775180446900229 ], [ -91.084888119928436, 33.777308369944365 ], [ -91.084755978608442, 33.777561366461761 ], [ -91.084448312483502, 33.777662233783566 ], [ -91.084209781398016, 33.777597742075926 ], [ -91.084040823760006, 33.777399916879951 ], [ -91.083724125430791, 33.775233419876308 ], [ -91.083938518623654, 33.775023351099925 ], [ -91.084267989942674, 33.775001408997973 ], [ -91.084519541357551, 33.775180446900229 ] ] ], [ [ [ -91.090715669696237, 33.776850136794799 ], [ -91.09097501028792, 33.776679018187444 ], [ -91.091303286841338, 33.776711156567444 ], [ -91.091508201148216, 33.776927725941448 ], [ -91.091469716694647, 33.777201863618778 ], [ -91.091210375407016, 33.77737298323229 ], [ -91.090882096386451, 33.777340844521703 ], [ -91.090677182775508, 33.77712427414157 ], [ -91.090715669696237, 33.776850136794799 ] ] ], [ [ [ -91.087292428290041, 33.77697049604285 ], [ -91.087551775709642, 33.776799384887404 ], [ -91.087880050986797, 33.776831532351352 ], [ -91.088084956660808, 33.777048107120208 ], [ -91.088046461274516, 33.777322243343079 ], [ -91.087787113158612, 33.777493355504625 ], [ -91.087458835414367, 33.777461207709877 ], [ -91.08725393043666, 33.77724463193492 ], [ -91.087292428290041, 33.77697049604285 ] ] ], [ [ [ -91.079973053723705, 33.775423153253591 ], [ -91.08015360824642, 33.77527789027797 ], [ -91.080400373831935, 33.775240877001124 ], [ -91.080630176340392, 33.775324589046917 ], [ -91.080765558946737, 33.775500810662443 ], [ -91.081039535852071, 33.777101134715664 ], [ -91.080936424386124, 33.777328351323312 ], [ -91.080725399417659, 33.777441408520218 ], [ -91.080397125450688, 33.777409242024831 ], [ -91.080192238962226, 33.777192655138457 ], [ -91.079919568039855, 33.775627703847434 ], [ -91.079973053723705, 33.775423153253591 ] ] ], [ [ [ -91.076541858915775, 33.775856480809466 ], [ -91.076801223123709, 33.775685392864297 ], [ -91.077129488717688, 33.775717568663858 ], [ -91.07733436390896, 33.775934160295549 ], [ -91.07729583509601, 33.776208292030269 ], [ -91.077036470190677, 33.776379380981332 ], [ -91.07670820213005, 33.776347204850275 ], [ -91.076503327636146, 33.776130612212704 ], [ -91.076541858915775, 33.775856480809466 ] ] ], [ [ [ -91.07318692951219, 33.776380408396186 ], [ -91.073446301672931, 33.776209327810129 ], [ -91.0737745675534, 33.776241512564056 ], [ -91.07397943519706, 33.776458109500155 ], [ -91.073940895423362, 33.776732239782056 ], [ -91.073681522564897, 33.776903321373943 ], [ -91.073353254217793, 33.776871136288307 ], [ -91.073148387271871, 33.776654538346371 ], [ -91.07318692951219, 33.776380408396186 ] ] ] ] } },
{ "type": "Feature", "properties": { "depth_bin": "5-6 ft", "survey_id": "LM_14_VBO_20210427_CS_5822_5810", "date": "2021-04-27 00:00:00+00:00", "year": 2021, "mile": 581.0, "bin_order": 12 }, "geometry": { "type": "MultiPolygon", "coordinates": [ [ [ [ -91.094055290917268, 33.776912200194019 ], [ -91.094216464724639, 33.776671224749123 ], [ -91.094534477769258, 33.776596000388892 ], [ -91.094823043904, 33.776730592185444 ], [ -91.094913125886606, 33.776996158757996 ], [ -91.094751953331951, 33.777237135147971 ], [ -91.094433938050869, 33.777312359986084 ], [ -91.094145370663398, 33.777177767244446 ], [ -91.094055290917268, 33.776912200194019 ] ] ], [ [ [ -91.080322471759573, 33.777695144081463 ], [ -91.080511190793715, 33.777468543763739 ], [ -91.080836510990324, 33.77741974826521 ], [ -91.081107865914575, 33.77757734112668 ], [ -91.081166300091368, 33.777849007308824 ], [ -91.080977581848231, 33.778075608647029 ], [ -91.080652259213167, 33.778124404429043 ], [ -91.080380903497911, 33.777966810547078 ], [ -91.080322471759573, 33.777695144081463 ] ] ], [ [ [ -91.092349789629921, 33.785636363381435 ], [ -91.092538496356681, 33.785409744435931 ], [ -91.092863841581334, 33.785360918071277 ], [ -91.093135244208341, 33.785518485908653 ], [ -91.093193720820068, 33.785790147567518 ], [ -91.093005014885847, 33.786016767533539 ], [ -91.0926796672222, 33.786065594182524 ], [ -91.092408263802653, 33.785908025324623 ], [ -91.092349789629921, 33.785636363381435 ] ] ] ] } },
{ "type": "Feature", "properties": { "depth_bin": "6-7 ft", "survey_id": "LM_14_VBO_20210427_CS_5822_5810", "date": "2021-04-27 00:00:00+00:00", "year": 2021, "mile": 581.0, "bin_order": 11 }, "geometry": { "type": "MultiPolygon", "coordinates": [ [ [ [ -91.084111430798302, 33.777665874167646 ], [ -91.084272633340504, 33.777424912765817 ], [ -91.084590656624755, 33.777349714457706 ], [ -91.084879208506123, 33.777484329054829 ], [ -91.084969260091171, 33.777749901820428 ], [ -91.084808058800832, 33.777990864167705 ], [ -91.084490033279508, 33.778066062953151 ], [ -91.084201480146277, 33.777931447410566 ], [ -91.084111430798302, 33.777665874167646 ] ] ], [ [ [ -91.095191696111442, 33.784321557074257 ], [ -91.095352881728459, 33.784080580788434 ], [ -91.095670921651404, 33.784005354497388 ], [ -91.095959513988717, 33.784139944404068 ], [ -91.096049606149407, 33.78440551023494 ], [ -91.095888421785702, 33.784646487466055 ], [ -91.095570379625542, 33.784721714235218 ], [ -91.095281786034931, 33.78458712338324 ], [ -91.095191696111442, 33.784321557074257 ] ] ] ] } },
{ "type": "Feature", "properties": { "depth_bin": "7-8 ft", "survey_id": "LM_14_VBO_20210427_CS_5822_5810", "date": "2021-04-27 00:00:00+00:00", "year": 2021, "mile": 581.0, "bin_order": 10 }, "geometry": { "type": "MultiPolygon", "coordinates": [ [ [ [ -91.089488688560721, 33.770845721228596 ], [ -91.089677368213614, 33.77061910528262 ], [ -91.090002658313551, 33.77057028446994 ], [ -91.090274010055126, 33.770727857159706 ], [ -91.090332469828098, 33.770999520128569 ], [ -91.090143790966849, 33.771226137094573 ], [ -91.089818498429565, 33.771274958191206 ], [ -91.089547145896361, 33.771117384481414 ], [ -91.089488688560721, 33.770845721228596 ] ] ], [ [ [ -91.073278196898073, 33.777296390104979 ], [ -91.073466933026012, 33.777069801173056 ], [ -91.073792254767511, 33.777021024342602 ], [ -91.074063594782913, 33.777178632219261 ], [ -91.074122006330043, 33.777450300968091 ], [ -91.073933270992399, 33.777676890920652 ], [ -91.073607946812231, 33.777725668034137 ], [ -91.073336606006535, 33.77756805913684 ], [ -91.073278196898073, 33.777296390104979 ] ] ], [ [ [ -91.076750517082786, 33.777451421302906 ], [ -91.076939244688518, 33.777224826753553 ], [ -91.077264565510831, 33.77717604071524 ], [ -91.077535912748459, 33.777333641187255 ], [ -91.077594335428785, 33.777605308672165 ], [ -91.077405608613688, 33.777831904242056 ], [ -91.077080285352807, 33.77788069056362 ], [ -91.076808937324529, 33.777723089071046 ], [ -91.076750517082786, 33.777451421302906 ] ] ], [ [ [ -91.09531566267394, 33.784933806762787 ], [ -91.095530053917116, 33.784723718001416 ], [ -91.095859561113357, 33.784701746146752 ], [ -91.09611116521674, 33.784880761956742 ], [ -91.096137480169247, 33.785155901144691 ], [ -91.095923089227853, 33.785365990962418 ], [ -91.095593579484984, 33.785387962897047 ], [ -91.095341975079833, 33.785208946030728 ], [ -91.09531566267394, 33.784933806762787 ] ] ], [ [ [ -91.092351466233254, 33.785463948879226 ], [ -91.092565865850688, 33.785253865585808 ], [ -91.092895375449615, 33.785231901751061 ], [ -91.093146974576726, 33.78541092343508 ], [ -91.093173280088834, 33.78568606291028 ], [ -91.092958880772898, 33.785896147260061 ], [ -91.092629368627229, 33.785918111174603 ], [ -91.09237776919862, 33.785739088434212 ], [ -91.092351466233254, 33.785463948879226 ] ] ] ] } },
{ "type": "Feature", "properties": { "depth_bin": "9-10 ft", "survey_id": "LM_14_VBO_20210427_CS_5822_5810", "date": "2021-04-27 00:00:00+00:00", "year": 2021, "mile": 581.0, "bin_order": 8 }, "geometry": { "type": "MultiPolygon", "coordinates": [ [ [ [ -91.072383514004045, 33.77254530991565 ], [ -91.072572241364867, 33.772318721905414 ], [ -91.072897545387903, 33.77226994678778 ], [ -91.073168869112365, 33.772427556165105 ], [ -91.073227275338851, 33.772699225323301 ], [ -91.073038548768025, 33.772925814354011 ], [ -91.072713242306861, 33.772974589754554 ], [ -91.072441917792403, 33.77281697935674 ], [ -91.072383514004045, 33.77254530991565 ] ] ], [ [ [ -91.090760576282875, 33.777322564056014 ], [ -91.090974958359666, 33.777112482697092 ], [ -91.091304436850592, 33.77709052201805 ], [ -91.091556009524297, 33.777269546230507 ], [ -91.091582308733422, 33.777544686125545 ], [ -91.091367926957815, 33.777754768540525 ], [ -91.091038445921129, 33.777776729299219 ], [ -91.090786872946254, 33.777597704030697 ], [ -91.090760576282875, 33.777322564056014 ] ] ], [ [ [ -91.08732265556327, 33.777444744378435 ], [ -91.08753704606049, 33.777234669302842 ], [ -91.087866525441342, 33.777212717856635 ], [ -91.088118090953159, 33.777391748843144 ], [ -91.088144379143699, 33.77766688908536 ], [ -91.08792998894728, 33.777876965217082 ], [ -91.087600507020639, 33.777898916742679 ], [ -91.087348941208006, 33.777719884700048 ], [ -91.08732265556327, 33.777444744378435 ] ] ], [ [ [ -91.084085991367701, 33.77749637697319 ], [ -91.084274700309891, 33.777269770527958 ], [ -91.084600018109441, 33.777220964998506 ], [ -91.084871379735603, 33.777378549801448 ], [ -91.084929825787654, 33.777650214617964 ], [ -91.084741117636852, 33.777876822083591 ], [ -91.084415797398975, 33.777925627896764 ], [ -91.08414443498144, 33.777768042073419 ], [ -91.084085991367701, 33.77749637697319 ] ] ], [ [ [ -91.092289154890452, 33.785194010485341 ], [ -91.092542197604402, 33.784969390822866 ], [ -91.092946614732782, 33.78500897555498 ], [ -91.093162659292688, 33.785375200181349 ], [ -91.093092180120664, 33.785644868310456 ], [ -91.092813977037409, 33.785793939010404 ], [ -91.092491018459228, 33.785735088034457 ], [ -91.092322026142838, 33.785537273215667 ], [ -91.092289154890452, 33.785194010485341 ] ] ] ] } },
{ "type": "Feature", "properties": { "depth_bin": "<5 ft", "survey_id": "LM_14_VBO_20210427_CS_5822_5810", "date": "2021-04-27 00:00:00+00:00", "year": 2021, "mile": 581.0, "bin_order": 13 }, "geometry": { "type": "MultiPolygon", "coordinates": [ [ [ [ -91.094154405039376, 33.776885011272483 ], [ -91.094351123211567, 33.776755203572812 ], [ -91.094559248809247, 33.776732699082501 ], [ -91.094893539351602, 33.776926788693586 ], [ -91.094994199807616, 33.777541524527471 ], [ -91.094761777409019, 33.77782068399052 ], [ -91.094432296534933, 33.777842653838356 ], [ -91.094180715964157, 33.777663635243869 ], [ -91.094077199131846, 33.777084208839391 ], [ -91.094154405039376, 33.776885011272483 ] ] ], [ [ [ -91.09523625710294, 33.783883374767015 ], [ -91.095572973208462, 33.783756702048663 ], [ -91.095903851359353, 33.783893681748474 ], [ -91.096023982942995, 33.784234569981336 ], [ -91.095859937059757, 33.78451085709721 ], [ -91.095541895385992, 33.784586083810964 ], [ -91.095253302288043, 33.784451492906811 ], [ -91.095133173537135, 33.784110604029728 ], [ -91.09523625710294, 33.783883374767015 ] ] ], [ [ [ -91.095425790045809, 33.784946344751049 ], [ -91.095596652320324, 33.784844567210428 ], [ -91.095846600499257, 33.78482790040912 ], [ -91.096065514522394, 33.784929993453147 ], [ -91.096170070591469, 33.785081951998052 ], [ -91.096488937145054, 33.787232277557131 ], [ -91.096385852383293, 33.787459507726069 ], [ -91.096174820884485, 33.787572591030191 ], [ -91.095846500593851, 33.787540464173681 ], [ -91.095641551033495, 33.787323901106923 ], [ -91.09532400217968, 33.785208948202232 ], [ -91.095425790045809, 33.784946344751049 ] ] ], [ [ [ -91.092743518297127, 33.788125312427923 ], [ -91.092368549859373, 33.785877014798743 ], [ -91.092422013787001, 33.785672458318778 ], [ -91.092599911282576, 33.785528452989972 ], [ -91.092321171922393, 33.78539523167008 ], [ -91.092228227213084, 33.785164973281503 ], [ -91.09236035974503, 33.784911968693599 ], [ -91.092668043937522, 33.784811082320509 ], [ -91.092940171796641, 33.784897163307441 ], [ -91.093085130057517, 33.78510785586235 ], [ -91.093055937719612, 33.785315803263302 ], [ -91.092859213578421, 33.7854915164218 ], [ -91.093110076779297, 33.78559807838392 ], [ -91.09322416402739, 33.785784522570381 ], [ -91.093659529758199, 33.788122114595893 ], [ -91.093528691440596, 33.788410494484495 ], [ -91.09322099505782, 33.788511382538154 ], [ -91.092917982276461, 33.788401053514519 ], [ -91.092743518297127, 33.788125312427923 ] ] ], [ [ [ -91.093082228673552, 33.769833167851381 ], [ -91.093444760637112, 33.769678467749166 ], [ -91.093800191844608, 33.769844262646906 ], [ -91.093933494349912, 33.770417116195347 ], [ -91.093734971809241, 33.77071395459545 ], [ -91.093409682790565, 33.770762785306303 ], [ -91.093138324854365, 33.770605219313623 ], [ -91.0930063232056, 33.770067739255154 ], [ -91.093082228673552, 33.769833167851381 ] ] ], [ [ [ -91.090867991116198, 33.777359806531784 ], [ -91.091230559140257, 33.777205114356718 ], [ -91.09158601614638, 33.777370916376142 ], [ -91.091686503345613, 33.777881628189661 ], [ -91.091490817960306, 33.778143151984672 ], [ -91.091165499651197, 33.77819197570097 ], [ -91.090894123307891, 33.778034404278621 ], [ -91.090792072012022, 33.777594375861796 ], [ -91.090867991116198, 33.777359806531784 ] ] ], [ [ [ -91.089510683987868, 33.770583960805382 ], [ -91.089788841909836, 33.770434895701015 ], [ -91.090111741348906, 33.770493751833278 ], [ -91.090290233807437, 33.770726052446143 ], [ -91.090219760001162, 33.770995719643139 ], [ -91.089941600915523, 33.77114478566957 ], [ -91.089618699193238, 33.771085929016813 ], [ -91.089440207898392, 33.770853627481898 ], [ -91.089510683987868, 33.770583960805382 ] ] ], [ [ [ -91.08689852336073, 33.771283994378066 ], [ -91.087007371742061, 33.771768936779885 ], [ -91.086907147678701, 33.771960849684767 ], [ -91.086736302076901, 33.772062615918159 ], [ -91.086486390277898, 33.772079265513611 ], [ -91.086193934193474, 33.771890996422066 ], [ -91.08611319319742, 33.771401836604468 ], [ -91.086301882778969, 33.771175226194011 ], [ -91.086627176469634, 33.771126414428714 ], [ -91.08689852336073, 33.771283994378066 ] ] ], [ [ [ -91.087416293243962, 33.777483394147559 ], [ -91.087778867503673, 33.777328712358077 ], [ -91.088134317857865, 33.777494524110516 ], [ -91.088240177037065, 33.778004820587668 ], [ -91.088044481143854, 33.778266338534827 ], [ -91.087719160861511, 33.778315153073969 ], [ -91.08744779083392, 33.778157574276122 ], [ -91.087340364704247, 33.777717961016997 ], [ -91.087416293243962, 33.777483394147559 ] ] ], [ [ [ -91.089161567316808, 33.785975075677413 ], [ -91.089358314112332, 33.785845277107533 ], [ -91.089608265790744, 33.785828623097743 ], [ -91.08982717434354, 33.785930727033467 ], [ -91.0899317202514, 33.78608269050482 ], [ -91.090408323139712, 33.788435649559823 ], [ -91.090332391510032, 33.78867021782554 ], [ -91.090095473388587, 33.788811320548028 ], [ -91.089767151466958, 33.788779177423734 ], [ -91.089562214927398, 33.788562604721392 ], [ -91.089085634831051, 33.786209643221156 ], [ -91.089161567316808, 33.785975075677413 ] ] ], [ [ [ -91.083242953778679, 33.77143728965342 ], [ -91.083621916345805, 33.771313041943571 ], [ -91.083935053633141, 33.771476471222329 ], [ -91.084036502612662, 33.77173510009213 ], [ -91.084023658814743, 33.771981490165039 ], [ -91.083827965053985, 33.772243001693035 ], [ -91.083502665888986, 33.772291805863894 ], [ -91.083231322505526, 33.77213421857298 ], [ -91.083139855580683, 33.771664508740351 ], [ -91.083242953778679, 33.77143728965342 ] ] ], [ [ [ -91.0759300213453, 33.771885771971647 ], [ -91.076308995358588, 33.771761547180809 ], [ -91.076622119410288, 33.77192499458851 ], [ -91.076744206959177, 33.772398873269026 ], [ -91.076548490630529, 33.772660372422173 ], [ -91.076223186706741, 33.772709157188444 ], [ -91.075951856185441, 33.772551554310823 ], [ -91.075826903537688, 33.772112984235122 ], [ -91.0759300213453, 33.771885771971647 ] ] ], [ [ [ -91.079457287179181, 33.771962381355081 ], [ -91.07975161917166, 33.771836828231869 ], [ -91.080066049964856, 33.771921858364003 ], [ -91.080216391687046, 33.772167662741808 ], [ -91.08011457507375, 33.772430253061891 ], [ -91.079820241493564, 33.772555806987526 ], [ -91.079505808688552, 33.772470776164468 ], [ -91.07935546855407, 33.772224970984226 ], [ -91.079457287179181, 33.771962381355081 ] ] ], [ [ [ -91.07238160232059, 33.772123370335954 ], [ -91.072675944356618, 33.771997834484409 ], [ -91.073021229680151, 33.77210713537783 ], [ -91.073203933306417, 33.77245884648115 ], [ -91.07307305393239, 33.772747203793628 ], [ -91.072765393072586, 33.77284804216491 ], [ -91.072462463245003, 33.77273766545467 ], [ -91.072279762171078, 33.772385953353371 ], [ -91.07238160232059, 33.772123370335954 ] ] ], [ [ [ -91.073389219960646, 33.777276386050232 ], [ -91.07376822139814, 33.777152170130655 ], [ -91.0740813594103, 33.77731562437306 ], [ -91.074262524359042, 33.777919344402498 ], [ -91.074063916894744, 33.778216147818284 ], [ -91.073738590715834, 33.778264925203544 ], [ -91.073467248004249, 33.778107316538758 ], [ -91.073287375952916, 33.777538969586594 ], [ -91.073389219960646, 33.777276386050232 ] ] ], [ [ [ -91.076882087473351, 33.777429174014436 ], [ -91.07721880236349, 33.777302551351823 ], [ -91.077549624490189, 33.777439578552759 ], [ -91.077675242776124, 33.777804274060415 ], [ -91.077511152452658, 33.778080535410361 ], [ -91.077193121156981, 33.778155715141317 ], [ -91.076904580008318, 33.778021082914044 ], [ -91.076780253782431, 33.777691760796266 ], [ -91.076882087473351, 33.777429174014436 ] ] ], [ [ [ -91.084261559686624, 33.777606363063931 ], [ -91.084640548568601, 33.777482113237099 ], [ -91.08497481821226, 33.77767622903724 ], [ -91.085029117969611, 33.778193744460452 ], [ -91.084803659007278, 33.7784379790073 ], [ -91.084474174542791, 33.778459922075037 ], [ -91.084222613974688, 33.778280883839308 ], [ -91.084158455927124, 33.777833582623785 ], [ -91.084261559686624, 33.777606363063931 ] ] ], [ [ [ -91.0804452305956, 33.777673743030086 ], [ -91.080781941701815, 33.777547110492947 ], [ -91.081112770906302, 33.777684128360598 ], [ -91.081216215622632, 33.778087325883703 ], [ -91.081055003380953, 33.778328282923511 ], [ -91.080736973798935, 33.778403471867783 ], [ -91.080448425874522, 33.778268847715296 ], [ -91.080342116821839, 33.777900959042086 ], [ -91.0804452305956, 33.777673743030086 ] ] ] ] } },
{ "type": "Feature", "properties": { "depth_bin": ">20 ft", "survey_id": "LM_14_VBO_20210427_CS_5822_5810", "date": "2021-04-27 00:00:00+00:00", "year": 2021, "mile": 581.0, "bin_order": 0 }, "geometry": { "type": "MultiPolygon", "coordinates": [ [ [ [ -91.093221964877003, 33.770448241752703 ], [ -91.093474247138261, 33.770327199235254 ], [ -91.093723244087286, 33.770351572259969 ], [ -91.093914064129621, 33.770487367206357 ], [ -91.094007217890052, 33.770753459522659 ], [ -91.094853253401595, 33.77637875159008 ], [ -91.094809962805883, 33.776720125688286 ], [ -91.094509335944849, 33.776899215515023 ], [ -91.094186409091819, 33.7768403700167 ], [ -91.094007893960509, 33.776608074455694 ], [ -91.093120189731479, 33.770710844329983 ], [ -91.093221964877003, 33.770448241752703 ] ] ], [ [ [ -91.090449063336393, 33.771363608773328 ], [ -91.091504844636759, 33.776965143844222 ], [ -91.091350656766338, 33.777171210057531 ], [ -91.091032639192917, 33.777246426030011 ], [ -91.090744077741135, 33.777111825520024 ], [ -91.090577209510485, 33.776684848098846 ], [ -91.089512084802067, 33.771225641952512 ], [ -91.089588000871117, 33.770991073107531 ], [ -91.089824869224557, 33.770849969298695 ], [ -91.090034619592188, 33.770844615918364 ], [ -91.090253491432335, 33.770946718024739 ], [ -91.090449063336393, 33.771363608773328 ] ] ], [ [ [ -91.087046324832798, 33.771760201386904 ], [ -91.088076261442538, 33.776981805842226 ], [ -91.088041621313522, 33.777154654110618 ], [ -91.087803606850173, 33.777346170403717 ], [ -91.087473137000629, 33.777341047496996 ], [ -91.087261203806847, 33.777174554507447 ], [ -91.087135570445085, 33.776807843402516 ], [ -91.086247064130703, 33.772195029024807 ], [ -91.08622000422902, 33.771747386144462 ], [ -91.086513179128431, 33.77151147570693 ], [ -91.086841433794547, 33.771543625246004 ], [ -91.087046324832798, 33.771760201386904 ] ] ], [ [ [ -91.084032451233085, 33.772081282216952 ], [ -91.08465060694131, 33.775809699777376 ], [ -91.084518467458338, 33.776062696154213 ], [ -91.08421080653406, 33.776163563083678 ], [ -91.083855369682979, 33.775997740442953 ], [ -91.083735469153609, 33.775544361820067 ], [ -91.083200029826699, 33.772241736997159 ], [ -91.083275963951081, 33.772007172705138 ], [ -91.083472686152348, 33.771877382444821 ], [ -91.083803134250388, 33.77188251533682 ], [ -91.084032451233085, 33.772081282216952 ] ] ], [ [ [ -91.079530995453652, 33.772208032721373 ], [ -91.079754261761991, 33.772112794304256 ], [ -91.079963631275461, 33.772124653581599 ], [ -91.08014158492206, 33.772217535958909 ], [ -91.080255627149043, 33.772403990928233 ], [ -91.080760316755402, 33.775433636502655 ], [ -91.080658497414674, 33.775696227063463 ], [ -91.080406182300138, 33.775817242086383 ], [ -91.080083270968558, 33.775758360124101 ], [ -91.079904797052905, 33.775526045514134 ], [ -91.079423811931292, 33.772771441857564 ], [ -91.079401715134438, 33.772425714054464 ], [ -91.079530995453652, 33.772208032721373 ] ] ], [ [ [ -91.076796591341378, 33.772527847772118 ], [ -91.077321204176343, 33.775972624596541 ], [ -91.077132480461358, 33.776199219905187 ], [ -91.076807163304736, 33.776248005728938 ], [ -91.076588295445845, 33.776145879926908 ], [ -91.076474256784465, 33.775959421777465 ], [ -91.075950625407472, 33.772654714604677 ], [ -91.076026579499924, 33.772420155495134 ], [ -91.076263472849931, 33.772279078679183 ], [ -91.076591725233442, 33.772311255465183 ], [ -91.076796591341378, 33.772527847772118 ] ] ], [ [ [ -91.080335052095265, 33.776970956358511 ], [ -91.080685002684817, 33.776872494050252 ], [ -91.080998153732395, 33.777035931158899 ], [ -91.081079745979039, 33.777409309440628 ], [ -91.080884030323048, 33.777670815336251 ], [ -91.080558709190171, 33.777719610926077 ], [ -91.080287354896925, 33.777562016879038 ], [ -91.080202898191999, 33.777223947560749 ], [ -91.080335052095265, 33.776970956358511 ] ] ], [ [ [ -91.072513510703359, 33.772500472454475 ], [ -91.072736784919769, 33.772405247045107 ], [ -91.072946153577348, 33.772417118226933 ], [ -91.073124099726513, 33.772510010482215 ], [ -91.073238126770619, 33.772696471413646 ], [ -91.073968910579367, 33.776392120491813 ], [ -91.073867069500594, 33.776654704641196 ], [ -91.07361474264637, 33.776775705317469 ], [ -91.073227408213953, 33.776670942795676 ], [ -91.073075202046027, 33.776350249886974 ], [ -91.072401212463603, 33.772925816504717 ], [ -91.072391213651954, 33.772683241697401 ], [ -91.072513510703359, 33.772500472454475 ] ] ] ] } }
]
}
