{
"type": "FeatureCollection",
"name": "LM_19_MEMX_20250723_CS_732_734_SORT_ACTUALDEPTHS_depth_polygons",
"crs": { "type": "name", "properties": { "name": "urn:ogc:def:crs:OGC:1.3:CRS84" } },
"features": [
{ "type": "Feature", "properties": { "depth_bin": "11-12 ft", "survey_id": "LM_19_MEMX_20250723_CS_732_734_SORT_ACTUALDEPTHS", "date": "2025-07-23 00:00:00+00:00", "year": 2025, "mile": 733.0, "bin_order": 6 }, "geometry": { "type": "MultiPolygon", "coordinates": [ [ [ [ -90.103568232989332, 35.120811259155147 ], [ -90.103735029108407, 35.120571890389499 ], [ -90.104058975222756, 35.120499535651646 ], [ -90.104350309818557, 35.120636579048828 ], [ -90.104438373922108, 35.120902743142523 ], [ -90.104271579049424, 35.121142112933391 ], [ -90.103947630493423, 35.121214468119419 ], [ -90.103656294651245, 35.121077423697038 ], [ -90.103568232989332, 35.120811259155147 ] ] ], [ [ [ -90.107282000336767, 35.122986738724762 ], [ -90.107448790839072, 35.122747364603264 ], [ -90.107772743142206, 35.12267500020392 ], [ -90.108064092107085, 35.122812035293343 ], [ -90.108152170343118, 35.123078197299556 ], [ -90.107985381087687, 35.123317572446211 ], [ -90.107661426342844, 35.123389937294 ], [ -90.107370076131104, 35.12325290117942 ], [ -90.107282000336767, 35.122986738724762 ] ] ] ] } },
{ "type": "Feature", "properties": { "depth_bin": "12-13 ft", "survey_id": "LM_19_MEMX_20250723_CS_732_734_SORT_ACTUALDEPTHS", "date": "2025-07-23 00:00:00+00:00", "year": 2025, "mile": 733.0, "bin_order": 5 }, "geometry": { "type": "MultiPolygon", "coordinates": [ [ [ [ -90.093937087055409, 35.122257056008614 ], [ -90.09410391369974, 35.122017702082516 ], [ -90.094427872316743, 35.121945373836454 ], [ -90.094719194069199, 35.122082439859518 ], [ -90.094807227506266, 35.122348609459515 ], [ -90.094640402107458, 35.122587964411203 ], [ -90.094316441048122, 35.122660293104893 ], [ -90.094025118050141, 35.122523226056266 ], [ -90.093937087055409, 35.122257056008614 ] ] ], [ [ [ -90.088108665986169, 35.124199944438168 ], [ -90.088275513509828, 35.123960599639133 ], [ -90.08859948399332, 35.123888287644135 ], [ -90.08889080164856, 35.124025367522812 ], [ -90.088978817424504, 35.124291540466729 ], [ -90.08881197114593, 35.124530886291588 ], [ -90.088487998219591, 35.124603198733929 ], [ -90.088196679319239, 35.124466117829421 ], [ -90.088108665986169, 35.124199944438168 ] ] ] ] } },
{ "type": "Feature", "properties": { "depth_bin": "13-14 ft", "survey_id": "LM_19_MEMX_20250723_CS_732_734_SORT_ACTUALDEPTHS", "date": "2025-07-23 00:00:00+00:00", "year": 2025, "mile": 733.0, "bin_order": 4 }, "geometry": { "type": "MultiPolygon", "coordinates": [ [ [ [ -90.102280416621198, 35.120510061128854 ], [ -90.102500846466995, 35.120302030268874 ], [ -90.102835747183349, 35.120282995266024 ], [ -90.103088940404987, 35.120464106551488 ], [ -90.103112109130009, 35.120739272381556 ], [ -90.102891679501198, 35.120947304360186 ], [ -90.102556776052097, 35.120966339384701 ], [ -90.102303582613487, 35.120785226980566 ], [ -90.102280416621198, 35.120510061128854 ] ] ], [ [ [ -90.103634465847037, 35.120575210536195 ], [ -90.103878648683093, 35.120385930626668 ], [ -90.104214208357746, 35.120393954456425 ], [ -90.104444580489684, 35.120594581914062 ], [ -90.10443481598206, 35.120870288934668 ], [ -90.104190632825834, 35.121059569945601 ], [ -90.103855070428594, 35.121051545918924 ], [ -90.103624698616827, 35.120850917359896 ], [ -90.103634465847037, 35.120575210536195 ] ] ], [ [ [ -90.098065496409504, 35.12110492456091 ], [ -90.098309693013903, 35.120915656606563 ], [ -90.098645253204424, 35.120923695958147 ], [ -90.098875612297562, 35.12112433341207 ], [ -90.098865828833979, 35.121400039047728 ], [ -90.09862163190877, 35.121589308103474 ], [ -90.098286068995662, 35.121581268554593 ], [ -90.098055710223321, 35.121380629999265 ], [ -90.098065496409504, 35.12110492456091 ] ] ], [ [ [ -90.104441273901202, 35.122287606839592 ], [ -90.104661703647793, 35.122079572062283 ], [ -90.104996611607135, 35.122060531412181 ], [ -90.10524981517122, 35.122241638628459 ], [ -90.105272991279904, 35.122516804351122 ], [ -90.10505256175054, 35.122724840247166 ], [ -90.104717651058266, 35.122743880919074 ], [ -90.104464447276925, 35.122562772584068 ], [ -90.104441273901202, 35.122287606839592 ] ] ], [ [ [ -90.10622461516769, 35.12223945005443 ], [ -90.106426077175797, 35.122111475747573 ], [ -90.106637744620798, 35.122090824918821 ], [ -90.10683626715749, 35.122154592461904 ], [ -90.106992027982656, 35.122320115962097 ], [ -90.106982271434916, 35.122595823525792 ], [ -90.106777690793322, 35.12290057777178 ], [ -90.106576227259268, 35.123028552581992 ], [ -90.106240656078313, 35.123020534770525 ], [ -90.106010272874983, 35.122819910257867 ], [ -90.106004359268141, 35.12257714126936 ], [ -90.10622461516769, 35.12223945005443 ] ] ], [ [ [ -90.098063609029907, 35.115286057414139 ], [ -90.098307787276426, 35.115096788461074 ], [ -90.09864332360732, 35.115104826664862 ], [ -90.098873667315218, 35.115305463494245 ], [ -90.098863885953293, 35.115581169394325 ], [ -90.098619707386035, 35.115770439448561 ], [ -90.098284168333308, 35.115762401047483 ], [ -90.098053824946149, 35.115561763116929 ], [ -90.098063609029907, 35.115286057414139 ] ] ], [ [ [ -90.095330301887003, 35.121628637909872 ], [ -90.095624930341955, 35.12164762348975 ], [ -90.095816980155419, 35.121785016560182 ], [ -90.095880395040609, 35.122022176822647 ], [ -90.095746297042083, 35.122238557777585 ], [ -90.095560349718781, 35.122324171569872 ], [ -90.095040922963761, 35.122334903208426 ], [ -90.09476177310539, 35.122439464784541 ], [ -90.094412465115752, 35.122327223218349 ], [ -90.094293103373616, 35.122069424492167 ], [ -90.094430570842903, 35.121817787711315 ], [ -90.094616518034471, 35.1217321756505 ], [ -90.094892576976051, 35.121745196110801 ], [ -90.095330301887003, 35.121628637909872 ] ] ], [ [ [ -90.092677533154315, 35.122438342756212 ], [ -90.09292174566923, 35.122249086512106 ], [ -90.093257309722489, 35.122257141044315 ], [ -90.093487658367962, 35.122457788256867 ], [ -90.093477856265963, 35.122733492512729 ], [ -90.093233643429642, 35.122922749858262 ], [ -90.092898076653654, 35.122914695128394 ], [ -90.092667728329587, 35.122714046814401 ], [ -90.092677533154315, 35.122438342756212 ] ] ], [ [ [ -90.08521191628904, 35.126187051938814 ], [ -90.085456156851862, 35.125997812253246 ], [ -90.085791734050687, 35.1260058881997 ], [ -90.086022073239235, 35.126206549138409 ], [ -90.086012244616924, 35.126482251391828 ], [ -90.085768003731829, 35.126671492178957 ], [ -90.08543242380982, 35.126663416034319 ], [ -90.08520208494356, 35.126462753994055 ], [ -90.08521191628904, 35.126187051938814 ] ] ] ] } },
{ "type": "Feature", "properties": { "depth_bin": "14-15 ft", "survey_id": "LM_19_MEMX_20250723_CS_732_734_SORT_ACTUALDEPTHS", "date": "2025-07-23 00:00:00+00:00", "year": 2025, "mile": 733.0, "bin_order": 3 }, "geometry": { "type": "MultiPolygon", "coordinates": [ [ [ [ -90.102306279519482, 35.120399223739668 ], [ -90.102526708983433, 35.120191192811589 ], [ -90.102861609242638, 35.120172157714528 ], [ -90.103114802199599, 35.12035326893492 ], [ -90.103137971007442, 35.120628434767127 ], [ -90.102917541760462, 35.12083646681387 ], [ -90.102582638768524, 35.120855501932581 ], [ -90.102329445594592, 35.120674389593532 ], [ -90.102306279519482, 35.120399223739668 ] ] ], [ [ [ -90.095289947279966, 35.121790397798527 ], [ -90.095561439162083, 35.121534342040576 ], [ -90.095897001071151, 35.121542389123114 ], [ -90.096127354673115, 35.121743031548164 ], [ -90.096117561725066, 35.122018736483113 ], [ -90.095790381025566, 35.122226526171012 ], [ -90.095393415533991, 35.122113731017421 ], [ -90.095266934795603, 35.122295110865828 ], [ -90.095080986889855, 35.122380723890082 ], [ -90.094677928545721, 35.122304742551158 ], [ -90.094528385892218, 35.122057797948401 ], [ -90.094635170986933, 35.121796302027711 ], [ -90.094892984673763, 35.12167760113261 ], [ -90.095289947279966, 35.121790397798527 ] ] ], [ [ [ -90.104479186397938, 35.122151808880787 ], [ -90.104699615661659, 35.121943774007931 ], [ -90.105034523060624, 35.121924733225129 ], [ -90.105287726315098, 35.12210584034932 ], [ -90.105310902546293, 35.122381006074434 ], [ -90.105090473499814, 35.122589042066018 ], [ -90.104755563367917, 35.122608082870613 ], [ -90.104502359896202, 35.1224269746277 ], [ -90.104479186397938, 35.122151808880787 ] ] ], [ [ [ -90.107380719268491, 35.122798294036464 ], [ -90.107601143383746, 35.122590253624139 ], [ -90.107936053343252, 35.122571204907779 ], [ -90.108189265367415, 35.122752306351565 ], [ -90.10821245144048, 35.123027471976883 ], [ -90.107992027542778, 35.123235513507943 ], [ -90.107657114850269, 35.123254562246295 ], [ -90.107403902608553, 35.123073459683795 ], [ -90.107380719268491, 35.122798294036464 ] ] ], [ [ [ -90.088012724898292, 35.124120201497192 ], [ -90.088529159803969, 35.123524694386781 ], [ -90.088903085081327, 35.12354881066117 ], [ -90.089177927517952, 35.123892018196912 ], [ -90.089135265962412, 35.124165603156662 ], [ -90.088607101062621, 35.124467580006687 ], [ -90.088233171751867, 35.124443462620278 ], [ -90.08807948710961, 35.124322107478946 ], [ -90.088012724898292, 35.124120201497192 ] ] ], [ [ [ -90.087204534342405, 35.124711120723184 ], [ -90.08744876591777, 35.124521876535304 ], [ -90.087784337658462, 35.124529946671267 ], [ -90.088014678115314, 35.124730603894925 ], [ -90.088004856745002, 35.125006306704897 ], [ -90.08776062484759, 35.125195551994295 ], [ -90.087425050383928, 35.125187481660284 ], [ -90.087194710249108, 35.124986823335142 ], [ -90.087204534342405, 35.124711120723184 ] ] ] ] } },
{ "type": "Feature", "properties": { "depth_bin": "15-17.5 ft", "survey_id": "LM_19_MEMX_20250723_CS_732_734_SORT_ACTUALDEPTHS", "date": "2025-07-23 00:00:00+00:00", "year": 2025, "mile": 733.0, "bin_order": 2 }, "geometry": { "type": "MultiPolygon", "coordinates": [ [ [ [ -90.106971621566601, 35.121128046187444 ], [ -90.107229417033068, 35.121009318025791 ], [ -90.107482007712562, 35.121035867504439 ], [ -90.107695124555562, 35.121204092711118 ], [ -90.107729976538366, 35.121445216238833 ], [ -90.107019509795606, 35.122536873225364 ], [ -90.106818047549467, 35.122664848506624 ], [ -90.106564001146197, 35.122679295632793 ], [ -90.106290406875857, 35.122519454343305 ], [ -90.106234512154501, 35.122247480341649 ], [ -90.106971621566601, 35.121128046187444 ] ] ], [ [ [ -90.105659167887836, 35.121338019886458 ], [ -90.105860628389863, 35.1212100464397 ], [ -90.106156102720576, 35.121205187498845 ], [ -90.106363634253199, 35.12132643531001 ], [ -90.106455066466481, 35.121557340073075 ], [ -90.106210123579103, 35.12210699412072 ], [ -90.105966116472572, 35.122269933827162 ], [ -90.105959432642166, 35.122617380847622 ], [ -90.105811754543268, 35.122743670144992 ], [ -90.105566019193603, 35.122798558215585 ], [ -90.105259728929724, 35.122685639663906 ], [ -90.105140864844387, 35.12244974465024 ], [ -90.104919506970859, 35.122493405349402 ], [ -90.104678072048031, 35.122426872701887 ], [ -90.104493824106711, 35.122122695029439 ], [ -90.104631261084094, 35.121871045143138 ], [ -90.104901984021069, 35.121773655336412 ], [ -90.105186453129349, 35.121839480075352 ], [ -90.105370169993634, 35.122121762113764 ], [ -90.105442123662442, 35.122096338714144 ], [ -90.105401939713843, 35.121847389340523 ], [ -90.105659167887836, 35.121338019886458 ] ] ], [ [ [ -90.107679834782218, 35.122341933662597 ], [ -90.107964268639819, 35.122195421817665 ], [ -90.108291486562266, 35.122257068679346 ], [ -90.108469810420701, 35.122490762778654 ], [ -90.108394779571668, 35.122759609948048 ], [ -90.108110344376641, 35.122906122735401 ], [ -90.107783124060958, 35.122844475270512 ], [ -90.107604801539949, 35.12261078022879 ], [ -90.107679834782218, 35.122341933662597 ] ] ], [ [ [ -90.102459155841103, 35.119900558088489 ], [ -90.102660617267404, 35.119772590014058 ], [ -90.102872279088885, 35.119751945517692 ], [ -90.103209278013765, 35.119948849626176 ], [ -90.103255030589466, 35.120119898274091 ], [ -90.103169660334316, 35.120492790318409 ], [ -90.102949231554717, 35.120700822448605 ], [ -90.102614329122261, 35.12071985768268 ], [ -90.102361136272165, 35.120538745423381 ], [ -90.102318747971481, 35.120332438527456 ], [ -90.102459155841103, 35.119900558088489 ] ] ], [ [ [ -90.103708716801663, 35.120378967054052 ], [ -90.103993150024905, 35.120232464516207 ], [ -90.104320356423443, 35.120294121608332 ], [ -90.104498664618632, 35.120527820868752 ], [ -90.104423623142182, 35.120796665106504 ], [ -90.104139188581243, 35.120943168586557 ], [ -90.10381197978991, 35.120881510891024 ], [ -90.103633672932389, 35.120647810688382 ], [ -90.103708716801663, 35.120378967054052 ] ] ], [ [ [ -90.100930538740982, 35.120547404719069 ], [ -90.101280915167621, 35.120366948382234 ], [ -90.101490757473485, 35.120397678599467 ], [ -90.101682815034238, 35.120535062720542 ], [ -90.10174960928569, 35.120736962761164 ], [ -90.101675981806835, 35.121075401909266 ], [ -90.101481426386414, 35.121300181636428 ], [ -90.101150404383603, 35.121346092004643 ], [ -90.100876825863608, 35.121186239173596 ], [ -90.100810033516325, 35.120984338751008 ], [ -90.100930538740982, 35.120547404719069 ] ] ], [ [ [ -90.099490023732301, 35.120886487225363 ], [ -90.09975562000848, 35.120717793325497 ], [ -90.100088605479286, 35.120752813854558 ], [ -90.10029392361588, 35.120971034550237 ], [ -90.100251301240547, 35.121244625425263 ], [ -90.099985704118723, 35.121413320366884 ], [ -90.099652716040211, 35.121378299429551 ], [ -90.099447398749234, 35.121160077692103 ], [ -90.099490023732301, 35.120886487225363 ] ] ], [ [ [ -90.098139763020185, 35.120908630248728 ], [ -90.09842420720318, 35.120762141386358 ], [ -90.098751410409491, 35.120823813431755 ], [ -90.098929703130295, 35.121057520164094 ], [ -90.098854642961555, 35.121326360015317 ], [ -90.098570197440267, 35.121472849819767 ], [ -90.098242991841389, 35.121411177170586 ], [ -90.098064700458849, 35.121177469496189 ], [ -90.098139763020185, 35.120908630248728 ] ] ], [ [ [ -90.094150352165826, 35.121695438000792 ], [ -90.095884421427542, 35.121395222402207 ], [ -90.096137601461436, 35.121576347623289 ], [ -90.096160746720514, 35.12185151361917 ], [ -90.095940297093421, 35.122059531896376 ], [ -90.095575156690757, 35.122185020398973 ], [ -90.094743621014374, 35.12230253665728 ], [ -90.09445365187257, 35.122512872861741 ], [ -90.094110746694156, 35.122472624186678 ], [ -90.09381587334849, 35.122693256809846 ], [ -90.093426726741853, 35.122626277355472 ], [ -90.093200466818615, 35.122786568264857 ], [ -90.092862168181227, 35.122777370280467 ], [ -90.092759932802124, 35.122958823633354 ], [ -90.092544154642951, 35.123069932095191 ], [ -90.09224952233761, 35.123050938803132 ], [ -90.092036434716505, 35.122882687748159 ], [ -90.091994071962617, 35.12267637851285 ], [ -90.092071713555455, 35.122513280213944 ], [ -90.092314131264473, 35.122374393921689 ], [ -90.092581857781482, 35.122384741686304 ], [ -90.092611568383333, 35.122167335207841 ], [ -90.092816347784918, 35.121992259794155 ], [ -90.093067449006426, 35.121957452116504 ], [ -90.093286427101404, 35.122034492000736 ], [ -90.093553248378385, 35.121863861376681 ], [ -90.093896752055826, 35.121904427638889 ], [ -90.094150352165826, 35.121695438000792 ] ] ], [ [ [ -90.08825752526937, 35.1235265827627 ], [ -90.088459016593532, 35.123398639916736 ], [ -90.088754496826098, 35.12339382390558 ], [ -90.088962005705923, 35.123515100539052 ], [ -90.089053389784382, 35.123746016106757 ], [ -90.088995572319632, 35.12391457985801 ], [ -90.088670511933927, 35.124266902477011 ], [ -90.088612027018996, 35.12458892206628 ], [ -90.088241769768374, 35.124740251265706 ], [ -90.087935499525244, 35.124627289702524 ], [ -90.08774750359126, 35.124437706245246 ], [ -90.087701782144691, 35.124266653301738 ], [ -90.08775960253665, 35.1240980903194 ], [ -90.08825752526937, 35.1235265827627 ] ] ], [ [ [ -90.085999512452503, 35.12524091663483 ], [ -90.086307193205599, 35.1250646692258 ], [ -90.086634401902728, 35.125126374392941 ], [ -90.087032197584193, 35.125479284493821 ], [ -90.086979635937368, 35.125816290159811 ], [ -90.086695154913059, 35.125962750156418 ], [ -90.08636794285286, 35.125901044995537 ], [ -90.085987405688655, 35.12558053196409 ], [ -90.085999512452503, 35.12524091663483 ] ] ], [ [ [ -90.084864718671838, 35.125871683060517 ], [ -90.085172404140138, 35.125695438788298 ], [ -90.085499614251148, 35.125757147100039 ], [ -90.085900174356894, 35.126112186923223 ], [ -90.085847607478456, 35.126449191819376 ], [ -90.085563122329575, 35.12659564893471 ], [ -90.085235908844396, 35.126533940636122 ], [ -90.08485260691441, 35.126211298010915 ], [ -90.084864718671838, 35.125871683060517 ] ] ] ] } },
{ "type": "Feature", "properties": { "depth_bin": "17.5-20 ft", "survey_id": "LM_19_MEMX_20250723_CS_732_734_SORT_ACTUALDEPTHS", "date": "2025-07-23 00:00:00+00:00", "year": 2025, "mile": 733.0, "bin_order": 1 }, "geometry": { "type": "MultiPolygon", "coordinates": [ [ [ [ -90.106046414330009, 35.116600991181379 ], [ -90.106311983532251, 35.116432281456476 ], [ -90.106644955771728, 35.116467283255645 ], [ -90.10685028227013, 35.116685493287967 ], [ -90.106807684952088, 35.116959087812596 ], [ -90.106542114905096, 35.117127798579233 ], [ -90.10620914005824, 35.117092796372255 ], [ -90.106003814404602, 35.116874585298191 ], [ -90.106046414330009, 35.116600991181379 ] ] ], [ [ [ -90.107804934551098, 35.116968916491643 ], [ -90.10808934880761, 35.116822403323518 ], [ -90.108416545617814, 35.116884048858495 ], [ -90.108594859219636, 35.117117742404702 ], [ -90.108519834978068, 35.117386590118443 ], [ -90.108235419384485, 35.117533104228777 ], [ -90.107908220181685, 35.117471458090691 ], [ -90.107729907916934, 35.11723776360229 ], [ -90.107804934551098, 35.116968916491643 ] ] ], [ [ [ -90.110548340027137, 35.118026740960019 ], [ -90.110832753643862, 35.117880221306464 ], [ -90.111159957234619, 35.117941859718975 ], [ -90.111338281065585, 35.118175549677815 ], [ -90.111263264509802, 35.118444399440804 ], [ -90.110978849556204, 35.118590920036688 ], [ -90.110651643572595, 35.118529281021218 ], [ -90.110473321078487, 35.118295590120056 ], [ -90.110548340027137, 35.118026740960019 ] ] ], [ [ [ -90.104948774691721, 35.120585100991818 ], [ -90.105150234280401, 35.120457128677899 ], [ -90.105361897571171, 35.120436479884134 ], [ -90.105560415033807, 35.120500249292853 ], [ -90.105716170241649, 35.120665774197086 ], [ -90.105741302724155, 35.12083968359061 ], [ -90.105477817583946, 35.121784547068785 ], [ -90.105798480963244, 35.121695886022543 ], [ -90.105644148036518, 35.121373639704174 ], [ -90.105873457227219, 35.121007024264152 ], [ -90.106239780161815, 35.120940867829098 ], [ -90.106551680862637, 35.12116395586613 ], [ -90.106569264406986, 35.121372682933576 ], [ -90.106436686037085, 35.121628218194708 ], [ -90.106274655558849, 35.121742007358094 ], [ -90.10604783389482, 35.121778404890208 ], [ -90.106177035435209, 35.121926741456519 ], [ -90.106194618042821, 35.122135468517087 ], [ -90.106022527953613, 35.122488942336602 ], [ -90.105797870788848, 35.122646708991041 ], [ -90.105423940885231, 35.122622644882568 ], [ -90.105270232364987, 35.122501310472295 ], [ -90.105203532595851, 35.122303701723091 ], [ -90.104830310635208, 35.122340472804282 ], [ -90.104559843422138, 35.122126967863736 ], [ -90.104542265009229, 35.121918240767677 ], [ -90.104948774691721, 35.120585100991818 ] ] ], [ [ [ -90.107024130349714, 35.121036811137742 ], [ -90.107308560560682, 35.120890300643637 ], [ -90.107635772703688, 35.120951949013296 ], [ -90.107814092035241, 35.121185643894407 ], [ -90.107739060563688, 35.121454490661414 ], [ -90.107454629015294, 35.121601002097862 ], [ -90.107127414479251, 35.121539353124973 ], [ -90.10694909648511, 35.121305657301519 ], [ -90.107024130349714, 35.121036811137742 ] ] ], [ [ [ -90.107920024902086, 35.121980633569613 ], [ -90.108121483788807, 35.121852656275891 ], [ -90.108416960707814, 35.121847791920658 ], [ -90.108624497438427, 35.121969036084245 ], [ -90.108715936754308, 35.122199939461403 ], [ -90.108233522175638, 35.123002189919035 ], [ -90.107863304375655, 35.123153581305189 ], [ -90.107557009223058, 35.123040668356424 ], [ -90.107437604183076, 35.122782880564046 ], [ -90.107920024902086, 35.121980633569613 ] ] ], [ [ [ -90.096713317011307, 35.115054221770109 ], [ -90.096997742372992, 35.114907735271878 ], [ -90.097324921095719, 35.114969410035947 ], [ -90.097503198012276, 35.115203118248914 ], [ -90.097428139976728, 35.115471957475194 ], [ -90.097143713276992, 35.115618444915235 ], [ -90.09681653216245, 35.11555676954741 ], [ -90.09663825658393, 35.11532306039264 ], [ -90.096713317011307, 35.115054221770109 ] ] ], [ [ [ -90.10469884983064, 35.116139121872806 ], [ -90.104983266138476, 35.115992616117275 ], [ -90.105310456724595, 35.116054269783746 ], [ -90.105488759472763, 35.116287967417122 ], [ -90.105413726105695, 35.11655681277945 ], [ -90.105129308460562, 35.116703319477054 ], [ -90.104802115482087, 35.116641665207311 ], [ -90.104623814071246, 35.116407966631847 ], [ -90.10469884983064, 35.116139121872806 ] ] ], [ [ [ -90.102491243405041, 35.119763138713537 ], [ -90.102775676382848, 35.119616639026354 ], [ -90.103102879192903, 35.11967829925208 ], [ -90.103281182558547, 35.119912000093464 ], [ -90.103206137840516, 35.120180843433353 ], [ -90.102921703524942, 35.12032734406268 ], [ -90.102594498322233, 35.12026568323347 ], [ -90.102416196294342, 35.120031981449948 ], [ -90.102491243405041, 35.119763138713537 ] ] ], [ [ [ -90.101111415860871, 35.119842537104169 ], [ -90.1013128790877, 35.119714571367915 ], [ -90.101566916370587, 35.119700134858583 ], [ -90.101787902669543, 35.119804093549611 ], [ -90.101892113864153, 35.119956865586197 ], [ -90.101758721256118, 35.120705271700679 ], [ -90.101457925115383, 35.120938424586853 ], [ -90.101124938036008, 35.120903407761801 ], [ -90.100919617735144, 35.120685188374672 ], [ -90.101111415860871, 35.119842537104169 ] ] ], [ [ [ -90.103740249937957, 35.12024392348571 ], [ -90.104024682622395, 35.120097420845362 ], [ -90.104351888517229, 35.120159077828376 ], [ -90.104530196538903, 35.120392777036983 ], [ -90.104455155320764, 35.120661621310532 ], [ -90.104170721298658, 35.120808124893088 ], [ -90.103843513011029, 35.120746467306653 ], [ -90.103665206327022, 35.120512767155851 ], [ -90.103740249937957, 35.12024392348571 ] ] ], [ [ [ -90.094471240507929, 35.12112211187393 ], [ -90.094740614730497, 35.120872233688388 ], [ -90.094994655797393, 35.120857811210541 ], [ -90.095289263020533, 35.121048528712706 ], [ -90.095287739470251, 35.121371135269584 ], [ -90.095699550938008, 35.121246641905635 ], [ -90.095990494697631, 35.121289262407799 ], [ -90.096195802631485, 35.121507489574348 ], [ -90.096153166224695, 35.121781078304835 ], [ -90.096005475429308, 35.12190735498703 ], [ -90.095589689017757, 35.122047978061033 ], [ -90.094930046849939, 35.122118752761274 ], [ -90.094674222714261, 35.122042878722674 ], [ -90.094388353953775, 35.122244602355948 ], [ -90.094045984595638, 35.122204634595342 ], [ -90.09375081159132, 35.122425898419429 ], [ -90.093361165296955, 35.122358594473276 ], [ -90.09313520188654, 35.122518407940611 ], [ -90.09282664229292, 35.122519031017511 ], [ -90.092776570632509, 35.122764852334569 ], [ -90.092510954085085, 35.122933529842101 ], [ -90.092297841278011, 35.12293701012225 ], [ -90.092076860115455, 35.122833034321509 ], [ -90.091958360510745, 35.122610592501012 ], [ -90.092038513955202, 35.122376877869648 ], [ -90.092280931294354, 35.122237991624253 ], [ -90.092548555314337, 35.122248306649958 ], [ -90.092579094807832, 35.122034000520131 ], [ -90.092746323170971, 35.121876213169102 ], [ -90.093156753212682, 35.121852119371759 ], [ -90.093102284240146, 35.121628063212583 ], [ -90.093236387913208, 35.121411685460473 ], [ -90.093464376771834, 35.121318487356824 ], [ -90.093705088643901, 35.121341250090587 ], [ -90.09378527813945, 35.121151414043453 ], [ -90.09398675534095, 35.121023461242999 ], [ -90.0942407968993, 35.121009040377515 ], [ -90.094471240507929, 35.12112211187393 ] ], [ [ -90.094637844346281, 35.121499822829357 ], [ -90.094613612319819, 35.121504226987611 ], [ -90.094611913704, 35.12152201965818 ], [ -90.094637844346281, 35.121499822829357 ] ] ], [ [ [ -90.090665274231981, 35.122336424236721 ], [ -90.090866759003248, 35.122208477033027 ], [ -90.091078428676525, 35.122187853625583 ], [ -90.091415406434876, 35.122384789618302 ], [ -90.091592384857918, 35.123095121115121 ], [ -90.091511374289468, 35.123293476471488 ], [ -90.09134932098678, 35.123407244451059 ], [ -90.091014407020126, 35.123426246901502 ], [ -90.090761233680297, 35.123245111282507 ], [ -90.090585116971795, 35.122570137770566 ], [ -90.090665274231981, 35.122336424236721 ] ] ], [ [ [ -90.088215249585929, 35.123374950374881 ], [ -90.088473076764672, 35.123256263882055 ], [ -90.088725665424576, 35.123282852547185 ], [ -90.088938746789992, 35.123451109141946 ], [ -90.088973543496508, 35.12369223534985 ], [ -90.088329625563304, 35.124439074191059 ], [ -90.087930549516273, 35.124528148312649 ], [ -90.087656988812583, 35.124368266405085 ], [ -90.087601155934564, 35.124096286823288 ], [ -90.088215249585929, 35.123374950374881 ] ] ], [ [ [ -90.087003800817271, 35.124461379105142 ], [ -90.087288275916634, 35.124314918069608 ], [ -90.087615482583502, 35.124376620480078 ], [ -90.087906122618861, 35.124669905150263 ], [ -90.087840255617849, 35.124973278703159 ], [ -90.087555779036421, 35.125119740959143 ], [ -90.087228569489611, 35.125058038251019 ], [ -90.086937930724076, 35.124764752020909 ], [ -90.087003800817271, 35.124461379105142 ] ] ], [ [ [ -90.085534214264598, 35.12483305352027 ], [ -90.085818693092619, 35.124686596139178 ], [ -90.086179708871441, 35.124770192383693 ], [ -90.08666858412434, 35.125197872129277 ], [ -90.086693676465828, 35.125371783461063 ], [ -90.086589377804529, 35.125562654798721 ], [ -90.086288793902028, 35.125685499713391 ], [ -90.085970520728139, 35.125597740765997 ], [ -90.085498904236047, 35.125202457536233 ], [ -90.085456557380354, 35.124996146826554 ], [ -90.085534214264598, 35.12483305352027 ] ] ], [ [ [ -90.084645460978251, 35.125654244500147 ], [ -90.084929944215872, 35.125507789443027 ], [ -90.08525715335476, 35.125569498366588 ], [ -90.085548243780735, 35.125863156329821 ], [ -90.08548236683157, 35.126166528073504 ], [ -90.08519788211089, 35.126312984352083 ], [ -90.084870670090112, 35.126251275131864 ], [ -90.084579580935568, 35.125957615606197 ], [ -90.084645460978251, 35.125654244500147 ] ] ] ] } },
{ "type": "Feature", "properties": { "depth_bin": ">20 ft", "survey_id": "LM_19_MEMX_20250723_CS_732_734_SORT_ACTUALDEPTHS", "date": "2025-07-23 00:00:00+00:00", "year": 2025, "mile": 733.0, "bin_order": 0 }, "geometry": { "type": "MultiPolygon", "coordinates": [ [ [ [ -90.106156828136207, 35.116608070112989 ], [ -90.106402544255559, 35.116553179873236 ], [ -90.106643963813454, 35.116619708364198 ], [ -90.106799714481909, 35.116785231714523 ], [ -90.106824848685577, 35.116959141034123 ], [ -90.105759719535811, 35.120773864833609 ], [ -90.105612148297482, 35.120944377050662 ], [ -90.105374269842059, 35.121018778457049 ], [ -90.105566103127885, 35.121203263279455 ], [ -90.105572015623935, 35.121446032269603 ], [ -90.105389138158856, 35.121636776848611 ], [ -90.10510049302745, 35.121688902389366 ], [ -90.104809153416966, 35.121551860576503 ], [ -90.104721087537811, 35.121285696685177 ], [ -90.104855160730253, 35.121069304526692 ], [ -90.105125760372957, 35.120971925805492 ], [ -90.104933928637493, 35.120787440353283 ], [ -90.104916349307587, 35.120578713238963 ], [ -90.105962296049029, 35.116832858301308 ], [ -90.106156828136207, 35.116608070112989 ] ] ], [ [ [ -90.107910563961951, 35.116910786405569 ], [ -90.108199190679784, 35.116858653222401 ], [ -90.108431514557694, 35.116944301479784 ], [ -90.10856677444805, 35.11712156982513 ], [ -90.108559379075899, 35.117330708384735 ], [ -90.106604371250739, 35.121312473603979 ], [ -90.106360191412634, 35.121501759160331 ], [ -90.106064715984289, 35.121506618547997 ], [ -90.105811512652735, 35.121325513040581 ], [ -90.105788334772853, 35.121050347302365 ], [ -90.107743374238567, 35.117068596737376 ], [ -90.107910563961951, 35.116910786405569 ] ] ], [ [ [ -90.109509188062958, 35.117428373466261 ], [ -90.109802645580402, 35.117399732813183 ], [ -90.110023637424405, 35.117503676704253 ], [ -90.110137103985821, 35.117690983659621 ], [ -90.110104799510523, 35.117898520136087 ], [ -90.107819229088548, 35.121333904763361 ], [ -90.107576838729727, 35.121472823566386 ], [ -90.107282206036984, 35.121453866983984 ], [ -90.107051824276283, 35.121253244499108 ], [ -90.107061580104556, 35.120977536857346 ], [ -90.109323979530771, 35.117571961354074 ], [ -90.109509188062958, 35.117428373466261 ] ] ], [ [ [ -90.110644994534454, 35.118011249586203 ], [ -90.11093845395925, 35.117982606263062 ], [ -90.111159448920461, 35.118086548217143 ], [ -90.111272918876097, 35.118273854256707 ], [ -90.111240616928043, 35.118481391147235 ], [ -90.108715100372009, 35.122277775093032 ], [ -90.108472708492386, 35.122416695609999 ], [ -90.108178072046599, 35.12239774103687 ], [ -90.107947685467309, 35.122197120049812 ], [ -90.107957438617959, 35.121921412232531 ], [ -90.110459786479325, 35.118154839232972 ], [ -90.110644994534454, 35.118011249586203 ] ] ], [ [ [ -90.103566236505372, 35.115740285602222 ], [ -90.103817315340578, 35.115705454432053 ], [ -90.104015820184685, 35.115769225803042 ], [ -90.104171563788213, 35.115934752219921 ], [ -90.104196692226552, 35.11610866182312 ], [ -90.103307108378232, 35.119920160073107 ], [ -90.103112560237591, 35.120144942811052 ], [ -90.102823919382871, 35.120197063117367 ], [ -90.102532589126128, 35.120060016236501 ], [ -90.102444532043179, 35.119793851068351 ], [ -90.103334153880937, 35.115982360973241 ], [ -90.103566236505372, 35.115740285602222 ] ] ], [ [ [ -90.102204256071516, 35.115743503510558 ], [ -90.102455335294508, 35.115708675194917 ], [ -90.102653838922819, 35.115772448748906 ], [ -90.102809579646845, 35.115937976785183 ], [ -90.102834705166259, 35.116111886530696 ], [ -90.101927905451504, 35.119996946282292 ], [ -90.101806142205334, 35.120174444746141 ], [ -90.101833421270797, 35.120401390367896 ], [ -90.101638868003917, 35.120626170468817 ], [ -90.101350224738823, 35.120678287128214 ], [ -90.101058895550977, 35.120541236745431 ], [ -90.100970842940612, 35.120275070730919 ], [ -90.101100161066711, 35.120062755881726 ], [ -90.101065331152611, 35.119870627511432 ], [ -90.101972169589345, 35.115985576073321 ], [ -90.102204256071516, 35.115743503510558 ] ] ], [ [ [ -90.1048469987294, 35.116084727841134 ], [ -90.105098078278289, 35.116049894040131 ], [ -90.105296585090358, 35.11611366339595 ], [ -90.105452332013485, 35.11627918831369 ], [ -90.105477463250537, 35.116453097779434 ], [ -90.104556712986522, 35.120398423534567 ], [ -90.104362166906895, 35.120623208377481 ], [ -90.104073524923777, 35.12067533161774 ], [ -90.103782190706596, 35.120538287570731 ], [ -90.103694129083067, 35.120272123108073 ], [ -90.104614918671942, 35.116326805792887 ], [ -90.1048469987294, 35.116084727841134 ] ] ], [ [ [ -90.099596663413124, 35.115251854161563 ], [ -90.099847741833088, 35.115217031234415 ], [ -90.100046241951802, 35.115280808913695 ], [ -90.100201976286172, 35.115446340016014 ], [ -90.100227096140117, 35.115620250038745 ], [ -90.098956372392237, 35.121062594694138 ], [ -90.098761809835224, 35.121287369687458 ], [ -90.098473162860955, 35.121339479276521 ], [ -90.098181836719533, 35.121202422099707 ], [ -90.098093793076302, 35.120936254437176 ], [ -90.09936457106555, 35.115493921433348 ], [ -90.099596663413124, 35.115251854161563 ] ] ], [ [ [ -90.098199277925858, 35.115263165244684 ], [ -90.098444994120968, 35.11520829121541 ], [ -90.098686402163437, 35.11527483508771 ], [ -90.098842133606439, 35.115440367805938 ], [ -90.098867250544629, 35.115614277970565 ], [ -90.097536583320704, 35.121312863974403 ], [ -90.097342016375293, 35.121537636458164 ], [ -90.097053367842918, 35.12158974257158 ], [ -90.096762043467194, 35.121452682053686 ], [ -90.096674004313499, 35.121186513579168 ], [ -90.098004728331802, 35.115487939777658 ], [ -90.098199277925858, 35.115263165244684 ] ] ], [ [ [ -90.10083472437428, 35.115635676290722 ], [ -90.101080440322079, 35.115580796881517 ], [ -90.101321851967569, 35.115647335650216 ], [ -90.101477589649591, 35.115812865261347 ], [ -90.10150271229449, 35.115986775147242 ], [ -90.100330151237202, 35.121009202702012 ], [ -90.100135592439514, 35.121233980095482 ], [ -90.099846946297291, 35.121286093013723 ], [ -90.099555617797108, 35.121149039040809 ], [ -90.099467569650713, 35.120882872161459 ], [ -90.100640180765666, 35.115860455357371 ], [ -90.10083472437428, 35.115635676290722 ] ] ], [ [ [ -90.095932256878868, 35.114895751529559 ], [ -90.096263254391701, 35.114849854266815 ], [ -90.096512182580241, 35.114980707689057 ], [ -90.096602723210964, 35.115176259444254 ], [ -90.096566771913189, 35.115558171459568 ], [ -90.096667836671358, 35.115192847474724 ], [ -90.096933418974572, 35.115024159015235 ], [ -90.097302636085232, 35.115078244569979 ], [ -90.097485984692099, 35.115347072452252 ], [ -90.096216124456816, 35.121581163830101 ], [ -90.095995675742657, 35.121789182258588 ], [ -90.095562161056819, 35.121919046670072 ], [ -90.095130346089022, 35.121941202201917 ], [ -90.094797213010281, 35.122156525626963 ], [ -90.094012235885131, 35.122070317532916 ], [ -90.093717753342261, 35.122290131692147 ], [ -90.093327642165036, 35.122222526279771 ], [ -90.093101971376271, 35.12238186810076 ], [ -90.092793347363781, 35.122382470249796 ], [ -90.092663993227177, 35.122712790230167 ], [ -90.092435999557566, 35.122805986573425 ], [ -90.092223498126529, 35.122792287668517 ], [ -90.092043948684349, 35.12269790346663 ], [ -90.091930518700337, 35.122510581357282 ], [ -90.090024386306055, 35.114679059378872 ], [ -90.090041061526904, 35.11450446664427 ], [ -90.090188651297652, 35.11433397427227 ], [ -90.090426641860674, 35.114259590647194 ], [ -90.090636463207304, 35.114290338752888 ], [ -90.090811029118882, 35.114407165658037 ], [ -90.091113749443821, 35.114282028272555 ], [ -90.091478692911892, 35.114409350332487 ], [ -90.091750204418432, 35.114276349830476 ], [ -90.091962683662175, 35.114290048502191 ], [ -90.092161997680392, 35.114403454999398 ], [ -90.092389002721376, 35.114280613876403 ], [ -90.092643520056868, 35.114286723648625 ], [ -90.092896671522738, 35.114467854415857 ], [ -90.092993314216599, 35.114805089522292 ], [ -90.093090987001148, 35.114644604448863 ], [ -90.093306741408256, 35.114533493759126 ], [ -90.093519832352953, 35.114530010630119 ], [ -90.093740793843679, 35.114633982917418 ], [ -90.093844983592575, 35.114786760946593 ], [ -90.093977278851526, 35.115498861956027 ], [ -90.093950203887914, 35.114965997789014 ], [ -90.09422173851442, 35.114709760211163 ], [ -90.094475760353873, 35.114695337883113 ], [ -90.094696723618682, 35.114799308503322 ], [ -90.094800915402899, 35.11495208580294 ], [ -90.094835353506909, 35.115274490956843 ], [ -90.094944068885241, 35.114897171356318 ], [ -90.095330541170682, 35.114776363265541 ], [ -90.095667500747012, 35.114973286639518 ], [ -90.095707464908841, 35.115369288260887 ], [ -90.095749373715492, 35.115086481339468 ], [ -90.095932256878868, 35.114895751529559 ] ], [ [ -90.094842550100935, 35.115336395619288 ], [ -90.094838572613511, 35.115314021830663 ], [ -90.094836640812019, 35.115365218509083 ], [ -90.094842550100935, 35.115336395619288 ] ], [ [ -90.096555226964043, 35.115651186821779 ], [ -90.096549630195653, 35.11564563210392 ], [ -90.096551506538134, 35.115659003993059 ], [ -90.096555226964043, 35.115651186821779 ] ], [ [ -90.093980240351272, 35.11551710369033 ], [ -90.093983395425937, 35.115577484442184 ], [ -90.093985438456002, 35.11558264644453 ], [ -90.093988681349714, 35.115548676126856 ], [ -90.093980240351272, 35.11551710369033 ] ] ], [ [ [ -90.089644866705825, 35.115050745416205 ], [ -90.091428422812427, 35.122389606933417 ], [ -90.091321626742896, 35.122651099464882 ], [ -90.090992642268802, 35.122774420813606 ], [ -90.091148323535421, 35.123136565286558 ], [ -90.091115968032952, 35.12334409408318 ], [ -90.090948733473041, 35.123501878848273 ], [ -90.090746024514601, 35.12355603393479 ], [ -90.090461563608343, 35.123490175538151 ], [ -90.090305835752488, 35.123324632305717 ], [ -90.087020054175667, 35.115852084995666 ], [ -90.087002520956162, 35.115643357408516 ], [ -90.087161794065878, 35.115438829356322 ], [ -90.087528102780851, 35.115372729036082 ], [ -90.087822672405608, 35.115563463055985 ], [ -90.09019308425124, 35.12095988690681 ], [ -90.088789152153694, 35.115205173459572 ], [ -90.088864237920859, 35.114936340952696 ], [ -90.089106637207848, 35.114797460105869 ], [ -90.089439592055513, 35.114832508572754 ], [ -90.089644866705825, 35.115050745416205 ] ] ], [ [ [ -90.086626240872491, 35.1160751583595 ], [ -90.089439278833652, 35.122469175701291 ], [ -90.089396619233639, 35.122742760887974 ], [ -90.089130996316115, 35.122911430640251 ], [ -90.088836365972639, 35.12289242910316 ], [ -90.088606028242552, 35.122691773544751 ], [ -90.085810306139905, 35.116330139002592 ], [ -90.085833439406656, 35.116088069223608 ], [ -90.086038216328632, 35.115913005092835 ], [ -90.086373099531158, 35.11589401495111 ], [ -90.086626240872491, 35.1160751583595 ] ] ], [ [ [ -90.085320182417718, 35.11694835107064 ], [ -90.088886268865465, 35.123358204395572 ], [ -90.088911365679635, 35.123532115515829 ], [ -90.088247672481401, 35.124313057972323 ], [ -90.087861145214731, 35.124433840569615 ], [ -90.087597789963525, 35.124323646207245 ], [ -90.081979881457087, 35.119251699414932 ], [ -90.081945106485591, 35.119010572140752 ], [ -90.082104398949667, 35.1188060517823 ], [ -90.082385442883066, 35.118730985754418 ], [ -90.082660651412866, 35.118819452181675 ], [ -90.086267920219356, 35.12206802172242 ], [ -90.0832633384112, 35.118335555181908 ], [ -90.083220999565654, 35.118129243934987 ], [ -90.083355122209156, 35.117912878020604 ], [ -90.08358311094446, 35.117819698561291 ], [ -90.083874034204115, 35.117862347314777 ], [ -90.086960100958535, 35.121627008392153 ], [ -90.084517542586795, 35.11723695526004 ], [ -90.08452737287989, 35.116961252953054 ], [ -90.084732154764708, 35.116786191297663 ], [ -90.085067041603693, 35.11676720496208 ], [ -90.085320182417718, 35.11694835107064 ] ] ], [ [ [ -90.081683538737337, 35.119781049333113 ], [ -90.087611237744483, 35.124384751813473 ], [ -90.087667070784306, 35.124656731390559 ], [ -90.087472469193955, 35.124881486186872 ], [ -90.087183804091566, 35.124933567849588 ], [ -90.086951483310443, 35.124847878874363 ], [ -90.081076366417406, 35.120300045334346 ], [ -90.080957900723973, 35.120077594299644 ], [ -90.081064725350075, 35.119816112272233 ], [ -90.081365293935036, 35.119693279561133 ], [ -90.081683538737337, 35.119781049333113 ] ] ], [ [ [ -90.086269750050278, 35.124844167073995 ], [ -90.086448013678435, 35.125077890751818 ], [ -90.086372908336543, 35.125346720525549 ], [ -90.086088428023544, 35.125493179132171 ], [ -90.085761218395888, 35.125431472440297 ], [ -90.080171028159228, 35.121108385737891 ], [ -90.080052563982292, 35.120885933905804 ], [ -90.080159392692877, 35.120624452901161 ], [ -90.080459965538822, 35.120501622664868 ], [ -90.080778212282667, 35.120589394913985 ], [ -90.086269750050278, 35.124844167073995 ] ] ], [ [ [ -90.079937975693539, 35.121448122109186 ], [ -90.085274794300432, 35.125609135382888 ], [ -90.085297902976095, 35.125884301570785 ], [ -90.085077415484406, 35.126092298058893 ], [ -90.084826299214683, 35.126127088349399 ], [ -90.084593977929117, 35.126041394817342 ], [ -90.079330779758422, 35.121967108080248 ], [ -90.079212316853088, 35.12174465550391 ], [ -90.079319149521723, 35.121483175459588 ], [ -90.079619726733469, 35.121360347541675 ], [ -90.079937975693539, 35.121448122109186 ] ] ] ] } }
]
}
