{
"type": "FeatureCollection",
"name": "LM_11_YBS_20160706_CS_MB_5303_5308_depth_polygons",
"crs": { "type": "name", "properties": { "name": "urn:ogc:def:crs:OGC:1.3:CRS84" } },
"features": [
{ "type": "Feature", "properties": { "depth_bin": "70-75 ft", "bin_order": -72.5, "survey_id": "LM_11_YBS_20160706_CS_MB_5303_5308", "date": "2016-07-06", "year": 2016, "mile": 530.0 }, "geometry": { "type": "Polygon", "coordinates": [ [ [ -91.15214506730814, 33.287568517751687 ], [ -91.152412747231665, 33.287779646086562 ], [ -91.152388239028014, 33.288087368259248 ], [ -91.15203286837388, 33.288314290037775 ], [ -91.15169003449229, 33.288282480727013 ], [ -91.151486055878607, 33.288066029289091 ], [ -91.15152367507055, 33.287750617899853 ], [ -91.151774064850684, 33.287576681054333 ], [ -91.15214506730814, 33.287568517751687 ] ] ] } },
{ "type": "Feature", "properties": { "depth_bin": "75-80 ft", "bin_order": -77.5, "survey_id": "LM_11_YBS_20160706_CS_MB_5303_5308", "date": "2016-07-06", "year": 2016, "mile": 530.0 }, "geometry": { "type": "Polygon", "coordinates": [ [ [ -91.152134638864396, 33.287498911034291 ], [ -91.152444229534822, 33.287719583422877 ], [ -91.152437062720438, 33.288059564413992 ], [ -91.1520077373047, 33.288344609671746 ], [ -91.151608618317852, 33.288324239888262 ], [ -91.151407030371317, 33.288163356898927 ], [ -91.151288580429522, 33.287943658732843 ], [ -91.151325943854943, 33.287600767012826 ], [ -91.151624720827144, 33.287421463584991 ], [ -91.152134638864396, 33.287498911034291 ] ] ] } },
{ "type": "Feature", "properties": { "depth_bin": "80-85 ft", "bin_order": -82.5, "survey_id": "LM_11_YBS_20160706_CS_MB_5303_5308", "date": "2016-07-06", "year": 2016, "mile": 530.0 }, "geometry": { "type": "Polygon", "coordinates": [ [ [ -91.152468042026882, 33.287278609785652 ], [ -91.152654600226043, 33.287470857026051 ], [ -91.152701716541685, 33.287641601305673 ], [ -91.152421652496741, 33.288103691472486 ], [ -91.15191898851414, 33.288383745330378 ], [ -91.151677680474421, 33.288389459601255 ], [ -91.151490636495794, 33.288311727913957 ], [ -91.15117380217599, 33.2879169319448 ], [ -91.151166487032853, 33.287659307321192 ], [ -91.151259040441929, 33.287502217648935 ], [ -91.151477531227414, 33.287358775751869 ], [ -91.151788461337006, 33.287341092024988 ], [ -91.152064388291947, 33.287198711328287 ], [ -91.152468042026882, 33.287278609785652 ] ] ] } },
{ "type": "Feature", "properties": { "depth_bin": "85-90 ft", "bin_order": -87.5, "survey_id": "LM_11_YBS_20160706_CS_MB_5303_5308", "date": "2016-07-06", "year": 2016, "mile": 530.0 }, "geometry": { "type": "Polygon", "coordinates": [ [ [ -91.152673232334521, 33.287273550134628 ], [ -91.152907886688283, 33.287597205222141 ], [ -91.152783520970402, 33.287920799957554 ], [ -91.151853804270132, 33.288411656707261 ], [ -91.151604524141206, 33.288407948673004 ], [ -91.151361627358867, 33.288274403800536 ], [ -91.151088877561079, 33.28792362854567 ], [ -91.151044789129372, 33.287667493975903 ], [ -91.15113453931248, 33.287462213479778 ], [ -91.151414469168301, 33.287289648581158 ], [ -91.15154554840845, 33.287035007115293 ], [ -91.151775368618388, 33.286933513447984 ], [ -91.152000312714435, 33.2869279066229 ], [ -91.152673232334521, 33.287273550134628 ] ] ] } },
{ "type": "Feature", "properties": { "depth_bin": "90-95 ft", "bin_order": -92.5, "survey_id": "LM_11_YBS_20160706_CS_MB_5303_5308", "date": "2016-07-06", "year": 2016, "mile": 530.0 }, "geometry": { "type": "Polygon", "coordinates": [ [ [ -91.152629330666386, 33.287030206896148 ], [ -91.152978386492805, 33.287590650581414 ], [ -91.152903125364915, 33.287825296035273 ], [ -91.152391975773327, 33.288145458412117 ], [ -91.152122831483297, 33.288202810718772 ], [ -91.151844905039866, 33.288428128370171 ], [ -91.151426387953208, 33.288388919305746 ], [ -91.150940995823944, 33.287855896199694 ], [ -91.150962025323736, 33.287456127840969 ], [ -91.151289701774942, 33.287211267135042 ], [ -91.15133305076813, 33.286890302731258 ], [ -91.151601743646012, 33.286643422650428 ], [ -91.151984495112146, 33.286663899973853 ], [ -91.152249807828909, 33.286890284659684 ], [ -91.152629330666386, 33.287030206896148 ] ] ] } },
{ "type": "Feature", "properties": { "depth_bin": "95-100 ft", "bin_order": -97.5, "survey_id": "LM_11_YBS_20160706_CS_MB_5303_5308", "date": "2016-07-06", "year": 2016, "mile": 530.0 }, "geometry": { "type": "Polygon", "coordinates": [ [ [ -91.153230393186433, 33.286692048880376 ], [ -91.153756111736584, 33.286802917388165 ], [ -91.153907552619003, 33.287006423464362 ], [ -91.153903142944458, 33.28721578292437 ], [ -91.153760985228459, 33.287387801270732 ], [ -91.153411491217028, 33.287458586394706 ], [ -91.15279892586409, 33.287922919287595 ], [ -91.152517050811397, 33.287977784397945 ], [ -91.152264650240753, 33.287875480916242 ], [ -91.152077075141591, 33.287989415226356 ], [ -91.152091022496791, 33.288182987064509 ], [ -91.15199846976995, 33.288340077367153 ], [ -91.151624485685886, 33.28850763076727 ], [ -91.15129533874078, 33.288422941671342 ], [ -91.150865606463185, 33.28800202587913 ], [ -91.150721027844, 33.287720474887578 ], [ -91.15073431860246, 33.2874768952069 ], [ -91.150876839480375, 33.287259265197328 ], [ -91.151183949219828, 33.287107944583745 ], [ -91.151217632968155, 33.286794874056135 ], [ -91.151476447763301, 33.286538562486435 ], [ -91.151713902572808, 33.286459001197805 ], [ -91.152019947920834, 33.28646823546498 ], [ -91.152215159431989, 33.286530194397109 ], [ -91.152402629589233, 33.286713466397686 ], [ -91.153230393186433, 33.286692048880376 ] ] ] } },
{ "type": "Feature", "properties": { "depth_bin": "100-105 ft", "bin_order": -102.5, "survey_id": "LM_11_YBS_20160706_CS_MB_5303_5308", "date": "2016-07-06", "year": 2016, "mile": 530.0 }, "geometry": { "type": "MultiPolygon", "coordinates": [ [ [ [ -91.153771945423998, 33.286582172043701 ], [ -91.154122069227583, 33.286861458674679 ], [ -91.154149034550514, 33.28703525922932 ], [ -91.154049566855292, 33.287227265033543 ], [ -91.152781713643876, 33.287910864001951 ], [ -91.152438880967352, 33.287879056797557 ], [ -91.152164955770459, 33.28761308289733 ], [ -91.152046031561511, 33.287788249490241 ], [ -91.151851573697442, 33.287878324841984 ], [ -91.151979851966075, 33.288084258939897 ], [ -91.151951153368842, 33.288305986813945 ], [ -91.151655425369057, 33.28853873438409 ], [ -91.151435762274318, 33.288578411388293 ], [ -91.151198497673221, 33.288514088476781 ], [ -91.150859565252887, 33.288264623353037 ], [ -91.150532460251114, 33.287835991813928 ], [ -91.150450578972482, 33.287445618709285 ], [ -91.150537072832321, 33.287221206181741 ], [ -91.151053032251752, 33.28692508540427 ], [ -91.15115956889808, 33.28663758417661 ], [ -91.151495458529126, 33.28639735260915 ], [ -91.151969457097678, 33.286317416484486 ], [ -91.153080744508202, 33.286527512522611 ], [ -91.153771945423998, 33.286582172043701 ] ] ], [ [ [ -91.150807913410006, 33.28610976717858 ], [ -91.15101609644195, 33.286496638332736 ], [ -91.150920831683479, 33.286821911335686 ], [ -91.150563084092369, 33.286975613866318 ], [ -91.150290104241179, 33.286969515913654 ], [ -91.150037368871381, 33.286864731853868 ], [ -91.149771669422051, 33.286468625302213 ], [ -91.149985748304488, 33.286054036608206 ], [ -91.150171773960039, 33.285938292335359 ], [ -91.150444148854916, 33.285915221175472 ], [ -91.150807913410006, 33.28610976717858 ] ] ] ] } },
{ "type": "Feature", "properties": { "depth_bin": "105-110 ft", "bin_order": -107.5, "survey_id": "LM_11_YBS_20160706_CS_MB_5303_5308", "date": "2016-07-06", "year": 2016, "mile": 530.0 }, "geometry": { "type": "Polygon", "coordinates": [ [ [ -91.152965994842418, 33.286159697188815 ], [ -91.154161728721022, 33.286489872031446 ], [ -91.154381431561859, 33.286676220073261 ], [ -91.15442586783108, 33.28689601934137 ], [ -91.154326400904708, 33.287088025397821 ], [ -91.153950775308488, 33.287300646061979 ], [ -91.15369839620881, 33.28734054322635 ], [ -91.152255611189432, 33.287203920517584 ], [ -91.151942682212407, 33.287050863466682 ], [ -91.151826400360818, 33.287434299549155 ], [ -91.151401148754161, 33.28761280487155 ], [ -91.151507213718844, 33.287784523036009 ], [ -91.151787600300864, 33.287954174630293 ], [ -91.151856507222419, 33.288238036425284 ], [ -91.151709138034903, 33.288505003578791 ], [ -91.15140329822151, 33.288606107156745 ], [ -91.151185431325942, 33.288560622970337 ], [ -91.150672112502861, 33.288262149008425 ], [ -91.150242127936977, 33.28781375061866 ], [ -91.150147015810674, 33.287573096992986 ], [ -91.150143158226257, 33.287225353561197 ], [ -91.149659031530206, 33.286690812981512 ], [ -91.149557541114618, 33.286420905204274 ], [ -91.149702205224401, 33.286103426532001 ], [ -91.149717492207245, 33.285581781305758 ], [ -91.150022792751685, 33.285235589861685 ], [ -91.150296900591002, 33.285157790071096 ], [ -91.150498398969461, 33.285203383114641 ], [ -91.150757789087208, 33.285389893352331 ], [ -91.150937321362647, 33.285846121328952 ], [ -91.151186861178502, 33.285869963526999 ], [ -91.15147281452775, 33.286037558321048 ], [ -91.151835371631122, 33.285974772399229 ], [ -91.152440312871647, 33.286174772529648 ], [ -91.152965994842418, 33.286159697188815 ] ] ] } },
{ "type": "Feature", "properties": { "depth_bin": "110-115 ft", "bin_order": -112.5, "survey_id": "LM_11_YBS_20160706_CS_MB_5303_5308", "date": "2016-07-06", "year": 2016, "mile": 530.0 }, "geometry": { "type": "MultiPolygon", "coordinates": [ [ [ [ -91.155271961026827, 33.284559276753683 ], [ -91.155847630140485, 33.285102078177118 ], [ -91.156146691326313, 33.285096178791726 ], [ -91.156400972165827, 33.285256463774836 ], [ -91.156490809552167, 33.285521994455351 ], [ -91.156330780724517, 33.28576310626331 ], [ -91.155732751560038, 33.285961602808975 ], [ -91.155398130414184, 33.285908288154943 ], [ -91.155082707551131, 33.285576112109929 ], [ -91.154307206056004, 33.285077745235682 ], [ -91.154101003329131, 33.284838992273414 ], [ -91.153157353079592, 33.284346366005813 ], [ -91.152806180602212, 33.283796627860035 ], [ -91.152824780978705, 33.283574404980662 ], [ -91.152993764607217, 33.28333539913875 ], [ -91.152782116774233, 33.282972322490536 ], [ -91.152911534024526, 33.282642604164771 ], [ -91.153338308592978, 33.282486566136363 ], [ -91.153570169254991, 33.282502403058892 ], [ -91.153763719317823, 33.282608786978145 ], [ -91.153945814412523, 33.283077798856603 ], [ -91.154323781288994, 33.283385561472166 ], [ -91.154707071513954, 33.283526260087562 ], [ -91.155153030835052, 33.283933313671412 ], [ -91.155271961026827, 33.284559276753683 ] ] ], [ [ [ -91.154642031112829, 33.286550828867682 ], [ -91.154686339268437, 33.286756887867156 ], [ -91.154612571876257, 33.286920842500358 ], [ -91.154091862267663, 33.28719540375964 ], [ -91.153233155556237, 33.28699983813511 ], [ -91.15262730980352, 33.286928750602414 ], [ -91.152294871430811, 33.286962409264881 ], [ -91.152028219810532, 33.28687292514001 ], [ -91.151840494906011, 33.28688323667766 ], [ -91.151424282958246, 33.287116802670873 ], [ -91.151065029344622, 33.287053366291552 ], [ -91.151018579944875, 33.287404686608092 ], [ -91.151236194660925, 33.287718916025966 ], [ -91.151639579610077, 33.287916156303886 ], [ -91.151800403433739, 33.288140404974733 ], [ -91.151731096200834, 33.288465107920494 ], [ -91.151557776919987, 33.288594341439328 ], [ -91.15135447389811, 33.288633910591855 ], [ -91.150591631140216, 33.288353187754957 ], [ -91.150372143307209, 33.288112927461242 ], [ -91.150021737908688, 33.287899122181507 ], [ -91.149930426072899, 33.287704279386475 ], [ -91.149944461949346, 33.287091684337369 ], [ -91.149305719506998, 33.286557199358825 ], [ -91.149212961539405, 33.286313239165402 ], [ -91.149289552113061, 33.286113972916979 ], [ -91.14946950183618, 33.285989920916904 ], [ -91.149354189384283, 33.285666481744173 ], [ -91.14946196352652, 33.285302117063786 ], [ -91.149846163602987, 33.284979126347771 ], [ -91.150555325502751, 33.28479882374991 ], [ -91.15075682321995, 33.284844416352769 ], [ -91.151049060145127, 33.285044450115009 ], [ -91.151151543841408, 33.285231567380684 ], [ -91.151126473842808, 33.285449618840609 ], [ -91.151345872232739, 33.285654613686738 ], [ -91.151759088344235, 33.285624092743021 ], [ -91.152216371546345, 33.285739515402575 ], [ -91.152548009375494, 33.285940006544287 ], [ -91.153570356564103, 33.286020118680156 ], [ -91.154189223238816, 33.286237126195793 ], [ -91.154642031112829, 33.286550828867682 ] ] ], [ [ [ -91.151636355374066, 33.283819725061647 ], [ -91.151617043547063, 33.284062193160679 ], [ -91.151402870190466, 33.284266921586621 ], [ -91.150239498560595, 33.284701116554658 ], [ -91.149839132261036, 33.284781798497036 ], [ -91.149523137557409, 33.284759871310627 ], [ -91.149314611243753, 33.284898996296398 ], [ -91.149069268642407, 33.284936198766403 ], [ -91.148809947413838, 33.284828419364985 ], [ -91.148498110831241, 33.284437215047276 ], [ -91.148590977655118, 33.284077655793574 ], [ -91.148817231575777, 33.283822972763609 ], [ -91.148289943944889, 33.283688270288565 ], [ -91.148141546819133, 33.283358120700576 ], [ -91.14824765818905, 33.283152734064181 ], [ -91.148443147731456, 33.283022789351399 ], [ -91.149222266849137, 33.282955173237077 ], [ -91.150327930730697, 33.283237324064608 ], [ -91.150625713134659, 33.283453860040559 ], [ -91.151394616927703, 33.283587576542217 ], [ -91.151636355374066, 33.283819725061647 ] ] ] ] } },
{ "type": "Feature", "properties": { "depth_bin": "115-120 ft", "bin_order": -117.5, "survey_id": "LM_11_YBS_20160706_CS_MB_5303_5308", "date": "2016-07-06", "year": 2016, "mile": 530.0 }, "geometry": { "type": "MultiPolygon", "coordinates": [ [ [ [ -91.156348097402088, 33.284295595865416 ], [ -91.156742926474692, 33.284809901649453 ], [ -91.156729136869217, 33.284998521684429 ], [ -91.156594140547199, 33.285167214437074 ], [ -91.156815204150007, 33.285537700220651 ], [ -91.156768088998106, 33.2858186338811 ], [ -91.154393518057489, 33.287062021603681 ], [ -91.154012976013149, 33.287017962433779 ], [ -91.153341122564825, 33.286738128753093 ], [ -91.152521728028319, 33.286727315623715 ], [ -91.151966374095977, 33.286554554769616 ], [ -91.151193933384434, 33.286486900821515 ], [ -91.150588010626393, 33.286209603579742 ], [ -91.150346502633113, 33.285998717462 ], [ -91.150264166902389, 33.286328490796073 ], [ -91.150767042333428, 33.28682371419054 ], [ -91.150880707075331, 33.287219715910837 ], [ -91.15084580722683, 33.287393669285414 ], [ -91.151063908770013, 33.287546705724701 ], [ -91.151143523334838, 33.2877960535018 ], [ -91.151573716254234, 33.287922267712425 ], [ -91.151758425250989, 33.288133620513726 ], [ -91.151698504020388, 33.288479063569149 ], [ -91.151364004129448, 33.288646755861471 ], [ -91.150808888578197, 33.288535617995286 ], [ -91.149989273657127, 33.287926817583838 ], [ -91.149864345902657, 33.287636008287201 ], [ -91.149865204185986, 33.287050627743739 ], [ -91.149141352649792, 33.286475831983914 ], [ -91.148967940201047, 33.286064606840291 ], [ -91.148600959309846, 33.285694454380909 ], [ -91.148375838545022, 33.285767018939147 ], [ -91.148153629412889, 33.285738337146306 ], [ -91.147955270418223, 33.285604181936293 ], [ -91.147863825396286, 33.285405587495084 ], [ -91.14761108092469, 33.285470560197368 ], [ -91.147373827794752, 33.285406230338758 ], [ -91.147190667418386, 33.285138926228534 ], [ -91.147291641451531, 33.28487623449562 ], [ -91.147584201700923, 33.28475045041197 ], [ -91.147896971433099, 33.284835256029623 ], [ -91.148046875777155, 33.285084724147282 ], [ -91.148257498069256, 33.285020859801065 ], [ -91.148523931319417, 33.285054109227588 ], [ -91.148245642912315, 33.284718040045391 ], [ -91.148114229955638, 33.28439182861468 ], [ -91.148146257600118, 33.284031156247316 ], [ -91.147934336496959, 33.28391350820759 ], [ -91.147681481230961, 33.283597681418918 ], [ -91.147668907832553, 33.283319728637267 ], [ -91.147908204426841, 33.283037151422661 ], [ -91.148350536460057, 33.282833693715922 ], [ -91.14898907840282, 33.282762522793583 ], [ -91.149307094224298, 33.282796492190876 ], [ -91.149642422630549, 33.282648305194215 ], [ -91.149988924822949, 33.282677136885766 ], [ -91.15021887869618, 33.282826288208781 ], [ -91.150709804119046, 33.282821730416636 ], [ -91.150969980609602, 33.282917979838658 ], [ -91.151168532575298, 33.282336567706757 ], [ -91.151465801570836, 33.28207939207072 ], [ -91.151697778940687, 33.282002699187181 ], [ -91.152022519881768, 33.282040519242386 ], [ -91.152655490293952, 33.281940592541204 ], [ -91.152987855886835, 33.281985318619 ], [ -91.153861907890985, 33.282424491834568 ], [ -91.154258321930925, 33.282796196092072 ], [ -91.154717509948796, 33.282894100767166 ], [ -91.155264912444693, 33.283600331037299 ], [ -91.156348097402088, 33.284295595865416 ] ], [ [ -91.152419189060438, 33.285421283380487 ], [ -91.153336949548034, 33.285554462196991 ], [ -91.153948359419374, 33.285837716663742 ], [ -91.154149369271309, 33.285799455324685 ], [ -91.154356130562988, 33.285554655504484 ], [ -91.153174575773363, 33.284753392013215 ], [ -91.152120451572998, 33.28439621601342 ], [ -91.151825143988049, 33.284489617288436 ], [ -91.150937902496068, 33.284541678429697 ], [ -91.150633569363478, 33.284633779181327 ], [ -91.150939719720483, 33.284635861213459 ], [ -91.151442769368799, 33.284861903463757 ], [ -91.152132951795892, 33.285041474253084 ], [ -91.152301558236275, 33.285175091183277 ], [ -91.152419189060438, 33.285421283380487 ] ], [ [ -91.151424000068005, 33.283375508467124 ], [ -91.151393096838092, 33.283232837697646 ], [ -91.151124378418174, 33.28314174627355 ], [ -91.151136501867555, 33.28327345323838 ], [ -91.151424000068005, 33.283375508467124 ] ] ], [ [ [ -91.152985199414474, 33.280831733527499 ], [ -91.153191181128634, 33.281607497243499 ], [ -91.153069790371816, 33.281790389562602 ], [ -91.152806095065685, 33.28189038658104 ], [ -91.152546124597393, 33.281846016104694 ], [ -91.152107057538288, 33.281321208603551 ], [ -91.152011760905538, 33.281067387431136 ], [ -91.152064460661833, 33.280835293478411 ], [ -91.15245251773932, 33.280608155098854 ], [ -91.15277896335266, 33.280640069223935 ], [ -91.152985199414474, 33.280831733527499 ] ] ], [ [ [ -91.150101690816115, 33.281697852964086 ], [ -91.150336961103719, 33.282090215074902 ], [ -91.150289443555991, 33.282329925257365 ], [ -91.15007760204179, 33.282503036249885 ], [ -91.149808876259542, 33.282543033313154 ], [ -91.147883868235994, 33.282374389604769 ], [ -91.147391739917268, 33.282265864480536 ], [ -91.147162446360937, 33.282117662352988 ], [ -91.147093941556335, 33.281875018878232 ], [ -91.147196231978668, 33.281647703713375 ], [ -91.147405942323815, 33.281534480105314 ], [ -91.148675389274615, 33.281444602900059 ], [ -91.149896892728165, 33.281578453783993 ], [ -91.150101690816115, 33.281697852964086 ] ] ] ] } },
{ "type": "Feature", "properties": { "depth_bin": "120-125 ft", "bin_order": -122.5, "survey_id": "LM_11_YBS_20160706_CS_MB_5303_5308", "date": "2016-07-06", "year": 2016, "mile": 530.0 }, "geometry": { "type": "Polygon", "coordinates": [ [ [ -91.156462742352801, 33.284308577737505 ], [ -91.156784371471971, 33.284709090880547 ], [ -91.157008294036615, 33.285192893677092 ], [ -91.156827201215151, 33.285806903963788 ], [ -91.155922706251701, 33.286253205293661 ], [ -91.155609922765734, 33.286168419459685 ], [ -91.155359886967503, 33.285871058948125 ], [ -91.155105111498813, 33.286382085047954 ], [ -91.15488040617636, 33.286562553417667 ], [ -91.154528949491635, 33.286697838215169 ], [ -91.153583117426791, 33.286539862403856 ], [ -91.152940437471926, 33.28628570845806 ], [ -91.152008847653889, 33.286151749987674 ], [ -91.151470550103085, 33.285899524902923 ], [ -91.151165361065239, 33.285883450136936 ], [ -91.150954450788191, 33.285717090762034 ], [ -91.15091472606376, 33.285487955771409 ], [ -91.150680604383908, 33.285405525482815 ], [ -91.149859007336929, 33.2854119512808 ], [ -91.149573131251884, 33.285279482227018 ], [ -91.149887966703957, 33.285809939416474 ], [ -91.149896144362017, 33.286091965826053 ], [ -91.150330784771683, 33.286410198129012 ], [ -91.150718218784419, 33.286851517392265 ], [ -91.150755063030402, 33.287419364885551 ], [ -91.150990584104761, 33.287545711155744 ], [ -91.151111059475312, 33.287823749205991 ], [ -91.151541380733505, 33.287963703736182 ], [ -91.151726346266983, 33.288202536994284 ], [ -91.151707033126712, 33.288445004920199 ], [ -91.151470542437693, 33.288636708831362 ], [ -91.150673655403025, 33.288592707097024 ], [ -91.150496584677427, 33.288499950805225 ], [ -91.150246098130964, 33.288146539594507 ], [ -91.149878183038481, 33.287854032913103 ], [ -91.149798777677262, 33.287622697975635 ], [ -91.149806739650273, 33.287042920298248 ], [ -91.149152991316029, 33.286530062461679 ], [ -91.148809366122848, 33.286158906011018 ], [ -91.147977364618868, 33.285687932358606 ], [ -91.147390952883086, 33.285488565422526 ], [ -91.146825164931997, 33.285029648942974 ], [ -91.146832097713045, 33.284662188418736 ], [ -91.147394253041625, 33.284161123422933 ], [ -91.147400742000571, 33.284066252039651 ], [ -91.147178041376762, 33.283778641527505 ], [ -91.147274951277751, 33.283303039419991 ], [ -91.147532045306633, 33.282966520892522 ], [ -91.147977561140451, 33.282747863889334 ], [ -91.147853476321657, 33.282510576171866 ], [ -91.147087190508302, 33.282656234880236 ], [ -91.146807825732068, 33.282593013116511 ], [ -91.146564041248809, 33.282292533013894 ], [ -91.146625145009381, 33.281911230382008 ], [ -91.146815873978056, 33.281683937232287 ], [ -91.148129273835124, 33.280936202043264 ], [ -91.148541482443974, 33.280932045103668 ], [ -91.148916050874689, 33.281068521858955 ], [ -91.149186647755954, 33.280329651386488 ], [ -91.149772435212228, 33.279949802677642 ], [ -91.150044664605176, 33.279912991720657 ], [ -91.150322588485892, 33.280023695865374 ], [ -91.150938561195616, 33.280777954514043 ], [ -91.151827938608349, 33.281324684689771 ], [ -91.151649301148765, 33.280794952945548 ], [ -91.151747723296182, 33.280484228731758 ], [ -91.152092242605164, 33.280223676463621 ], [ -91.152419826838781, 33.280201486124788 ], [ -91.152624625442627, 33.280320881178071 ], [ -91.15301804543121, 33.280845257997186 ], [ -91.153465045326271, 33.281677803802388 ], [ -91.153438700189753, 33.281946179707411 ], [ -91.153820452184164, 33.282236746586072 ], [ -91.153974080478264, 33.282462297247413 ], [ -91.154601065373242, 33.282688754368934 ], [ -91.155526720708679, 33.283710376779297 ], [ -91.156462742352801, 33.284308577737505 ] ], [ [ -91.152532896872373, 33.283680080360945 ], [ -91.153681539154647, 33.284129576955586 ], [ -91.154814644470335, 33.28489764871496 ], [ -91.154778515248125, 33.284537391335668 ], [ -91.154887026051895, 33.284248962725897 ], [ -91.15423257579873, 33.283858332012706 ], [ -91.154120714782991, 33.28367830707262 ], [ -91.153516932404429, 33.283160193784724 ], [ -91.152790066441952, 33.28271988537945 ], [ -91.152116456084812, 33.282747641904052 ], [ -91.152268300729176, 33.282897622595833 ], [ -91.152307057950836, 33.283131652284503 ], [ -91.152519547543676, 33.283450501212933 ], [ -91.152532896872373, 33.283680080360945 ] ], [ [ -91.155298421757834, 33.285552035162297 ], [ -91.155317020053488, 33.28562059061553 ], [ -91.155319829770121, 33.285624690368181 ], [ -91.155298421757834, 33.285552035162297 ] ], [ [ -91.149393810216282, 33.284798954102214 ], [ -91.14943073425782, 33.28453112925046 ], [ -91.149589229040942, 33.284272172506085 ], [ -91.149919643458176, 33.284085473224657 ], [ -91.150512443656098, 33.283893381841594 ], [ -91.15019322342475, 33.283704422366107 ], [ -91.149269691271968, 33.283542340225623 ], [ -91.149386993606569, 33.283731644783273 ], [ -91.149385174041043, 33.283996010676638 ], [ -91.149084482878422, 33.284357741150508 ], [ -91.149393810216282, 33.284798954102214 ] ] ] } },
{ "type": "Feature", "properties": { "depth_bin": "125-130 ft", "bin_order": -127.5, "survey_id": "LM_11_YBS_20160706_CS_MB_5303_5308", "date": "2016-07-06", "year": 2016, "mile": 530.0 }, "geometry": { "type": "MultiPolygon", "coordinates": [ [ [ [ -91.156580168380188, 33.284336101893906 ], [ -91.157097451680215, 33.285212723931984 ], [ -91.157077375376602, 33.285651691060636 ], [ -91.156149062927469, 33.286186826752221 ], [ -91.15574931548295, 33.286196731762935 ], [ -91.155406228072223, 33.285893843632245 ], [ -91.15536635542405, 33.285570240226413 ], [ -91.155113913229485, 33.285094445434709 ], [ -91.15508235268544, 33.284761595619237 ], [ -91.155284643887782, 33.28449974368376 ], [ -91.154565768194217, 33.283939234692497 ], [ -91.154050045105279, 33.283253044426552 ], [ -91.153421384006947, 33.283077394926096 ], [ -91.153136294317306, 33.282678820330183 ], [ -91.152369480569234, 33.282112681604836 ], [ -91.151801097247983, 33.282127950650548 ], [ -91.151352941223621, 33.281963803276504 ], [ -91.150617852628557, 33.28149540860219 ], [ -91.150242804338916, 33.281362877173798 ], [ -91.14983367193912, 33.281490398923616 ], [ -91.149355339729595, 33.281817050483689 ], [ -91.148978883760748, 33.281967954786822 ], [ -91.149491498976218, 33.281965867022791 ], [ -91.149884081462446, 33.282175866020935 ], [ -91.150072154543324, 33.282408543193817 ], [ -91.150092189845012, 33.282617257953042 ], [ -91.149625173649909, 33.283110615788551 ], [ -91.149285313801485, 33.283128905262288 ], [ -91.149064802960439, 33.283293499295318 ], [ -91.14858273009591, 33.283348123413951 ], [ -91.148179271273449, 33.283486815724856 ], [ -91.1485450681066, 33.283908743393894 ], [ -91.148495443435763, 33.284310894093629 ], [ -91.148725220678813, 33.284414542558757 ], [ -91.148844268878477, 33.284636028855928 ], [ -91.148714449954511, 33.284924521657956 ], [ -91.148366704524406, 33.285037361771607 ], [ -91.149604554224169, 33.285727915144363 ], [ -91.149812947219743, 33.286064121741191 ], [ -91.15039724962827, 33.286519689650142 ], [ -91.150636034894262, 33.286810834681297 ], [ -91.150698569456068, 33.286987315917223 ], [ -91.150665939575006, 33.287481836898031 ], [ -91.15091440094568, 33.287588092768807 ], [ -91.15114382622933, 33.287886950425921 ], [ -91.151489519244819, 33.287972560808804 ], [ -91.151662664016811, 33.288123222253773 ], [ -91.151707222261422, 33.288356763362678 ], [ -91.15157889742855, 33.288574567200172 ], [ -91.151128642289635, 33.288817593393745 ], [ -91.150863768216993, 33.288834530114812 ], [ -91.15031675023198, 33.288514874055892 ], [ -91.149723676861981, 33.287833857588851 ], [ -91.149216255036023, 33.287492179821982 ], [ -91.149058686115382, 33.287224272283943 ], [ -91.14881163881212, 33.287053643716405 ], [ -91.148566890684705, 33.286564291763732 ], [ -91.148100497955596, 33.286233842502519 ], [ -91.148032258831904, 33.285967501006496 ], [ -91.147491152320839, 33.28570776604208 ], [ -91.147159769532408, 33.285377177130442 ], [ -91.146734270245375, 33.285245524543384 ], [ -91.146506684055197, 33.285003948947718 ], [ -91.145679813569373, 33.28454579290085 ], [ -91.145621303969833, 33.284260400972791 ], [ -91.145788748068469, 33.284027946231078 ], [ -91.145864169055145, 33.283704241093353 ], [ -91.146099586465056, 33.283562970146711 ], [ -91.14641621277606, 33.283559077212765 ], [ -91.146383768152049, 33.283257529917044 ], [ -91.145887762428544, 33.282741018835836 ], [ -91.145800302430231, 33.282390442174567 ], [ -91.14595343034776, 33.282184257849281 ], [ -91.146837862795536, 33.281673508234391 ], [ -91.147115914848797, 33.281636095667402 ], [ -91.14737981235541, 33.281748284490867 ], [ -91.147346256894977, 33.281500898718505 ], [ -91.147515610921516, 33.281280863995505 ], [ -91.149489667998196, 33.28018963249928 ], [ -91.150303254858343, 33.279603357644767 ], [ -91.150900961427581, 33.279569921082327 ], [ -91.151371398625599, 33.279800322152916 ], [ -91.151982039408608, 33.279713957528202 ], [ -91.152227524835425, 33.279842559694821 ], [ -91.153161255494865, 33.280882204419335 ], [ -91.153409765808988, 33.281474820723673 ], [ -91.153713811168629, 33.281697506503619 ], [ -91.153675008201887, 33.282085596177104 ], [ -91.153994318555021, 33.282440744432357 ], [ -91.154345749458713, 33.282510054221554 ], [ -91.154650014063051, 33.28267468988264 ], [ -91.155544471640141, 33.2836925684379 ], [ -91.156332318251899, 33.284120116566619 ], [ -91.156580168380188, 33.284336101893906 ] ], [ [ -91.147862099675976, 33.28483808534439 ], [ -91.148059260095167, 33.284966575938959 ], [ -91.147907280064956, 33.284807422402331 ], [ -91.147862099675976, 33.28483808534439 ] ] ], [ [ [ -91.152456121952483, 33.284302551446714 ], [ -91.152640619683083, 33.284605225067473 ], [ -91.15247748894086, 33.285100847753441 ], [ -91.152251016652428, 33.285315725396096 ], [ -91.151940358120811, 33.285415531539059 ], [ -91.151406398291826, 33.285414667328801 ], [ -91.151036693021425, 33.285250455148869 ], [ -91.150847359053316, 33.285007934876965 ], [ -91.150538632639112, 33.285130172441264 ], [ -91.150183307313128, 33.285133179665216 ], [ -91.149902149242266, 33.28488851565605 ], [ -91.14985187221501, 33.284646372776017 ], [ -91.149928459711631, 33.284447105982004 ], [ -91.150635736394378, 33.284027904177492 ], [ -91.150909751181644, 33.284021976367747 ], [ -91.151438927246843, 33.284195117057749 ], [ -91.152089297327464, 33.284192845663767 ], [ -91.152456121952483, 33.284302551446714 ] ] ] ] } },
{ "type": "Feature", "properties": { "depth_bin": "130-135 ft", "bin_order": -132.5, "survey_id": "LM_11_YBS_20160706_CS_MB_5303_5308", "date": "2016-07-06", "year": 2016, "mile": 530.0 }, "geometry": { "type": "MultiPolygon", "coordinates": [ [ [ [ -91.156428346682077, 33.2841301718558 ], [ -91.156612500195749, 33.284294664591613 ], [ -91.156680757433094, 33.284509348108777 ], [ -91.157214754854422, 33.285242140629506 ], [ -91.157252279254834, 33.285496853137985 ], [ -91.15713089099404, 33.285679749423942 ], [ -91.156914359540153, 33.285797008114578 ], [ -91.156538475092418, 33.285816626835121 ], [ -91.156410675146731, 33.286029919432643 ], [ -91.156234407945092, 33.286141364306346 ], [ -91.155861890834302, 33.286190751140893 ], [ -91.155566915506554, 33.286021259593625 ], [ -91.155441034476283, 33.285736299367031 ], [ -91.15544896124706, 33.28547370653888 ], [ -91.155541504633504, 33.285316613277743 ], [ -91.155751213900189, 33.285203375574532 ], [ -91.156018692125684, 33.285196522126306 ], [ -91.156074791093587, 33.285080919264608 ], [ -91.155813301934884, 33.28471524571767 ], [ -91.155497499009627, 33.284597003511934 ], [ -91.154906528448407, 33.284197406394767 ], [ -91.154073790811836, 33.28322522486522 ], [ -91.153577001819073, 33.283091861370735 ], [ -91.153345792124014, 33.282944190368738 ], [ -91.152705047763504, 33.282215329645943 ], [ -91.152623640525064, 33.281789242707518 ], [ -91.152392294589021, 33.281273277970982 ], [ -91.151938740883352, 33.280692648308197 ], [ -91.151748976225619, 33.280577713216367 ], [ -91.151220365556085, 33.280550578947043 ], [ -91.150303284776541, 33.280234103785034 ], [ -91.150092595560594, 33.279974635990577 ], [ -91.150188110789372, 33.2796768435743 ], [ -91.150738313865915, 33.27931560859804 ], [ -91.151309919992855, 33.27913164181377 ], [ -91.151591890667746, 33.279135134164804 ], [ -91.151804046016466, 33.279244448393236 ], [ -91.152664070759272, 33.280252784940309 ], [ -91.153122674665354, 33.280538112750449 ], [ -91.153555152939163, 33.281017017360057 ], [ -91.153638582614846, 33.281210432832637 ], [ -91.153591739450974, 33.281492088207905 ], [ -91.15402407967882, 33.281976418266403 ], [ -91.153936714856613, 33.282320205852031 ], [ -91.154012491590194, 33.282426426551062 ], [ -91.154394698088907, 33.282495989835652 ], [ -91.154699091444556, 33.282674365583119 ], [ -91.155610038247147, 33.283713151370456 ], [ -91.156428346682077, 33.2841301718558 ] ] ], [ [ [ -91.151316360659607, 33.288300804077053 ], [ -91.151381683914352, 33.288537540064418 ], [ -91.15125335800181, 33.288755343522368 ], [ -91.150940814863134, 33.288883139056708 ], [ -91.150628706675136, 33.288820140398741 ], [ -91.149113500279924, 33.287560902205804 ], [ -91.148630406906847, 33.286999800968708 ], [ -91.148326424152231, 33.286810964227584 ], [ -91.147820097809159, 33.286095552676727 ], [ -91.146876345101518, 33.285473408598769 ], [ -91.146374994240375, 33.285316580401194 ], [ -91.146154929993699, 33.285088997881878 ], [ -91.146091090147692, 33.284866922265991 ], [ -91.145228485314391, 33.284426548116045 ], [ -91.144983132320647, 33.284061182999345 ], [ -91.14495491405394, 33.283749977825181 ], [ -91.145294169538104, 33.28315098165946 ], [ -91.145207758294987, 33.2827864503939 ], [ -91.145400147706965, 33.282503919224858 ], [ -91.146296885268526, 33.281983026290554 ], [ -91.146602006836005, 33.281911642249618 ], [ -91.14683924999126, 33.281975973268473 ], [ -91.146986942360456, 33.28212711309623 ], [ -91.147330038841659, 33.282045120497649 ], [ -91.147791051107362, 33.282073208312276 ], [ -91.148456328966944, 33.28245067315423 ], [ -91.148548953458729, 33.282680893626015 ], [ -91.14844666515269, 33.282908209948886 ], [ -91.147719960256865, 33.283456355168262 ], [ -91.147343731709356, 33.283626591885742 ], [ -91.147261732033328, 33.284209141615676 ], [ -91.147484165926073, 33.284382274230317 ], [ -91.147559886068606, 33.284677681007054 ], [ -91.147857018328324, 33.284859292609163 ], [ -91.147955576530421, 33.2850687213528 ], [ -91.14837036665115, 33.28507994525129 ], [ -91.148735372883266, 33.285511366543652 ], [ -91.14912712826218, 33.285528436322672 ], [ -91.149638936756091, 33.285906323974089 ], [ -91.14979122054784, 33.286182555435289 ], [ -91.149707211933816, 33.286501957481185 ], [ -91.150088842515942, 33.286412235361013 ], [ -91.150392401175097, 33.286560287367564 ], [ -91.150616129267661, 33.286919151863636 ], [ -91.150597394325402, 33.287127634910426 ], [ -91.150428662977149, 33.287339657931035 ], [ -91.150552067866187, 33.287561280054369 ], [ -91.151316360659607, 33.288300804077053 ] ] ] ] } },
{ "type": "Feature", "properties": { "depth_bin": "135-140 ft", "bin_order": -137.5, "survey_id": "LM_11_YBS_20160706_CS_MB_5303_5308", "date": "2016-07-06", "year": 2016, "mile": 530.0 }, "geometry": { "type": "MultiPolygon", "coordinates": [ [ [ [ -91.155628315493985, 33.283700917279013 ], [ -91.15636371148257, 33.284029399134845 ], [ -91.156644961000595, 33.284266967477301 ], [ -91.156713218273055, 33.284481650265221 ], [ -91.15721410928866, 33.285173439667737 ], [ -91.157278238784627, 33.285412775056457 ], [ -91.157201666829096, 33.285612046901569 ], [ -91.157006183634707, 33.285742005596809 ], [ -91.156757679156186, 33.285758846815092 ], [ -91.156512372737254, 33.285642245731907 ], [ -91.156410546159975, 33.286016179239667 ], [ -91.155961740285022, 33.286185074852241 ], [ -91.155599636064323, 33.286021043138 ], [ -91.155457815963857, 33.285675386570738 ], [ -91.15553306819686, 33.285440739191458 ], [ -91.155751264548627, 33.285287394912416 ], [ -91.155991081352099, 33.285230161107194 ], [ -91.156228723216515, 33.285294721606824 ], [ -91.155857510359937, 33.284724090981861 ], [ -91.15492275910897, 33.284183558066772 ], [ -91.154104863418823, 33.283205478454732 ], [ -91.153576744764777, 33.283064380959992 ], [ -91.153361894313406, 33.28291660203643 ], [ -91.152720297146075, 33.282169115007235 ], [ -91.15270128657319, 33.281351018773343 ], [ -91.152182171286228, 33.280973145547073 ], [ -91.15147935318754, 33.280124449335368 ], [ -91.151144257513323, 33.280112334225983 ], [ -91.150682630248667, 33.279815021623705 ], [ -91.15059281566991, 33.279549487323216 ], [ -91.150737360102639, 33.279317836030842 ], [ -91.151193662259658, 33.279024051063708 ], [ -91.151433464267043, 33.278966825512271 ], [ -91.151670703556761, 33.279031147179175 ], [ -91.152047937622115, 33.279322238627117 ], [ -91.152518162704652, 33.280038689165785 ], [ -91.152926057042947, 33.2802676371495 ], [ -91.153586585334224, 33.280879398418676 ], [ -91.153731162225782, 33.281160947339679 ], [ -91.15368775076206, 33.281509804348381 ], [ -91.154021044211405, 33.281852148707898 ], [ -91.154366700007145, 33.282459704892766 ], [ -91.154823376494036, 33.282766024383228 ], [ -91.155628315493985, 33.283700917279013 ] ] ], [ [ [ -91.149816378563742, 33.287106143493958 ], [ -91.151234944276155, 33.288342563033702 ], [ -91.151300267334392, 33.288579299055847 ], [ -91.151123986436417, 33.288834251226419 ], [ -91.15077509759108, 33.288909904853483 ], [ -91.150382111101948, 33.288744993192005 ], [ -91.149837350968738, 33.288215510978041 ], [ -91.148520959923601, 33.287180039544296 ], [ -91.1480227834098, 33.28667406648038 ], [ -91.147838935186684, 33.286258347181672 ], [ -91.146425561294237, 33.285528044291254 ], [ -91.145993029747515, 33.28485983700844 ], [ -91.145288002457605, 33.284540443504412 ], [ -91.144930433349813, 33.28412763496253 ], [ -91.144648439498468, 33.284068906784277 ], [ -91.144400320567584, 33.283895394980831 ], [ -91.14429623706981, 33.283743483411605 ], [ -91.144261954265815, 33.28346001179078 ], [ -91.144379850674156, 33.28315015027416 ], [ -91.14555819196849, 33.282423326136779 ], [ -91.145847376976519, 33.282415715609474 ], [ -91.146108992228093, 33.282565939428991 ], [ -91.146312013052764, 33.282771830184608 ], [ -91.146374791029103, 33.282975793914588 ], [ -91.146341912419857, 33.283299824906535 ], [ -91.146020461502928, 33.283758446406736 ], [ -91.146262345631925, 33.284110622064219 ], [ -91.147026852215916, 33.284511169897968 ], [ -91.147176969471673, 33.284766425128723 ], [ -91.14771765442093, 33.284905137279871 ], [ -91.148145750232032, 33.28539435405505 ], [ -91.148506279006526, 33.28550152512404 ], [ -91.148812625175793, 33.28594827307974 ], [ -91.148837632767354, 33.286131894739 ], [ -91.149071223537803, 33.286382149305112 ], [ -91.149630636648197, 33.286772066791897 ], [ -91.149816378563742, 33.287106143493958 ] ] ] ] } },
{ "type": "Feature", "properties": { "depth_bin": "140-145 ft", "bin_order": -142.5, "survey_id": "LM_11_YBS_20160706_CS_MB_5303_5308", "date": "2016-07-06", "year": 2016, "mile": 530.0 }, "geometry": { "type": "MultiPolygon", "coordinates": [ [ [ [ -91.156306284612938, 33.28396738502996 ], [ -91.156677421784934, 33.284239270354739 ], [ -91.156745468906578, 33.284458630102023 ], [ -91.157229823296163, 33.285104630264222 ], [ -91.157317330448265, 33.285455198769903 ], [ -91.157195942382103, 33.285638095127275 ], [ -91.156998850924495, 33.285739382271359 ], [ -91.156773909805864, 33.285744998248049 ], [ -91.156579644979544, 33.285661578762415 ], [ -91.156573668985729, 33.285865239356262 ], [ -91.156463238903228, 33.286013958649825 ], [ -91.156192066538722, 33.286159630079624 ], [ -91.155943560795095, 33.286176469621729 ], [ -91.155591364983977, 33.285978397694109 ], [ -91.155466609292162, 33.285611001145455 ], [ -91.155728939416889, 33.285352003439748 ], [ -91.156040675865867, 33.285284797027316 ], [ -91.156288614163032, 33.285356010925618 ], [ -91.156196489979735, 33.285137422851449 ], [ -91.155957583531091, 33.284904171284523 ], [ -91.155869472830801, 33.284692659007696 ], [ -91.155595655874109, 33.284596354223751 ], [ -91.154971837315443, 33.284183233661565 ], [ -91.154121094024589, 33.283191630227293 ], [ -91.153584205927316, 33.282993874275164 ], [ -91.152873558482995, 33.282272515291098 ], [ -91.152806745433878, 33.28210647193599 ], [ -91.152873511060889, 33.281855433424099 ], [ -91.152836616915238, 33.281294871130818 ], [ -91.152395249380859, 33.280849586911565 ], [ -91.152027144337524, 33.280698687207384 ], [ -91.151574324400144, 33.280039029447842 ], [ -91.151280657504614, 33.279878316451665 ], [ -91.151014726585075, 33.279411278957852 ], [ -91.151048483101121, 33.279183427900399 ], [ -91.151224426339823, 33.279002976499349 ], [ -91.151622812689922, 33.278942554763375 ], [ -91.15217331712735, 33.279293273217412 ], [ -91.152526993000947, 33.279965059186033 ], [ -91.152809748647229, 33.280076029086828 ], [ -91.153668250784293, 33.280865118423691 ], [ -91.153813470712834, 33.281215368318946 ], [ -91.153798443039094, 33.281591982476726 ], [ -91.154053762165688, 33.281851932682073 ], [ -91.154410139977429, 33.282449192344998 ], [ -91.155141622768056, 33.282998175904268 ], [ -91.155772125304765, 33.283717476646295 ], [ -91.15607964889, 33.28393807242756 ], [ -91.156306284612938, 33.28396738502996 ] ] ], [ [ [ -91.148788801799896, 33.28632671696608 ], [ -91.151237975632696, 33.288466832632388 ], [ -91.151199970451373, 33.288741023263597 ], [ -91.150926011272531, 33.288926182818017 ], [ -91.150644009200064, 33.288922688039627 ], [ -91.150398983604106, 33.288799846455312 ], [ -91.148406056795537, 33.28713956993721 ], [ -91.147844965870831, 33.286518849339551 ], [ -91.146379503473142, 33.285613841909701 ], [ -91.145785488039166, 33.284836444414658 ], [ -91.145502713464296, 33.284758898643389 ], [ -91.145092885770765, 33.284481740565418 ], [ -91.14493132883338, 33.284233327082973 ], [ -91.144484845256244, 33.28406997446416 ], [ -91.144072115307139, 33.283787607600196 ], [ -91.143953080442444, 33.283566117159957 ], [ -91.144054062007285, 33.283303428270273 ], [ -91.144777148345653, 33.282881883571527 ], [ -91.145025645761507, 33.282865066111079 ], [ -91.145212672136367, 33.282942806995521 ], [ -91.145347472690389, 33.283118949254863 ], [ -91.14542622813407, 33.283474705422805 ], [ -91.145825555906143, 33.283964372898438 ], [ -91.146745591634271, 33.284413772513425 ], [ -91.147054961906093, 33.28497066199288 ], [ -91.148623863251885, 33.285830540189451 ], [ -91.148744699869283, 33.286023561764381 ], [ -91.148788801799896, 33.28632671696608 ] ] ] ] } },
{ "type": "Feature", "properties": { "depth_bin": "145-150 ft", "bin_order": -147.5, "survey_id": "LM_11_YBS_20160706_CS_MB_5303_5308", "date": "2016-07-06", "year": 2016, "mile": 530.0 }, "geometry": { "type": "MultiPolygon", "coordinates": [ [ [ [ -91.15594754526235, 33.283764952433074 ], [ -91.15672650001946, 33.284238945243544 ], [ -91.157082547450145, 33.284912838055519 ], [ -91.157375952145443, 33.28525210098298 ], [ -91.15733796796853, 33.285526294338972 ], [ -91.157031441219033, 33.285725425259855 ], [ -91.156822859821048, 33.285730932912429 ], [ -91.156605096032862, 33.285628980224793 ], [ -91.155973685236873, 33.284876582629671 ], [ -91.155905717487798, 33.28466959437791 ], [ -91.155595398171741, 33.284568873834786 ], [ -91.155119459329242, 33.284223480912054 ], [ -91.154483090160014, 33.283463805728999 ], [ -91.154063124486711, 33.283118296906679 ], [ -91.153847018613504, 33.283055167142876 ], [ -91.153566432961156, 33.282842839972155 ], [ -91.153235513188235, 33.282489985216841 ], [ -91.153168699298121, 33.282323942032448 ], [ -91.153212558393079, 33.282134767404905 ], [ -91.152882774390065, 33.281708450332459 ], [ -91.152877295510322, 33.2812239744704 ], [ -91.152355663530528, 33.280724869170321 ], [ -91.152106719640145, 33.280648211983689 ], [ -91.151866608567886, 33.280466803779348 ], [ -91.151568629331592, 33.279855708025124 ], [ -91.151125435893206, 33.279491255703071 ], [ -91.151087674920021, 33.279209060430475 ], [ -91.151289475677672, 33.278961325276356 ], [ -91.151661201427402, 33.278827914878349 ], [ -91.151990295154661, 33.278964692189113 ], [ -91.152416422267208, 33.279488855643208 ], [ -91.15255470376853, 33.279800096300789 ], [ -91.152806336415765, 33.279949331992235 ], [ -91.153700711289972, 33.280837422068458 ], [ -91.15393016856089, 33.281448196017678 ], [ -91.153898615508695, 33.281674783608871 ], [ -91.154382534590795, 33.282279124045949 ], [ -91.154653038890771, 33.282556377098615 ], [ -91.15517305330809, 33.282860557537333 ], [ -91.155590776597919, 33.28343337651917 ], [ -91.15594754526235, 33.283764952433074 ] ] ], [ [ [ -91.156229501793732, 33.285418136459249 ], [ -91.156431350930475, 33.285711815440592 ], [ -91.156412051662144, 33.285954284659425 ], [ -91.156175577819155, 33.286145998190207 ], [ -91.155846958544103, 33.286141121487518 ], [ -91.155520359559389, 33.285851865599057 ], [ -91.155508825485768, 33.28554360747674 ], [ -91.155826275354059, 33.285332569760136 ], [ -91.156229501793732, 33.285418136459249 ] ] ], [ [ [ -91.151004865927248, 33.288277601843618 ], [ -91.151204109837025, 33.288564213945079 ], [ -91.151074292106173, 33.28885270910807 ], [ -91.150752090091089, 33.28895391864657 ], [ -91.150366391091595, 33.288813801752596 ], [ -91.147528430167355, 33.286407045097093 ], [ -91.146462958529455, 33.285791929722429 ], [ -91.146047924184117, 33.285238354336975 ], [ -91.143779296466732, 33.283968150975717 ], [ -91.143658943227038, 33.28371128355964 ], [ -91.143761117801645, 33.283470231434798 ], [ -91.144467975883742, 33.283062536332991 ], [ -91.14471647384245, 33.283045719511414 ], [ -91.144903500297758, 33.283123460863081 ], [ -91.145024811057979, 33.283266071725869 ], [ -91.145071150880796, 33.283509058732889 ], [ -91.14546361960123, 33.283592677530343 ], [ -91.145872865166965, 33.284073975068615 ], [ -91.146284283910546, 33.284186695177603 ], [ -91.146729487084514, 33.284441360032503 ], [ -91.147108710791258, 33.285195077812261 ], [ -91.14778923410141, 33.285575145754578 ], [ -91.148043103479296, 33.285602047224685 ], [ -91.14860814235395, 33.285899348600317 ], [ -91.148721748894289, 33.286085737386706 ], [ -91.14868629392133, 33.286305118720627 ], [ -91.151004865927248, 33.288277601843618 ] ] ] ] } },
{ "type": "Feature", "properties": { "depth_bin": "150-155 ft", "bin_order": -152.5, "survey_id": "LM_11_YBS_20160706_CS_MB_5303_5308", "date": "2016-07-06", "year": 2016, "mile": 530.0 }, "geometry": { "type": "MultiPolygon", "coordinates": [ [ [ [ -91.156734716961054, 33.284209931687982 ], [ -91.156827253763282, 33.284447464048114 ], [ -91.157450520571629, 33.285244926522289 ], [ -91.15738072026052, 33.285514672628508 ], [ -91.157071800015942, 33.285691655160534 ], [ -91.156814500223831, 33.285680290541315 ], [ -91.156637428302773, 33.285587542941364 ], [ -91.156354211532943, 33.285327518947597 ], [ -91.155898279325626, 33.284599272679614 ], [ -91.155363752916685, 33.284342485093973 ], [ -91.155171613186255, 33.284085355928283 ], [ -91.15490117286609, 33.283908059171459 ], [ -91.154681715217876, 33.283506672456603 ], [ -91.153713784360775, 33.282899062075089 ], [ -91.153529599875171, 33.282513168514981 ], [ -91.153044781625582, 33.281878412559571 ], [ -91.152926371782186, 33.281223649804971 ], [ -91.152261979070261, 33.280524456069493 ], [ -91.15189855648687, 33.280384146140662 ], [ -91.151644791684419, 33.279823449896405 ], [ -91.151223844501814, 33.279518090379483 ], [ -91.151178265996592, 33.279174627223817 ], [ -91.151338295754442, 33.278933521885463 ], [ -91.151710020242206, 33.278800111344353 ], [ -91.152039113949726, 33.278936888525386 ], [ -91.153129112682379, 33.280271039648099 ], [ -91.153416232414997, 33.28043998888711 ], [ -91.153765760791316, 33.280795769546948 ], [ -91.153995861358766, 33.281475245340474 ], [ -91.153964437365815, 33.281715572621039 ], [ -91.154406078670405, 33.282273491036676 ], [ -91.155204870115327, 33.282764159773436 ], [ -91.155652749047817, 33.283397494263937 ], [ -91.156239883157923, 33.283901628777429 ], [ -91.156734716961054, 33.284209931687982 ] ] ], [ [ [ -91.156261576227237, 33.285349218859118 ], [ -91.15651224633595, 33.285615092364978 ], [ -91.156493592325674, 33.285926262575785 ], [ -91.1562571187321, 33.286117976271413 ], [ -91.155830469883796, 33.286127489553941 ], [ -91.155503871004498, 33.285838233623089 ], [ -91.155492336988416, 33.28552997550068 ], [ -91.155768733498135, 33.285326929965194 ], [ -91.156024316259831, 33.2852849053141 ], [ -91.156261576227237, 33.285349218859118 ] ] ], [ [ [ -91.149034015489804, 33.286688679163937 ], [ -91.151142085936328, 33.288442693783963 ], [ -91.151168502827574, 33.288717842969419 ], [ -91.150955522231371, 33.28892809072147 ], [ -91.150652237327535, 33.288959590690801 ], [ -91.150333670521036, 33.288814016838543 ], [ -91.148053166867456, 33.286887746289302 ], [ -91.147370298225255, 33.28637377296581 ], [ -91.146414261575018, 33.285833471450154 ], [ -91.146065351509435, 33.285375584263974 ], [ -91.144799250642706, 33.284763493079033 ], [ -91.143762077342856, 33.284116364885556 ], [ -91.14356805481313, 33.283837358880291 ], [ -91.143637768696138, 33.283553881659849 ], [ -91.14402868911445, 33.283326482546222 ], [ -91.144317877064239, 33.283318875689076 ], [ -91.144567495716416, 33.283479483705257 ], [ -91.144866215097409, 33.283520444229481 ], [ -91.145498120068723, 33.283784827033259 ], [ -91.145635491317947, 33.283916763646914 ], [ -91.145680303850114, 33.284116217359568 ], [ -91.146010448137034, 33.284316609027456 ], [ -91.146273473523152, 33.284293639359902 ], [ -91.146468675757276, 33.284355607034662 ], [ -91.146671998274499, 33.284542075373075 ], [ -91.14708645335881, 33.285295981586586 ], [ -91.148316689952679, 33.28598675632761 ], [ -91.149034015489804, 33.286688679163937 ] ] ] ] } },
{ "type": "Feature", "properties": { "depth_bin": "155-160 ft", "bin_order": -157.5, "survey_id": "LM_11_YBS_20160706_CS_MB_5303_5308", "date": "2016-07-06", "year": 2016, "mile": 530.0 }, "geometry": { "type": "MultiPolygon", "coordinates": [ [ [ [ -91.156750818294284, 33.284182342920346 ], [ -91.157388239393924, 33.28501780135926 ], [ -91.157504916893728, 33.285265958281357 ], [ -91.157403972567479, 33.285528659344692 ], [ -91.157078832373969, 33.285668423971153 ], [ -91.156835207893295, 33.285623953649306 ], [ -91.156488127446906, 33.285368675085273 ], [ -91.15600575969232, 33.284807664220637 ], [ -91.155934472753927, 33.284580673178048 ], [ -91.15539821336408, 33.284290342894671 ], [ -91.154657350712824, 33.283386549961477 ], [ -91.154437843813724, 33.283304283384666 ], [ -91.153679266417768, 33.282706915152374 ], [ -91.153094115458231, 33.281905569327925 ], [ -91.152975448354383, 33.281223326211425 ], [ -91.152214162622357, 33.28037831686251 ], [ -91.152011912996556, 33.280259730085248 ], [ -91.151337072711982, 33.279379933803014 ], [ -91.151299054786122, 33.279070259034448 ], [ -91.151468394155657, 33.278850219289211 ], [ -91.151800883597218, 33.278774670078754 ], [ -91.152120906155318, 33.27893634978895 ], [ -91.153146105570173, 33.280231607837202 ], [ -91.153814065780864, 33.280713004332135 ], [ -91.154061039780885, 33.281447331977297 ], [ -91.154067055571005, 33.281680813452112 ], [ -91.154299405165773, 33.281877792626126 ], [ -91.154446108718702, 33.282188746922991 ], [ -91.154711846706746, 33.282289530803986 ], [ -91.15525368995128, 33.282736354846783 ], [ -91.155698030261618, 33.283326888429755 ], [ -91.156310617599033, 33.283889663462716 ], [ -91.156750818294284, 33.284182342920346 ] ] ], [ [ [ -91.156244958681228, 33.285321846785948 ], [ -91.156561712380693, 33.285655987891566 ], [ -91.156501425059858, 33.285960213417709 ], [ -91.156183174409264, 33.286114070805532 ], [ -91.155690727822602, 33.286011055625721 ], [ -91.155472906353438, 33.285758704300996 ], [ -91.155533197048044, 33.285454479383333 ], [ -91.155923789548766, 33.285263219191066 ], [ -91.156244958681228, 33.285321846785948 ] ] ], [ [ [ -91.148581512669779, 33.286314805852832 ], [ -91.151109365498456, 33.288442909080366 ], [ -91.151135910461335, 33.288731798474956 ], [ -91.150922929754074, 33.288942046166802 ], [ -91.150636005109263, 33.288973438475239 ], [ -91.150333926616199, 33.288841497244441 ], [ -91.147249925992185, 33.286367642386509 ], [ -91.146429001641224, 33.285899030317857 ], [ -91.145734511912252, 33.285323148297998 ], [ -91.143746479871155, 33.284198913863435 ], [ -91.143479917052005, 33.283927440480589 ], [ -91.143540120563756, 33.283609482464271 ], [ -91.143856956779629, 33.283426461958534 ], [ -91.144145640249391, 33.283442699547535 ], [ -91.145985696538602, 33.284510199751686 ], [ -91.146553532778924, 33.28468483828415 ], [ -91.147017768465034, 33.285305372650797 ], [ -91.147889124525662, 33.285802862226184 ], [ -91.148581512669779, 33.286314805852832 ] ] ] ] } },
{ "type": "Feature", "properties": { "depth_bin": "160-165 ft", "bin_order": -162.5, "survey_id": "LM_11_YBS_20160706_CS_MB_5303_5308", "date": "2016-07-06", "year": 2016, "mile": 530.0 }, "geometry": { "type": "MultiPolygon", "coordinates": [ [ [ [ -91.156750431186282, 33.284141122332628 ], [ -91.157503143743071, 33.285058262640518 ], [ -91.157571292314813, 33.285259680537784 ], [ -91.157423945681373, 33.285526655295122 ], [ -91.157069172427754, 33.285641839028955 ], [ -91.156831911010187, 33.285577526981569 ], [ -91.156536819280049, 33.285327128583155 ], [ -91.156006367060712, 33.284615287113738 ], [ -91.155039031757852, 33.283812437557287 ], [ -91.154627902367039, 33.283245210835396 ], [ -91.154436557180418, 33.283166881372594 ], [ -91.154217538355411, 33.282917779930543 ], [ -91.153694211546352, 33.28255566403638 ], [ -91.153208885275802, 33.281932294489565 ], [ -91.15320841439781, 33.281569511283521 ], [ -91.153007816302988, 33.281208568135071 ], [ -91.152782660570068, 33.280898957353017 ], [ -91.152457320315079, 33.280655287471888 ], [ -91.151368892598427, 33.279283536967547 ], [ -91.15133151538987, 33.279042563303321 ], [ -91.151484624391969, 33.278836371400018 ], [ -91.151849574095408, 33.278733126267625 ], [ -91.152169596599734, 33.278894805851301 ], [ -91.153182735044254, 33.280205792396231 ], [ -91.153846654748079, 33.280699048153529 ], [ -91.154169334848092, 33.281662985267552 ], [ -91.154492932270117, 33.28186195359168 ], [ -91.156413322998475, 33.283879192629193 ], [ -91.156750431186282, 33.284141122332628 ] ] ], [ [ [ -91.156032176660162, 33.285381873728888 ], [ -91.156375678131411, 33.285490887242588 ], [ -91.156493260557767, 33.285783059047617 ], [ -91.156298944231168, 33.286044749703343 ], [ -91.155919047441813, 33.286114012891915 ], [ -91.155631968954324, 33.285979606109336 ], [ -91.155542133799884, 33.285714074899964 ], [ -91.1557021646518, 33.285472964178169 ], [ -91.156032176660162, 33.285381873728888 ] ] ], [ [ [ -91.148532688694317, 33.286342608205921 ], [ -91.151110474280628, 33.288489015905697 ], [ -91.15110465184695, 33.288765014802166 ], [ -91.150868158997895, 33.288956717481426 ], [ -91.150506809549881, 33.288952041515344 ], [ -91.147223315927434, 33.286402219003911 ], [ -91.146396536967472, 33.28592672569814 ], [ -91.145643997254908, 33.285319116289266 ], [ -91.144142580368325, 33.284520438286144 ], [ -91.14364806920851, 33.284172073317222 ], [ -91.143437814472819, 33.283906913098733 ], [ -91.143507655797251, 33.283637176207073 ], [ -91.143759308923535, 33.283482062947407 ], [ -91.144047992546675, 33.283498300768962 ], [ -91.144890142071134, 33.284029916745297 ], [ -91.146588036110046, 33.284876987408097 ], [ -91.146976013321407, 33.285328200749916 ], [ -91.148532688694317, 33.286342608205921 ] ] ] ] } },
{ "type": "Feature", "properties": { "depth_bin": "165-170 ft", "bin_order": -167.5, "survey_id": "LM_11_YBS_20160706_CS_MB_5303_5308", "date": "2016-07-06", "year": 2016, "mile": 530.0 }, "geometry": { "type": "MultiPolygon", "coordinates": [ [ [ [ -91.156783022004205, 33.284127165371842 ], [ -91.157551834929123, 33.285016716622103 ], [ -91.157620112761364, 33.285231874687959 ], [ -91.15745653582978, 33.285512698170848 ], [ -91.15715071256983, 33.285613816537122 ], [ -91.156949209267466, 33.285568234135674 ], [ -91.156733909866915, 33.285408270282119 ], [ -91.155554237037236, 33.284064445200983 ], [ -91.153892594119682, 33.282407325375011 ], [ -91.153361760235896, 33.281994473570748 ], [ -91.153246497982664, 33.281522914560647 ], [ -91.153049393136811, 33.281194339884884 ], [ -91.152811883622036, 33.280863214709825 ], [ -91.152465281645405, 33.280598793867547 ], [ -91.151434070256769, 33.279255625907467 ], [ -91.151396564705976, 33.279000912036167 ], [ -91.151549673481398, 33.278794720043557 ], [ -91.151898392797975, 33.278705322660336 ], [ -91.152234902028155, 33.27888063457511 ], [ -91.153222741581459, 33.280157713355898 ], [ -91.153513229177562, 33.280315678436708 ], [ -91.153895731036229, 33.28069872419028 ], [ -91.154201284080543, 33.281580330386454 ], [ -91.154558110813014, 33.281834040864105 ], [ -91.155246525796002, 33.282529628171496 ], [ -91.156783022004205, 33.284127165371842 ] ] ], [ [ [ -91.155826324810377, 33.28526891275731 ], [ -91.156154940812712, 33.285273789402147 ], [ -91.156396696758463, 33.285505929194393 ], [ -91.156410329796813, 33.285893803189673 ], [ -91.156119036872511, 33.286129959501139 ], [ -91.155792569257528, 33.286098053431402 ], [ -91.15557209642779, 33.285867976518261 ], [ -91.155574955602262, 33.285493734523548 ], [ -91.155826324810377, 33.28526891275731 ] ] ], [ [ [ -91.148599150200454, 33.286452100729186 ], [ -91.15109424222257, 33.288502863756968 ], [ -91.15108841973472, 33.288778862650297 ], [ -91.150835694622572, 33.288984413107904 ], [ -91.150490705382836, 33.288979629483649 ], [ -91.147174136948195, 33.286416013777846 ], [ -91.1468580535755, 33.286294714406452 ], [ -91.145430560319923, 33.285238066298341 ], [ -91.144142961537455, 33.284561658987705 ], [ -91.143582631422063, 33.284172499891035 ], [ -91.143405349568852, 33.283934607711203 ], [ -91.143475064065512, 33.283651130605996 ], [ -91.143726717279364, 33.283496016514135 ], [ -91.144015400938557, 33.283512254412798 ], [ -91.14467051313359, 33.283953195695126 ], [ -91.14551969776835, 33.284348070630784 ], [ -91.146128565889072, 33.284728841216506 ], [ -91.148599150200454, 33.286452100729186 ] ] ] ] } },
{ "type": "Feature", "properties": { "depth_bin": "170-175 ft", "bin_order": -172.5, "survey_id": "LM_11_YBS_20160706_CS_MB_5303_5308", "date": "2016-07-06", "year": 2016, "mile": 530.0 }, "geometry": { "type": "MultiPolygon", "coordinates": [ [ [ [ -91.155757653951468, 33.282952220907646 ], [ -91.157616885614118, 33.284975062093167 ], [ -91.157701652352998, 33.285203851817911 ], [ -91.157570536683735, 33.28545697807467 ], [ -91.157199533344127, 33.285586010865799 ], [ -91.156870406448903, 33.285449246353537 ], [ -91.154677918320175, 33.283080877472933 ], [ -91.153901385870071, 33.282288872711199 ], [ -91.15345952979203, 33.28195260538083 ], [ -91.153141050737688, 33.281125607310436 ], [ -91.1524888827105, 33.280531409952772 ], [ -91.151482889381896, 33.279227822480593 ], [ -91.151445383696711, 33.278973108618814 ], [ -91.151614722508725, 33.278753068653664 ], [ -91.151905166938064, 33.278675156797945 ], [ -91.15217580221632, 33.278761061739999 ], [ -91.153227288892907, 33.280061375087342 ], [ -91.153786994742035, 33.280409402716643 ], [ -91.154048604422229, 33.280760902439425 ], [ -91.15424275955985, 33.28149629165285 ], [ -91.155757653951468, 33.282952220907646 ] ] ], [ [ [ -91.148500863303127, 33.286439004337787 ], [ -91.151045161530874, 33.288503186679073 ], [ -91.15103959520755, 33.288806665976388 ], [ -91.150786869902191, 33.289012216327713 ], [ -91.150458240883921, 33.289007325008264 ], [ -91.14821423818023, 33.287253524404328 ], [ -91.147144946922495, 33.286488328613316 ], [ -91.146875305867354, 33.286390789772739 ], [ -91.145645139575706, 33.285442776582883 ], [ -91.143500961141356, 33.284186773296412 ], [ -91.143340165821769, 33.28396251463527 ], [ -91.14341000749684, 33.283692777812803 ], [ -91.143677893294566, 33.28352381786933 ], [ -91.143982936361752, 33.283539949189581 ], [ -91.144627535763703, 33.283971390033308 ], [ -91.145915126673842, 33.284647790409565 ], [ -91.147277221278145, 33.285657961675845 ], [ -91.147660215802176, 33.285818103260986 ], [ -91.148500863303127, 33.286439004337787 ] ] ] ] } },
{ "type": "Feature", "properties": { "depth_bin": "175-180 ft", "bin_order": -177.5, "survey_id": "LM_11_YBS_20160706_CS_MB_5303_5308", "date": "2016-07-06", "year": 2016, "mile": 530.0 }, "geometry": { "type": "MultiPolygon", "coordinates": [ [ [ [ -91.156472781145752, 33.283635198839626 ], [ -91.157669853358612, 33.284923078149305 ], [ -91.157747662373666, 33.285211361372625 ], [ -91.157587637534576, 33.285452474950318 ], [ -91.157222536573855, 33.285541995992453 ], [ -91.156993923187926, 33.285458461882541 ], [ -91.156572319768202, 33.285066470878142 ], [ -91.155538931935382, 33.283876360109502 ], [ -91.155472011700894, 33.283707618933086 ], [ -91.155244538865531, 33.283604305828867 ], [ -91.15472648239637, 33.283025593409803 ], [ -91.153541196231501, 33.281938325480361 ], [ -91.153242985050269, 33.281017541657306 ], [ -91.15301233941193, 33.280772033478428 ], [ -91.152554060921503, 33.280503498303617 ], [ -91.151531708475815, 33.279200019034896 ], [ -91.151494202656281, 33.278945305182653 ], [ -91.151647311104327, 33.278739113056623 ], [ -91.15192139707402, 33.278661308849991 ], [ -91.152224877438229, 33.27876073845075 ], [ -91.153182881781788, 33.279941088260941 ], [ -91.153884889847873, 33.280381273491386 ], [ -91.154144792244225, 33.280890074688685 ], [ -91.154271567613407, 33.28144269865399 ], [ -91.155558894755714, 33.282692455815592 ], [ -91.155885618222797, 33.28307985300885 ], [ -91.155981625041875, 33.283327516338751 ], [ -91.156472781145752, 33.283635198839626 ] ] ], [ [ [ -91.148946670848076, 33.286875794337327 ], [ -91.150949961541841, 33.288452889523604 ], [ -91.151041276380312, 33.288647731652432 ], [ -91.150940308537358, 33.288910426521362 ], [ -91.150631506298666, 33.289050065900412 ], [ -91.150392926579116, 33.289021495430276 ], [ -91.150154218381147, 33.288870160478425 ], [ -91.148359403744578, 33.28740095672223 ], [ -91.148250923569265, 33.287233151460306 ], [ -91.147616860721584, 33.286963059051324 ], [ -91.147106118090747, 33.286541656427325 ], [ -91.146631017853764, 33.286271768034169 ], [ -91.146075044657195, 33.28573553613429 ], [ -91.143484855595219, 33.284214360396916 ], [ -91.143307573932475, 33.283976468084667 ], [ -91.143377415720209, 33.283706731284987 ], [ -91.143612836913846, 33.283565465191103 ], [ -91.143934239445585, 33.283581489986865 ], [ -91.145701816227898, 33.284580479454249 ], [ -91.147310833632346, 33.285753928954577 ], [ -91.147644917242857, 33.285881230916111 ], [ -91.148631274122437, 33.286627473796372 ], [ -91.148739754349705, 33.286795278740868 ], [ -91.148946670848076, 33.286875794337327 ] ] ] ] } },
{ "type": "Feature", "properties": { "depth_bin": "180-185 ft", "bin_order": -182.5, "survey_id": "LM_11_YBS_20160706_CS_MB_5303_5308", "date": "2016-07-06", "year": 2016, "mile": 530.0 }, "geometry": { "type": "MultiPolygon", "coordinates": [ [ [ [ -91.154148301468211, 33.280925136882395 ], [ -91.154258475466378, 33.281427482667951 ], [ -91.154991193955226, 33.28217614498746 ], [ -91.154953204156712, 33.282450337531188 ], [ -91.15469550320563, 33.282621658108596 ], [ -91.15429989462227, 33.282549434905597 ], [ -91.153540296611325, 33.281842144034066 ], [ -91.153344586775845, 33.281341075415313 ], [ -91.153373680659399, 33.280881627398848 ], [ -91.153631378776396, 33.280710309430482 ], [ -91.153957825349735, 33.280742220485095 ], [ -91.154148301468211, 33.280925136882395 ] ] ], [ [ [ -91.154857886067632, 33.282588531163775 ], [ -91.155163700967307, 33.282487418122358 ], [ -91.155481558374717, 33.28261117743979 ], [ -91.155601945481138, 33.282868034591807 ], [ -91.155470827680517, 33.283121158633705 ], [ -91.155165010850624, 33.283222272357243 ], [ -91.154847151755632, 33.283098512180146 ], [ -91.154726766614019, 33.282841654371211 ], [ -91.154857886067632, 33.282588531163775 ] ] ], [ [ [ -91.156278570436569, 33.2840494289741 ], [ -91.156626436307505, 33.283950673319552 ], [ -91.156929998383376, 33.284098709464736 ], [ -91.157720302684837, 33.284996340750141 ], [ -91.15774035655393, 33.285205054843466 ], [ -91.15758725003144, 33.285411254381117 ], [ -91.157229528984956, 33.285480899216942 ], [ -91.156901447913413, 33.285270406225749 ], [ -91.15617723239076, 33.284441038583367 ], [ -91.15615718234308, 33.28423232434799 ], [ -91.156278570436569, 33.2840494289741 ] ] ], [ [ [ -91.152304926146613, 33.278812125314914 ], [ -91.152957539410622, 33.279622700406286 ], [ -91.152980561346027, 33.279905405414631 ], [ -91.15324998257978, 33.279968875399319 ], [ -91.153418192654655, 33.280166593296919 ], [ -91.153380199137587, 33.280440785303576 ], [ -91.153122501373531, 33.280612102768345 ], [ -91.152873243238034, 33.280608398042141 ], [ -91.152668443622673, 33.280489003368977 ], [ -91.152599902330877, 33.280146824938356 ], [ -91.152366235986804, 33.280102084256569 ], [ -91.152156062129336, 33.279928994283011 ], [ -91.151630500415465, 33.279268074057647 ], [ -91.151576379440115, 33.278985987470044 ], [ -91.151763772854139, 33.278759217546494 ], [ -91.152087184801161, 33.278710165376211 ], [ -91.152304926146613, 33.278812125314914 ] ] ], [ [ [ -91.146723119184074, 33.285329559413761 ], [ -91.148305706199196, 33.286520500098497 ], [ -91.148373834352014, 33.286721922303762 ], [ -91.148242689731191, 33.286975037642989 ], [ -91.147936851764868, 33.287076132755466 ], [ -91.147551037036138, 33.286922267103108 ], [ -91.146301272186705, 33.285999104091417 ], [ -91.146078648864162, 33.285757918516737 ], [ -91.14607770626894, 33.285496986359774 ], [ -91.145844868927455, 33.285550824304252 ], [ -91.145643372551973, 33.2855052237704 ], [ -91.145425113491541, 33.285304668862132 ], [ -91.145179846912512, 33.285228204784573 ], [ -91.143715284827906, 33.284364010008176 ], [ -91.143565534019373, 33.284118287407409 ], [ -91.143640816202193, 33.283883648236547 ], [ -91.143917290972169, 33.283734393449777 ], [ -91.144238444990066, 33.283793051629239 ], [ -91.14562014592623, 33.284594754282786 ], [ -91.145851981817884, 33.284803734981345 ], [ -91.146097798421778, 33.284888257260313 ], [ -91.146265577620682, 33.285091666042909 ], [ -91.146253030660802, 33.285319066635203 ], [ -91.146485867166277, 33.285265227893582 ], [ -91.146723119184074, 33.285329559413761 ] ] ], [ [ [ -91.149359449175492, 33.287708951494814 ], [ -91.14958137620593, 33.287613534509227 ], [ -91.149829020265003, 33.287637749416497 ], [ -91.150060362963316, 33.287799167194478 ], [ -91.15015255926599, 33.288017676773649 ], [ -91.150510521416422, 33.288140392734498 ], [ -91.150862073800155, 33.288510528927709 ], [ -91.15086861925505, 33.288685712319229 ], [ -91.150747213229437, 33.288868601663133 ], [ -91.150525284119922, 33.288964020647342 ], [ -91.150239864222243, 33.288924109375372 ], [ -91.149848303056174, 33.288601056805248 ], [ -91.149756106981044, 33.288382547024717 ], [ -91.149552280525867, 33.288353706587877 ], [ -91.149348680792258, 33.288218930506453 ], [ -91.149228305733288, 33.287962067884081 ], [ -91.149359449175492, 33.287708951494814 ] ] ] ] } }
]
}
