{
"type": "FeatureCollection",
"name": "LM_12_EYB_20240604_CS_5640_5636_depth_polygons",
"crs": { "type": "name", "properties": { "name": "urn:ogc:def:crs:OGC:1.3:CRS84" } },
"features": [
{ "type": "Feature", "properties": { "depth_bin": "10-11 ft", "survey_id": "LM_12_EYB_20240604_CS_5640_5636", "date": "2024-06-04 00:00:00+00:00", "year": 2024, "mile": 564.0, "bin_order": 7 }, "geometry": { "type": "Polygon", "coordinates": [ [ [ -91.152628025139592, 33.632578216876269 ], [ -91.152759728125332, 33.632325127734944 ], [ -91.153066796212755, 33.632224067525655 ], [ -91.153369354446582, 33.632334235487292 ], [ -91.153490169488791, 33.632591097306744 ], [ -91.153358468160505, 33.632844187274905 ], [ -91.153051398141614, 33.632945248136281 ], [ -91.152748838250361, 33.632835079347778 ], [ -91.152628025139592, 33.632578216876269 ] ] ] } },
{ "type": "Feature", "properties": { "depth_bin": "11-12 ft", "survey_id": "LM_12_EYB_20240604_CS_5640_5636", "date": "2024-06-04 00:00:00+00:00", "year": 2024, "mile": 564.0, "bin_order": 6 }, "geometry": { "type": "MultiPolygon", "coordinates": [ [ [ [ -91.147997513464702, 33.628625753897531 ], [ -91.148158242852261, 33.628384687968691 ], [ -91.148475662943753, 33.62830930270443 ], [ -91.148763834922576, 33.628443757432244 ], [ -91.148853952434351, 33.628709291059486 ], [ -91.148693224294917, 33.62895035792652 ], [ -91.148375801985893, 33.629025743668656 ], [ -91.148087628758972, 33.628891288002649 ], [ -91.147997513464702, 33.628625753897531 ] ] ], [ [ [ -91.15023907315387, 33.630543297106179 ], [ -91.15039980025773, 33.63030222824181 ], [ -91.150717225793898, 33.630226837414909 ], [ -91.151005407756429, 33.630361287211379 ], [ -91.151095533942851, 33.630626819427292 ], [ -91.150934808087442, 33.630867889229862 ], [ -91.150617380333657, 33.630943280534794 ], [ -91.150329197122701, 33.630808829800138 ], [ -91.15023907315387, 33.630543297106179 ] ] ] ] } },
{ "type": "Feature", "properties": { "depth_bin": "12-13 ft", "survey_id": "LM_12_EYB_20240604_CS_5640_5636", "date": "2024-06-04 00:00:00+00:00", "year": 2024, "mile": 564.0, "bin_order": 5 }, "geometry": { "type": "MultiPolygon", "coordinates": [ [ [ [ -91.14790401978199, 33.628696371318313 ], [ -91.14809222134177, 33.628469645314972 ], [ -91.148416946258337, 33.628420650106762 ], [ -91.148687976789674, 33.628578086220166 ], [ -91.148746547486013, 33.628849730431746 ], [ -91.148558346717749, 33.629076457448484 ], [ -91.148233619382765, 33.629125452942347 ], [ -91.147962588059912, 33.628968015815545 ], [ -91.14790401978199, 33.628696371318313 ] ] ], [ [ [ -91.150147979824325, 33.630621017497944 ], [ -91.150336180100254, 33.630394288086734 ], [ -91.150660911311391, 33.630345287198949 ], [ -91.150931952028529, 33.630502718687943 ], [ -91.150990530835458, 33.630774362039226 ], [ -91.150802331351343, 33.631001092463855 ], [ -91.150477597721633, 33.631050093637469 ], [ -91.150206556212666, 33.630892661135036 ], [ -91.150147979824325, 33.630621017497944 ] ] ], [ [ [ -91.152546984120988, 33.632613130952748 ], [ -91.152735182872632, 33.632386397891111 ], [ -91.153059920565426, 33.632337390921904 ], [ -91.153330971973404, 33.632494817460788 ], [ -91.153389559418031, 33.632766459892963 ], [ -91.153201361458514, 33.632993193968034 ], [ -91.152876621347005, 33.633042201223255 ], [ -91.152605569146886, 33.632884773670931 ], [ -91.152546984120988, 33.632613130952748 ] ] ], [ [ [ -91.148841746885921, 33.636992836924556 ], [ -91.149029965170442, 33.636766110311626 ], [ -91.149354721061158, 33.636717113741668 ], [ -91.149625778672458, 33.636874548538778 ], [ -91.14968435669185, 33.637146192250768 ], [ -91.149496139199272, 33.637372919877407 ], [ -91.1491713808892, 33.637421916733189 ], [ -91.148900322485929, 33.63726448092239 ], [ -91.148841746885921, 33.636992836924556 ] ] ] ] } },
{ "type": "Feature", "properties": { "depth_bin": "13-14 ft", "survey_id": "LM_12_EYB_20240604_CS_5640_5636", "date": "2024-06-04 00:00:00+00:00", "year": 2024, "mile": 564.0, "bin_order": 4 }, "geometry": { "type": "MultiPolygon", "coordinates": [ [ [ [ -91.147818833871284, 33.628814577023121 ], [ -91.148007035920386, 33.628587851169954 ], [ -91.14833176132143, 33.628538856203178 ], [ -91.148602792048621, 33.628696292507861 ], [ -91.148661362537467, 33.628967936748523 ], [ -91.148473161279881, 33.629194663615095 ], [ -91.148148433460406, 33.629243658867516 ], [ -91.147877401941699, 33.629086221549414 ], [ -91.147818833871284, 33.628814577023121 ] ] ], [ [ [ -91.150057876208322, 33.630733184041532 ], [ -91.150246076972223, 33.630506454787763 ], [ -91.150570808647203, 33.630457454153593 ], [ -91.150841849532398, 33.630614885843869 ], [ -91.150900428113104, 33.63088652922616 ], [ -91.150712228141032, 33.631113259493368 ], [ -91.150387494047465, 33.631162260413362 ], [ -91.150116452370455, 33.631004827709639 ], [ -91.150057876208322, 33.630733184041532 ] ] ], [ [ [ -91.152439380218567, 33.632726240081894 ], [ -91.152627579504966, 33.632499507205992 ], [ -91.152952317672927, 33.632450500536862 ], [ -91.153223369218168, 33.632607927314389 ], [ -91.153281956381718, 33.632879569784016 ], [ -91.153093757887447, 33.633106303673372 ], [ -91.152769017300741, 33.63315531062851 ], [ -91.152497964963374, 33.632997882837522 ], [ -91.152439380218567, 33.632726240081894 ] ] ], [ [ [ -91.143354760635646, 33.63352105282631 ], [ -91.143542984901899, 33.633294334682468 ], [ -91.143867730065281, 33.633245352168707 ], [ -91.144138766523966, 33.633402798375478 ], [ -91.144197325355876, 33.63367444416695 ], [ -91.144009101880883, 33.633901163324488 ], [ -91.143684354298358, 33.633950146123681 ], [ -91.143413317048399, 33.633792698903214 ], [ -91.143354760635646, 33.63352105282631 ] ] ] ] } },
{ "type": "Feature", "properties": { "depth_bin": "14-15 ft", "survey_id": "LM_12_EYB_20240604_CS_5640_5636", "date": "2024-06-04 00:00:00+00:00", "year": 2024, "mile": 564.0, "bin_order": 3 }, "geometry": { "type": "MultiPolygon", "coordinates": [ [ [ [ -91.147718751763918, 33.62896876252475 ], [ -91.147879482594831, 33.628727697019237 ], [ -91.148196904168017, 33.628652312525965 ], [ -91.148485076798949, 33.628786767920815 ], [ -91.14857519375127, 33.629052301720428 ], [ -91.148414464168482, 33.629293368164156 ], [ -91.148097040377706, 33.629368753135303 ], [ -91.147808866498664, 33.629234296802224 ], [ -91.147718751763918, 33.62896876252475 ] ] ], [ [ [ -91.14638433143206, 33.634990229057436 ], [ -91.146545077907206, 33.634749166017315 ], [ -91.146862522836443, 33.634673785812211 ], [ -91.147150712854099, 33.634808244805996 ], [ -91.147240831039085, 33.635073779407271 ], [ -91.147080085812334, 33.635314843385849 ], [ -91.146762638664796, 33.635390224068878 ], [ -91.146474447398759, 33.63525576413663 ], [ -91.14638433143206, 33.634990229057436 ] ] ] ] } },
{ "type": "Feature", "properties": { "depth_bin": "15-17.5 ft", "survey_id": "LM_12_EYB_20240604_CS_5640_5636", "date": "2024-06-04 00:00:00+00:00", "year": 2024, "mile": 564.0, "bin_order": 2 }, "geometry": { "type": "MultiPolygon", "coordinates": [ [ [ [ -91.167726762726247, 33.614337397659611 ], [ -91.167914880736561, 33.614110638165812 ], [ -91.168239542648038, 33.614061588572923 ], [ -91.16851056762448, 33.614218981264521 ], [ -91.168569193471129, 33.614490618452365 ], [ -91.168381076253695, 33.614717378958602 ], [ -91.168056411926187, 33.614766428838188 ], [ -91.167785386156837, 33.61460903513418 ], [ -91.167726762726247, 33.614337397659611 ] ] ], [ [ [ -91.149968490739838, 33.630806464150865 ], [ -91.150182352229294, 33.63059625792927 ], [ -91.150511262181894, 33.630574119149479 ], [ -91.150762551394749, 33.630753016350049 ], [ -91.150789018270558, 33.631028154719402 ], [ -91.150575157085854, 33.631238361990725 ], [ -91.150246244606649, 33.631260500853124 ], [ -91.149994955089042, 33.631081602602819 ], [ -91.149968490739838, 33.630806464150865 ] ] ], [ [ [ -91.152163952138949, 33.633066900366529 ], [ -91.15253133675597, 33.6326084731731 ], [ -91.152729835845903, 33.632552386527784 ], [ -91.15297442215028, 33.632596895787309 ], [ -91.153148227380825, 33.632747570819284 ], [ -91.153159739155271, 33.633055814057577 ], [ -91.152781657323757, 33.633464615630572 ], [ -91.152452736629058, 33.633486760090257 ], [ -91.152201436082507, 33.63330786601373 ], [ -91.152163952138949, 33.633066900366529 ] ] ], [ [ [ -91.143481457832735, 33.633386011213638 ], [ -91.143695341230483, 33.633175817055232 ], [ -91.144024261848486, 33.633153695940067 ], [ -91.144275544236493, 33.63333260605927 ], [ -91.144301990794645, 33.633607745033835 ], [ -91.144088107700995, 33.633817940242139 ], [ -91.143759184555975, 33.633840061439507 ], [ -91.14350790186387, 33.633661150270392 ], [ -91.143481457832735, 33.633386011213638 ] ] ] ] } },
{ "type": "Feature", "properties": { "depth_bin": "17.5-20 ft", "survey_id": "LM_12_EYB_20240604_CS_5640_5636", "date": "2024-06-04 00:00:00+00:00", "year": 2024, "mile": 564.0, "bin_order": 1 }, "geometry": { "type": "MultiPolygon", "coordinates": [ [ [ [ -91.167836654972149, 33.614189884788203 ], [ -91.168050431508163, 33.613979644262983 ], [ -91.168379275798443, 33.613957455592072 ], [ -91.168630557102574, 33.614136316538797 ], [ -91.168657078457173, 33.614411453528014 ], [ -91.168443302227473, 33.614621695102137 ], [ -91.168114455412905, 33.614643883856729 ], [ -91.167863173802459, 33.614465021861101 ], [ -91.167836654972149, 33.614189884788203 ] ] ], [ [ [ -91.147660117633095, 33.628980397971119 ], [ -91.147978881203926, 33.628769435167222 ], [ -91.148365662952727, 33.628873945908481 ], [ -91.148483626509361, 33.629166124960925 ], [ -91.148276897694586, 33.62950653426492 ], [ -91.147969834390594, 33.629607582752143 ], [ -91.147667293048357, 33.629497402082357 ], [ -91.147546499454506, 33.62924053518239 ], [ -91.147660117633095, 33.628980397971119 ] ] ], [ [ [ -91.149679815855876, 33.63113981434914 ], [ -91.150046832657097, 33.630722202525249 ], [ -91.150245328775796, 33.630666119762211 ], [ -91.150489908274878, 33.630710633727602 ], [ -91.150663705374967, 33.630861312022112 ], [ -91.150675208356503, 33.631169555272216 ], [ -91.150286482949241, 33.631571713614484 ], [ -91.149957569161316, 33.63159385166189 ], [ -91.149706279334154, 33.631414952821132 ], [ -91.149679815855876, 33.63113981434914 ] ] ], [ [ [ -91.152087303179641, 33.633149551734689 ], [ -91.15230116576717, 33.632939341943782 ], [ -91.152630084392001, 33.632917197816404 ], [ -91.152881384771348, 33.633096091023539 ], [ -91.152907858766923, 33.633371229092987 ], [ -91.152693996484416, 33.633581439933714 ], [ -91.152365075332725, 33.633603584143849 ], [ -91.15211377464837, 33.633424689886915 ], [ -91.152087303179641, 33.633149551734689 ] ] ], [ [ [ -91.146502908106953, 33.634771757910009 ], [ -91.146740389012024, 33.634580106373846 ], [ -91.147070323840452, 33.634585052176327 ], [ -91.147299443039046, 33.634783698221071 ], [ -91.147293531551213, 33.635059681088705 ], [ -91.14705605045171, 33.635251333670674 ], [ -91.146726113085279, 33.63524638774421 ], [ -91.146496994081105, 33.635047740653633 ], [ -91.146502908106953, 33.634771757910009 ] ] ], [ [ [ -91.148949233535973, 33.636806691153502 ], [ -91.149186715055023, 33.636615034981489 ], [ -91.149516658100239, 33.636619974519149 ], [ -91.149745788305324, 33.636818616339887 ], [ -91.149739884166422, 33.637094599498738 ], [ -91.149502402453209, 33.637286256716664 ], [ -91.149172456869735, 33.637281317055177 ], [ -91.148943326858827, 33.63708267418852 ], [ -91.148949233535973, 33.636806691153502 ] ] ] ] } },
{ "type": "Feature", "properties": { "depth_bin": "5-6 ft", "survey_id": "LM_12_EYB_20240604_CS_5640_5636", "date": "2024-06-04 00:00:00+00:00", "year": 2024, "mile": 564.0, "bin_order": 12 }, "geometry": { "type": "Polygon", "coordinates": [ [ [ -91.150614781195188, 33.630132625335513 ], [ -91.150746485897571, 33.629879538318278 ], [ -91.151053547272809, 33.629778482858782 ], [ -91.151356094297427, 33.62988865541368 ], [ -91.151476900199384, 33.630145518979198 ], [ -91.151345197154072, 33.630398606823299 ], [ -91.151038133847464, 33.630499662934703 ], [ -91.150735585165776, 33.63038948955294 ], [ -91.150614781195188, 33.630132625335513 ] ] ] } },
{ "type": "Feature", "properties": { "depth_bin": "6-7 ft", "survey_id": "LM_12_EYB_20240604_CS_5640_5636", "date": "2024-06-04 00:00:00+00:00", "year": 2024, "mile": 564.0, "bin_order": 11 }, "geometry": { "type": "Polygon", "coordinates": [ [ [ -91.143254202163135, 33.633704238680075 ], [ -91.143385933975225, 33.633451160564341 ], [ -91.14369301594887, 33.633350124173482 ], [ -91.143995564994938, 33.633460314794263 ], [ -91.144116353157074, 33.633717184840407 ], [ -91.143984623001785, 33.633970263783461 ], [ -91.143677539095933, 33.634071300825944 ], [ -91.143374988393049, 33.633961109377879 ], [ -91.143254202163135, 33.633704238680075 ] ] ] } },
{ "type": "Feature", "properties": { "depth_bin": "7-8 ft", "survey_id": "LM_12_EYB_20240604_CS_5640_5636", "date": "2024-06-04 00:00:00+00:00", "year": 2024, "mile": 564.0, "bin_order": 10 }, "geometry": { "type": "MultiPolygon", "coordinates": [ [ [ [ -91.148201269858689, 33.62837027788229 ], [ -91.148389469910029, 33.628143551364339 ], [ -91.148714193462752, 33.628094555325319 ], [ -91.148985223573717, 33.628251990778388 ], [ -91.149043795039418, 33.628523634886889 ], [ -91.148855595779608, 33.628750362418231 ], [ -91.148530869808525, 33.628799358742931 ], [ -91.148259838906029, 33.628641922276458 ], [ -91.148201269858689, 33.62837027788229 ] ] ], [ [ [ -91.150530194436371, 33.630171189607978 ], [ -91.150718392702274, 33.629944459531842 ], [ -91.15104312204403, 33.629895457571671 ], [ -91.151314162127463, 33.630052888209043 ], [ -91.151372741907551, 33.6303245314283 ], [ -91.151184544433491, 33.630551262517862 ], [ -91.150859812673218, 33.630600264763885 ], [ -91.150588771797956, 33.630442833113094 ], [ -91.150530194436371, 33.630171189607978 ] ] ], [ [ [ -91.152989131887296, 33.632040118747547 ], [ -91.153350974142043, 33.631885216090843 ], [ -91.153705974365209, 33.632050826611469 ], [ -91.153753551275813, 33.632356641583215 ], [ -91.153480652772686, 33.632661986881054 ], [ -91.153155914036887, 33.63271099492021 ], [ -91.15288486230763, 33.632553567990414 ], [ -91.152826276571929, 33.632281925368702 ], [ -91.152989131887296, 33.632040118747547 ] ] ] ] } },
{ "type": "Feature", "properties": { "depth_bin": "8-9 ft", "survey_id": "LM_12_EYB_20240604_CS_5640_5636", "date": "2024-06-04 00:00:00+00:00", "year": 2024, "mile": 564.0, "bin_order": 9 }, "geometry": { "type": "MultiPolygon", "coordinates": [ [ [ [ -91.167930933302031, 33.614159860732293 ], [ -91.16809157957276, 33.613918765565707 ], [ -91.16840893107765, 33.613843326565423 ], [ -91.168697089175325, 33.613977734536171 ], [ -91.168787255643451, 33.614243255774156 ], [ -91.1686266106217, 33.614484351877763 ], [ -91.168309256901921, 33.614559791356761 ], [ -91.168021097555254, 33.614425382448992 ], [ -91.167930933302031, 33.614159860732293 ] ] ], [ [ [ -91.150438507283681, 33.630282542835985 ], [ -91.150626706039688, 33.630055812919721 ], [ -91.150951435842927, 33.630006811217257 ], [ -91.151222476088861, 33.630164242059216 ], [ -91.151281055637327, 33.630435885310071 ], [ -91.151092857673149, 33.630662616239754 ], [ -91.150768125451393, 33.630711618228055 ], [ -91.150497084413615, 33.630554186372684 ], [ -91.150438507283681, 33.630282542835985 ] ] ], [ [ [ -91.146286260589306, 33.635064035492114 ], [ -91.146474480941606, 33.634837312789521 ], [ -91.146799230656441, 33.634788322724162 ], [ -91.147070277465872, 33.634945762809906 ], [ -91.14712884638476, 33.63521740749659 ], [ -91.146940626824076, 33.635444131212871 ], [ -91.146615874690013, 33.635493121563897 ], [ -91.146344827088953, 33.635335680464443 ], [ -91.146286260589306, 33.635064035492114 ] ] ] ] } },
{ "type": "Feature", "properties": { "depth_bin": "9-10 ft", "survey_id": "LM_12_EYB_20240604_CS_5640_5636", "date": "2024-06-04 00:00:00+00:00", "year": 2024, "mile": 564.0, "bin_order": 8 }, "geometry": { "type": "MultiPolygon", "coordinates": [ [ [ [ -91.14810504296031, 33.628511632048351 ], [ -91.148265771827397, 33.628270565958069 ], [ -91.148583191414872, 33.62819518039889 ], [ -91.14887136320138, 33.628329634871086 ], [ -91.148961480945218, 33.628595168431751 ], [ -91.14880075332627, 33.628836235460241 ], [ -91.148483331521277, 33.628911621497295 ], [ -91.148195158486644, 33.628777166086913 ], [ -91.14810504296031, 33.628511632048351 ] ] ], [ [ [ -91.150343075823415, 33.630394029826874 ], [ -91.150531275079388, 33.63016730007655 ], [ -91.150856005346242, 33.630118298641719 ], [ -91.151127045747899, 33.630275729696237 ], [ -91.151185625052932, 33.630547372980082 ], [ -91.150997426588802, 33.630774103743825 ], [ -91.150672693903417, 33.630823105464486 ], [ -91.150401652709917, 33.630665673396564 ], [ -91.150343075823415, 33.630394029826874 ] ] ], [ [ [ -91.152726713081194, 33.63239050144189 ], [ -91.152914910862009, 33.63216376806642 ], [ -91.153239647633626, 33.632114760591477 ], [ -91.153510698709681, 33.632272186728954 ], [ -91.153569286606043, 33.632543829099227 ], [ -91.153381089617355, 33.632770563488144 ], [ -91.15305635042705, 33.632819571249115 ], [ -91.152785298558854, 33.632662144098177 ], [ -91.152726713081194, 33.63239050144189 ] ] ] ] } },
{ "type": "Feature", "properties": { "depth_bin": "<5 ft", "survey_id": "LM_12_EYB_20240604_CS_5640_5636", "date": "2024-06-04 00:00:00+00:00", "year": 2024, "mile": 564.0, "bin_order": 13 }, "geometry": { "type": "MultiPolygon", "coordinates": [ [ [ [ -91.167779773634237, 33.610646413947649 ], [ -91.168029979607866, 33.610650120773528 ], [ -91.168235557441065, 33.610769511245792 ], [ -91.168327215189507, 33.610964343876248 ], [ -91.168251672625871, 33.611198978902813 ], [ -91.164564046402177, 33.615319963640857 ], [ -91.164379661998623, 33.615643730303482 ], [ -91.161455003236824, 33.618856726936748 ], [ -91.161090396701752, 33.61941533482868 ], [ -91.159496934087755, 33.621065003874442 ], [ -91.159034353445222, 33.621735037397357 ], [ -91.157945941567036, 33.622844346659015 ], [ -91.156893056726659, 33.624165141089399 ], [ -91.156323655444126, 33.624705033514751 ], [ -91.156012193888373, 33.625161764850411 ], [ -91.153436491625115, 33.627943867756194 ], [ -91.152924619526189, 33.628716719041165 ], [ -91.151440484063187, 33.630282447934242 ], [ -91.151175709724939, 33.63038239982825 ], [ -91.15089523571217, 33.630319152183084 ], [ -91.150716847654977, 33.630086938538483 ], [ -91.150764601074656, 33.629847247440395 ], [ -91.152261083648455, 33.628260450978011 ], [ -91.152695872839217, 33.627579369004238 ], [ -91.155364540921866, 33.624692303085403 ], [ -91.155636229203296, 33.624271049281958 ], [ -91.156154535618185, 33.623797145043511 ], [ -91.157281453723513, 33.622388967658381 ], [ -91.158383562841465, 33.621267892450703 ], [ -91.158830766247888, 33.62061113375168 ], [ -91.159255699308403, 33.620244192247533 ], [ -91.159849985774997, 33.619486759687192 ], [ -91.160350386270323, 33.61904991667587 ], [ -91.160787973130638, 33.618403640538531 ], [ -91.163719738548792, 33.615184336021052 ], [ -91.163902805623465, 33.614861745100036 ], [ -91.167308475672186, 33.610988372242701 ], [ -91.167779773634237, 33.610646413947649 ] ] ], [ [ [ -91.168267997399155, 33.613691408716008 ], [ -91.168585347928683, 33.613615969226935 ], [ -91.168873505579995, 33.613750376774888 ], [ -91.168966495310727, 33.613980584180254 ], [ -91.168830500561342, 33.614308935596483 ], [ -91.16849180639592, 33.614463281965278 ], [ -91.168466174926735, 33.614683182476099 ], [ -91.168176277580088, 33.615097761775736 ], [ -91.167583127605212, 33.615650658836181 ], [ -91.166201498493663, 33.617465922183555 ], [ -91.163649287041906, 33.620430194427435 ], [ -91.158890577971519, 33.626267340169051 ], [ -91.157934123129863, 33.627284946651663 ], [ -91.157105900891821, 33.628408470332083 ], [ -91.156510084582592, 33.628962671675993 ], [ -91.155804180873929, 33.629996529853848 ], [ -91.155302339226921, 33.630485261367056 ], [ -91.154286244919248, 33.631791704597532 ], [ -91.153674127289307, 33.63244107791256 ], [ -91.153433339503735, 33.632498271331372 ], [ -91.153195146265332, 33.63243392341078 ], [ -91.15301674778371, 33.632201712804289 ], [ -91.153086892500028, 33.631931993479824 ], [ -91.154565937311702, 33.630113596375452 ], [ -91.155123142684019, 33.629555839911497 ], [ -91.155841392706478, 33.62851099449297 ], [ -91.156447599266741, 33.627947544062621 ], [ -91.157267832584253, 33.626831142882828 ], [ -91.158235200819149, 33.625803824061478 ], [ -91.162906548492458, 33.620069369160547 ], [ -91.165541088803579, 33.617006949122128 ], [ -91.165808016706521, 33.616564912564627 ], [ -91.166911652714532, 33.615201556097247 ], [ -91.167450219051645, 33.614710393441626 ], [ -91.16774260097101, 33.614305596065009 ], [ -91.168055499263147, 33.614179301670553 ], [ -91.168066177807788, 33.613992508649055 ], [ -91.168267997399155, 33.613691408716008 ] ] ], [ [ [ -91.150340231046982, 33.626149935123479 ], [ -91.150615429099503, 33.626072175573881 ], [ -91.150887128237414, 33.626158115825397 ], [ -91.151031983685471, 33.626368741194028 ], [ -91.150984233389934, 33.626608432613743 ], [ -91.150042160675113, 33.627652290822724 ], [ -91.149037695513883, 33.628607736421607 ], [ -91.148814878542041, 33.628703117533725 ], [ -91.148528351033903, 33.628663166118422 ], [ -91.148323622751377, 33.628446693603081 ], [ -91.148361837934132, 33.628172523529983 ], [ -91.150340231046982, 33.626149935123479 ] ] ], [ [ [ -91.143381762315897, 33.633534775180784 ], [ -91.143786934712878, 33.633507526934487 ], [ -91.144029580152718, 33.63373971063114 ], [ -91.143991347980787, 33.634013878579125 ], [ -91.143629437802545, 33.634295151673413 ], [ -91.143301674103043, 33.634263169596572 ], [ -91.14309694674931, 33.63404668860251 ], [ -91.143116407861342, 33.633804238319499 ], [ -91.143381762315897, 33.633534775180784 ] ] ], [ [ [ -91.146408524793571, 33.634924627762345 ], [ -91.146777027776196, 33.634915018125881 ], [ -91.147019685297025, 33.635147196308488 ], [ -91.146914728650088, 33.635549782240652 ], [ -91.146655931149056, 33.635721040337991 ], [ -91.146328160560032, 33.635689066073716 ], [ -91.146123422182143, 33.635472589768497 ], [ -91.146209609274734, 33.635101722408187 ], [ -91.146408524793571, 33.634924627762345 ] ] ], [ [ [ -91.148921411157829, 33.636911574808394 ], [ -91.14911239482521, 33.636839489156003 ], [ -91.14936102966189, 33.636863737858896 ], [ -91.149613244594491, 33.637130391260193 ], [ -91.149481771695164, 33.637528270257626 ], [ -91.149099496743275, 33.637780574608783 ], [ -91.148777041671991, 33.63772188714595 ], [ -91.148598645143181, 33.637489670382081 ], [ -91.148627636741253, 33.63728169886631 ], [ -91.148921411157829, 33.636911574808394 ] ] ] ] } },
{ "type": "Feature", "properties": { "depth_bin": ">20 ft", "survey_id": "LM_12_EYB_20240604_CS_5640_5636", "date": "2024-06-04 00:00:00+00:00", "year": 2024, "mile": 564.0, "bin_order": 0 }, "geometry": { "type": "MultiPolygon", "coordinates": [ [ [ [ -91.152172866697953, 33.633071396161995 ], [ -91.152455872383783, 33.633016573098608 ], [ -91.152716216852795, 33.633124374899445 ], [ -91.15283570991609, 33.633345862260541 ], [ -91.152782500034789, 33.633550457770454 ], [ -91.15200027590457, 33.634406376375324 ], [ -91.151546334704292, 33.635042990102519 ], [ -91.150855588633775, 33.635728588669302 ], [ -91.150423397522644, 33.636400951038496 ], [ -91.149766455568482, 33.637071375917046 ], [ -91.14951464539098, 33.637192551920656 ], [ -91.149228089538667, 33.637152601213685 ], [ -91.149023340378619, 33.636936129397569 ], [ -91.14906155841183, 33.636661959517426 ], [ -91.149688762480082, 33.636026225674286 ], [ -91.150195570677113, 33.635269140188178 ], [ -91.15080890890836, 33.634672997430947 ], [ -91.151257510364388, 33.634045414849751 ], [ -91.152172866697953, 33.633071396161995 ] ] ], [ [ [ -91.149802989224938, 33.631042328916763 ], [ -91.150091049967614, 33.631010978940196 ], [ -91.150309651576535, 33.631112967085976 ], [ -91.150429135833107, 33.631334456539108 ], [ -91.150353524790518, 33.631569077645779 ], [ -91.1494080171896, 33.632693976354581 ], [ -91.148414032076118, 33.633713212165112 ], [ -91.148058218623163, 33.634253308529445 ], [ -91.147308958332999, 33.63502856214388 ], [ -91.147057151043001, 33.635149733262736 ], [ -91.146734707342134, 33.63509104082722 ], [ -91.146556321527243, 33.634858821391987 ], [ -91.146626488775553, 33.634589106602384 ], [ -91.147401291611629, 33.633791117486886 ], [ -91.147668450479571, 33.633357024740057 ], [ -91.148746175782307, 33.632236171639278 ], [ -91.149336837029381, 33.63148061220943 ], [ -91.149802989224938, 33.631042328916763 ] ] ], [ [ [ -91.14769585869837, 33.629003239726231 ], [ -91.148099582561045, 33.629042620642764 ], [ -91.148283419127054, 33.629309934330408 ], [ -91.148248972573157, 33.629482809542644 ], [ -91.147938100643557, 33.62982776642162 ], [ -91.147794494699269, 33.630150615299591 ], [ -91.14726415490486, 33.630452492444071 ], [ -91.146852651511225, 33.630970554566488 ], [ -91.144964110014641, 33.63286506491341 ], [ -91.144295105114281, 33.633650386951565 ], [ -91.144030312758986, 33.633750322852734 ], [ -91.14374983395652, 33.633687058829125 ], [ -91.143564685885352, 33.633384363729789 ], [ -91.14380337999998, 33.632941078220817 ], [ -91.146219318832038, 33.630482311908352 ], [ -91.146558919163027, 33.63004374547171 ], [ -91.147081746503673, 33.629712145345536 ], [ -91.147387008754706, 33.629233535764989 ], [ -91.14769585869837, 33.629003239726231 ] ] ] ] } }
]
}
