{
"type": "FeatureCollection",
"name": "LM_19_MEMX_20250612_CS_732_734_SORT_ACTUALDEPTHS_depth_polygons",
"crs": { "type": "name", "properties": { "name": "urn:ogc:def:crs:OGC:1.3:CRS84" } },
"features": [
{ "type": "Feature", "properties": { "depth_bin": "13-14 ft", "survey_id": "LM_19_MEMX_20250612_CS_732_734_SORT_ACTUALDEPTHS", "date": "2025-06-12 00:00:00+00:00", "year": 2025, "mile": 734.0, "bin_order": 4 }, "geometry": { "type": "MultiPolygon", "coordinates": [ [ [ [ -90.099376653103207, 35.115444592637481 ], [ -90.099543449002553, 35.115205229528598 ], [ -90.099867376402287, 35.115132885104082 ], [ -90.100158684751065, 35.115269937430007 ], [ -90.100246730449783, 35.115536103837485 ], [ -90.100079935796074, 35.115775467971517 ], [ -90.099756005955101, 35.115847812843867 ], [ -90.099464696360698, 35.115710759492778 ], [ -90.099376653103207, 35.115444592637481 ] ] ], [ [ [ -90.110542496719034, 35.11808189422274 ], [ -90.110709266945307, 35.117842514491969 ], [ -90.111033197223307, 35.117770140232977 ], [ -90.111324535315447, 35.117907166987955 ], [ -90.111412620200269, 35.118173327066927 ], [ -90.111245851220872, 35.118412707822557 ], [ -90.110921918501916, 35.1184850825301 ], [ -90.110630579162887, 35.11834805475025 ], [ -90.110542496719034, 35.11808189422274 ] ] ] ] } },
{ "type": "Feature", "properties": { "depth_bin": "14-15 ft", "survey_id": "LM_19_MEMX_20250612_CS_732_734_SORT_ACTUALDEPTHS", "date": "2025-06-12 00:00:00+00:00", "year": 2025, "mile": 734.0, "bin_order": 3 }, "geometry": { "type": "Polygon", "coordinates": [ [ [ -90.110525683855997, 35.118137381218425 ], [ -90.110663095158216, 35.117885723114121 ], [ -90.11097683214679, 35.117787609221608 ], [ -90.111283113469639, 35.117900512876034 ], [ -90.111402524883204, 35.118158297296752 ], [ -90.111265115280091, 35.118409956318736 ], [ -90.110951376140719, 35.118508070851107 ], [ -90.110645093118748, 35.118395166279001 ], [ -90.110525683855997, 35.118137381218425 ] ] ] } },
{ "type": "Feature", "properties": { "depth_bin": "15-17.5 ft", "survey_id": "LM_19_MEMX_20250612_CS_732_734_SORT_ACTUALDEPTHS", "date": "2025-06-12 00:00:00+00:00", "year": 2025, "mile": 734.0, "bin_order": 2 }, "geometry": { "type": "MultiPolygon", "coordinates": [ [ [ [ -90.098051244512632, 35.115288889007978 ], [ -90.098245793470753, 35.115064114364557 ], [ -90.098576790827835, 35.115018210744815 ], [ -90.098850344686085, 35.115178067697578 ], [ -90.098906211432379, 35.115450043960678 ], [ -90.098711663219547, 35.115674819696935 ], [ -90.0983806632251, 35.11572072355581 ], [ -90.098107108621562, 35.115560865510218 ], [ -90.098051244512632, 35.115288889007978 ] ] ], [ [ [ -90.099286949536122, 35.121669506983011 ], [ -90.09940181249317, 35.121521979938642 ], [ -90.099629795469198, 35.121428769893235 ], [ -90.09988238382698, 35.121455335177387 ], [ -90.100049817507355, 35.121563713892748 ], [ -90.100137868155969, 35.121829880449901 ], [ -90.10005541065911, 35.122169368707716 ], [ -90.099907825282486, 35.122339873234324 ], [ -90.099583868873665, 35.122412216307502 ], [ -90.099292536979746, 35.122275161550029 ], [ -90.099201124744468, 35.122044252341226 ], [ -90.099286949536122, 35.121669506983011 ] ] ], [ [ [ -90.094785305836325, 35.121963031516152 ], [ -90.095005757975272, 35.121755015470512 ], [ -90.095340664927974, 35.121736001589774 ], [ -90.095593844676173, 35.121917127932441 ], [ -90.095616988109981, 35.122192293934575 ], [ -90.095396536187209, 35.122400311098993 ], [ -90.095061626501462, 35.122419325000891 ], [ -90.094808446537087, 35.122238197539424 ], [ -90.094785305836325, 35.121963031516152 ] ] ], [ [ [ -90.104398576373683, 35.122440460782933 ], [ -90.104619006663867, 35.122232426113214 ], [ -90.104953915253958, 35.122213385612525 ], [ -90.105207119166508, 35.122394492932528 ], [ -90.105230295137218, 35.122669658652434 ], [ -90.105009865064261, 35.122877694440881 ], [ -90.10467495374121, 35.122896734963376 ], [ -90.104421749611433, 35.122715626524659 ], [ -90.104398576373683, 35.122440460782933 ] ] ], [ [ [ -90.093339810897845, 35.122455877136034 ], [ -90.093560267948931, 35.122247863982246 ], [ -90.09389517697916, 35.122228854218235 ], [ -90.094148354753358, 35.122409983491053 ], [ -90.094171493317845, 35.12268514952035 ], [ -90.093951036482807, 35.122893163792966 ], [ -90.09361612471946, 35.122912173578037 ], [ -90.093362946729258, 35.122731043186377 ], [ -90.093339810897845, 35.122455877136034 ] ] ] ] } },
{ "type": "Feature", "properties": { "depth_bin": "17.5-20 ft", "survey_id": "LM_19_MEMX_20250612_CS_732_734_SORT_ACTUALDEPTHS", "date": "2025-06-12 00:00:00+00:00", "year": 2025, "mile": 734.0, "bin_order": 1 }, "geometry": { "type": "MultiPolygon", "coordinates": [ [ [ [ -90.106078651980681, 35.116485552355137 ], [ -90.106344220729085, 35.116316842535291 ], [ -90.106677192521801, 35.116351844224234 ], [ -90.106882518842212, 35.116570054195634 ], [ -90.106839921719214, 35.116843648744286 ], [ -90.106574352126032, 35.117012359605852 ], [ -90.106241377725965, 35.1169773575091 ], [ -90.106036052250317, 35.11675914649598 ], [ -90.106078651980681, 35.116485552355137 ] ] ], [ [ [ -90.099416893144962, 35.12119951806072 ], [ -90.099767275501208, 35.121019066421539 ], [ -90.09997711870669, 35.121049799314434 ], [ -90.100169175003657, 35.121187185775966 ], [ -90.100235965871349, 35.121389086477635 ], [ -90.100161897039314, 35.121729409442551 ], [ -90.099967335940249, 35.121954186436525 ], [ -90.099636310707226, 35.122000092488577 ], [ -90.09936273329771, 35.121840236286779 ], [ -90.099295944334258, 35.121638335203023 ], [ -90.099416893144962, 35.12119951806072 ] ] ], [ [ [ -90.100750424893022, 35.121318399906897 ], [ -90.100935656519681, 35.121174826360665 ], [ -90.101186752954135, 35.121140001539992 ], [ -90.101419080367648, 35.121225663441535 ], [ -90.101554330901038, 35.121402939122127 ], [ -90.101421123807128, 35.12215063518088 ], [ -90.101120321144322, 35.122383786874579 ], [ -90.100787328428751, 35.12234876884915 ], [ -90.100582005715154, 35.122130548802183 ], [ -90.100750424893022, 35.121318399906897 ] ] ], [ [ [ -90.103316212499081, 35.122059508352287 ], [ -90.103643396750286, 35.121908837870059 ], [ -90.104020684448074, 35.122047937734891 ], [ -90.104108748652052, 35.122314102036015 ], [ -90.10391069682872, 35.122687174816846 ], [ -90.103586741796533, 35.122759528708372 ], [ -90.103295401297416, 35.122622483209994 ], [ -90.103203977210953, 35.122391576469667 ], [ -90.103316212499081, 35.122059508352287 ] ] ], [ [ [ -90.104494881290378, 35.122210552503176 ], [ -90.104822064221025, 35.122059878761178 ], [ -90.105070272794592, 35.122106647432226 ], [ -90.105225777957017, 35.122230617116088 ], [ -90.10549987314009, 35.122094898324526 ], [ -90.1058270883277, 35.122156551741924 ], [ -90.1060104801291, 35.122425368562155 ], [ -90.105900069847976, 35.122741832102399 ], [ -90.106283544090459, 35.122623574759217 ], [ -90.106620563270567, 35.122820470257075 ], [ -90.106655412406894, 35.123061593918003 ], [ -90.106504752845851, 35.123311120604505 ], [ -90.106220312587567, 35.123457628680427 ], [ -90.10592935408269, 35.123415032156451 ], [ -90.105737331492989, 35.123230451190715 ], [ -90.1057379855894, 35.122973882052172 ], [ -90.105435644308372, 35.123063960422492 ], [ -90.10514377294183, 35.122962424095839 ], [ -90.104812515571041, 35.123178842218174 ], [ -90.104485297305999, 35.123117185905052 ], [ -90.104301048730861, 35.122813007928698 ], [ -90.104494881290378, 35.122210552503176 ] ] ], [ [ [ -90.101891807140689, 35.122329443055364 ], [ -90.102176250358895, 35.122182945316517 ], [ -90.102503462740898, 35.122244607616494 ], [ -90.102681769403134, 35.122478309443025 ], [ -90.102606719775068, 35.122747152101937 ], [ -90.102322275218853, 35.122893650783006 ], [ -90.101995060443912, 35.122831987879465 ], [ -90.101816755119657, 35.122598285110712 ], [ -90.101891807140689, 35.122329443055364 ] ] ], [ [ [ -90.107320797957343, 35.122882016188505 ], [ -90.107605234348583, 35.122735505321046 ], [ -90.107932454064894, 35.12279715324037 ], [ -90.108110777926626, 35.12303084785794 ], [ -90.108035745288362, 35.123299694702652 ], [ -90.107751307559624, 35.123446206512526 ], [ -90.107424085450035, 35.123384557989965 ], [ -90.1072457629258, 35.123150862429966 ], [ -90.107320797957343, 35.122882016188505 ] ] ], [ [ [ -90.097962956719854, 35.12159597995295 ], [ -90.098228558320997, 35.121427289687119 ], [ -90.098561545705493, 35.121462314523448 ], [ -90.098766861223524, 35.121680537676568 ], [ -90.098724233231138, 35.121954127719668 ], [ -90.098458630784165, 35.122122819027254 ], [ -90.098125640791906, 35.122087793782548 ], [ -90.097920326119706, 35.121869569587652 ], [ -90.097962956719854, 35.12159597995295 ] ] ], [ [ [ -90.096585939886765, 35.121663058389665 ], [ -90.0968515443424, 35.121494371296698 ], [ -90.097184531135383, 35.121529399906727 ], [ -90.097389842962386, 35.121747625223904 ], [ -90.097347210341496, 35.122021214553712 ], [ -90.097081605039861, 35.12218990268844 ], [ -90.096748615639157, 35.122154873669921 ], [ -90.096543304658127, 35.121936647310989 ], [ -90.096585939886765, 35.121663058389665 ] ] ], [ [ [ -90.095313219642392, 35.121807100527732 ], [ -90.095578827015188, 35.121638416382325 ], [ -90.095911813593204, 35.121673448496075 ], [ -90.096117122199075, 35.121891675820727 ], [ -90.096074485237637, 35.122165264485815 ], [ -90.095808877018726, 35.122333949672942 ], [ -90.09547588783299, 35.122298917150651 ], [ -90.095270580073247, 35.122080688784266 ], [ -90.095313219642392, 35.121807100527732 ] ] ], [ [ [ -90.094336893057076, 35.121823845063034 ], [ -90.094644543942906, 35.121647574866074 ], [ -90.095005557442846, 35.121731144599899 ], [ -90.095179917813184, 35.122114371237672 ], [ -90.095073133938726, 35.122375867691673 ], [ -90.094772573351932, 35.122498734928669 ], [ -90.094454301626712, 35.122410998417628 ], [ -90.09430982987746, 35.122199173250152 ], [ -90.094336893057076, 35.121823845063034 ] ] ], [ [ [ -90.093359300886803, 35.122064534192155 ], [ -90.093617117106703, 35.121945836151355 ], [ -90.093908061883553, 35.121988461724598 ], [ -90.094082793582913, 35.122140661884195 ], [ -90.094159942556686, 35.122408886855894 ], [ -90.093990604997231, 35.12271885728871 ], [ -90.093795337012821, 35.122789081098446 ], [ -90.093567290408544, 35.122770389495663 ], [ -90.093599533896992, 35.122988178277183 ], [ -90.093495254390902, 35.123179056565853 ], [ -90.093151652238021, 35.123302622686012 ], [ -90.092910226245181, 35.123236066914941 ], [ -90.092765805041608, 35.123091759311187 ], [ -90.092487171450415, 35.123195869550003 ], [ -90.092168899950394, 35.123108127023634 ], [ -90.092019363809797, 35.122861179645788 ], [ -90.092126158013045, 35.122599686411128 ], [ -90.092341935398778, 35.122488578654426 ], [ -90.092629460798136, 35.122505288502545 ], [ -90.092797608401355, 35.122252147901477 ], [ -90.093035620546502, 35.122177760236276 ], [ -90.093264057293354, 35.122216284106301 ], [ -90.093359300886803, 35.122064534192155 ] ] ], [ [ [ -90.088473018561245, 35.124045732540644 ], [ -90.088841150667491, 35.123836734804634 ], [ -90.089159420744465, 35.123924486039286 ], [ -90.089308949698392, 35.124171436587837 ], [ -90.089202144237106, 35.124432926737995 ], [ -90.088901568076821, 35.124555778557159 ], [ -90.088583604951197, 35.124468226623947 ], [ -90.088258215452328, 35.124673059711881 ], [ -90.08789719752086, 35.124589469585189 ], [ -90.087747672287151, 35.124342517477395 ], [ -90.087854482173398, 35.124081028828648 ], [ -90.088155057922421, 35.123958179593863 ], [ -90.088473018561245, 35.124045732540644 ] ] ], [ [ [ -90.087288988969306, 35.124729849757927 ], [ -90.087554621583791, 35.124561184566645 ], [ -90.087887614953814, 35.124596239160397 ], [ -90.088092907923354, 35.1248144793229 ], [ -90.088050242056184, 35.125088063663362 ], [ -90.087784608594603, 35.125256729896364 ], [ -90.087451612616775, 35.125221674893481 ], [ -90.087246320494302, 35.125003433689294 ], [ -90.087288988969306, 35.124729849757927 ] ] ], [ [ [ -90.086507572990911, 35.125634130587052 ], [ -90.086773210171245, 35.125465467355056 ], [ -90.087106206709677, 35.125500524258001 ], [ -90.087311499594293, 35.125718765726937 ], [ -90.087268830438475, 35.125992349605809 ], [ -90.087003192410947, 35.126161013879532 ], [ -90.086670193264567, 35.1261259565674 ], [ -90.08646490122716, 35.125907714056751 ], [ -90.086507572990911, 35.125634130587052 ] ] ], [ [ [ -90.085345182587687, 35.126195812827532 ], [ -90.085629666645872, 35.1260493561674 ], [ -90.085956878590309, 35.126111063325311 ], [ -90.086135143793499, 35.126344787512586 ], [ -90.086060035969723, 35.126613616936197 ], [ -90.085775550571697, 35.126760074538204 ], [ -90.085448336234691, 35.126698366775642 ], [ -90.085270072371358, 35.126464641646507 ], [ -90.085345182587687, 35.126195812827532 ] ] ], [ [ [ -90.083883563611565, 35.12657367515461 ], [ -90.084168051407943, 35.126427222130957 ], [ -90.084495263455977, 35.126488933258258 ], [ -90.084673525067458, 35.126722659422676 ], [ -90.084598412060515, 35.12699148767296 ], [ -90.084313922924125, 35.127137941638452 ], [ -90.083986708483565, 35.127076229906422 ], [ -90.083808448212096, 35.126842502800166 ], [ -90.083883563611565, 35.12657367515461 ] ] ] ] } },
{ "type": "Feature", "properties": { "depth_bin": ">20 ft", "survey_id": "LM_19_MEMX_20250612_CS_732_734_SORT_ACTUALDEPTHS", "date": "2025-06-12 00:00:00+00:00", "year": 2025, "mile": 734.0, "bin_order": 0 }, "geometry": { "type": "MultiPolygon", "coordinates": [ [ [ [ -90.106188987114351, 35.116492959262509 ], [ -90.10643470286503, 35.116438068938741 ], [ -90.106676122120291, 35.116504597351458 ], [ -90.106831872654141, 35.11667012065567 ], [ -90.106857006908868, 35.116844029973088 ], [ -90.105545572371824, 35.121543793102752 ], [ -90.107817666307, 35.116925556590623 ], [ -90.108042303314605, 35.11676778510639 ], [ -90.10837784938964, 35.11677579669503 ], [ -90.108590957705559, 35.116944019979037 ], [ -90.108625811434322, 35.117185143436792 ], [ -90.106017123998072, 35.122499912233181 ], [ -90.10570949223721, 35.122676212357369 ], [ -90.105456897364817, 35.122649658967326 ], [ -90.105250102995385, 35.122490695586528 ], [ -90.105045680260062, 35.122622467459912 ], [ -90.104791633942497, 35.122636910856244 ], [ -90.104518043563857, 35.122477065733065 ], [ -90.104462154821476, 35.122205091198111 ], [ -90.105994455408748, 35.116717747523808 ], [ -90.106188987114351, 35.116492959262509 ] ] ], [ [ [ -90.10951531622122, 35.117464272727453 ], [ -90.109769346262382, 35.11744981858488 ], [ -90.10999033819057, 35.11755376254051 ], [ -90.110103804734749, 35.11774106952543 ], [ -90.110071500146574, 35.117948605986449 ], [ -90.106687548394788, 35.123041291691038 ], [ -90.106462890830343, 35.123199059556264 ], [ -90.106127318983766, 35.123191041397327 ], [ -90.105896935623377, 35.122990416664003 ], [ -90.105906695970887, 35.122714709383061 ], [ -90.109290679850972, 35.117622046975228 ], [ -90.10951531622122, 35.117464272727453 ] ] ], [ [ [ -90.110688568394465, 35.117945749769646 ], [ -90.110982027574622, 35.117917106328456 ], [ -90.111203022425727, 35.118021048198074 ], [ -90.111316492403972, 35.11820835419897 ], [ -90.111284190603584, 35.118415891109684 ], [ -90.108139850668792, 35.123148178244747 ], [ -90.1079151954076, 35.123305948925427 ], [ -90.10757962269146, 35.123297934766164 ], [ -90.107349235283039, 35.123097312613979 ], [ -90.107358990775438, 35.122821604983635 ], [ -90.11050336056789, 35.118089339495342 ], [ -90.110688568394465, 35.117945749769646 ] ] ], [ [ [ -90.103565728607549, 35.115742360946491 ], [ -90.103816807449363, 35.115707529777701 ], [ -90.104015312297932, 35.115771301149735 ], [ -90.104171055904033, 35.11593682756736 ], [ -90.104196184341617, 35.116110737170594 ], [ -90.102645131757228, 35.122754453452359 ], [ -90.10245057456099, 35.12297923461886 ], [ -90.102161923251899, 35.123031352819034 ], [ -90.101870584452783, 35.122894303964273 ], [ -90.10178252716905, 35.122628138379518 ], [ -90.103333645975368, 35.115984436316097 ], [ -90.103565728607549, 35.115742360946491 ] ] ], [ [ [ -90.104908652922489, 35.115975386732352 ], [ -90.105162678437097, 35.115960942072547 ], [ -90.105352622275277, 35.116040391687491 ], [ -90.10549968923003, 35.116357941447653 ], [ -90.104132651635794, 35.122214203971588 ], [ -90.104011748262167, 35.122390970198964 ], [ -90.10403856656626, 35.122617038821922 ], [ -90.103844013398401, 35.122841822434928 ], [ -90.103555363231834, 35.122893944026835 ], [ -90.103264022327508, 35.122756898434901 ], [ -90.103175960546352, 35.122490733646188 ], [ -90.103304418134584, 35.122279150865431 ], [ -90.103277601917895, 35.122053082172535 ], [ -90.104637145599781, 35.116231649664776 ], [ -90.104908652922489, 35.115975386732352 ] ] ], [ [ [ -90.099597136472312, 35.115249805041969 ], [ -90.099848214885782, 35.115214982113542 ], [ -90.100046715000076, 35.115278759791835 ], [ -90.100202449331832, 35.115444290893436 ], [ -90.100227569186487, 35.115618200916153 ], [ -90.098802613069111, 35.121720755321569 ], [ -90.098608048408934, 35.121945529949755 ], [ -90.098319399006968, 35.121997639049496 ], [ -90.098028070882179, 35.121860581414076 ], [ -90.09794002719282, 35.121594413654776 ], [ -90.099365044132341, 35.115491872315111 ], [ -90.099597136472312, 35.115249805041969 ] ] ], [ [ [ -90.10225936042292, 35.115507512381292 ], [ -90.102510438898179, 35.115472683913836 ], [ -90.102708942015852, 35.115536457353905 ], [ -90.10286468244108, 35.115701985308498 ], [ -90.102889808042065, 35.11587589505065 ], [ -90.10152736437098, 35.121711739430232 ], [ -90.101332806917384, 35.121936518804539 ], [ -90.101044158819093, 35.121988634490094 ], [ -90.10075282568215, 35.121851583194633 ], [ -90.100664772979229, 35.121585416987514 ], [ -90.10202727481699, 35.115749585098385 ], [ -90.10225936042292, 35.115507512381292 ] ] ], [ [ [ -90.100893520377696, 35.11552729973932 ], [ -90.101144599293093, 35.115492474137035 ], [ -90.101343101230725, 35.115556249768041 ], [ -90.101498838797383, 35.115721779347666 ], [ -90.101523961473745, 35.115895689232254 ], [ -90.100256276005581, 35.12132537545984 ], [ -90.100061716197573, 35.121550152677919 ], [ -90.099773068889121, 35.121602265361084 ], [ -90.099481739436172, 35.121465211167866 ], [ -90.099393691267565, 35.121199044242026 ], [ -90.100661430852668, 35.115769369637228 ], [ -90.100893520377696, 35.11552729973932 ] ] ], [ [ [ -90.096876394372501, 35.114935415759113 ], [ -90.097127472563898, 35.114900598483551 ], [ -90.097325969487315, 35.1149643804875 ], [ -90.097481697501635, 35.115129914801358 ], [ -90.097506811475782, 35.115303825110914 ], [ -90.09614875557935, 35.121932977114241 ], [ -90.096022213787592, 35.122114541528809 ], [ -90.095836267014647, 35.122200155774387 ], [ -90.095530565452194, 35.122176539006553 ], [ -90.09518981736916, 35.122297677063713 ], [ -90.094889554429514, 35.122189477635914 ], [ -90.094594789854952, 35.122218673606227 ], [ -90.09437380734407, 35.12211470194201 ], [ -90.094260372573274, 35.12192738178075 ], [ -90.092985854811857, 35.114754392648571 ], [ -90.093112390545471, 35.114572830990724 ], [ -90.09338310055071, 35.114475466344409 ], [ -90.093667533441149, 35.114541316546848 ], [ -90.093836563797055, 35.114740487342317 ], [ -90.094786310052839, 35.119986639578897 ], [ -90.09485821085147, 35.115096867452039 ], [ -90.095041096023252, 35.114906139091438 ], [ -90.095329721572796, 35.114854036643258 ], [ -90.095593058857872, 35.114964213350852 ], [ -90.095706488254905, 35.115151532129353 ], [ -90.095660677484076, 35.11999270272085 ], [ -90.096644295306916, 35.115177477476934 ], [ -90.096876394372501, 35.114935415759113 ] ] ], [ [ [ -90.098251805402185, 35.115181728528931 ], [ -90.098502883977119, 35.115146908409166 ], [ -90.09870138272106, 35.115210688235898 ], [ -90.098857114082875, 35.115376220931928 ], [ -90.098882231043262, 35.115550131095638 ], [ -90.097425748313228, 35.121787270086742 ], [ -90.097231179851747, 35.122012042307283 ], [ -90.096942529569475, 35.122064148067935 ], [ -90.096651203764182, 35.121927087219447 ], [ -90.096563164577319, 35.121660918675168 ], [ -90.098019709469668, 35.115423793040087 ], [ -90.098251805402185, 35.115181728528931 ] ] ], [ [ [ -90.092244829893701, 35.114530635294891 ], [ -90.09408977469937, 35.122106463052013 ], [ -90.09403789525534, 35.122345508399981 ], [ -90.093772282539376, 35.122514188879386 ], [ -90.093458910119153, 35.122487357668739 ], [ -90.093188916636819, 35.122739010828909 ], [ -90.092860739501688, 35.122733330358663 ], [ -90.092692507490625, 35.122987345384729 ], [ -90.092497237882526, 35.123057567011422 ], [ -90.092249305435701, 35.123032482801477 ], [ -90.092170989485794, 35.123202640149508 ], [ -90.091969504036513, 35.123330589486777 ], [ -90.091559665394811, 35.123287604216905 ], [ -90.091398134478013, 35.123436188920572 ], [ -90.091087286951719, 35.123485028950356 ], [ -90.0909001771318, 35.123597984874493 ], [ -90.090526250595886, 35.123573874732358 ], [ -90.090334264226399, 35.12338927099966 ], [ -90.087097159938466, 35.116027456272235 ], [ -90.087149711891854, 35.115690449750176 ], [ -90.087434155076693, 35.11554398668634 ], [ -90.087795133127798, 35.115627576333488 ], [ -90.088179884526468, 35.116379319661313 ], [ -90.087838368564093, 35.115279608572507 ], [ -90.088040502257115, 35.115020035428564 ], [ -90.088412930030344, 35.114983752748806 ], [ -90.088683330140128, 35.115197290797965 ], [ -90.089055762487661, 35.116282274287059 ], [ -90.088794089846857, 35.115211146039066 ], [ -90.088963428984485, 35.114901182745591 ], [ -90.089201422178618, 35.114826801670972 ], [ -90.089422779875335, 35.114862378979765 ], [ -90.089656680978024, 35.114612119456943 ], [ -90.09001271069684, 35.11459991713739 ], [ -90.09009331294402, 35.114384939882463 ], [ -90.090335708615868, 35.114246056381297 ], [ -90.090590225379088, 35.114252170459409 ], [ -90.090792106063901, 35.114368049389924 ], [ -90.09110231259055, 35.114235105201907 ], [ -90.09131213421368, 35.114265852145465 ], [ -90.091491289030202, 35.114388084405398 ], [ -90.091791373355733, 35.114265608632117 ], [ -90.092075803975405, 35.114331462479896 ], [ -90.092244829893701, 35.114530635294891 ] ] ], [ [ [ -90.086580031040697, 35.115963227695481 ], [ -90.089948062025201, 35.123622817135868 ], [ -90.089965603044391, 35.123831544506324 ], [ -90.089839044728507, 35.12401310159342 ], [ -90.089653087693449, 35.124098705788107 ], [ -90.089439972083611, 35.124102180880314 ], [ -90.089233761237622, 35.124009862127707 ], [ -90.089182092148775, 35.124249750133131 ], [ -90.088841812228466, 35.124448582061817 ], [ -90.088743792691815, 35.124759107157367 ], [ -90.088568940848262, 35.124859272623056 ], [ -90.088314887122493, 35.12487368094088 ], [ -90.088093906492645, 35.124769697886684 ], [ -90.082138669886717, 35.11937758001288 ], [ -90.08212114908433, 35.119168852395809 ], [ -90.082280441461677, 35.118964331803824 ], [ -90.082561485817919, 35.118889265387445 ], [ -90.082836695088133, 35.118977731447622 ], [ -90.086267703130574, 35.122060521022902 ], [ -90.083218930795496, 35.118280392470588 ], [ -90.083176592081742, 35.118074081213358 ], [ -90.083310714738175, 35.117857715347796 ], [ -90.083538703359579, 35.117764535966366 ], [ -90.083829626393978, 35.11780718481625 ], [ -90.086990083778019, 35.121672559502706 ], [ -90.084695217456868, 35.117546519084549 ], [ -90.084702673873466, 35.117337384963506 ], [ -90.084850279858813, 35.117166899964431 ], [ -90.085088282962744, 35.117092527507815 ], [ -90.08537271671959, 35.117158397300571 ], [ -90.085511167549441, 35.117291546766822 ], [ -90.088963848232382, 35.123503113231813 ], [ -90.085746841718048, 35.116185808911631 ], [ -90.08576997510022, 35.115943739146921 ], [ -90.08601418211228, 35.115754496500628 ], [ -90.086349717471933, 35.115762568863722 ], [ -90.086580031040697, 35.115963227695481 ] ] ], [ [ [ -90.081567964640982, 35.119691616080502 ], [ -90.087956917029942, 35.124685918731409 ], [ -90.08794709548124, 35.124961621529252 ], [ -90.087702863599489, 35.125150866703251 ], [ -90.087448808941346, 35.125165273150365 ], [ -90.087258863961864, 35.125085795350721 ], [ -90.080960792334508, 35.12021061150508 ], [ -90.080842327076112, 35.119988160376046 ], [ -90.080949151927129, 35.119726678459649 ], [ -90.081249720326312, 35.119603846026486 ], [ -90.081567964640982, 35.119691616080502 ] ] ], [ [ [ -90.080849402926233, 35.120644517259485 ], [ -90.087113470568056, 35.125498594548844 ], [ -90.08720148169968, 35.125764768524505 ], [ -90.087034627068192, 35.126004111447621 ], [ -90.086753561118812, 35.126079187184388 ], [ -90.086478323589759, 35.125990728750658 ], [ -90.080273250368009, 35.121188016886272 ], [ -90.080123754349259, 35.120941056664591 ], [ -90.080230582921374, 35.120679575591552 ], [ -90.080531155881872, 35.120556745184075 ], [ -90.080849402926233, 35.120644517259485 ] ] ], [ [ [ -90.079762989180679, 35.121312693882935 ], [ -90.085993859170102, 35.126184716053338 ], [ -90.085984030460651, 35.126460418300816 ], [ -90.085739789583243, 35.126649659031564 ], [ -90.085485730194748, 35.126664061109651 ], [ -90.085295783967481, 35.126584580168604 ], [ -90.079155793266239, 35.121831678980847 ], [ -90.079037331019578, 35.121609226261732 ], [ -90.079144164028719, 35.12134774638551 ], [ -90.079444740959048, 35.121224918888423 ], [ -90.079762989180679, 35.121312693882935 ] ] ], [ [ [ -90.085076704596162, 35.126940383105186 ], [ -90.085164710197191, 35.127206558259473 ], [ -90.085030575162747, 35.127422925380252 ], [ -90.084759812524283, 35.127520268583176 ], [ -90.084441534275584, 35.127432505368553 ], [ -90.078326556152135, 35.122698928158336 ], [ -90.07820809513575, 35.122476474703973 ], [ -90.07831493208171, 35.122214995777597 ], [ -90.078615513395704, 35.122092170572529 ], [ -90.07893376388003, 35.122179947858641 ], [ -90.085076704596162, 35.126940383105186 ] ] ], [ [ [ -90.077987647701093, 35.122956710487657 ], [ -90.083283755773962, 35.127105379345487 ], [ -90.083273917595946, 35.12738108088493 ], [ -90.083029667926056, 35.127570315679485 ], [ -90.082775605594776, 35.127584711901974 ], [ -90.082585660235807, 35.127505226740993 ], [ -90.077380428173385, 35.123475685405566 ], [ -90.077261968827443, 35.123253231120607 ], [ -90.077368809937809, 35.122991753256485 ], [ -90.077669395447487, 35.122868930624669 ], [ -90.077987647701093, 35.122956710487657 ] ] ], [ [ [ -90.077359338454201, 35.123983795286271 ], [ -90.082318634142453, 35.12782390800966 ], [ -90.082406631353066, 35.128090084744372 ], [ -90.082239757903352, 35.128329420058364 ], [ -90.081958680193111, 35.128404484026326 ], [ -90.081683440990631, 35.128316014585678 ], [ -90.076816944966197, 35.124549168082517 ], [ -90.076667454290529, 35.124302203919839 ], [ -90.0767476527664, 35.12406850169134 ], [ -90.077032143093831, 35.123922065592026 ], [ -90.077359338454201, 35.123983795286271 ] ] ], [ [ [ -90.07636353408472, 35.124722092256157 ], [ -90.080955361120999, 35.128287823191741 ], [ -90.081011173501949, 35.128559804736653 ], [ -90.080816544290585, 35.128784547354627 ], [ -90.080527862114664, 35.128836612228383 ], [ -90.080295538433418, 35.128750910320072 ], [ -90.075821128753304, 35.125287459951807 ], [ -90.075671639988258, 35.125040494666109 ], [ -90.075751842143774, 35.124806793297203 ], [ -90.076036336754655, 35.124660359767816 ], [ -90.07636353408472, 35.124722092256157 ] ] ], [ [ [ -90.075547284201306, 35.125595160753711 ], [ -90.080154237690692, 35.129191437436987 ], [ -90.080189009499378, 35.129432564826381 ], [ -90.079994375867017, 35.129657305881651 ], [ -90.079663311816901, 35.129703155171079 ], [ -90.079473365062057, 35.129623665055576 ], [ -90.074940029222731, 35.126114121510497 ], [ -90.074821573390494, 35.125891665058496 ], [ -90.074928426221149, 35.125630189999207 ], [ -90.075229024959498, 35.125507374130734 ], [ -90.075547284201306, 35.125595160753711 ] ] ] ] } }
]
}
