{
"type": "FeatureCollection",
"name": "LM_15_CVB_20190307_CS_MB_5963_5958_depth_polygons",
"crs": { "type": "name", "properties": { "name": "urn:ogc:def:crs:OGC:1.3:CRS84" } },
"features": [
{ "type": "Feature", "properties": { "depth_bin": "170-175 ft", "bin_order": -172.5, "survey_id": "LM_15_CVB_20190307_CS_MB_5963_5958", "date": "2019-03-07", "year": 2019, "mile": 596.0 }, "geometry": { "type": "Polygon", "coordinates": [ [ [ -91.021699413095817, 33.943275200598485 ], [ -91.021937713910958, 33.943519182033626 ], [ -91.021876710233457, 33.943864496280064 ], [ -91.021532144372102, 33.944041226821305 ], [ -91.021126117267855, 33.943968892293462 ], [ -91.02087391322334, 33.943689003644067 ], [ -91.020935141721196, 33.94337116923149 ], [ -91.021263221078485, 33.943194532411709 ], [ -91.021699413095817, 33.943275200598485 ] ] ] } },
{ "type": "Feature", "properties": { "depth_bin": "175-180 ft", "bin_order": -177.5, "survey_id": "LM_15_CVB_20190307_CS_MB_5963_5958", "date": "2019-03-07", "year": 2019, "mile": 596.0 }, "geometry": { "type": "MultiPolygon", "coordinates": [ [ [ [ -91.021816296744305, 33.94332603669735 ], [ -91.022046809817468, 33.943635552184524 ], [ -91.021920889501899, 33.943958931481582 ], [ -91.021382199966453, 33.944115862083102 ], [ -91.020995881094805, 33.943950846518163 ], [ -91.020808143331479, 33.94357058063575 ], [ -91.020989542874077, 33.943234963790978 ], [ -91.021406181676852, 33.943136330618053 ], [ -91.021816296744305, 33.94332603669735 ] ] ], [ [ [ -91.020590836634824, 33.942773021554366 ], [ -91.020810881743401, 33.943059297824021 ], [ -91.020679759803329, 33.943375054712959 ], [ -91.020190196729317, 33.94349048653114 ], [ -91.019820698871058, 33.943366592882725 ], [ -91.019702801148156, 33.943074305058097 ], [ -91.019930756671727, 33.942773720078165 ], [ -91.020239093560832, 33.942673040218352 ], [ -91.020590836634824, 33.942773021554366 ] ] ] ] } },
{ "type": "Feature", "properties": { "depth_bin": "180-185 ft", "bin_order": -182.5, "survey_id": "LM_15_CVB_20190307_CS_MB_5963_5958", "date": "2019-03-07", "year": 2019, "mile": 596.0 }, "geometry": { "type": "MultiPolygon", "coordinates": [ [ [ [ -91.029797763848734, 33.937326774811744 ], [ -91.030026312074853, 33.937613840163678 ], [ -91.030012413125291, 33.937843631949413 ], [ -91.029900879115715, 33.937992185897457 ], [ -91.029506630615046, 33.938285145231006 ], [ -91.029283631167814, 33.938350595693095 ], [ -91.028984609735815, 33.938312616690425 ], [ -91.028746722647583, 33.938177814675981 ], [ -91.028608413496968, 33.937797281479995 ], [ -91.02875736077668, 33.937530533777228 ], [ -91.029300821077072, 33.937248946459931 ], [ -91.029576912814235, 33.937243337969605 ], [ -91.029797763848734, 33.937326774811744 ] ] ], [ [ [ -91.02254646712646, 33.94364100671968 ], [ -91.022724799289222, 33.943892813224359 ], [ -91.0226964708975, 33.944238122457421 ], [ -91.022480186833263, 33.944428807114654 ], [ -91.022158066467711, 33.944460003152997 ], [ -91.021920078744856, 33.944354834125797 ], [ -91.021716617907828, 33.94414662537001 ], [ -91.021290935097852, 33.944182416366644 ], [ -91.021028311894284, 33.944106836362259 ], [ -91.020685310156466, 33.943624497583208 ], [ -91.020288288940407, 33.943604842749501 ], [ -91.019836201149204, 33.943467718316278 ], [ -91.019680619197572, 33.943303347457572 ], [ -91.019660827531226, 33.943094638479572 ], [ -91.020164958507593, 33.942574204964998 ], [ -91.020487072224512, 33.942543013931235 ], [ -91.020724841935618, 33.942660773722459 ], [ -91.020971609629228, 33.942432303373039 ], [ -91.021277237870279, 33.942401202318088 ], [ -91.021619782149315, 33.942616838960923 ], [ -91.021782515083345, 33.943235571986222 ], [ -91.021992551411245, 33.943447302852718 ], [ -91.022240129490427, 33.943476055932528 ], [ -91.02254646712646, 33.94364100671968 ] ] ], [ [ [ -91.026880849814745, 33.945380690731589 ], [ -91.027210985588084, 33.945358925550693 ], [ -91.027632558895434, 33.945614748802086 ], [ -91.02772258127699, 33.945880356552493 ], [ -91.027560882322007, 33.946121220862572 ], [ -91.027142837208402, 33.946181216690832 ], [ -91.026737748136625, 33.945925298884639 ], [ -91.026654766168875, 33.945624791123137 ], [ -91.026880849814745, 33.945380690731589 ] ] ] ] } },
{ "type": "Feature", "properties": { "depth_bin": "185-190 ft", "bin_order": -187.5, "survey_id": "LM_15_CVB_20190307_CS_MB_5963_5958", "date": "2019-03-07", "year": 2019, "mile": 596.0 }, "geometry": { "type": "MultiPolygon", "coordinates": [ [ [ [ -91.032070180954946, 33.935875604426343 ], [ -91.032153174435308, 33.936176109322744 ], [ -91.031931217668571, 33.936430278483996 ], [ -91.031555817000452, 33.936479201709624 ], [ -91.031250991019618, 33.936307936669913 ], [ -91.031192409477086, 33.936008776899364 ], [ -91.031381624620892, 33.935782274289487 ], [ -91.031698668089078, 33.935727581826065 ], [ -91.032070180954946, 33.935875604426343 ] ] ], [ [ [ -91.030070164257694, 33.937233439864457 ], [ -91.030178522700396, 33.937455751632626 ], [ -91.030111429115209, 33.937856811420765 ], [ -91.029556753351926, 33.938367300486384 ], [ -91.029128652777615, 33.938522384711867 ], [ -91.028574364797663, 33.938565797948485 ], [ -91.028239223667697, 33.938479485609257 ], [ -91.027970233008588, 33.938291280915948 ], [ -91.02790195100475, 33.9380898041493 ], [ -91.027995398622764, 33.937821874812336 ], [ -91.028264612108501, 33.937627301177464 ], [ -91.028479786252618, 33.937571049188236 ], [ -91.028690957786011, 33.937350097534015 ], [ -91.029111329857372, 33.937151151748068 ], [ -91.029531319516877, 33.937070780654956 ], [ -91.029814356117612, 33.937086605822195 ], [ -91.030070164257694, 33.937233439864457 ] ] ], [ [ [ -91.028372156509917, 33.945848974117233 ], [ -91.028518528077214, 33.94617616888825 ], [ -91.028442825593871, 33.946479378045773 ], [ -91.028205361752811, 33.946620339257898 ], [ -91.027772855588964, 33.94661733776146 ], [ -91.027485856726287, 33.94646604191535 ], [ -91.026030359010832, 33.946023559304749 ], [ -91.025471765974686, 33.945733863883696 ], [ -91.025127606737357, 33.945697924815633 ], [ -91.02428619852985, 33.945366396385204 ], [ -91.024102129610895, 33.945098900543861 ], [ -91.024168369250333, 33.944587930703719 ], [ -91.024383348216816, 33.944377991248913 ], [ -91.024807400437496, 33.944212865791378 ], [ -91.025058557207657, 33.944216896493586 ], [ -91.025339542239763, 33.944444541952834 ], [ -91.025620017449498, 33.944530588035732 ], [ -91.02574839236847, 33.944689170300329 ], [ -91.026200148353226, 33.944718849030444 ], [ -91.026520767086467, 33.944988438602948 ], [ -91.027088323945122, 33.945072343240966 ], [ -91.027298539403617, 33.945255761459386 ], [ -91.028200773337375, 33.945689597247885 ], [ -91.028372156509917, 33.945848974117233 ] ] ], [ [ [ -91.023437250571561, 33.943511525813221 ], [ -91.023615485441965, 33.94360449787613 ], [ -91.02377267981673, 33.943827625644751 ], [ -91.023914052923317, 33.94417468410164 ], [ -91.023899803049545, 33.944363257077875 ], [ -91.02360284083575, 33.944628614407321 ], [ -91.022943988456234, 33.944736499662703 ], [ -91.022631795746875, 33.944647460869128 ], [ -91.022474325040434, 33.944478430061586 ], [ -91.022174883608741, 33.944501128371307 ], [ -91.021518486884034, 33.944227283670287 ], [ -91.021048482342906, 33.944208138961422 ], [ -91.020750191721305, 33.943858252343034 ], [ -91.020540220242466, 33.943738727872251 ], [ -91.020301227674736, 33.943818805338694 ], [ -91.020039359489274, 33.943774098095055 ], [ -91.019613005781281, 33.943533277800867 ], [ -91.019522900767384, 33.943253925847237 ], [ -91.019646558828569, 33.943034865192672 ], [ -91.019948283118694, 33.942838942892607 ], [ -91.020176152887174, 33.942538775071696 ], [ -91.020491009869431, 33.942438250023947 ], [ -91.020734638352408, 33.942162490254596 ], [ -91.021035226620427, 33.942107918330855 ], [ -91.021478306466207, 33.942297441287508 ], [ -91.0217102847121, 33.942720338742703 ], [ -91.022078842172263, 33.942694744788028 ], [ -91.02258798918696, 33.942937004022603 ], [ -91.022785533184617, 33.943246702764917 ], [ -91.02276314961334, 33.943676840422704 ], [ -91.023037619743405, 33.943494584021209 ], [ -91.023437250571561, 33.943511525813221 ] ], [ [ -91.022720096380596, 33.943745171207418 ], [ -91.022724754222111, 33.943751940489705 ], [ -91.022737194544092, 33.943722403173673 ], [ -91.022720096380596, 33.943745171207418 ] ] ] ] } },
{ "type": "Feature", "properties": { "depth_bin": "190-195 ft", "bin_order": -192.5, "survey_id": "LM_15_CVB_20190307_CS_MB_5963_5958", "date": "2019-03-07", "year": 2019, "mile": 596.0 }, "geometry": { "type": "MultiPolygon", "coordinates": [ [ [ [ -91.032406839494598, 33.935644236366372 ], [ -91.032550668660846, 33.935868314203802 ], [ -91.032515587959878, 33.936146572298 ], [ -91.032399344006407, 33.936371964610899 ], [ -91.032195741284184, 33.936524955819046 ], [ -91.031462341756367, 33.936606299654301 ], [ -91.031398330654127, 33.936927236008749 ], [ -91.03103744039386, 33.937117827239284 ], [ -91.030650833014562, 33.937050651615074 ], [ -91.030331941561471, 33.936807775501919 ], [ -91.030232801221274, 33.936475006028168 ], [ -91.030429054782033, 33.93621360528951 ], [ -91.030795551949794, 33.936158635228381 ], [ -91.031111976210966, 33.936268541873972 ], [ -91.031069766505837, 33.936016852345524 ], [ -91.031170323843341, 33.935825000906 ], [ -91.031801533944318, 33.935528361855333 ], [ -91.032117862665928, 33.935511466660849 ], [ -91.032406839494598, 33.935644236366372 ] ] ], [ [ [ -91.030443244971551, 33.937002572579253 ], [ -91.030539261506362, 33.937220132233811 ], [ -91.030485874232681, 33.937465865975668 ], [ -91.030029678945752, 33.938062040936984 ], [ -91.029514725836293, 33.938467930543837 ], [ -91.028798463575129, 33.938604935240946 ], [ -91.028044841556124, 33.938532552091722 ], [ -91.027676605585668, 33.93834873139209 ], [ -91.027485291911375, 33.938065947024832 ], [ -91.027465481678462, 33.937857238500875 ], [ -91.027620647516059, 33.937619387752271 ], [ -91.028284855602237, 33.937365646971365 ], [ -91.028846584160448, 33.937028989597643 ], [ -91.029901083742971, 33.936779335588298 ], [ -91.030181373465538, 33.936808777096395 ], [ -91.030443244971551, 33.937002572579253 ] ] ], [ [ [ -91.028898495004228, 33.945617319294378 ], [ -91.028907426012054, 33.945887662501015 ], [ -91.028748932712034, 33.946068341726253 ], [ -91.028867555190601, 33.946401935229837 ], [ -91.028764080952882, 33.946629090149543 ], [ -91.028419721742026, 33.946768512519114 ], [ -91.027707359767732, 33.946672667126457 ], [ -91.023199859630296, 33.945226587080668 ], [ -91.022504099871554, 33.944617760039108 ], [ -91.022078162111427, 33.94453435589444 ], [ -91.02148305427859, 33.944282981578574 ], [ -91.021070356189639, 33.944265193436365 ], [ -91.02050456241885, 33.943831777641357 ], [ -91.020142020669383, 33.943866714501617 ], [ -91.019739276453421, 33.94371557556066 ], [ -91.01950175257322, 33.943529076383847 ], [ -91.01947555146586, 33.943240195346156 ], [ -91.019702827179927, 33.943006375259593 ], [ -91.020043002549812, 33.942922467822058 ], [ -91.020098450560894, 33.9426088032127 ], [ -91.02071573484865, 33.941986170734459 ], [ -91.020939513250269, 33.94189105944443 ], [ -91.021165767987796, 33.941902940734515 ], [ -91.021586464768902, 33.942253415351466 ], [ -91.021850734472665, 33.942183144267325 ], [ -91.022089664568455, 33.942247769707308 ], [ -91.022557981262239, 33.942654050526798 ], [ -91.023050544412342, 33.942833201505707 ], [ -91.023423406197551, 33.943120094158807 ], [ -91.024110568877248, 33.943445549836312 ], [ -91.024457293722378, 33.943696238804577 ], [ -91.024937705447371, 33.943798140877973 ], [ -91.025578108429556, 33.944268307958183 ], [ -91.026755276787554, 33.944662025753317 ], [ -91.027255281983471, 33.944919835516288 ], [ -91.027521493495357, 33.945160466740802 ], [ -91.028007779707266, 33.945216078925384 ], [ -91.0282550399222, 33.945427101340222 ], [ -91.028652269874172, 33.94540479712024 ], [ -91.028898495004228, 33.945617319294378 ] ] ], [ [ [ -91.027736807947463, 33.944307232674845 ], [ -91.028084772484604, 33.944458055431284 ], [ -91.028175018532039, 33.944751141178294 ], [ -91.027980687510492, 33.945033409687362 ], [ -91.027645506568149, 33.94510852906506 ], [ -91.027356499986738, 33.944973767034575 ], [ -91.027266368074208, 33.944694419920715 ], [ -91.027428472935611, 33.944407931406701 ], [ -91.027736807947463, 33.944307232674845 ] ] ] ] } },
{ "type": "Feature", "properties": { "depth_bin": "195-200 ft", "bin_order": -197.5, "survey_id": "LM_15_CVB_20190307_CS_MB_5963_5958", "date": "2019-03-07", "year": 2019, "mile": 596.0 }, "geometry": { "type": "MultiPolygon", "coordinates": [ [ [ [ -91.032437694934089, 33.935547451193131 ], [ -91.032608759381858, 33.935726230007347 ], [ -91.032656150295509, 33.935924485501793 ], [ -91.032422965498014, 33.936413438171577 ], [ -91.031342965822915, 33.937065645425385 ], [ -91.030959934307859, 33.937207651618799 ], [ -91.03026708571926, 33.937776371057417 ], [ -91.029719280703901, 33.93840729139221 ], [ -91.029433088768158, 33.93856457145526 ], [ -91.028492502166287, 33.938634959952608 ], [ -91.026816998816372, 33.938490615414466 ], [ -91.026369668455445, 33.938363273847123 ], [ -91.025859272098231, 33.938329279462785 ], [ -91.025565125715801, 33.938191893043026 ], [ -91.025215508441434, 33.938222980410309 ], [ -91.024946214376413, 33.938011536862788 ], [ -91.024971477255647, 33.937703893384551 ], [ -91.025161921212842, 33.937555190784401 ], [ -91.025238480810742, 33.937329026141796 ], [ -91.025435678567035, 33.937199348431868 ], [ -91.025727058895484, 33.937192098321916 ], [ -91.02605815788769, 33.937382561741487 ], [ -91.026450089293633, 33.937239303007082 ], [ -91.026844316001075, 33.93733862518728 ], [ -91.027218036329984, 33.937261639552801 ], [ -91.02777878396266, 33.93731710354033 ], [ -91.028406130973949, 33.937114176273973 ], [ -91.028696890757431, 33.936864956886282 ], [ -91.029330213880272, 33.936771403091491 ], [ -91.029529901614168, 33.936640967701514 ], [ -91.029763046736463, 33.936601907596753 ], [ -91.030015984962475, 33.936458044208152 ], [ -91.030069938803877, 33.936259947260915 ], [ -91.03021409754021, 33.936132383486509 ], [ -91.030724260915719, 33.9360696576707 ], [ -91.031663350647989, 33.935474741424969 ], [ -91.032075318578805, 33.935423168768992 ], [ -91.032437694934089, 33.935547451193131 ] ] ], [ [ [ -91.032053919646643, 33.94116469017127 ], [ -91.032733046912284, 33.941233219360946 ], [ -91.032963829220051, 33.941381674073519 ], [ -91.033032237941583, 33.941596887574988 ], [ -91.032946188924512, 33.941999785312454 ], [ -91.032499444611148, 33.942568046612926 ], [ -91.032134053220858, 33.942880237135967 ], [ -91.031900173107715, 33.942956630929075 ], [ -91.031643210048472, 33.942924744107906 ], [ -91.031038197878573, 33.943273253049441 ], [ -91.030772240105506, 33.943248830216355 ], [ -91.030560027808519, 33.943082233283626 ], [ -91.030515759777728, 33.942876149079254 ], [ -91.030649310874139, 33.942562138308816 ], [ -91.030262919608191, 33.94245301798437 ], [ -91.030041128011902, 33.942200929363594 ], [ -91.030020566171643, 33.941981621833072 ], [ -91.029665637572833, 33.941928619265362 ], [ -91.029486980648201, 33.941696230100426 ], [ -91.029612868955056, 33.941372841811933 ], [ -91.029959443676375, 33.941274317742334 ], [ -91.030170656444838, 33.941039930613115 ], [ -91.030394422670483, 33.940944801648854 ], [ -91.0306438887322, 33.940969318433062 ], [ -91.0308245711567, 33.941093049658157 ], [ -91.031198417794329, 33.941049571239169 ], [ -91.031669975627935, 33.941262502127358 ], [ -91.032053919646643, 33.94116469017127 ] ] ], [ [ [ -91.030188757813079, 33.944793347193468 ], [ -91.030333808785031, 33.945004112544552 ], [ -91.030304390741151, 33.945212032667449 ], [ -91.029160852733355, 33.946764245812275 ], [ -91.028849464726832, 33.946903483027725 ], [ -91.028541531509433, 33.946829786224164 ], [ -91.02823667037498, 33.946850146928043 ], [ -91.027476896845826, 33.946715186047655 ], [ -91.025437197919288, 33.946054271911827 ], [ -91.024552061857264, 33.945879775396754 ], [ -91.024226019596256, 33.945706170248556 ], [ -91.023851061576053, 33.945637347845292 ], [ -91.022998815097722, 33.94524188263842 ], [ -91.022430001518146, 33.944651803101458 ], [ -91.021501659927807, 33.944342979600087 ], [ -91.021153334193016, 33.944333428739476 ], [ -91.020727806497632, 33.944060798328479 ], [ -91.020498225727891, 33.944047596334734 ], [ -91.019626792260667, 33.943721439487533 ], [ -91.01945262839719, 33.943570569481679 ], [ -91.019408387166607, 33.943364482240106 ], [ -91.019602741920664, 33.943082227913258 ], [ -91.01992143598531, 33.943007222345024 ], [ -91.020283672494401, 33.943119964904781 ], [ -91.020912175566295, 33.943168419554155 ], [ -91.021521373038297, 33.943531688724946 ], [ -91.022178368449033, 33.943628923460921 ], [ -91.022234372086515, 33.943403736002047 ], [ -91.021844145744382, 33.943097292392906 ], [ -91.021539311034175, 33.943153198008659 ], [ -91.021266768112284, 33.943066946076378 ], [ -91.020992220241794, 33.942838591532059 ], [ -91.020606186620881, 33.942295717477904 ], [ -91.020654407725729, 33.942042368071206 ], [ -91.020929473080272, 33.941790427374393 ], [ -91.021178116022696, 33.941720568068867 ], [ -91.021675366592618, 33.941760845479941 ], [ -91.022317904549823, 33.941930476794568 ], [ -91.022534907463339, 33.942248500572397 ], [ -91.023737222513034, 33.942480621268025 ], [ -91.023911392129193, 33.942631485423163 ], [ -91.024041642656627, 33.942927042068824 ], [ -91.024266267687636, 33.942968731702223 ], [ -91.024553132713777, 33.942912605074703 ], [ -91.024749705234186, 33.942974808745817 ], [ -91.025299511333188, 33.943663829071198 ], [ -91.025836745684174, 33.944066504904882 ], [ -91.026399797455099, 33.944125958056695 ], [ -91.026815342828357, 33.944448385110704 ], [ -91.02712230327954, 33.944113634210616 ], [ -91.027098544375264, 33.944041382659272 ], [ -91.027017953827013, 33.943957671969663 ], [ -91.026772266540476, 33.944016922237552 ], [ -91.026499715032941, 33.943930681624636 ], [ -91.026364198406199, 33.943754399433509 ], [ -91.026368919734168, 33.943531338668301 ], [ -91.026512471870504, 33.943359531667824 ], [ -91.026727335784528, 33.943285189144163 ], [ -91.026759914530373, 33.943097683151144 ], [ -91.026922979372273, 33.94293842978427 ], [ -91.027261163237625, 33.942844855263587 ], [ -91.027510633594787, 33.942869378559394 ], [ -91.02775513776858, 33.943106695440619 ], [ -91.028061812644367, 33.943143282402858 ], [ -91.028422473282134, 33.943411925022325 ], [ -91.02849621678638, 33.943740856416596 ], [ -91.02865291842123, 33.943882597634001 ], [ -91.028726640508822, 33.94413041415816 ], [ -91.028982074751298, 33.944294445487323 ], [ -91.02919395145679, 33.944231123171029 ], [ -91.029439341662084, 33.944275904349745 ], [ -91.029738462577541, 33.944435620751449 ], [ -91.02997592917302, 33.94471196070711 ], [ -91.030188757813079, 33.944793347193468 ] ], [ [ -91.026303864296068, 33.94545611732395 ], [ -91.026538798042324, 33.945503489416922 ], [ -91.026487618936955, 33.945421712875437 ], [ -91.026024682973031, 33.945322862441415 ], [ -91.025577214654902, 33.94505584699445 ], [ -91.025274599476973, 33.94499128299816 ], [ -91.025229019795532, 33.945111533234993 ], [ -91.025616967349734, 33.945174587794405 ], [ -91.026303864296068, 33.94545611732395 ] ] ] ] } },
{ "type": "Feature", "properties": { "depth_bin": "200-205 ft", "bin_order": -202.5, "survey_id": "LM_15_CVB_20190307_CS_MB_5963_5958", "date": "2019-03-07", "year": 2019, "mile": 596.0 }, "geometry": { "type": "MultiPolygon", "coordinates": [ [ [ [ -91.033091447827758, 33.940962885709801 ], [ -91.033286710302463, 33.941208915370431 ], [ -91.033239876240216, 33.941627141462718 ], [ -91.031748775603859, 33.943506613201215 ], [ -91.031383002890365, 33.943846957949596 ], [ -91.031291570051479, 33.9440450577615 ], [ -91.030847110113129, 33.944344643872213 ], [ -91.030644481634098, 33.944788281545421 ], [ -91.030181670171686, 33.945411584367555 ], [ -91.0300068133688, 33.945540587978968 ], [ -91.029801900117675, 33.945579896173662 ], [ -91.029582464090524, 33.945534151615753 ], [ -91.029377094126929, 33.9453693945079 ], [ -91.029072443093298, 33.945432621156961 ], [ -91.02929459137026, 33.945670039738111 ], [ -91.029472943488443, 33.94622770602124 ], [ -91.029243068480596, 33.94650516205737 ], [ -91.029137900855261, 33.946805206685568 ], [ -91.028900437159436, 33.946946169241002 ], [ -91.027328748868527, 33.946743500785963 ], [ -91.024446756031779, 33.945908801454294 ], [ -91.022834048840423, 33.94519591991282 ], [ -91.022410178999181, 33.944685218956842 ], [ -91.021153665711424, 33.944374646200231 ], [ -91.019891544754543, 33.943864231945497 ], [ -91.019517556644516, 33.943875403424258 ], [ -91.019274425523804, 33.943642966659475 ], [ -91.019294349472631, 33.943400562299836 ], [ -91.019521722166033, 33.94316071520673 ], [ -91.019745504928125, 33.943065606262749 ], [ -91.020004732244317, 33.943077305948314 ], [ -91.020693266956357, 33.943330260891621 ], [ -91.02118453831676, 33.943413259537465 ], [ -91.021422091215186, 33.943586245286951 ], [ -91.021649412577119, 33.943580745424129 ], [ -91.022143322553987, 33.943737653327716 ], [ -91.022345660774036, 33.943870625876443 ], [ -91.022891647226345, 33.943928039377781 ], [ -91.023451777891225, 33.944401675560769 ], [ -91.023569434259855, 33.944701947711614 ], [ -91.023799024554364, 33.944799615074295 ], [ -91.025452252997766, 33.945311665189863 ], [ -91.025759720488381, 33.945298398164852 ], [ -91.026052176612168, 33.945498581083285 ], [ -91.028016857410634, 33.946064471345188 ], [ -91.028337367203008, 33.945418051738393 ], [ -91.028674062591705, 33.945264241709616 ], [ -91.028598122741087, 33.945144046461103 ], [ -91.028326526005287, 33.945300635480805 ], [ -91.028025909747157, 33.945296890406546 ], [ -91.027681697126766, 33.945067463019853 ], [ -91.027566134331593, 33.944871724688376 ], [ -91.027256562931669, 33.945188630738429 ], [ -91.026921379749268, 33.945263748104693 ], [ -91.026430309962535, 33.945126004306992 ], [ -91.02603696093631, 33.944872617887668 ], [ -91.025454453585297, 33.944733040169076 ], [ -91.024657674534296, 33.944191394586007 ], [ -91.024299202907471, 33.943742251569084 ], [ -91.023515927019901, 33.94353482142224 ], [ -91.023173584380388, 33.943179463213824 ], [ -91.022076864609062, 33.942938328516036 ], [ -91.021664917390126, 33.942530327163141 ], [ -91.021384383068465, 33.942554496460893 ], [ -91.020931967650881, 33.942376159468182 ], [ -91.020753334253357, 33.942143758447365 ], [ -91.02082408235168, 33.941860411661892 ], [ -91.021238190640261, 33.941451803318394 ], [ -91.021521419193974, 33.941361414371528 ], [ -91.022039418044798, 33.94149222847112 ], [ -91.022349343328315, 33.941484128078059 ], [ -91.022596277046844, 33.941656101947231 ], [ -91.022919399539731, 33.941608846771402 ], [ -91.023233731138887, 33.94174208407231 ], [ -91.023657264901729, 33.941601054639364 ], [ -91.023906730237798, 33.941625585082306 ], [ -91.024097801952706, 33.941761494209388 ], [ -91.024165150268217, 33.941937074863539 ], [ -91.02444677193111, 33.941953265559043 ], [ -91.024625004811355, 33.942046236104957 ], [ -91.025081146330706, 33.942542478764189 ], [ -91.025262775882183, 33.943104059366519 ], [ -91.025687209476061, 33.943529451125954 ], [ -91.025872078665898, 33.943472711458178 ], [ -91.025825189155412, 33.943156247931981 ], [ -91.025628342869069, 33.942857852163911 ], [ -91.025583155939259, 33.942616206843923 ], [ -91.02536728040819, 33.942521852564454 ], [ -91.02523176826702, 33.942345569250215 ], [ -91.025236492298291, 33.942122508573654 ], [ -91.02537939549093, 33.941949240546457 ], [ -91.025127747667071, 33.941714123477183 ], [ -91.025135402880551, 33.941484628638406 ], [ -91.025027381686854, 33.941274042084331 ], [ -91.025083971738894, 33.941065732080425 ], [ -91.024899860718818, 33.940839239323886 ], [ -91.024643183795419, 33.940836758384734 ], [ -91.024412418163237, 33.940688288616343 ], [ -91.024266853878899, 33.940365396036277 ], [ -91.024310590712119, 33.940133473667807 ], [ -91.024061038037345, 33.939960715249292 ], [ -91.023895308980272, 33.940099139682026 ], [ -91.023826961969505, 33.940391142634162 ], [ -91.023548129981179, 33.940540031277102 ], [ -91.023224650039978, 33.940480981093913 ], [ -91.023055535240815, 33.940283070782144 ], [ -91.023107497267318, 33.939596703738772 ], [ -91.023327229486924, 33.939437031969554 ], [ -91.02361042065597, 33.939416306123505 ], [ -91.023800773620451, 33.938930915386202 ], [ -91.024121711362611, 33.93877750841672 ], [ -91.024915425038969, 33.938749258288937 ], [ -91.025121554839657, 33.938868901945376 ], [ -91.025209283624577, 33.939038499935805 ], [ -91.02556041567118, 33.939006690231537 ], [ -91.025810445723508, 33.939183157693222 ], [ -91.026320228532143, 33.939332606487469 ], [ -91.026667523329237, 33.939330216075675 ], [ -91.02720984674616, 33.9395839158543 ], [ -91.027724851993014, 33.939612792430552 ], [ -91.028309873904817, 33.939866377511272 ], [ -91.028847789224926, 33.939853770593992 ], [ -91.029618323331476, 33.940423065277116 ], [ -91.029698129296648, 33.940433260992819 ], [ -91.02983447678416, 33.940244925489544 ], [ -91.030058241226001, 33.940149797064635 ], [ -91.030408467600552, 33.94016521112254 ], [ -91.030632553532314, 33.940272082393193 ], [ -91.030969382264118, 33.940216993016037 ], [ -91.031188600979291, 33.940319210226576 ], [ -91.031421276492821, 33.940668566401413 ], [ -91.031615198708792, 33.940752665276584 ], [ -91.032324913263878, 33.940676457375261 ], [ -91.033091447827758, 33.940962885709801 ] ], [ [ -91.026019822572167, 33.941861300886742 ], [ -91.026020553714773, 33.941861403297935 ], [ -91.026020522958348, 33.941860544662283 ], [ -91.026019822572167, 33.941861300886742 ] ] ], [ [ [ -91.032475618234429, 33.935325144116746 ], [ -91.032668141607488, 33.935461499110531 ], [ -91.032752209470232, 33.935696202611666 ], [ -91.03271742128311, 33.936014641860659 ], [ -91.032514841077131, 33.936385048592463 ], [ -91.03185205350195, 33.936829182116576 ], [ -91.030927791928974, 33.937290138111074 ], [ -91.030281902514588, 33.937794630035768 ], [ -91.030121669037769, 33.938047392326496 ], [ -91.029888997915762, 33.938221159584245 ], [ -91.029795234780622, 33.938447693747676 ], [ -91.029565184193771, 33.938591304124927 ], [ -91.028443273515407, 33.93866271743839 ], [ -91.025861038981134, 33.938509735755162 ], [ -91.025151238537575, 33.938429438247745 ], [ -91.024773118015716, 33.93830140544604 ], [ -91.024617535144941, 33.938137040697853 ], [ -91.024625205003531, 33.937692098324533 ], [ -91.025196044938468, 33.936999120751082 ], [ -91.025432788124107, 33.936842129433543 ], [ -91.026085931401497, 33.936762296323401 ], [ -91.026655007052099, 33.936979928397037 ], [ -91.027258054765994, 33.93697553303852 ], [ -91.027640227671355, 33.937053570941863 ], [ -91.027864056906125, 33.936927304186639 ], [ -91.028189966673239, 33.936926531938298 ], [ -91.028448519577182, 33.936728961602412 ], [ -91.029198610232797, 33.936618643626886 ], [ -91.029536205983334, 33.936470483419996 ], [ -91.029816094758488, 33.936058792076139 ], [ -91.03020520235313, 33.93593084516688 ], [ -91.030518311389599, 33.935948959402204 ], [ -91.030689207678435, 33.935772458258207 ], [ -91.031075501632401, 33.935641398906569 ], [ -91.031502589351561, 33.93525526180612 ], [ -91.032475618234429, 33.935325144116746 ] ], [ [ -91.028929083275315, 33.937900151696624 ], [ -91.029395694285725, 33.937601179864181 ], [ -91.029460016513084, 33.937489007812168 ], [ -91.029122460939618, 33.937558593090102 ], [ -91.028929083275315, 33.937900151696624 ] ] ] ] } },
{ "type": "Feature", "properties": { "depth_bin": "205-210 ft", "bin_order": -207.5, "survey_id": "LM_15_CVB_20190307_CS_MB_5963_5958", "date": "2019-03-07", "year": 2019, "mile": 596.0 }, "geometry": { "type": "MultiPolygon", "coordinates": [ [ [ [ -91.032576710905843, 33.94025858202798 ], [ -91.032861455425746, 33.940510390716071 ], [ -91.033470238260492, 33.940815463796248 ], [ -91.03353864788474, 33.941030677060041 ], [ -91.033454441532641, 33.941333277111852 ], [ -91.033076805116238, 33.941781986254433 ], [ -91.03282335218185, 33.941911607511059 ], [ -91.032614812070747, 33.941933992380058 ], [ -91.032405956630811, 33.941863902506796 ], [ -91.032096808299954, 33.941953327705328 ], [ -91.031864161077849, 33.941892002281364 ], [ -91.031562848233136, 33.942024238600574 ], [ -91.03125012957382, 33.94195122678672 ], [ -91.031059682973577, 33.942245122465771 ], [ -91.031351948300809, 33.942286544058334 ], [ -91.031548263555322, 33.94246130220408 ], [ -91.032033398613592, 33.942557045389478 ], [ -91.032178450731607, 33.942767808664364 ], [ -91.032148071421446, 33.942997694188193 ], [ -91.03120992979639, 33.944141698920973 ], [ -91.030873575707218, 33.944322210550069 ], [ -91.030349965028392, 33.944998826040155 ], [ -91.029932780450551, 33.945189343211005 ], [ -91.029493545632889, 33.945089744274924 ], [ -91.029182852001185, 33.944772479531281 ], [ -91.028790482985613, 33.944871144314611 ], [ -91.028517926531933, 33.944784908015528 ], [ -91.028052081387443, 33.944308850399139 ], [ -91.027688580238092, 33.943585785350514 ], [ -91.027381994811435, 33.94345321996996 ], [ -91.027326837124718, 33.943542795896697 ], [ -91.027480808182247, 33.943683115540537 ], [ -91.027525069156354, 33.943889200566687 ], [ -91.027424493373815, 33.944081048162651 ], [ -91.027247632521309, 33.944184282564521 ], [ -91.027213996804491, 33.944615306425021 ], [ -91.026954010147946, 33.944786263877909 ], [ -91.026399502762061, 33.94478490038351 ], [ -91.026095327578886, 33.94460924694868 ], [ -91.025909460566183, 33.944387812219588 ], [ -91.025562369138811, 33.944417680202719 ], [ -91.025152449890939, 33.944216094815943 ], [ -91.024484633928026, 33.94350454166738 ], [ -91.024385128907539, 33.943131128665037 ], [ -91.02399583044965, 33.943149633307513 ], [ -91.023556019092439, 33.942880308023277 ], [ -91.022945324300508, 33.942639695047788 ], [ -91.022794379346323, 33.942483932791596 ], [ -91.022282370906439, 33.942457547869061 ], [ -91.021919254880757, 33.942257579107249 ], [ -91.021311817918132, 33.942104477907336 ], [ -91.021097192312126, 33.941853301869166 ], [ -91.021167386480755, 33.941501259035078 ], [ -91.022170698003649, 33.940466660487225 ], [ -91.022568276419804, 33.940371190588984 ], [ -91.022555180066078, 33.940165631640994 ], [ -91.02272046487748, 33.939885015735179 ], [ -91.024102288059652, 33.938324283816669 ], [ -91.024373673958252, 33.93814834466032 ], [ -91.0245170808534, 33.937813971324147 ], [ -91.025096412818428, 33.937208705245297 ], [ -91.025518341979364, 33.936632621920218 ], [ -91.026008491269707, 33.936499020791672 ], [ -91.02705159147159, 33.936699057060139 ], [ -91.027282703954683, 33.936478695317874 ], [ -91.027826803555428, 33.936256018613626 ], [ -91.028222501639974, 33.936392807524591 ], [ -91.028665740458237, 33.936422007944472 ], [ -91.028897392776514, 33.936057698921239 ], [ -91.02928833668858, 33.935807864281884 ], [ -91.029784096404484, 33.935722849880811 ], [ -91.03024165994276, 33.935759726858926 ], [ -91.030477216875866, 33.93556390193654 ], [ -91.030897855266616, 33.935482750461993 ], [ -91.031049336542381, 33.935138695856836 ], [ -91.031367905788031, 33.934989951885619 ], [ -91.031716254605456, 33.935013905170365 ], [ -91.032067158065757, 33.935228098630546 ], [ -91.032519006937903, 33.93521640228677 ], [ -91.032832639259681, 33.935419345321726 ], [ -91.032908159129718, 33.935773367433633 ], [ -91.032542318768208, 33.936452095873825 ], [ -91.03167207956831, 33.936995080345454 ], [ -91.031053645199037, 33.937238210553765 ], [ -91.030688095887257, 33.937508504292886 ], [ -91.030267330495718, 33.937847729951542 ], [ -91.029970327509091, 33.93821223261363 ], [ -91.029917221381609, 33.938485830853189 ], [ -91.029703483120258, 33.938658666116297 ], [ -91.027293573122193, 33.938663722477934 ], [ -91.026970170058149, 33.938738467731632 ], [ -91.027240109543527, 33.938940903268879 ], [ -91.027349819881408, 33.939185551910981 ], [ -91.027720163999788, 33.939289563173823 ], [ -91.028022140887074, 33.939541880552689 ], [ -91.028460514331812, 33.939508232550402 ], [ -91.028808209422422, 33.939369414753806 ], [ -91.029099772888515, 33.939429595881577 ], [ -91.029277346219288, 33.939321102488087 ], [ -91.029527752828201, 33.939304587042528 ], [ -91.029783799470351, 33.9394439259408 ], [ -91.030087588847792, 33.939461090332685 ], [ -91.030261250380832, 33.939576611638138 ], [ -91.030632574674357, 33.939581662823691 ], [ -91.030879389204316, 33.939827338978532 ], [ -91.031030458434628, 33.939868048318708 ], [ -91.031335785318845, 33.93993147744056 ], [ -91.031555845159247, 33.939839036905504 ], [ -91.031782096853988, 33.939850898554411 ], [ -91.032285255736923, 33.940265872042566 ], [ -91.032576710905843, 33.94025858202798 ] ], [ [ -91.027039619834227, 33.937851457781605 ], [ -91.028549924709665, 33.937955029664678 ], [ -91.029094990496674, 33.937912856824866 ], [ -91.029826626398503, 33.937170792819359 ], [ -91.02948940816664, 33.937382629388424 ], [ -91.028991608680059, 33.937409170040773 ], [ -91.028842781763544, 33.937613453562058 ], [ -91.028578203830392, 33.93772858605805 ], [ -91.027687677397964, 33.937828035222026 ], [ -91.027253569083626, 33.937778919034699 ], [ -91.027039619834227, 33.937851457781605 ] ], [ [ -91.026345939103052, 33.937755593040173 ], [ -91.026587550928426, 33.937814948237722 ], [ -91.026640402671561, 33.937814585143542 ], [ -91.026345939103052, 33.937755593040173 ] ] ], [ [ [ -91.029192364112802, 33.946549425934393 ], [ -91.029178013410728, 33.946724260682352 ], [ -91.029050091821304, 33.946886645502119 ], [ -91.028666413474568, 33.946985118065847 ], [ -91.027296000771457, 33.94677116490567 ], [ -91.025131497044285, 33.946178795576273 ], [ -91.023785674848284, 33.945706413395364 ], [ -91.023000010670685, 33.945332388891828 ], [ -91.022708766148739, 33.94513727759319 ], [ -91.022400252438544, 33.944727935375781 ], [ -91.021104320861923, 33.944388661640893 ], [ -91.020213464945016, 33.944023409166157 ], [ -91.019929149378754, 33.944046519786475 ], [ -91.019447000529922, 33.943914798410063 ], [ -91.019238831373031, 33.943718003663385 ], [ -91.019230151308733, 33.943475138943064 ], [ -91.019555565979744, 33.943144593940929 ], [ -91.0199719831365, 33.943104968164704 ], [ -91.021467530559306, 33.943700391878501 ], [ -91.022942099499559, 33.944051414726559 ], [ -91.023469862320923, 33.944686616412774 ], [ -91.024782173941546, 33.945247899101858 ], [ -91.025338273532114, 33.945368511448692 ], [ -91.025515701111431, 33.945481652544117 ], [ -91.026108250048495, 33.945584973285108 ], [ -91.027296756111014, 33.945986133608521 ], [ -91.02888337869787, 33.946256313881278 ], [ -91.029078222737994, 33.946362924388438 ], [ -91.029192364112802, 33.946549425934393 ] ] ] ] } },
{ "type": "Feature", "properties": { "depth_bin": "210-215 ft", "bin_order": -212.5, "survey_id": "LM_15_CVB_20190307_CS_MB_5963_5958", "date": "2019-03-07", "year": 2019, "mile": 596.0 }, "geometry": { "type": "MultiPolygon", "coordinates": [ [ [ [ -91.033519813843625, 33.939783213231706 ], [ -91.033848764145745, 33.94012081322105 ], [ -91.033926236785234, 33.940706782444018 ], [ -91.033374348741489, 33.941434915731243 ], [ -91.032918118965924, 33.94159142884007 ], [ -91.032463215688352, 33.941424140321892 ], [ -91.03224124012975, 33.941471615194331 ], [ -91.031835336977764, 33.94140071602915 ], [ -91.031409766909178, 33.941173286847544 ], [ -91.031167726219223, 33.941230387720438 ], [ -91.03080455117491, 33.941146458609161 ], [ -91.030458435429708, 33.940803121178654 ], [ -91.029983092569083, 33.940848629444361 ], [ -91.02952847369825, 33.941061988239063 ], [ -91.029260841067313, 33.941058060159939 ], [ -91.028734647534165, 33.940597062356666 ], [ -91.028376528283076, 33.940569378222996 ], [ -91.028168657411328, 33.940409069996811 ], [ -91.027491202878693, 33.940353580151836 ], [ -91.026274055357689, 33.939870469526653 ], [ -91.026028101656408, 33.939876675755293 ], [ -91.025731449774625, 33.939774728221877 ], [ -91.025747256008344, 33.940088226402253 ], [ -91.026060792926131, 33.940470793348233 ], [ -91.026279577856442, 33.940534261632578 ], [ -91.026435168159551, 33.94069862448724 ], [ -91.026443980193406, 33.940955228670738 ], [ -91.026234293992999, 33.941213788037651 ], [ -91.026688746269414, 33.941557909650868 ], [ -91.026709652334361, 33.941858467300868 ], [ -91.026836885751962, 33.942104933838664 ], [ -91.026764491896841, 33.942419699229504 ], [ -91.026822123670357, 33.94286293246379 ], [ -91.026678573023446, 33.943034739890386 ], [ -91.026450159141092, 33.943110536153718 ], [ -91.026449542939275, 33.943675678043149 ], [ -91.026289207770148, 33.943906942268029 ], [ -91.026065429430858, 33.944002063284273 ], [ -91.025513721816026, 33.943908319201981 ], [ -91.025172020105515, 33.943501974070124 ], [ -91.024954621630414, 33.943474005417244 ], [ -91.024749697783434, 33.943339010442351 ], [ -91.024585116152338, 33.943029130563382 ], [ -91.024603663189779, 33.942789171750896 ], [ -91.02387788505834, 33.941984334788941 ], [ -91.023573245361362, 33.941871067175001 ], [ -91.023361602384853, 33.942019958977504 ], [ -91.023111187243245, 33.942036461539992 ], [ -91.02267022861578, 33.94187435955255 ], [ -91.022402762833948, 33.941853278568516 ], [ -91.02215629510313, 33.941705316300073 ], [ -91.021691512555975, 33.941797091109827 ], [ -91.02147230236622, 33.941694857268253 ], [ -91.021358184150216, 33.941508349250647 ], [ -91.021429040177267, 33.941238741162451 ], [ -91.022893551189455, 33.939705040268976 ], [ -91.023151903964461, 33.939532758121004 ], [ -91.023253211339792, 33.939332050421335 ], [ -91.023418492868899, 33.939217237785272 ], [ -91.023647507061284, 33.939179315645511 ], [ -91.023661972353807, 33.938851646192035 ], [ -91.024606090717342, 33.937757815161078 ], [ -91.025071610627279, 33.937716046272001 ], [ -91.025761504239711, 33.93786041865954 ], [ -91.02710485094326, 33.937937390097538 ], [ -91.029113112037535, 33.937951795537025 ], [ -91.029633292080007, 33.937358820906887 ], [ -91.030366726996903, 33.936779483303042 ], [ -91.031243119654206, 33.936371434778152 ], [ -91.031804412831121, 33.935994773765643 ], [ -91.03162224698761, 33.935901244921531 ], [ -91.031401052058825, 33.936103529722949 ], [ -91.031014920269783, 33.936202417194771 ], [ -91.030860432506032, 33.936392936442047 ], [ -91.030603361002591, 33.936524457983765 ], [ -91.030133187438935, 33.936516912262476 ], [ -91.030103666981177, 33.936763191391954 ], [ -91.029942458684076, 33.936929583067496 ], [ -91.029535160774046, 33.937021496449674 ], [ -91.02916737501269, 33.937203145324823 ], [ -91.028255136704544, 33.937202001117498 ], [ -91.028054872718599, 33.937335772703079 ], [ -91.026910929725489, 33.937585096158827 ], [ -91.025576182943198, 33.93736782297259 ], [ -91.025328143607936, 33.937061882837043 ], [ -91.025441392332894, 33.936698246935826 ], [ -91.02594530613554, 33.936211430392198 ], [ -91.026438732600894, 33.936124628195827 ], [ -91.026550032629444, 33.935923958574669 ], [ -91.026567741707623, 33.935331668229182 ], [ -91.027187665609489, 33.934597186426586 ], [ -91.027440529389992, 33.934476302594113 ], [ -91.027830034642761, 33.934548708318722 ], [ -91.028127209189662, 33.934911445202168 ], [ -91.028574523850764, 33.935124118793162 ], [ -91.029296404980087, 33.935183953034667 ], [ -91.030099982924511, 33.935442571270521 ], [ -91.030781178162897, 33.935304791165144 ], [ -91.030945684726291, 33.935003769307606 ], [ -91.03131010662571, 33.934862340175641 ], [ -91.031642585034334, 33.934877880709067 ], [ -91.03205018151003, 33.935049918173391 ], [ -91.032600974249533, 33.935160977662484 ], [ -91.032862181200656, 33.935322163797998 ], [ -91.033000208816503, 33.935528944252013 ], [ -91.033023767845179, 33.935800190083157 ], [ -91.032620992685523, 33.936439793220174 ], [ -91.031770981530428, 33.936994519366372 ], [ -91.03097746594942, 33.937317337324266 ], [ -91.030315206019807, 33.937835660845067 ], [ -91.030030044335732, 33.93820071502347 ], [ -91.030038185088273, 33.938327880075953 ], [ -91.031487298155255, 33.938672209574264 ], [ -91.032135444635827, 33.938962305501057 ], [ -91.032446483424778, 33.939238272735459 ], [ -91.032715839932138, 33.939324318312472 ], [ -91.032856405917229, 33.939518850486692 ], [ -91.033519813843625, 33.939783213231706 ] ] ], [ [ [ -91.029901773440685, 33.94395624338798 ], [ -91.029867044094715, 33.944142803465873 ], [ -91.029722194054955, 33.944295361893367 ], [ -91.029358166883981, 33.944442941199796 ], [ -91.029147992281281, 33.944448175948317 ], [ -91.028788600762496, 33.944191435283486 ], [ -91.028683644333768, 33.943730997415138 ], [ -91.029003758580401, 33.943380102416327 ], [ -91.029412272502853, 33.943344740666682 ], [ -91.029684037340587, 33.943502458070334 ], [ -91.029901773440685, 33.94395624338798 ] ] ], [ [ [ -91.029348011142716, 33.942501985244114 ], [ -91.029245412685555, 33.94303750413038 ], [ -91.029052121121964, 33.943206563051241 ], [ -91.028852822536194, 33.943262419785029 ], [ -91.028538471873048, 33.943199050288015 ], [ -91.028356255196073, 33.942943611190024 ], [ -91.028036252391061, 33.943161554081392 ], [ -91.027705154934097, 33.943156248435692 ], [ -91.027514074190108, 33.943020344625985 ], [ -91.027379780477048, 33.942689741902498 ], [ -91.027414514479375, 33.942503182644046 ], [ -91.027559365329282, 33.942350626929823 ], [ -91.027835689009052, 33.942273184808776 ], [ -91.028096177397344, 33.942340966262556 ], [ -91.028315726543269, 33.942012202233329 ], [ -91.028597983126005, 33.941898724692848 ], [ -91.028943879857678, 33.942008168586447 ], [ -91.029348011142716, 33.942501985244114 ] ] ], [ [ [ -91.028883713988847, 33.946297531268485 ], [ -91.029135628939812, 33.946476691287437 ], [ -91.029161751475058, 33.946751832121336 ], [ -91.028930403727784, 33.946975612331123 ], [ -91.028560629512285, 33.947015849669299 ], [ -91.027246767090858, 33.946798921938466 ], [ -91.025115345044682, 33.946220105625827 ], [ -91.023033646133868, 33.945414639061575 ], [ -91.022709209191049, 33.945192234177071 ], [ -91.022362854498013, 33.944761792285803 ], [ -91.019414250914465, 33.943942460463184 ], [ -91.019222676965839, 33.943759312981292 ], [ -91.019213776557621, 33.943488969944511 ], [ -91.019609216272954, 33.94316811544639 ], [ -91.020005394188544, 33.943159740919718 ], [ -91.021449744064213, 33.943730524871988 ], [ -91.022925946839564, 33.944092724524985 ], [ -91.023128782101779, 33.944253831317603 ], [ -91.023357767522739, 33.944652933869371 ], [ -91.024835446056741, 33.945313237007753 ], [ -91.027264585662749, 33.94601403764716 ], [ -91.028883713988847, 33.946297531268485 ] ] ] ] } },
{ "type": "Feature", "properties": { "depth_bin": "215-220 ft", "bin_order": -217.5, "survey_id": "LM_15_CVB_20190307_CS_MB_5963_5958", "date": "2019-03-07", "year": 2019, "mile": 596.0 }, "geometry": { "type": "MultiPolygon", "coordinates": [ [ [ [ -91.035529952003827, 33.937734783758827 ], [ -91.035875660563107, 33.938020814140842 ], [ -91.035850662362819, 33.938355940388227 ], [ -91.035524793097068, 33.938759033271417 ], [ -91.035192717697612, 33.938956213517557 ], [ -91.035167840663419, 33.939193853110915 ], [ -91.034888001775528, 33.939504612784894 ], [ -91.034499672742641, 33.939706635894616 ], [ -91.034335596111134, 33.94022907989995 ], [ -91.033778667636611, 33.940926127826401 ], [ -91.033171261873889, 33.941149499510232 ], [ -91.032678273444347, 33.941064913392289 ], [ -91.032478840054381, 33.940862366252929 ], [ -91.032220088392748, 33.940747225620548 ], [ -91.031344726991534, 33.940676244371147 ], [ -91.031153645514806, 33.940540346154414 ], [ -91.031085482800549, 33.940337305848402 ], [ -91.029949312837672, 33.940035887079652 ], [ -91.029674948331532, 33.940112176532104 ], [ -91.029232166077264, 33.940043422932746 ], [ -91.028956507034238, 33.940086103650373 ], [ -91.028699106723025, 33.939993891969635 ], [ -91.028177659604026, 33.940275397747008 ], [ -91.027869784357023, 33.940282746281191 ], [ -91.027525593300297, 33.940053318522331 ], [ -91.02727312749694, 33.939737890874746 ], [ -91.027206113747098, 33.939571786844802 ], [ -91.027246654780328, 33.939389407584571 ], [ -91.026931171223978, 33.93943191803006 ], [ -91.026430798886821, 33.939234953109079 ], [ -91.02603123246017, 33.939207659754494 ], [ -91.025822132411832, 33.939084544209621 ], [ -91.025614155145306, 33.939168191225363 ], [ -91.025364696279127, 33.939143664473129 ], [ -91.025152504785652, 33.938977058844216 ], [ -91.025109609881312, 33.938749946438577 ], [ -91.024685848929181, 33.938776503190873 ], [ -91.024519414073652, 33.938669420293145 ], [ -91.024427775141802, 33.938474489770442 ], [ -91.024529983265012, 33.938211965216986 ], [ -91.024923431650947, 33.938031057495849 ], [ -91.025238402591526, 33.938116245124462 ], [ -91.025389644221065, 33.938384260314152 ], [ -91.025531426422305, 33.938153263923233 ], [ -91.025839740482979, 33.938052569127379 ], [ -91.026648410275612, 33.938188963822405 ], [ -91.026910098725821, 33.938441894338965 ], [ -91.027101365934001, 33.938183762709897 ], [ -91.027312863768501, 33.938070816705419 ], [ -91.027909621398237, 33.938043563630771 ], [ -91.02831025574784, 33.938137384704525 ], [ -91.029132583388161, 33.937992853751062 ], [ -91.029633627616221, 33.937400038336555 ], [ -91.030432550580656, 33.936765370857756 ], [ -91.031312324736973, 33.936382004905262 ], [ -91.031890709927936, 33.935973785999828 ], [ -91.032000915584049, 33.935789522319908 ], [ -91.031569324137749, 33.935653078443579 ], [ -91.031296831495013, 33.935942902429233 ], [ -91.030809796011397, 33.936024889743877 ], [ -91.0305017721669, 33.93619527759116 ], [ -91.030107525056067, 33.936284964712868 ], [ -91.02974995973787, 33.936303171703287 ], [ -91.029105284880359, 33.936184693803099 ], [ -91.029020098676966, 33.936377364400819 ], [ -91.028773792390155, 33.936548544898372 ], [ -91.027883340591842, 33.936569080447988 ], [ -91.027761586319443, 33.936931668900741 ], [ -91.027436247504738, 33.93717169605744 ], [ -91.026740927628495, 33.937240722059315 ], [ -91.026039150246518, 33.93716987170977 ], [ -91.025738463606046, 33.937050894621976 ], [ -91.025533358528477, 33.93683421347756 ], [ -91.025572039277449, 33.93654637396191 ], [ -91.026697845482701, 33.93517701761197 ], [ -91.027018326748006, 33.935050981351338 ], [ -91.027071308536534, 33.934742128692029 ], [ -91.027357515240951, 33.93437677998029 ], [ -91.027711172781963, 33.934195698561048 ], [ -91.027973016657427, 33.93424038872314 ], [ -91.028543589798616, 33.934590525707115 ], [ -91.028882719515607, 33.934619967988688 ], [ -91.029140845605198, 33.9348544170292 ], [ -91.029453210281417, 33.934968301288897 ], [ -91.029730650421385, 33.934941819779731 ], [ -91.03013001744695, 33.935096662753601 ], [ -91.030679616712973, 33.935129949525354 ], [ -91.030965892773892, 33.934846664519803 ], [ -91.031460051034102, 33.934767148570103 ], [ -91.03253391800034, 33.935023959772629 ], [ -91.032844574333026, 33.935184865110614 ], [ -91.033130990646427, 33.935652831007317 ], [ -91.033111901668576, 33.935875002696207 ], [ -91.032973909078848, 33.936080164849351 ], [ -91.032560218480043, 33.936530030224276 ], [ -91.031804061037064, 33.937008071497829 ], [ -91.031036112617315, 33.937316273889486 ], [ -91.031298458988744, 33.937400715189462 ], [ -91.031436640272545, 33.937532796317036 ], [ -91.03148090843051, 33.937738880339197 ], [ -91.031374819335795, 33.937935625313202 ], [ -91.031613984862588, 33.938176376954111 ], [ -91.033141535060508, 33.939025289756472 ], [ -91.033472960703421, 33.939291935746674 ], [ -91.03360771688503, 33.939328579532692 ], [ -91.034027170548129, 33.938902114430682 ], [ -91.034320970113214, 33.938801760107317 ], [ -91.034513074243719, 33.938644357041206 ], [ -91.033649144212745, 33.937893644215713 ], [ -91.033661386515377, 33.937574834685627 ], [ -91.033816647375986, 33.937350714812588 ], [ -91.034172280949818, 33.937177406170761 ], [ -91.034422680818921, 33.937160880500763 ], [ -91.035529952003827, 33.937734783758827 ] ] ], [ [ [ -91.029133830427497, 33.946570174861229 ], [ -91.029140222914108, 33.946759079140506 ], [ -91.029030421486624, 33.946943599840893 ], [ -91.028842777760133, 33.947059100550121 ], [ -91.028568280785265, 33.947081850586969 ], [ -91.027098508498028, 33.946813497264941 ], [ -91.025000057967205, 33.946234493146434 ], [ -91.022984411816438, 33.94544239440269 ], [ -91.022659864144075, 33.945206250243686 ], [ -91.022331667730413, 33.94479207575408 ], [ -91.019414581597545, 33.943983678842223 ], [ -91.019206412350186, 33.943786883138316 ], [ -91.019197511994477, 33.943516540103026 ], [ -91.019375665152225, 33.943324213663047 ], [ -91.0197016467542, 33.943275604495206 ], [ -91.022782503040489, 33.944092265718908 ], [ -91.023071511951613, 33.944266408031204 ], [ -91.023390224594948, 33.944743259542818 ], [ -91.024620915178502, 33.945286962341356 ], [ -91.027339221638272, 33.946071895167975 ], [ -91.028850966581217, 33.946325195812094 ], [ -91.029133830427497, 33.946570174861229 ] ] ] ] } },
{ "type": "Feature", "properties": { "depth_bin": "220-225 ft", "bin_order": -222.5, "survey_id": "LM_15_CVB_20190307_CS_MB_5963_5958", "date": "2019-03-07", "year": 2019, "mile": 596.0 }, "geometry": { "type": "MultiPolygon", "coordinates": [ [ [ [ -91.03430397597468, 33.93699147207743 ], [ -91.035861483115525, 33.937873780540542 ], [ -91.035953147985225, 33.938068703465213 ], [ -91.035918321889156, 33.938241526797505 ], [ -91.035628952747501, 33.938493181637007 ], [ -91.035518104688208, 33.938772422837381 ], [ -91.034049399728957, 33.940594443650383 ], [ -91.033802978174762, 33.940751894901716 ], [ -91.03355256769332, 33.940768418924648 ], [ -91.033364253254888, 33.940690469801673 ], [ -91.033005263125474, 33.940237508567357 ], [ -91.032650706351419, 33.940117453685659 ], [ -91.032045676449684, 33.939498166189288 ], [ -91.031246960619157, 33.939015201290871 ], [ -91.030439218641973, 33.938761600267753 ], [ -91.029924321353164, 33.938942658698267 ], [ -91.02964765097164, 33.939285160069716 ], [ -91.029345973697872, 33.939401279511358 ], [ -91.028499141783669, 33.940077012305835 ], [ -91.028226907312998, 33.940170218210611 ], [ -91.027960960239, 33.940145789631046 ], [ -91.027731348449123, 33.939946912158796 ], [ -91.027699929729607, 33.939602322380061 ], [ -91.027966676350374, 33.939181889058034 ], [ -91.028419441503246, 33.938862916864011 ], [ -91.028512875077567, 33.938615862793085 ], [ -91.028812864794773, 33.938424921976825 ], [ -91.028976790976913, 33.938161324745849 ], [ -91.029190111954449, 33.938068200292065 ], [ -91.029265325987183, 33.937897141785605 ], [ -91.029925137885584, 33.937207916481135 ], [ -91.030597810856705, 33.936693542815156 ], [ -91.031407690939417, 33.936356895630411 ], [ -91.031949774100809, 33.93597451306718 ], [ -91.032198108462254, 33.935699329621762 ], [ -91.031478966768262, 33.935517141095104 ], [ -91.031300108416957, 33.935730933544072 ], [ -91.031084877804943, 33.935832052195217 ], [ -91.030394825651044, 33.935830814639154 ], [ -91.030052809940912, 33.935905659195605 ], [ -91.02888713055458, 33.935646689392833 ], [ -91.028004439358099, 33.935350351891472 ], [ -91.027664931152231, 33.935158122115048 ], [ -91.027278146824159, 33.934801935462751 ], [ -91.027267101218911, 33.934493709257104 ], [ -91.027705846881844, 33.933996000422646 ], [ -91.028073950939657, 33.933920693285231 ], [ -91.029209477820302, 33.934260886281074 ], [ -91.029449622034875, 33.934461941501567 ], [ -91.030446571599214, 33.934911361690979 ], [ -91.030641901754876, 33.934935922019058 ], [ -91.030899175521242, 33.934750864061712 ], [ -91.031235703717513, 33.934683327355344 ], [ -91.031913666564094, 33.934729456970381 ], [ -91.032440396972547, 33.934872397721932 ], [ -91.032855208796931, 33.935115457017226 ], [ -91.033213070405765, 33.935611145126785 ], [ -91.033127961427525, 33.936008198266073 ], [ -91.032612946167617, 33.936516760979266 ], [ -91.03430397597468, 33.93699147207743 ] ] ], [ [ [ -91.028841767256452, 33.946406731071015 ], [ -91.02905398397786, 33.946573331057131 ], [ -91.029091325227171, 33.94682805430827 ], [ -91.028920290844994, 33.947047853179981 ], [ -91.028610980036461, 33.947125483385939 ], [ -91.02686759913675, 33.946801058526695 ], [ -91.025215258298715, 33.946343202925561 ], [ -91.023836462262238, 33.945871006634597 ], [ -91.02301793649896, 33.945510905429884 ], [ -91.022610519080615, 33.945220266290697 ], [ -91.022311846733686, 33.944826861333901 ], [ -91.019414912274073, 33.944024896319448 ], [ -91.019206742937143, 33.943828101515656 ], [ -91.019197842581889, 33.943557758481937 ], [ -91.01937599582962, 33.943365432045717 ], [ -91.019701977589889, 33.943316822882927 ], [ -91.022733269397662, 33.944120020980662 ], [ -91.022972600310894, 33.944266962161841 ], [ -91.023390664676427, 33.944798214357412 ], [ -91.024522114536296, 33.945301256874373 ], [ -91.027166228180533, 33.946083290294268 ], [ -91.028841767256452, 33.946406731071015 ] ] ], [ [ [ -91.027143784863043, 33.935519397610925 ], [ -91.027248386048072, 33.935671413327874 ], [ -91.027241288936636, 33.936025553246502 ], [ -91.027366579024502, 33.936276270434966 ], [ -91.027232528373744, 33.936676376087782 ], [ -91.026609433314562, 33.936995982589345 ], [ -91.026369123608461, 33.936967125293151 ], [ -91.025881037515092, 33.936748247250101 ], [ -91.025745532830499, 33.936571964633764 ], [ -91.025750254495975, 33.936348903684376 ], [ -91.026387778101949, 33.935563478188598 ], [ -91.026797916531009, 33.935409949561972 ], [ -91.027143784863043, 33.935519397610925 ] ] ] ] } },
{ "type": "Feature", "properties": { "depth_bin": "225-230 ft", "bin_order": -227.5, "survey_id": "LM_15_CVB_20190307_CS_MB_5963_5958", "date": "2019-03-07", "year": 2019, "mile": 596.0 }, "geometry": { "type": "MultiPolygon", "coordinates": [ [ [ [ -91.033513206853684, 33.936448596363846 ], [ -91.035785620894259, 33.937754243918555 ], [ -91.03596929324803, 33.938027392008294 ], [ -91.035821751137618, 33.938343261372836 ], [ -91.035412730009796, 33.938435800707623 ], [ -91.034120298942597, 33.937719035171845 ], [ -91.033553840427217, 33.937541732141568 ], [ -91.033515019736697, 33.937794582517888 ], [ -91.034128660329387, 33.938159205265094 ], [ -91.03447032489089, 33.938234560790953 ], [ -91.034741735907971, 33.938530757842379 ], [ -91.034923033551649, 33.938975565588443 ], [ -91.034845526696984, 33.93917471106861 ], [ -91.034687061245464, 33.93928988901375 ], [ -91.034361341734595, 33.939312666988648 ], [ -91.033899896375175, 33.939537800204512 ], [ -91.033254633403502, 33.939539632845339 ], [ -91.032685886906222, 33.939377092767202 ], [ -91.032318435071261, 33.939089618852279 ], [ -91.03198121517147, 33.939077862960886 ], [ -91.031753191092676, 33.938943966092985 ], [ -91.031318267102876, 33.938492183823776 ], [ -91.031251294007276, 33.938214233680959 ], [ -91.031017707133913, 33.938002631252672 ], [ -91.028746345185127, 33.939849183912557 ], [ -91.028512470806035, 33.939925571487414 ], [ -91.028250609331963, 33.939880881930229 ], [ -91.028002553247333, 33.939574945933956 ], [ -91.028099330312287, 33.939277318960571 ], [ -91.028574098212403, 33.938930755992871 ], [ -91.028672030574981, 33.938751973522059 ], [ -91.029323527545401, 33.938190604234798 ], [ -91.029587531563351, 33.937812493182491 ], [ -91.029825247583489, 33.937694512046285 ], [ -91.030696288420728, 33.936763877318647 ], [ -91.0314243987266, 33.936384280455663 ], [ -91.032305547577977, 33.935686097563803 ], [ -91.032157473236992, 33.935559301818415 ], [ -91.031722818492113, 33.935428871716695 ], [ -91.031310100971069, 33.935413535197476 ], [ -91.031135007989093, 33.935603808592397 ], [ -91.030943257103729, 33.935675681326359 ], [ -91.030229966392398, 33.935607365297223 ], [ -91.029019786512634, 33.935136305198554 ], [ -91.028867225331325, 33.935016707356169 ], [ -91.02784601150185, 33.934716997189604 ], [ -91.027593292457908, 33.934501220474971 ], [ -91.027526281662418, 33.934335116610036 ], [ -91.027725570587336, 33.933786285329504 ], [ -91.027869728321534, 33.933658724229844 ], [ -91.028096951041221, 33.933602172236263 ], [ -91.028173863812626, 33.93341038901891 ], [ -91.028332326308032, 33.933295219283927 ], [ -91.028699350222709, 33.933191396743318 ], [ -91.0289999861605, 33.933193354629736 ], [ -91.029453815190962, 33.933446221174677 ], [ -91.029537759443571, 33.933667187553652 ], [ -91.029506632825232, 33.933859832734377 ], [ -91.029905680072503, 33.934281794564569 ], [ -91.030001262117509, 33.934484305045494 ], [ -91.030163591000061, 33.934577832162027 ], [ -91.030588713273602, 33.934739327010718 ], [ -91.031267886535346, 33.934586965549123 ], [ -91.032345209373943, 33.934724018049415 ], [ -91.032826742835809, 33.935020089030346 ], [ -91.033263717968268, 33.93549996699808 ], [ -91.033261332765207, 33.935865933953913 ], [ -91.032872984235439, 33.936269442903438 ], [ -91.033513206853684, 33.936448596363846 ] ] ], [ [ [ -91.028807682375458, 33.946447677127964 ], [ -91.02902134830606, 33.946614735677542 ], [ -91.029058689469807, 33.946869458934415 ], [ -91.028887653836136, 33.947089257760197 ], [ -91.028578343931457, 33.947166887871894 ], [ -91.027231284964472, 33.946922667033768 ], [ -91.025166024171654, 33.946370959133453 ], [ -91.023770631614639, 33.9458851156066 ], [ -91.023001672787785, 33.945538476070482 ], [ -91.022577770022792, 33.945247930074231 ], [ -91.02228585243293, 33.944852233547223 ], [ -91.020005438079323, 33.944270182179686 ], [ -91.019398647666037, 33.944052466501944 ], [ -91.019207073517578, 33.94386931899124 ], [ -91.019198173162735, 33.943598975959034 ], [ -91.019376326500449, 33.943406649526594 ], [ -91.019702308419028, 33.943358040368821 ], [ -91.022684035722676, 33.944147776223005 ], [ -91.022956447622647, 33.944308271965326 ], [ -91.023237770782799, 33.944727229951752 ], [ -91.023440783364251, 33.944880370312418 ], [ -91.024522447701159, 33.945342474302954 ], [ -91.026637918379222, 33.945990089562841 ], [ -91.028807682375458, 33.946447677127964 ] ] ] ] } },
{ "type": "Feature", "properties": { "depth_bin": "230-235 ft", "bin_order": -232.5, "survey_id": "LM_15_CVB_20190307_CS_MB_5963_5958", "date": "2019-03-07", "year": 2019, "mile": 596.0 }, "geometry": { "type": "MultiPolygon", "coordinates": [ [ [ [ -91.033168902417685, 33.936161667134435 ], [ -91.035893773629994, 33.937791157646657 ], [ -91.035984040725097, 33.938084238544697 ], [ -91.035822380373986, 33.938325115347432 ], [ -91.035588515874096, 33.938401516763392 ], [ -91.035364682390608, 33.938372582802209 ], [ -91.0332285937302, 33.937154515823885 ], [ -91.03228464098521, 33.936960256348733 ], [ -91.029892410300349, 33.938880918429845 ], [ -91.02965853952827, 33.938957308325065 ], [ -91.029413164315585, 33.938912528084764 ], [ -91.029198521712715, 33.938661365496749 ], [ -91.029269238625844, 33.938378012671315 ], [ -91.030682636973694, 33.937143121066292 ], [ -91.030943878789046, 33.93680369403554 ], [ -91.032376841461527, 33.935676280543937 ], [ -91.031920057826028, 33.935359053049375 ], [ -91.031199863693317, 33.935308227528523 ], [ -91.030560214669165, 33.93546311315945 ], [ -91.029911116716278, 33.935282403576018 ], [ -91.028718914493155, 33.934606595898991 ], [ -91.028438180852589, 33.934562518067182 ], [ -91.027838775452409, 33.934236574351516 ], [ -91.027677153091233, 33.934012160373754 ], [ -91.027724901449275, 33.933703850390167 ], [ -91.028096717168637, 33.933316141466491 ], [ -91.02830455703976, 33.933212382427037 ], [ -91.029181970074177, 33.933274765012278 ], [ -91.029429071685044, 33.933403657802046 ], [ -91.029904471914719, 33.934118897062703 ], [ -91.030294784968916, 33.934494650885981 ], [ -91.030562751874925, 33.93454931256553 ], [ -91.031250506582268, 33.934477145804657 ], [ -91.0322287043046, 33.934587280696995 ], [ -91.033010905695036, 33.9350907814283 ], [ -91.033298479072926, 33.935406295885244 ], [ -91.033359908906107, 33.935694720563149 ], [ -91.033168902417685, 33.936161667134435 ] ] ], [ [ [ -91.028710329254068, 33.946462433541726 ], [ -91.028984070583832, 33.946625348261094 ], [ -91.02904946289982, 33.946862130803744 ], [ -91.028887023140598, 33.947107403991474 ], [ -91.028578679063372, 33.947208105252791 ], [ -91.026835184072567, 33.946869939927211 ], [ -91.025232410798807, 33.946425545102286 ], [ -91.023737882674183, 33.945912778793449 ], [ -91.02308756572171, 33.945611930622754 ], [ -91.022606117054266, 33.94532956121332 ], [ -91.022247482221999, 33.944874364882374 ], [ -91.019956203405528, 33.94429793631938 ], [ -91.019398978335744, 33.944093683978849 ], [ -91.019207404098665, 33.943910536466483 ], [ -91.019198503744249, 33.943640193435876 ], [ -91.019413491972159, 33.943430262985849 ], [ -91.01971912418395, 33.943399165944605 ], [ -91.022700963838162, 33.944202640519265 ], [ -91.022923699020197, 33.944335935858057 ], [ -91.023256877235212, 33.94480665081376 ], [ -91.024092830085706, 33.945221227788203 ], [ -91.026612896829874, 33.946020953001636 ], [ -91.028710329254068, 33.946462433541726 ] ] ] ] } },
{ "type": "Feature", "properties": { "depth_bin": "235-240 ft", "bin_order": -237.5, "survey_id": "LM_15_CVB_20190307_CS_MB_5963_5958", "date": "2019-03-07", "year": 2019, "mile": 596.0 }, "geometry": { "type": "MultiPolygon", "coordinates": [ [ [ [ -91.034442015874021, 33.936792042968371 ], [ -91.035934666858893, 33.93779240834531 ], [ -91.03599326606043, 33.938091566345008 ], [ -91.035804057352379, 33.938318076218984 ], [ -91.03556233429012, 33.938375003897711 ], [ -91.035260155266414, 33.938288522559951 ], [ -91.032553836926297, 33.936667764941554 ], [ -91.032140040090823, 33.936969159863139 ], [ -91.03171846354833, 33.936929445558832 ], [ -91.031539810646265, 33.936697059369784 ], [ -91.03160151588672, 33.936406516673507 ], [ -91.032453468886985, 33.935639165343417 ], [ -91.031872888310417, 33.935248484056359 ], [ -91.031356828351164, 33.935249847765327 ], [ -91.031131016786048, 33.935184840306434 ], [ -91.030400793339027, 33.935255263757185 ], [ -91.029827245854278, 33.935104260866652 ], [ -91.029219728493288, 33.934608655092305 ], [ -91.028911718779298, 33.934616064961617 ], [ -91.028671226003937, 33.934467757598867 ], [ -91.028425639640162, 33.934441147338035 ], [ -91.027937562723309, 33.934222277334264 ], [ -91.027735232838225, 33.933936455509176 ], [ -91.027774015960617, 33.93366235403677 ], [ -91.027998192432463, 33.933458498821551 ], [ -91.028232049230851, 33.933382111536893 ], [ -91.028658944141583, 33.933453348116686 ], [ -91.029026079668043, 33.933739629834413 ], [ -91.02921447365361, 33.933619437645362 ], [ -91.029464863508395, 33.933602921721125 ], [ -91.029686236698268, 33.933694428935141 ], [ -91.03042232288243, 33.934257463883192 ], [ -91.030742222059843, 33.934094374165767 ], [ -91.031034786718322, 33.93408866878859 ], [ -91.031371461466264, 33.934226405426138 ], [ -91.031579878923637, 33.934439238349412 ], [ -91.032034593049715, 33.93443598281592 ], [ -91.032790482059525, 33.934748968860319 ], [ -91.033184200247632, 33.935031148744287 ], [ -91.03339434914885, 33.935348085829148 ], [ -91.033386179432213, 33.935770650517782 ], [ -91.033205608004067, 33.936035947662454 ], [ -91.033292726726003, 33.936162994886445 ], [ -91.033790390494204, 33.936494923363419 ], [ -91.034442015874021, 33.936792042968371 ] ] ], [ [ [ -91.026672086414138, 33.946079333631658 ], [ -91.028851386756401, 33.946573343247017 ], [ -91.029018456903501, 33.946832855178485 ], [ -91.028883614760105, 33.947136786912097 ], [ -91.028588598889158, 33.947262191131962 ], [ -91.02667032829396, 33.946870868472658 ], [ -91.025166802287103, 33.946467133096988 ], [ -91.023220446091798, 33.945734843963301 ], [ -91.022587678779047, 33.945367843889635 ], [ -91.022270921050122, 33.945017247452618 ], [ -91.021865608181798, 33.944801797538055 ], [ -91.020320310555206, 33.944474523074078 ], [ -91.019399419229714, 33.944148640614316 ], [ -91.019207844874487, 33.943965493099753 ], [ -91.01919883432646, 33.943681410912397 ], [ -91.019413822662472, 33.943471480466791 ], [ -91.019719455022368, 33.943440383429795 ], [ -91.022651730112642, 33.944230396650546 ], [ -91.022874465276942, 33.944363691176335 ], [ -91.023259226521361, 33.944853910117473 ], [ -91.024060081502697, 33.945248891074129 ], [ -91.026672086414138, 33.946079333631658 ] ] ] ] } },
{ "type": "Feature", "properties": { "depth_bin": "240-245 ft", "bin_order": -242.5, "survey_id": "LM_15_CVB_20190307_CS_MB_5963_5958", "date": "2019-03-07", "year": 2019, "mile": 596.0 }, "geometry": { "type": "MultiPolygon", "coordinates": [ [ [ [ -91.034623898824748, 33.93685970598262 ], [ -91.035850766142246, 33.937657693807225 ], [ -91.036002891602777, 33.937847611111984 ], [ -91.035964357875869, 33.938149194126822 ], [ -91.035704408112949, 33.938320171557557 ], [ -91.035256904029069, 33.93824208489108 ], [ -91.032655591872427, 33.936682476985382 ], [ -91.032283097254606, 33.936142712010771 ], [ -91.032308332906624, 33.935835065981863 ], [ -91.032730235246333, 33.935403646003266 ], [ -91.032929513030624, 33.935347782181822 ], [ -91.033174880304756, 33.935392555136005 ], [ -91.033394950975548, 33.935678810041544 ], [ -91.033360233397104, 33.935865371705646 ], [ -91.033224550634415, 33.936008391795703 ], [ -91.034195506870148, 33.93667382650402 ], [ -91.034623898824748, 33.93685970598262 ] ] ], [ [ [ -91.031516303021107, 33.934338440760904 ], [ -91.032575526293883, 33.934667750222964 ], [ -91.032782888089898, 33.934845893053982 ], [ -91.032809020762002, 33.935121033893239 ], [ -91.032594086187615, 33.935330989928495 ], [ -91.032247506576098, 33.935352864573872 ], [ -91.031799943277335, 33.935158694018199 ], [ -91.031289565004187, 33.935124722041948 ], [ -91.0309447182469, 33.93494697698538 ], [ -91.030584998306509, 33.935175373436593 ], [ -91.03017682290205, 33.93515425237986 ], [ -91.029707412123329, 33.934967970489438 ], [ -91.029523654488074, 33.934681074569426 ], [ -91.029624702655397, 33.93421523424216 ], [ -91.029968134788334, 33.934031811774496 ], [ -91.030229979570592, 33.934076497160277 ], [ -91.030405615838092, 33.934230078905728 ], [ -91.030661322773199, 33.934137806063063 ], [ -91.031233368559271, 33.934183721829299 ], [ -91.031516303021107, 33.934338440760904 ] ] ], [ [ [ -91.028940854328297, 33.946771222730824 ], [ -91.029004357425947, 33.947005712668904 ], [ -91.028949802072887, 33.947229811130434 ], [ -91.028736039345659, 33.947402643810072 ], [ -91.028439299783244, 33.94743981350112 ], [ -91.027396827755325, 33.947002711201954 ], [ -91.02596011181565, 33.946709989094863 ], [ -91.025490945880961, 33.946478063709577 ], [ -91.025199884463206, 33.946480686947595 ], [ -91.024927572549359, 33.946333935089136 ], [ -91.024837547070163, 33.946068465441719 ], [ -91.024648201758254, 33.946189639716849 ], [ -91.024397774469705, 33.94620614446216 ], [ -91.023352994254125, 33.94581654062393 ], [ -91.022687255130549, 33.945449724962465 ], [ -91.021950867378337, 33.944894027748965 ], [ -91.019862326044617, 33.94431093744722 ], [ -91.019670750314177, 33.94412779060977 ], [ -91.019662069038816, 33.943884925889911 ], [ -91.019840221996063, 33.943692598778092 ], [ -91.020124331184391, 33.943638121217347 ], [ -91.022172776097662, 33.944123158460393 ], [ -91.022782906174811, 33.944340413062342 ], [ -91.0232534665559, 33.944890960441818 ], [ -91.02398837912115, 33.945281037940042 ], [ -91.024771232617226, 33.945579582434995 ], [ -91.024920070174772, 33.945895992284399 ], [ -91.025109414450483, 33.945774817548532 ], [ -91.025359840407219, 33.945758311303564 ], [ -91.025704574466374, 33.945931725605128 ], [ -91.025938164865025, 33.94591993609113 ], [ -91.027577762004242, 33.946362072979078 ], [ -91.02862184478289, 33.946532587414232 ], [ -91.028940854328297, 33.946771222730824 ] ] ] ] } },
{ "type": "Feature", "properties": { "depth_bin": "245-250 ft", "bin_order": -247.5, "survey_id": "LM_15_CVB_20190307_CS_MB_5963_5958", "date": "2019-03-07", "year": 2019, "mile": 596.0 }, "geometry": { "type": "MultiPolygon", "coordinates": [ [ [ [ -91.034866614408301, 33.937020954029258 ], [ -91.036020940057242, 33.937726554971427 ], [ -91.036047083596387, 33.938001695401482 ], [ -91.035836462037111, 33.938249192478764 ], [ -91.035510506750427, 33.938297845442882 ], [ -91.03444610305813, 33.93765085988391 ], [ -91.034324777583038, 33.937471465385237 ], [ -91.034318485970331, 33.937296299899472 ], [ -91.034507696099212, 33.937069792334043 ], [ -91.034866614408301, 33.937020954029258 ] ] ], [ [ [ -91.034011384326689, 33.936486552099602 ], [ -91.034180211290064, 33.936703855972468 ], [ -91.034160331972458, 33.936946264543842 ], [ -91.033944091757704, 33.937136970071343 ], [ -91.033663873517014, 33.937174059683223 ], [ -91.033336515964805, 33.937025141876418 ], [ -91.033215918220435, 33.936774717396311 ], [ -91.032967865093141, 33.936763974162517 ], [ -91.032789633242871, 33.936671015697122 ], [ -91.03265510274035, 33.936365093244241 ], [ -91.032833138946245, 33.936110387931194 ], [ -91.033151796839263, 33.936035346675155 ], [ -91.033446070899444, 33.936170713202969 ], [ -91.033566287268243, 33.936410519111242 ], [ -91.034011384326689, 33.936486552099602 ] ] ], [ [ [ -91.028413365137027, 33.94661477984539 ], [ -91.028705269165528, 33.94680554032017 ], [ -91.028770772558246, 33.947056062112019 ], [ -91.028609074093467, 33.94729692778251 ], [ -91.028290370310955, 33.947371955511365 ], [ -91.027814278629265, 33.94718264254125 ], [ -91.027679751427087, 33.946876715246106 ], [ -91.02778033025875, 33.946684867619986 ], [ -91.027951600593781, 33.946583200690945 ], [ -91.028413365137027, 33.94661477984539 ] ] ] ] } },
{ "type": "Feature", "properties": { "depth_bin": "250-255 ft", "bin_order": -252.5, "survey_id": "LM_15_CVB_20190307_CS_MB_5963_5958", "date": "2019-03-07", "year": 2019, "mile": 596.0 }, "geometry": { "type": "Polygon", "coordinates": [ [ [ -91.035669472391746, 33.937504908730411 ], [ -91.03597506505524, 33.937653296013508 ], [ -91.036065106551774, 33.937918898603584 ], [ -91.035903446760173, 33.938159775538075 ], [ -91.035568299021406, 33.938234917717104 ], [ -91.035262705087206, 33.938086529388123 ], [ -91.035172665964055, 33.937820926299551 ], [ -91.035334327076797, 33.937580050363003 ], [ -91.035669472391746, 33.937504908730411 ] ] ] } }
]
}
