{
"type": "FeatureCollection",
"name": "LM_15_CVB_20150513_CS_MB_5998_6000_depth_polygons",
"crs": { "type": "name", "properties": { "name": "urn:ogc:def:crs:OGC:1.3:CRS84" } },
"features": [
{ "type": "Feature", "properties": { "depth_bin": "140-145 ft", "bin_order": -142.5, "survey_id": "LM_15_CVB_20150513_CS_MB_5998_6000", "date": "2015-05-13", "year": 2015, "mile": 600.0 }, "geometry": { "type": "MultiPolygon", "coordinates": [ [ [ [ -91.094734622700926, 33.963239764503449 ], [ -91.09514153371228, 33.963663354155699 ], [ -91.095038766121846, 33.964029387509768 ], [ -91.09472711606, 33.964192381565198 ], [ -91.094307230465603, 33.964111867873918 ], [ -91.094035195912312, 33.963813268033412 ], [ -91.093976465679106, 33.963394341037734 ], [ -91.093850172049471, 33.963167672728098 ], [ -91.093903275064079, 33.962908169310282 ], [ -91.094195923859218, 33.962709385545324 ], [ -91.094524912017022, 33.962741539054257 ], [ -91.0947158620327, 33.962905946058136 ], [ -91.094734622700926, 33.963239764503449 ] ] ], [ [ [ -91.0947434770858, 33.964647374051474 ], [ -91.094802297957941, 33.964946510543967 ], [ -91.094631635136096, 33.965193882197461 ], [ -91.094312913253589, 33.965269080493506 ], [ -91.09402372703795, 33.965134469526383 ], [ -91.093916623062739, 33.964827788494439 ], [ -91.094094421377633, 33.964559251792849 ], [ -91.094429629472884, 33.964483952002126 ], [ -91.0947434770858, 33.964647374051474 ] ] ], [ [ [ -91.094362230343435, 33.965374792227479 ], [ -91.094698960741823, 33.965498671220573 ], [ -91.094820017803272, 33.965755587444264 ], [ -91.094719948246379, 33.966405931244125 ], [ -91.094522631351936, 33.966565039117739 ], [ -91.094301202370161, 33.966604555904993 ], [ -91.094062143416195, 33.966540066728356 ], [ -91.093906374118475, 33.966375783935078 ], [ -91.093888722082752, 33.965756329261531 ], [ -91.094053888255559, 33.96547565773983 ], [ -91.094362230343435, 33.965374792227479 ] ] ], [ [ [ -91.094582803555227, 33.961419544030306 ], [ -91.094642601289522, 33.961828591821188 ], [ -91.094422601066356, 33.962090008326086 ], [ -91.09398174932663, 33.962209835428915 ], [ -91.093650199316656, 33.96207283067551 ], [ -91.093490152110846, 33.961733069010926 ], [ -91.093526386221569, 33.961491201370229 ], [ -91.093669839178844, 33.961319312832714 ], [ -91.093903721001851, 33.961242801632665 ], [ -91.094268967828569, 33.9612561219068 ], [ -91.094582803555227, 33.961419544030306 ] ] ], [ [ [ -91.094167087337979, 33.968730783229731 ], [ -91.094286851659234, 33.968952326763826 ], [ -91.094247607908159, 33.969319155252407 ], [ -91.093925993004163, 33.969779840000712 ], [ -91.093443352723213, 33.970025935449222 ], [ -91.093192052081903, 33.970023827715117 ], [ -91.092970513749563, 33.969932430830106 ], [ -91.092815157032518, 33.969762479083542 ], [ -91.092784930747854, 33.969582772174576 ], [ -91.093015298744689, 33.968805188947051 ], [ -91.093256319312317, 33.968590151800711 ], [ -91.093490221705338, 33.968513642167743 ], [ -91.094167087337979, 33.968730783229731 ] ] ] ] } },
{ "type": "Feature", "properties": { "depth_bin": "145-150 ft", "bin_order": -147.5, "survey_id": "LM_15_CVB_20150513_CS_MB_5998_6000", "date": "2015-05-13", "year": 2015, "mile": 600.0 }, "geometry": { "type": "MultiPolygon", "coordinates": [ [ [ [ -91.095177661505772, 33.962916828019139 ], [ -91.095237329273445, 33.963803424880318 ], [ -91.095095280043836, 33.964056905958479 ], [ -91.094835428030962, 33.964190677796843 ], [ -91.094853118204199, 33.965769122282076 ], [ -91.094766054247827, 33.966430619029801 ], [ -91.094527952504166, 33.966712483035657 ], [ -91.094185424296498, 33.96676139065714 ], [ -91.093892306450897, 33.966573121941749 ], [ -91.093659903908929, 33.965875563012986 ], [ -91.093756650280284, 33.965320846994238 ], [ -91.093668201670724, 33.964954954115839 ], [ -91.093731082056223, 33.964620973460562 ], [ -91.093661038566012, 33.964260112587581 ], [ -91.093832494782717, 33.963627846694067 ], [ -91.093685633516017, 33.96344445679923 ], [ -91.093634159118807, 33.963092407169981 ], [ -91.09378839800975, 33.962271482561547 ], [ -91.093493020420098, 33.961976138674551 ], [ -91.093373443247216, 33.961715186054946 ], [ -91.093366908911563, 33.961526281095907 ], [ -91.093489452084768, 33.961343504097599 ], [ -91.093929684447559, 33.961241824365374 ], [ -91.094327344494175, 33.96126186238434 ], [ -91.094546697403089, 33.961363970840175 ], [ -91.09470028652089, 33.961681482220051 ], [ -91.094587146906335, 33.962015124915816 ], [ -91.094773233632054, 33.962229644246129 ], [ -91.094781155080653, 33.962497749325301 ], [ -91.095177661505772, 33.962916828019139 ] ] ], [ [ [ -91.094371411513904, 33.968664998059374 ], [ -91.094419696507231, 33.968945667566608 ], [ -91.094335705924721, 33.969380184542288 ], [ -91.093943338989931, 33.969875910243076 ], [ -91.093172899274933, 33.970184778593321 ], [ -91.092774222978306, 33.970112258380048 ], [ -91.092623524991509, 33.969866463541479 ], [ -91.092695022620887, 33.969416998066414 ], [ -91.092881659455188, 33.968854123463828 ], [ -91.093226363581394, 33.968432914853267 ], [ -91.093397605461476, 33.968331155941065 ], [ -91.093648091519569, 33.968314512545312 ], [ -91.094197061662669, 33.968514228133778 ], [ -91.094371411513904, 33.968664998059374 ] ] ] ] } },
{ "type": "Feature", "properties": { "depth_bin": "150-155 ft", "bin_order": -152.5, "survey_id": "LM_15_CVB_20150513_CS_MB_5998_6000", "date": "2015-05-13", "year": 2015, "mile": 600.0 }, "geometry": { "type": "MultiPolygon", "coordinates": [ [ [ [ -91.095323106422214, 33.962872005602428 ], [ -91.095393526668346, 33.963498731262618 ], [ -91.095292567655932, 33.963878396687868 ], [ -91.095148620628606, 33.964082171661268 ], [ -91.094855878359652, 33.964230443462931 ], [ -91.094858750955765, 33.966401112811603 ], [ -91.094744795637979, 33.966649835913458 ], [ -91.094738218252559, 33.967007857097492 ], [ -91.094567673309825, 33.967268967338143 ], [ -91.09420705202686, 33.967338322635662 ], [ -91.093863266040401, 33.967090512321093 ], [ -91.093478524950669, 33.96587668341072 ], [ -91.093532490444304, 33.96428057433242 ], [ -91.093585056994726, 33.963805719463252 ], [ -91.093707110927625, 33.963623378420714 ], [ -91.093520206575306, 33.963257986781848 ], [ -91.093534922893028, 33.962700497580641 ], [ -91.093661794985451, 33.962319569430335 ], [ -91.093291490987227, 33.961770650684272 ], [ -91.093260968000266, 33.961561795979513 ], [ -91.093361421144706, 33.961369890657124 ], [ -91.093698850974675, 33.961243250666897 ], [ -91.094034543712539, 33.961316356954264 ], [ -91.09435153071135, 33.961269351075885 ], [ -91.094581838509527, 33.961353052411532 ], [ -91.094727078238307, 33.961563747759854 ], [ -91.094681292890414, 33.961938885033398 ], [ -91.095323106422214, 33.962872005602428 ] ] ], [ [ [ -91.09448595084524, 33.969088491893892 ], [ -91.094336035072445, 33.969529990828377 ], [ -91.093881988211905, 33.969984322925662 ], [ -91.09351772586291, 33.970085128798146 ], [ -91.093323158780251, 33.970305981311014 ], [ -91.092964125652117, 33.970354986848832 ], [ -91.092559869029458, 33.970157000183391 ], [ -91.092476817854163, 33.969810436238063 ], [ -91.092735912097623, 33.969025419694866 ], [ -91.092931433473979, 33.96858865321397 ], [ -91.093202187370338, 33.968258054365428 ], [ -91.093256335657301, 33.968037061144592 ], [ -91.093449561193495, 33.967867900354932 ], [ -91.093792094197241, 33.967818994941389 ], [ -91.094064060639326, 33.967976576311955 ], [ -91.094125167221577, 33.968293027514022 ], [ -91.094467520098391, 33.968634222312289 ], [ -91.09448595084524, 33.969088491893892 ] ] ] ] } },
{ "type": "Feature", "properties": { "depth_bin": "155-160 ft", "bin_order": -157.5, "survey_id": "LM_15_CVB_20150513_CS_MB_5998_6000", "date": "2015-05-13", "year": 2015, "mile": 600.0 }, "geometry": { "type": "Polygon", "coordinates": [ [ [ -91.095324193994713, 33.962632283487238 ], [ -91.095454999184113, 33.963105738522955 ], [ -91.095456486687127, 33.963519892696027 ], [ -91.095357458405687, 33.963928844346505 ], [ -91.094890065254091, 33.964387426967086 ], [ -91.094958498987111, 33.964641817507605 ], [ -91.094908095796498, 33.966387067830759 ], [ -91.094806871898413, 33.966643767548433 ], [ -91.094805399587358, 33.967144837857859 ], [ -91.094616274128072, 33.967371440357503 ], [ -91.094256495318263, 33.967436467766447 ], [ -91.094514897837868, 33.967642551019381 ], [ -91.09460672729611, 33.967837435075367 ], [ -91.094460442241527, 33.968568648167839 ], [ -91.094511809782119, 33.969358740344006 ], [ -91.093850235521941, 33.970035075262999 ], [ -91.093577498236797, 33.970112572208144 ], [ -91.093352407910217, 33.970336939080411 ], [ -91.093013717420362, 33.970368420370392 ], [ -91.092494628576205, 33.970196421194416 ], [ -91.092355884234536, 33.970040106044877 ], [ -91.092325658843308, 33.969860399049956 ], [ -91.092732397333293, 33.968758866266832 ], [ -91.093104693813416, 33.967973408365438 ], [ -91.09335402811854, 33.967675704629649 ], [ -91.093319423197386, 33.96731097529819 ], [ -91.093554717163883, 33.96705026555712 ], [ -91.093608042123563, 33.966770241375265 ], [ -91.093448826878785, 33.966482386411215 ], [ -91.09334795725394, 33.966028625799524 ], [ -91.093336377588784, 33.963599676533924 ], [ -91.093142264946025, 33.963295701764224 ], [ -91.093161206186579, 33.963073519349564 ], [ -91.093295024411688, 33.962908642751046 ], [ -91.09327799863901, 33.9626534838658 ], [ -91.093429972892466, 33.962359224740126 ], [ -91.093134154993777, 33.961805779171023 ], [ -91.093252927144235, 33.961384689164177 ], [ -91.093573835586653, 33.961231100113984 ], [ -91.09380750271977, 33.961247085188461 ], [ -91.093993155486928, 33.961346926454013 ], [ -91.094266460363158, 33.961240559497284 ], [ -91.094547956435989, 33.961303968456967 ], [ -91.094736107538139, 33.961476893464045 ], [ -91.094765427667241, 33.961818574916805 ], [ -91.094955106534343, 33.961997647053622 ], [ -91.095324193994713, 33.962632283487238 ] ], [ [ -91.094489813702211, 33.963120056348913 ], [ -91.094453732805761, 33.963060478438095 ], [ -91.094399749562413, 33.96301908304364 ], [ -91.094396439591591, 33.963062374145032 ], [ -91.094489813702211, 33.963120056348913 ] ] ] } },
{ "type": "Feature", "properties": { "depth_bin": "160-165 ft", "bin_order": -162.5, "survey_id": "LM_15_CVB_20150513_CS_MB_5998_6000", "date": "2015-05-13", "year": 2015, "mile": 600.0 }, "geometry": { "type": "Polygon", "coordinates": [ [ [ -91.095203288786379, 33.962092288572897 ], [ -91.095463953973706, 33.962836977320563 ], [ -91.095505339599285, 33.963450891937754 ], [ -91.095390925747949, 33.963983595719021 ], [ -91.094931947247161, 33.964399913386885 ], [ -91.094991721440337, 33.964669091204321 ], [ -91.094918621615236, 33.966515199756742 ], [ -91.095010214804873, 33.966743667458978 ], [ -91.094653273726564, 33.967588977455236 ], [ -91.094499527551747, 33.968563740432565 ], [ -91.094615295871648, 33.969296017535875 ], [ -91.093997416772567, 33.969983609536648 ], [ -91.093580778369741, 33.970139338471434 ], [ -91.093368775546338, 33.970323098366066 ], [ -91.093104957735463, 33.970360219093202 ], [ -91.092850163335626, 33.970257337637527 ], [ -91.092592469882973, 33.970251613716222 ], [ -91.092245706889642, 33.970062760488545 ], [ -91.092187014331131, 33.969777362949706 ], [ -91.092547760041541, 33.969033276356171 ], [ -91.092907771100101, 33.967952665863415 ], [ -91.093061061312824, 33.967741283550339 ], [ -91.093040326098333, 33.967450094837638 ], [ -91.093240194863384, 33.96716040829596 ], [ -91.093192952373116, 33.966893208003405 ], [ -91.093331369701474, 33.966616559047353 ], [ -91.09313078885117, 33.965713954096671 ], [ -91.093019517754271, 33.964326934544189 ], [ -91.093095057817393, 33.963388387332557 ], [ -91.092821146591632, 33.962652893147038 ], [ -91.092744598289258, 33.962197680690693 ], [ -91.092591507651036, 33.961974003626551 ], [ -91.092619073605377, 33.961573718646903 ], [ -91.092818885714109, 33.961396749178284 ], [ -91.093228562762121, 33.961343149582959 ], [ -91.093676574720348, 33.961357811325243 ], [ -91.093898748238445, 33.961495907278156 ], [ -91.094115642320844, 33.961186304868903 ], [ -91.094538863400743, 33.961159171648177 ], [ -91.094850912436428, 33.961407484926021 ], [ -91.094902862740312, 33.961739087385368 ], [ -91.095203288786379, 33.962092288572897 ] ], [ [ -91.093485438777435, 33.969224133454844 ], [ -91.093617165097598, 33.969133166570018 ], [ -91.093647475589009, 33.968808750780994 ], [ -91.093529734612858, 33.969036739563386 ], [ -91.093485438777435, 33.969224133454844 ] ], [ [ -91.094384515620121, 33.963518860409735 ], [ -91.094557050229199, 33.963505844306802 ], [ -91.094608337184198, 33.963222147469928 ], [ -91.094266343366996, 33.962527575374587 ], [ -91.094183922370789, 33.962781327414959 ], [ -91.094241018223499, 33.963296543290518 ], [ -91.094384515620121, 33.963518860409735 ] ] ] } },
{ "type": "Feature", "properties": { "depth_bin": "165-170 ft", "bin_order": -167.5, "survey_id": "LM_15_CVB_20150513_CS_MB_5998_6000", "date": "2015-05-13", "year": 2015, "mile": 600.0 }, "geometry": { "type": "Polygon", "coordinates": [ [ [ -91.095319538602638, 33.962110204692834 ], [ -91.095553317209621, 33.963036431431831 ], [ -91.095508525744378, 33.963808103946803 ], [ -91.095418128466648, 33.964040778775242 ], [ -91.095046794324176, 33.964342106885539 ], [ -91.09507092601153, 33.96466267299239 ], [ -91.09497657213393, 33.964882483567948 ], [ -91.094998522849551, 33.966363726545566 ], [ -91.095177854294278, 33.966562736194334 ], [ -91.095204967894475, 33.96675027361529 ], [ -91.095098077240422, 33.966983050078483 ], [ -91.09489493774889, 33.967137722015153 ], [ -91.094688587873705, 33.967668063563835 ], [ -91.094545113388904, 33.968552198520122 ], [ -91.094684316036478, 33.969142223416384 ], [ -91.094648642484898, 33.969337030161796 ], [ -91.094390725076167, 33.969706385253673 ], [ -91.093982031628357, 33.970020521109049 ], [ -91.093598652891032, 33.970153577752143 ], [ -91.093418001740275, 33.970295315082353 ], [ -91.093112291153702, 33.970326592959239 ], [ -91.092837808263994, 33.970165366844078 ], [ -91.092311897272594, 33.970225865089226 ], [ -91.092080930807029, 33.970077516121883 ], [ -91.092015225480523, 33.969827022388742 ], [ -91.092418333189485, 33.968915751695626 ], [ -91.092547689183291, 33.968257159726718 ], [ -91.092709765524191, 33.967996638518926 ], [ -91.092832157830998, 33.967447887789575 ], [ -91.092779803558813, 33.967150884115483 ], [ -91.092937680153, 33.965901252197305 ], [ -91.092696279064171, 33.963302657539494 ], [ -91.092526211176477, 33.96269916421106 ], [ -91.092188974918571, 33.962024767766714 ], [ -91.09214259800261, 33.961637137901981 ], [ -91.092452799659199, 33.961387401534651 ], [ -91.093338788848854, 33.961350408655548 ], [ -91.093751810111883, 33.961574332781218 ], [ -91.093830318379517, 33.961889366078708 ], [ -91.093918104968083, 33.961939869184938 ], [ -91.093952493657056, 33.961447607190003 ], [ -91.094052945128368, 33.961255701241591 ], [ -91.094305801948096, 33.961134679907971 ], [ -91.094713737529602, 33.961172784099496 ], [ -91.095049724424968, 33.961438630090917 ], [ -91.095065368508585, 33.961660693344655 ], [ -91.095319538602638, 33.962110204692834 ] ], [ [ -91.093348086549412, 33.969350884060169 ], [ -91.09365791535815, 33.96914304131262 ], [ -91.093700510187574, 33.968844831703159 ], [ -91.093633593190191, 33.968546671982644 ], [ -91.093348086549412, 33.969350884060169 ] ], [ [ -91.093900131346899, 33.963760209238842 ], [ -91.094075844807776, 33.965978213594035 ], [ -91.094104672608211, 33.964623416815705 ], [ -91.094014862324826, 33.963926721436877 ], [ -91.094250866757136, 33.963610247483345 ], [ -91.09460237324582, 33.963537220811141 ], [ -91.094658801030903, 33.963327146436789 ], [ -91.094606000468161, 33.962945276793789 ], [ -91.094338767228493, 33.962363058683437 ], [ -91.094089687035094, 33.962173963040414 ], [ -91.094060269761798, 33.962393916223149 ], [ -91.09380303200102, 33.962755457971504 ], [ -91.093973235315786, 33.963362218731589 ], [ -91.093900131346899, 33.963760209238842 ] ] ] } },
{ "type": "Feature", "properties": { "depth_bin": "170-175 ft", "bin_order": -172.5, "survey_id": "LM_15_CVB_20150513_CS_MB_5998_6000", "date": "2015-05-13", "year": 2015, "mile": 600.0 }, "geometry": { "type": "Polygon", "coordinates": [ [ [ -91.095383286345154, 33.961862495385056 ], [ -91.095604988598069, 33.963283425092747 ], [ -91.095558236642773, 33.963835275387019 ], [ -91.095467839468213, 33.964067950252982 ], [ -91.09508310871675, 33.96443680941762 ], [ -91.095025253614139, 33.965189339118993 ], [ -91.095051641503986, 33.966259151454615 ], [ -91.095238069824376, 33.966763808335251 ], [ -91.095098567207543, 33.967038005606291 ], [ -91.094923500042128, 33.967159501140578 ], [ -91.094732952260202, 33.96765751710349 ], [ -91.094769800576415, 33.967879619055559 ], [ -91.094605433853019, 33.968575273182815 ], [ -91.094717489790284, 33.969053742656399 ], [ -91.094633254677802, 33.969460782074755 ], [ -91.094342850185015, 33.96979845633026 ], [ -91.093395762829076, 33.970309746676691 ], [ -91.093026494148972, 33.970288889745866 ], [ -91.092813956936837, 33.970046393639002 ], [ -91.092586902810865, 33.970218562028165 ], [ -91.092225667860561, 33.970321983396403 ], [ -91.091982832414587, 33.970310331820954 ], [ -91.09171864166052, 33.970134707732313 ], [ -91.091652815416651, 33.969870474959521 ], [ -91.091895332451017, 33.969203697844058 ], [ -91.092185431201401, 33.968850894330004 ], [ -91.092320043857313, 33.96804534518148 ], [ -91.092489950662014, 33.967755602174435 ], [ -91.092485258689692, 33.967048711406996 ], [ -91.092671764580885, 33.965769886714519 ], [ -91.092436205505408, 33.96332300619833 ], [ -91.09219376492473, 33.96266708801803 ], [ -91.091809134164095, 33.96195841085099 ], [ -91.091796833881531, 33.961694227730632 ], [ -91.091974868791226, 33.961501792319503 ], [ -91.092411864391806, 33.961393690012535 ], [ -91.092671162778402, 33.9614052383169 ], [ -91.092882734930768, 33.961525388005533 ], [ -91.093457710556379, 33.962636226727042 ], [ -91.093577144171817, 33.963323447069484 ], [ -91.093798677202926, 33.965871820587743 ], [ -91.093770652480913, 33.966786623636722 ], [ -91.093653122983199, 33.967113459314831 ], [ -91.093729132759165, 33.967679958696174 ], [ -91.093631767566649, 33.968106746316742 ], [ -91.093344001811971, 33.968573091021213 ], [ -91.093245185179214, 33.969139609574341 ], [ -91.092997063987582, 33.969608659586633 ], [ -91.093728000433927, 33.969173245957471 ], [ -91.093700467752811, 33.968332737784507 ], [ -91.093831813582383, 33.967445206434078 ], [ -91.094053124917664, 33.966760440580977 ], [ -91.09402136831379, 33.966509737930316 ], [ -91.094139463070007, 33.966286540944303 ], [ -91.094073682603252, 33.963947478954218 ], [ -91.094219606078198, 33.963715956491647 ], [ -91.094613648683392, 33.96361872355147 ], [ -91.094693002182709, 33.963464332158878 ], [ -91.094706656056346, 33.963152840336022 ], [ -91.094519642115571, 33.962506141291378 ], [ -91.094306931076474, 33.962174770276881 ], [ -91.09401514796086, 33.961923458703644 ], [ -91.094039929585222, 33.961588316013859 ], [ -91.094433135239086, 33.961208161906221 ], [ -91.094687526228171, 33.961168440424444 ], [ -91.094973117975655, 33.961227401948946 ], [ -91.095181508156983, 33.961424074778037 ], [ -91.095212288507938, 33.961681201502977 ], [ -91.095383286345154, 33.961862495385056 ] ] ] } },
{ "type": "Feature", "properties": { "depth_bin": "175-180 ft", "bin_order": -177.5, "survey_id": "LM_15_CVB_20150513_CS_MB_5998_6000", "date": "2015-05-13", "year": 2015, "mile": 600.0 }, "geometry": { "type": "MultiPolygon", "coordinates": [ [ [ [ -91.095547242756197, 33.962278174906857 ], [ -91.095634166138282, 33.962857314367774 ], [ -91.09560794757256, 33.963862446806637 ], [ -91.095485308448488, 33.964177760148367 ], [ -91.095148054545291, 33.964417093401089 ], [ -91.095122847321889, 33.964507067096889 ], [ -91.095190811607338, 33.964805255413545 ], [ -91.095115568800964, 33.965214687581565 ], [ -91.095230528134508, 33.965560691807653 ], [ -91.095075059473885, 33.965976053654778 ], [ -91.095273797491728, 33.966714556604394 ], [ -91.095203033527667, 33.966952528260805 ], [ -91.09496934044337, 33.967160866830802 ], [ -91.09477150318564, 33.967655275957114 ], [ -91.094803146699334, 33.967920631654593 ], [ -91.094650664106581, 33.96857027866217 ], [ -91.094758743282867, 33.968818098887752 ], [ -91.094758176350624, 33.969247299219894 ], [ -91.094534965850173, 33.969704595078717 ], [ -91.094180032673307, 33.970033036801574 ], [ -91.093638084914431, 33.970184329137943 ], [ -91.093445232402843, 33.970309441146853 ], [ -91.093161760733537, 33.970326287543756 ], [ -91.092889788784021, 33.970168704035274 ], [ -91.092831216144148, 33.969897045613884 ], [ -91.09314993946883, 33.96952070307853 ], [ -91.093484106144217, 33.969421298108323 ], [ -91.093772942460248, 33.969168211412807 ], [ -91.093731919216566, 33.968518971185546 ], [ -91.093888612840829, 33.967809454906543 ], [ -91.093858759321137, 33.96758981858089 ], [ -91.094187520197536, 33.96669187809821 ], [ -91.094144163223518, 33.964455410920138 ], [ -91.094275196330756, 33.963936345446044 ], [ -91.09471090105913, 33.963618944181455 ], [ -91.094738447263722, 33.963109395860855 ], [ -91.094616747413326, 33.962315276973428 ], [ -91.094332959223834, 33.961831940304805 ], [ -91.094383405032517, 33.96144468610224 ], [ -91.09452685623134, 33.961272796502165 ], [ -91.094895027141874, 33.961197291028128 ], [ -91.095250276780121, 33.961345230249918 ], [ -91.095547242756197, 33.962278174906857 ] ] ], [ [ [ -91.09329053339313, 33.963193908791069 ], [ -91.093550240909337, 33.965749697714138 ], [ -91.093426295379075, 33.966810926538173 ], [ -91.093494124645147, 33.967214261766081 ], [ -91.093335143227478, 33.967543786262048 ], [ -91.093361919939525, 33.968005620126476 ], [ -91.093173901729728, 33.968241820783312 ], [ -91.093013840528528, 33.969086079291039 ], [ -91.092460916207401, 33.970129596050818 ], [ -91.092241225224967, 33.970289392317824 ], [ -91.091974243360113, 33.97030613428538 ], [ -91.091537728079629, 33.970147361694025 ], [ -91.0913857396623, 33.969866192289061 ], [ -91.091887791351525, 33.968756227245407 ], [ -91.09209520048168, 33.967971788684054 ], [ -91.092180927678768, 33.967235562719715 ], [ -91.092285066225116, 33.967069096716635 ], [ -91.092346713106778, 33.966455469034031 ], [ -91.092377778136068, 33.964902760558232 ], [ -91.09222006474215, 33.96352542929484 ], [ -91.091596639685207, 33.961931266351016 ], [ -91.091672745149424, 33.961696708727679 ], [ -91.091968103787906, 33.961483880291958 ], [ -91.092259122118534, 33.961460887649253 ], [ -91.092489428179661, 33.961544592847936 ], [ -91.092978930736081, 33.962207111296159 ], [ -91.09329053339313, 33.963193908791069 ] ] ] ] } },
{ "type": "Feature", "properties": { "depth_bin": "180-185 ft", "bin_order": -182.5, "survey_id": "LM_15_CVB_20150513_CS_MB_5998_6000", "date": "2015-05-13", "year": 2015, "mile": 600.0 }, "geometry": { "type": "MultiPolygon", "coordinates": [ [ [ [ -91.095646785371699, 33.962346256655827 ], [ -91.095658026241594, 33.963930834868542 ], [ -91.095519021064234, 33.964259989254963 ], [ -91.095212396683337, 33.964510123518018 ], [ -91.095257870449259, 33.964928497995452 ], [ -91.095186567418295, 33.96522046315323 ], [ -91.095296238843474, 33.965532805714048 ], [ -91.095119741666139, 33.966114189955839 ], [ -91.095288027423507, 33.966818457614103 ], [ -91.094945752804506, 33.96725925968294 ], [ -91.094798909634278, 33.967657109028593 ], [ -91.094819758546336, 33.967934268509836 ], [ -91.094711045809106, 33.96835800514782 ], [ -91.094812805334087, 33.968756717719792 ], [ -91.094807645300719, 33.9692469931435 ], [ -91.094600557531777, 33.96966297045774 ], [ -91.0942301139075, 33.970101425343351 ], [ -91.093211230312619, 33.970325982108413 ], [ -91.092939258267322, 33.970168398706235 ], [ -91.092880441166272, 33.969869262549878 ], [ -91.093182303361303, 33.969538645311722 ], [ -91.093566458542327, 33.969449375287375 ], [ -91.093902856575966, 33.969088489557073 ], [ -91.09376538737439, 33.968573722921008 ], [ -91.093891737972569, 33.967589614779904 ], [ -91.094117251544418, 33.96686797958678 ], [ -91.094354757798726, 33.966619544455554 ], [ -91.094208323924647, 33.966353061936019 ], [ -91.094180385286464, 33.965177460800213 ], [ -91.094315535258772, 33.964808947343478 ], [ -91.094225152218527, 33.96453932200356 ], [ -91.094274621383249, 33.964042156940252 ], [ -91.094418077416336, 33.963870267692648 ], [ -91.094761205796175, 33.963712477553244 ], [ -91.094699556161956, 33.962355983690408 ], [ -91.094447887252002, 33.961776271070072 ], [ -91.09451543251123, 33.96145760929722 ], [ -91.094658883474878, 33.96128571953512 ], [ -91.094994078151188, 33.961210417741306 ], [ -91.095365816149808, 33.96135825459875 ], [ -91.095646785371699, 33.962346256655827 ] ] ], [ [ [ -91.09324572314263, 33.964916684829539 ], [ -91.093180584266648, 33.967188718698992 ], [ -91.092958317371043, 33.967820543017183 ], [ -91.092775505259198, 33.968819880768294 ], [ -91.09226230595344, 33.970048383175069 ], [ -91.092064975938641, 33.970207486623295 ], [ -91.091759265326004, 33.970238761130268 ], [ -91.091355852325734, 33.970093522632773 ], [ -91.091203864605646, 33.969812353024537 ], [ -91.091384005669937, 33.969061233732354 ], [ -91.091608721234863, 33.968712077868901 ], [ -91.091911133663785, 33.967726704416769 ], [ -91.092145590305364, 33.966270533417102 ], [ -91.09207737041902, 33.966042303273234 ], [ -91.092138985597799, 33.965516185961327 ], [ -91.092054049433415, 33.965273025364432 ], [ -91.092131660290818, 33.964801735423137 ], [ -91.0919216467383, 33.963321686035762 ], [ -91.091333315253507, 33.961987846941057 ], [ -91.091386668752662, 33.96175582252129 ], [ -91.091606338513927, 33.961596026873025 ], [ -91.092120249781317, 33.961536543578916 ], [ -91.092430788312811, 33.961757083751735 ], [ -91.093025984716945, 33.963113104097488 ], [ -91.09324572314263, 33.964916684829539 ] ] ] ] } },
{ "type": "Feature", "properties": { "depth_bin": "185-190 ft", "bin_order": -187.5, "survey_id": "LM_15_CVB_20150513_CS_MB_5998_6000", "date": "2015-05-13", "year": 2015, "mile": 600.0 }, "geometry": { "type": "MultiPolygon", "coordinates": [ [ [ [ -91.095431891171984, 33.961371585132007 ], [ -91.095799611704038, 33.962809232899339 ], [ -91.095698598201551, 33.963587379365457 ], [ -91.095772589553349, 33.963833947692926 ], [ -91.095607729169245, 33.964257046974836 ], [ -91.095296412335344, 33.964540371909173 ], [ -91.095271653209764, 33.965224839031983 ], [ -91.09534283388102, 33.965567808142595 ], [ -91.09513525074459, 33.966004176825948 ], [ -91.095337127368254, 33.966776934696256 ], [ -91.095252868693123, 33.966993438671594 ], [ -91.094965371585246, 33.967286031401741 ], [ -91.094795900829865, 33.968591491289004 ], [ -91.094879620826703, 33.968852481739752 ], [ -91.094856991785363, 33.969232948168958 ], [ -91.094617414543535, 33.969704085088459 ], [ -91.094230358646755, 33.970128903999111 ], [ -91.093948535164586, 33.970248685468682 ], [ -91.0932442100316, 33.970325778473793 ], [ -91.092972237922453, 33.970168195142477 ], [ -91.092913420705173, 33.969869058998462 ], [ -91.093249986254875, 33.96953163219662 ], [ -91.09362117473249, 33.969487583948059 ], [ -91.093951315493157, 33.969060599107181 ], [ -91.093798244114168, 33.968559780264016 ], [ -91.093957162382608, 33.96783398988876 ], [ -91.093924716623675, 33.967589410970078 ], [ -91.094166596756381, 33.966853934901529 ], [ -91.094395132387078, 33.966626824889609 ], [ -91.09425791353712, 33.966366494982424 ], [ -91.094239330911364, 33.965883747760294 ], [ -91.094327138210545, 33.965521552093215 ], [ -91.094232601710488, 33.965128107448628 ], [ -91.094396165041303, 33.96477498793859 ], [ -91.094256467420777, 33.964462528259808 ], [ -91.094424206853461, 33.964004122264271 ], [ -91.094799662351875, 33.963729050357699 ], [ -91.094831327953386, 33.962703943168712 ], [ -91.094594251342343, 33.961657545867361 ], [ -91.094646143033088, 33.961451279557444 ], [ -91.094790910755606, 33.961298642425881 ], [ -91.095109617286411, 33.961223442323281 ], [ -91.095431891171984, 33.961371585132007 ] ] ], [ [ [ -91.092979476352141, 33.964612829453877 ], [ -91.09296341333787, 33.966874046638743 ], [ -91.09263955916596, 33.968367310576362 ], [ -91.091975347775886, 33.970011325401245 ], [ -91.091737915303113, 33.970152410134752 ], [ -91.091230979633679, 33.970173316536282 ], [ -91.090942400289507, 33.970002091522879 ], [ -91.090876576553427, 33.969737858403079 ], [ -91.091647074651632, 33.967614129709411 ], [ -91.091878068748699, 33.965858676714809 ], [ -91.091743274245857, 33.965447719317666 ], [ -91.091827862412472, 33.964539470971154 ], [ -91.091677087215629, 33.963316618137931 ], [ -91.091086722380837, 33.962071803260791 ], [ -91.091188638436762, 33.9617954792432 ], [ -91.091556995876076, 33.961610070515157 ], [ -91.091840438689403, 33.96159322696132 ], [ -91.092059789237254, 33.961695339774479 ], [ -91.092536432027373, 33.962512114926959 ], [ -91.092848151790037, 33.963512652439732 ], [ -91.092979476352141, 33.964612829453877 ] ] ] ] } },
{ "type": "Feature", "properties": { "depth_bin": "190-195 ft", "bin_order": -192.5, "survey_id": "LM_15_CVB_20150513_CS_MB_5998_6000", "date": "2015-05-13", "year": 2015, "mile": 600.0 }, "geometry": { "type": "MultiPolygon", "coordinates": [ [ [ [ -91.095473041531434, 33.961400294957521 ], [ -91.095848954319933, 33.96279518756365 ], [ -91.095785776981316, 33.963279831911272 ], [ -91.095958110033351, 33.963452737856599 ], [ -91.095985347291034, 33.963654014101778 ], [ -91.09567368390249, 33.964256638469429 ], [ -91.095346680253996, 33.964579292947683 ], [ -91.095375811756611, 33.965567603955868 ], [ -91.095200523759587, 33.966178628586874 ], [ -91.095369860638243, 33.966749252740364 ], [ -91.095269970504717, 33.967062030996559 ], [ -91.095063247655176, 33.967217851514292 ], [ -91.094987541338568, 33.967566213335701 ], [ -91.094855914384169, 33.968592629263391 ], [ -91.094928722120329, 33.968810958977805 ], [ -91.094906215780952, 33.969205164296717 ], [ -91.094635006153936, 33.969827632980781 ], [ -91.094329664716156, 33.970169508878605 ], [ -91.094006453620779, 33.970297249848777 ], [ -91.093277189750239, 33.970325574830348 ], [ -91.092984062164973, 33.970137303702707 ], [ -91.092972536634377, 33.969801598943363 ], [ -91.09322147068282, 33.969583107673017 ], [ -91.093691584981499, 33.969529441504712 ], [ -91.0940171515999, 33.96904645255178 ], [ -91.093882354728024, 33.968635860584307 ], [ -91.093960997773394, 33.967960156851703 ], [ -91.094184525142538, 33.966886824569187 ], [ -91.094430797796306, 33.966633265172234 ], [ -91.094290279910282, 33.966297596682459 ], [ -91.094272064188786, 33.965856066104195 ], [ -91.094392793692933, 33.965481780015516 ], [ -91.09426295193181, 33.965190689981647 ], [ -91.094440801611299, 33.964770896054979 ], [ -91.094292194639976, 33.964413276823478 ], [ -91.094571822493265, 33.963972948220082 ], [ -91.094865315955474, 33.963804408536859 ], [ -91.094821574964072, 33.963112545566176 ], [ -91.094944809743893, 33.962734064686096 ], [ -91.094642981500726, 33.961574806578533 ], [ -91.094697743606744, 33.961391892558872 ], [ -91.094841853901755, 33.961264251664026 ], [ -91.095167871515756, 33.961215443510902 ], [ -91.095473041531434, 33.961400294957521 ] ] ], [ [ [ -91.092636612363719, 33.965030361398703 ], [ -91.092743436513047, 33.966243378747549 ], [ -91.092502392677787, 33.967777351299489 ], [ -91.091913302955547, 33.96957375608131 ], [ -91.091540543279834, 33.970124620851429 ], [ -91.091298760819939, 33.970181655958271 ], [ -91.090826833242602, 33.970125096680405 ], [ -91.090595869759511, 33.969976745019522 ], [ -91.090530168893565, 33.969726250629698 ], [ -91.090900165418233, 33.968982758990862 ], [ -91.091163344778181, 33.967777679708036 ], [ -91.091461575038807, 33.96707159315207 ], [ -91.091442046462561, 33.966560514077898 ], [ -91.091589793137913, 33.965716464628343 ], [ -91.091411910114417, 33.965271144566131 ], [ -91.091503833981122, 33.964950141270194 ], [ -91.091424736834028, 33.964609587987418 ], [ -91.091517935328923, 33.964379936579455 ], [ -91.091382745064521, 33.963842398533941 ], [ -91.091361792171156, 33.96323082016508 ], [ -91.090739980495755, 33.962018978925222 ], [ -91.090816088376855, 33.961784421918601 ], [ -91.091013250151619, 33.961654638069753 ], [ -91.091444843120613, 33.961609403998693 ], [ -91.091846296250807, 33.961792833284001 ], [ -91.092474506372341, 33.962965906352338 ], [ -91.092712407954906, 33.964359261091147 ], [ -91.092636612363719, 33.965030361398703 ] ] ] ] } },
{ "type": "Feature", "properties": { "depth_bin": "195-200 ft", "bin_order": -197.5, "survey_id": "LM_15_CVB_20150513_CS_MB_5998_6000", "date": "2015-05-13", "year": 2015, "mile": 600.0 }, "geometry": { "type": "MultiPolygon", "coordinates": [ [ [ [ -91.095844875850418, 33.962612402349983 ], [ -91.096002816847076, 33.963763823024379 ], [ -91.095772371906321, 33.964228547866043 ], [ -91.095386764741335, 33.964616673748459 ], [ -91.095454878422473, 33.964831099791084 ], [ -91.095408667095043, 33.965553660875614 ], [ -91.095250745222572, 33.966175997429254 ], [ -91.095414473162393, 33.96653325553077 ], [ -91.095403819303257, 33.966858959596095 ], [ -91.095223470195265, 33.967174396777722 ], [ -91.0952386541435, 33.967650524913033 ], [ -91.095012150998841, 33.968113996960334 ], [ -91.094960599947271, 33.969183963960205 ], [ -91.094670611912036, 33.969823303600123 ], [ -91.094362889147291, 33.970196782696824 ], [ -91.093792940516948, 33.970394746784997 ], [ -91.09326916568601, 33.970316135221267 ], [ -91.092999598483871, 33.970104832369991 ], [ -91.093024510037395, 33.969783429388173 ], [ -91.093260565782813, 33.969609790911555 ], [ -91.093712979894704, 33.969562644624581 ], [ -91.094066362210967, 33.969039094464343 ], [ -91.093932312565187, 33.96869051036731 ], [ -91.094027782670707, 33.968387246773531 ], [ -91.09401083294361, 33.968001068635878 ], [ -91.094217503520454, 33.966886620683326 ], [ -91.09446996571009, 33.966634533375021 ], [ -91.094304739561139, 33.966179687346056 ], [ -91.094459644818699, 33.965495717029718 ], [ -91.094345572564961, 33.965336452095627 ], [ -91.094331657167388, 33.965141234639944 ], [ -91.094490393182951, 33.964784406781042 ], [ -91.094335794558233, 33.964600712460822 ], [ -91.094308805706618, 33.96442691375853 ], [ -91.094637899405186, 33.963986279142816 ], [ -91.094935722519722, 33.963838545990988 ], [ -91.09487532686164, 33.963593101371302 ], [ -91.094980644453869, 33.962770770829628 ], [ -91.094659347264425, 33.961560965700798 ], [ -91.094714109325565, 33.961378051672064 ], [ -91.094858219572671, 33.961250410756136 ], [ -91.095225236819161, 33.961210837745845 ], [ -91.095506262868511, 33.961427568539797 ], [ -91.095844875850418, 33.962612402349983 ] ] ], [ [ [ -91.092415121791078, 33.964306136404041 ], [ -91.092331483979677, 33.964665990962722 ], [ -91.09234212043647, 33.965261734656998 ], [ -91.09246111144509, 33.965660242878336 ], [ -91.092328740615287, 33.966638943388332 ], [ -91.092386168180752, 33.966863868553915 ], [ -91.092284857647613, 33.967421461377434 ], [ -91.0920540775452, 33.967989351349075 ], [ -91.092045448412648, 33.968316016090583 ], [ -91.091807788281699, 33.968775973296168 ], [ -91.091820937222366, 33.969031863109855 ], [ -91.091387906364858, 33.969946635821969 ], [ -91.091061586179052, 33.970129096829446 ], [ -91.090554773363507, 33.970163739324562 ], [ -91.090282807014219, 33.970006150229452 ], [ -91.090216498446921, 33.969686961275073 ], [ -91.09072817352498, 33.968215241958418 ], [ -91.090592620797196, 33.967956398060174 ], [ -91.09059730051716, 33.967747069277465 ], [ -91.090873479325651, 33.967516142445142 ], [ -91.091093671496921, 33.967038974862412 ], [ -91.091222954832872, 33.96572466270657 ], [ -91.091029984310836, 33.96497122430759 ], [ -91.091108225127712, 33.964111137833875 ], [ -91.090961589512659, 33.962944802703362 ], [ -91.090493264114983, 33.962089195169987 ], [ -91.090546619953017, 33.961857171185834 ], [ -91.090727566274822, 33.961711909838996 ], [ -91.091304838059671, 33.961660974248886 ], [ -91.091656716851631, 33.961935574941094 ], [ -91.092191031137816, 33.962973794898218 ], [ -91.092415121791078, 33.964306136404041 ] ] ] ] } },
{ "type": "Feature", "properties": { "depth_bin": "200-205 ft", "bin_order": -202.5, "survey_id": "LM_15_CVB_20150513_CS_MB_5998_6000", "date": "2015-05-13", "year": 2015, "mile": 600.0 }, "geometry": { "type": "MultiPolygon", "coordinates": [ [ [ [ -91.095526927048638, 33.961403300398473 ], [ -91.096080580695258, 33.962991945101145 ], [ -91.096028905580866, 33.963812261757745 ], [ -91.095887670039559, 33.964214093918685 ], [ -91.095445388293882, 33.964615039931644 ], [ -91.095457643720991, 33.965498399027204 ], [ -91.095324911101642, 33.965936323635525 ], [ -91.095451816261345, 33.966693785793844 ], [ -91.095294049007748, 33.96715604769404 ], [ -91.095322203634481, 33.967773664395246 ], [ -91.095179059513143, 33.967977060293187 ], [ -91.095217954398734, 33.968206597715465 ], [ -91.095059774742055, 33.968630640796711 ], [ -91.095070499697641, 33.969135449378896 ], [ -91.094555665172933, 33.970119438621403 ], [ -91.09410580649886, 33.970415276518068 ], [ -91.09369017096148, 33.970405461788125 ], [ -91.093393268822155, 33.970263258424836 ], [ -91.093303017880515, 33.969997691774381 ], [ -91.093481568319874, 33.969724750465545 ], [ -91.09374749508342, 33.969622985155048 ], [ -91.09413210275136, 33.968991146808904 ], [ -91.09406097638167, 33.968434498912373 ], [ -91.094282988334086, 33.967155872711416 ], [ -91.094248874564983, 33.966955382196019 ], [ -91.094339645410045, 33.966763925142942 ], [ -91.094514642125134, 33.966642456854011 ], [ -91.094370452104016, 33.966151801745568 ], [ -91.094410499609296, 33.965765390842172 ], [ -91.094547805206332, 33.965498971230431 ], [ -91.094378497410446, 33.965203715182376 ], [ -91.094539734255349, 33.96477028333284 ], [ -91.09438830996865, 33.964580506752945 ], [ -91.094381651079615, 33.964377862970849 ], [ -91.094520440411728, 33.964167505358432 ], [ -91.094935249458061, 33.963965315039211 ], [ -91.095038277756103, 33.963773932335819 ], [ -91.094974135705755, 33.963578750305743 ], [ -91.095008166025764, 33.962777468421685 ], [ -91.094677130841021, 33.961596236935712 ], [ -91.0947304750391, 33.961364210783124 ], [ -91.094911413461944, 33.961218942990271 ], [ -91.095241602419833, 33.961196996784601 ], [ -91.095526927048638, 33.961403300398473 ] ] ], [ [ [ -91.092094619736898, 33.965352328762521 ], [ -91.092149895309035, 33.965895736998149 ], [ -91.092014096534768, 33.966381632117745 ], [ -91.092040504983757, 33.966934698196503 ], [ -91.091895492895119, 33.967567873768608 ], [ -91.091607586516588, 33.96800244970224 ], [ -91.091608951789269, 33.968476200629979 ], [ -91.091451961069524, 33.968793172634115 ], [ -91.091415074668959, 33.969178375662416 ], [ -91.091010198487325, 33.969713504332915 ], [ -91.090786417290829, 33.969808742882705 ], [ -91.090576563145802, 33.969796885594953 ], [ -91.08988326647075, 33.969539258045536 ], [ -91.089664352889457, 33.969148581067316 ], [ -91.090056002762807, 33.968571958940288 ], [ -91.090090632737116, 33.968258553371278 ], [ -91.090361376069964, 33.967711740486095 ], [ -91.090351346025457, 33.967329268164995 ], [ -91.090481342052172, 33.9671410849501 ], [ -91.090511368590242, 33.966778697255855 ], [ -91.09066359064154, 33.966511556898105 ], [ -91.090751889606238, 33.966026849109369 ], [ -91.090622192787649, 33.96558411713945 ], [ -91.090740190774952, 33.96520530227027 ], [ -91.090589030671993, 33.964619034772404 ], [ -91.090436355799639, 33.964391722397444 ], [ -91.090520217742508, 33.963882074497327 ], [ -91.090338604798632, 33.963244279751393 ], [ -91.090494111626938, 33.962796800315019 ], [ -91.090471871146605, 33.962600099089904 ], [ -91.090228888229177, 33.962137878012655 ], [ -91.090361325705544, 33.961884892075325 ], [ -91.090773685088138, 33.961700019006592 ], [ -91.091041391283269, 33.961703815383615 ], [ -91.091297503293035, 33.961864265038763 ], [ -91.091842699405134, 33.962742368014709 ], [ -91.092001270819779, 33.964014317753239 ], [ -91.091906189180023, 33.96448568328416 ], [ -91.091990562847542, 33.964775903192169 ], [ -91.091960677563918, 33.96503317781815 ], [ -91.092094619736898, 33.965352328762521 ] ] ] ] } },
{ "type": "Feature", "properties": { "depth_bin": "205-210 ft", "bin_order": -207.5, "survey_id": "LM_15_CVB_20150513_CS_MB_5998_6000", "date": "2015-05-13", "year": 2015, "mile": 600.0 }, "geometry": { "type": "MultiPolygon", "coordinates": [ [ [ [ -91.096033440214825, 33.962655369667935 ], [ -91.096168243666568, 33.963466452679981 ], [ -91.09603135816765, 33.964087040385493 ], [ -91.09592167511876, 33.964271623649594 ], [ -91.095486340944561, 33.964629588549464 ], [ -91.095475848312162, 33.965690641302224 ], [ -91.095377248426772, 33.965962221193649 ], [ -91.095469653497219, 33.966844812285927 ], [ -91.095359664308404, 33.967129349282061 ], [ -91.095362071570747, 33.967724817202701 ], [ -91.095157486782455, 33.968492638784809 ], [ -91.09511972356654, 33.969107665422506 ], [ -91.094680170294026, 33.970049581450375 ], [ -91.094247449462671, 33.970396447457468 ], [ -91.093921396126007, 33.970445251882914 ], [ -91.093624494526878, 33.970303049056923 ], [ -91.09353424282159, 33.970037482551724 ], [ -91.093624774253982, 33.969818548495766 ], [ -91.093848205629797, 33.969659239050081 ], [ -91.093990255009587, 33.969273205821032 ], [ -91.094183030827253, 33.969021540250338 ], [ -91.094149232603215, 33.968728414530041 ], [ -91.094421330114912, 33.967537175445138 ], [ -91.094397400841885, 33.966968203438135 ], [ -91.094589788971248, 33.966699013977653 ], [ -91.094438805046153, 33.966310417897425 ], [ -91.094436588015157, 33.965813829854248 ], [ -91.094589565595982, 33.965429238147614 ], [ -91.094506916122157, 33.964453167956535 ], [ -91.094623246883302, 33.964192465307946 ], [ -91.095076534063267, 33.963891093647781 ], [ -91.095169392166568, 33.963625891309448 ], [ -91.095174957861275, 33.963287286504084 ], [ -91.094693496603554, 33.961582396053799 ], [ -91.094727971673578, 33.961382075137912 ], [ -91.094907194113844, 33.961195149128777 ], [ -91.095266187597076, 33.961146136650342 ], [ -91.095587845712799, 33.961330885739713 ], [ -91.096033440214825, 33.962655369667935 ] ] ], [ [ [ -91.091441362399721, 33.964435716195162 ], [ -91.091733034873201, 33.965376198967299 ], [ -91.091640155283017, 33.965705168945895 ], [ -91.09164972707741, 33.966463599502823 ], [ -91.091461529508109, 33.967000916905903 ], [ -91.091444145603376, 33.967454122283549 ], [ -91.091256509047554, 33.967697019600109 ], [ -91.091253219789536, 33.968238459708516 ], [ -91.091057608122398, 33.968508079261305 ], [ -91.090871378478639, 33.96910480684425 ], [ -91.090322067531702, 33.969586748924023 ], [ -91.089512652247421, 33.969584546437616 ], [ -91.089217201161006, 33.969349857263815 ], [ -91.089084418921402, 33.968836131239023 ], [ -91.089203697690976, 33.968487948629608 ], [ -91.089395052945662, 33.96833879050142 ], [ -91.089310276363634, 33.967658804386474 ], [ -91.089454364944643, 33.967468775707381 ], [ -91.089720091742507, 33.967360007442245 ], [ -91.08993119044078, 33.966706133814739 ], [ -91.089824190602243, 33.966103063455698 ], [ -91.090083007721063, 33.965877011221259 ], [ -91.090131158407758, 33.965742003524014 ], [ -91.090154730055616, 33.965436905508092 ], [ -91.089941232481479, 33.964922963701191 ], [ -91.090087277125789, 33.964623770654015 ], [ -91.089887491343518, 33.964471495175289 ], [ -91.089751554712109, 33.964224380314228 ], [ -91.089745150072716, 33.964049214376139 ], [ -91.089856794744861, 33.963876103341086 ], [ -91.089494086877664, 33.962953035786931 ], [ -91.089562458544776, 33.962614795418283 ], [ -91.089752993989563, 33.96236943141961 ], [ -91.089819118675194, 33.961934452242147 ], [ -91.090057662580435, 33.961742955052678 ], [ -91.090365170387386, 33.961719865549092 ], [ -91.090856075195163, 33.961816137429579 ], [ -91.091314583872844, 33.962327289783659 ], [ -91.091445245581241, 33.962787010267178 ], [ -91.091386139558026, 33.963485889478555 ], [ -91.091553075272245, 33.963789342513131 ], [ -91.091441362399721, 33.964435716195162 ] ] ] ] } },
{ "type": "Feature", "properties": { "depth_bin": "210-215 ft", "bin_order": -212.5, "survey_id": "LM_15_CVB_20150513_CS_MB_5998_6000", "date": "2015-05-13", "year": 2015, "mile": 600.0 }, "geometry": { "type": "MultiPolygon", "coordinates": [ [ [ [ -91.096061162039746, 33.962427764286929 ], [ -91.096247569716212, 33.963473772637762 ], [ -91.09601957942985, 33.964213276573396 ], [ -91.095525563055872, 33.96464894868506 ], [ -91.095447550719172, 33.965881600660232 ], [ -91.095505626182415, 33.966823038248712 ], [ -91.095186417156256, 33.969189690388241 ], [ -91.094622237674685, 33.970187724994901 ], [ -91.09427645418657, 33.970399927257624 ], [ -91.093937886005804, 33.970445149971233 ], [ -91.093665912171062, 33.970287568120035 ], [ -91.093600202018706, 33.970037075089159 ], [ -91.093707345325939, 33.969831777971187 ], [ -91.093949788435893, 33.969654076638847 ], [ -91.094280141989969, 33.968949012640294 ], [ -91.094294456807233, 33.968370285327936 ], [ -91.094498982182003, 33.967590537136587 ], [ -91.094480336439403, 33.967022649077919 ], [ -91.094623081387084, 33.966721066182146 ], [ -91.094519220708463, 33.966192100630217 ], [ -91.094624710148366, 33.965410261479882 ], [ -91.094590950928506, 33.964631263523486 ], [ -91.094745224649614, 33.9641646194667 ], [ -91.095174743605781, 33.963870766285801 ], [ -91.095288445700206, 33.963299656841386 ], [ -91.095283404315666, 33.963124218038168 ], [ -91.094928723854665, 33.96231011838389 ], [ -91.094797508548368, 33.96157566447372 ], [ -91.094826777995678, 33.961367724212302 ], [ -91.094955179610565, 33.961228927774691 ], [ -91.095323350002715, 33.961153420999963 ], [ -91.095662113218211, 33.961301461122858 ], [ -91.096061162039746, 33.962427764286929 ] ] ], [ [ [ -91.090787265074823, 33.964170502810461 ], [ -91.091132974858112, 33.964651691925347 ], [ -91.090976359198251, 33.965131022105972 ], [ -91.091156652841491, 33.965462187270866 ], [ -91.091093672110219, 33.966157369911379 ], [ -91.09091097947271, 33.96647420901504 ], [ -91.09093487250982, 33.966845331684539 ], [ -91.090791421393178, 33.967120571109454 ], [ -91.090768568579094, 33.967513240532462 ], [ -91.090675187249019, 33.967736155521827 ], [ -91.09037855516911, 33.968068727094483 ], [ -91.090416029842345, 33.96866954250855 ], [ -91.09031601587813, 33.968853671783727 ], [ -91.090131490023694, 33.968978705488389 ], [ -91.090047067927657, 33.969429998845385 ], [ -91.08982737450512, 33.969589790724157 ], [ -91.089477945923818, 33.969607034098502 ], [ -91.088676599349782, 33.969216917710611 ], [ -91.088525914862018, 33.968971118276237 ], [ -91.088643136569061, 33.968095445774829 ], [ -91.088912854479076, 33.967732916982158 ], [ -91.088958048858942, 33.967524262915731 ], [ -91.088812746842962, 33.967259551636907 ], [ -91.088797461803793, 33.966899147094828 ], [ -91.088890917404356, 33.966742149805135 ], [ -91.089096463520988, 33.966630767386839 ], [ -91.089097910336065, 33.96627265931366 ], [ -91.089192761414338, 33.96608682904337 ], [ -91.08906599179754, 33.965564750352456 ], [ -91.089204917565112, 33.965368138098725 ], [ -91.089485848878084, 33.965211126754795 ], [ -91.089449606417887, 33.965020188803479 ], [ -91.089519679392964, 33.96486226139632 ], [ -91.089159540488239, 33.964406632767478 ], [ -91.089007286237276, 33.96373334961828 ], [ -91.089114615416904, 33.963445337265952 ], [ -91.088706950893837, 33.962753588063912 ], [ -91.08869105974928, 33.962324488701377 ], [ -91.088845609482576, 33.962118443415157 ], [ -91.089390253739907, 33.961887141619229 ], [ -91.090165413714359, 33.961774214413722 ], [ -91.090605604900901, 33.961937222397239 ], [ -91.090782324291482, 33.962171831971538 ], [ -91.090850640158862, 33.96256499818999 ], [ -91.090796112594091, 33.962775388001688 ], [ -91.090621512951572, 33.962923618771519 ], [ -91.090639803985425, 33.963235422528207 ], [ -91.090889055474108, 33.963868217954875 ], [ -91.090787265074823, 33.964170502810461 ] ] ] ] } },
{ "type": "Feature", "properties": { "depth_bin": "215-220 ft", "bin_order": -217.5, "survey_id": "LM_15_CVB_20150513_CS_MB_5998_6000", "date": "2015-05-13", "year": 2015, "mile": 600.0 }, "geometry": { "type": "MultiPolygon", "coordinates": [ [ [ [ -91.096075565645279, 33.962194100979694 ], [ -91.096273360133424, 33.962996839254309 ], [ -91.096280793193614, 33.963501045986163 ], [ -91.09606916808518, 33.964226708917728 ], [ -91.095568335088359, 33.964672813882295 ], [ -91.095538604541261, 33.966822834011147 ], [ -91.095275882551576, 33.96872419684312 ], [ -91.095269969203756, 33.969312829849066 ], [ -91.094965047431572, 33.969853070159601 ], [ -91.094606358896769, 33.970256521386204 ], [ -91.094336787133983, 33.970427588081478 ], [ -91.094069805041471, 33.970444334598376 ], [ -91.093789270739109, 33.970288291357377 ], [ -91.093699018528611, 33.97002272495547 ], [ -91.09405195785429, 33.96960565958603 ], [ -91.094362712305994, 33.968962241697767 ], [ -91.094562170467526, 33.96695344476187 ], [ -91.094656182118911, 33.966734601061788 ], [ -91.094583218408872, 33.965971870608506 ], [ -91.094687435092652, 33.964355872994751 ], [ -91.094816991465535, 33.964138190691351 ], [ -91.09524069801715, 33.963870358003454 ], [ -91.095369873056725, 33.963344409777335 ], [ -91.094913171637614, 33.961602428139237 ], [ -91.095038726230399, 33.961265227433017 ], [ -91.095353819538232, 33.961137654447327 ], [ -91.095716375932682, 33.961246813816466 ], [ -91.096075565645279, 33.962194100979694 ] ] ], [ [ [ -91.090479832492264, 33.964888008793977 ], [ -91.090455203123227, 33.965646573110291 ], [ -91.090281614982146, 33.96587033631873 ], [ -91.090377505692857, 33.966182898263781 ], [ -91.090110857918361, 33.966515300642023 ], [ -91.090151768742658, 33.966761352712751 ], [ -91.089866940675478, 33.967425752601599 ], [ -91.089980121361492, 33.967861582515653 ], [ -91.089722761800346, 33.968223294789091 ], [ -91.089754499134102, 33.968453775072227 ], [ -91.089483863295001, 33.969144928059301 ], [ -91.08914040569671, 33.969328515247405 ], [ -91.088438322244841, 33.96922042377831 ], [ -91.087653703063211, 33.969308317666474 ], [ -91.087294677429881, 33.969211224848678 ], [ -91.087086287808489, 33.969014538876763 ], [ -91.086948234736397, 33.968504286766986 ], [ -91.087199063568775, 33.968159376390886 ], [ -91.087149885983095, 33.967892147405301 ], [ -91.087250360766859, 33.967700247988695 ], [ -91.087503246073041, 33.967579241747387 ], [ -91.087834139174234, 33.967642790431093 ], [ -91.088040166795437, 33.967598516894888 ], [ -91.088055116834354, 33.967272167070732 ], [ -91.088409724782167, 33.966994819886018 ], [ -91.08844772699112, 33.966568819080081 ], [ -91.088354806380778, 33.96615356266242 ], [ -91.088507308136371, 33.965786645752985 ], [ -91.088488634446293, 33.965540814998192 ], [ -91.088634637284912, 33.965279314079233 ], [ -91.088441721472719, 33.964792801822 ], [ -91.088828541780842, 33.964302700644588 ], [ -91.088593181886338, 33.964050175407685 ], [ -91.088532421473474, 33.963796451983569 ], [ -91.08829057779252, 33.963470069729745 ], [ -91.088248574618603, 33.963174355040614 ], [ -91.088008832514518, 33.962943548756627 ], [ -91.087941705581031, 33.962322727046946 ], [ -91.088154217426137, 33.96204739117448 ], [ -91.08925312632789, 33.961957620597857 ], [ -91.089609328651903, 33.962123449982414 ], [ -91.089676480941947, 33.962289524261998 ], [ -91.089639495009834, 33.962601999924928 ], [ -91.089900863380848, 33.962894418940039 ], [ -91.090142927788818, 33.963405659129442 ], [ -91.090014720347412, 33.963730939809643 ], [ -91.090231455346753, 33.964092099219123 ], [ -91.09017132897705, 33.964361606020113 ], [ -91.090479832492264, 33.964888008793977 ] ] ] ] } },
{ "type": "Feature", "properties": { "depth_bin": "220-225 ft", "bin_order": -222.5, "survey_id": "LM_15_CVB_20150513_CS_MB_5998_6000", "date": "2015-05-13", "year": 2015, "mile": 600.0 }, "geometry": { "type": "MultiPolygon", "coordinates": [ [ [ [ -91.095817577180014, 33.961205805874059 ], [ -91.096328153685391, 33.963017889863202 ], [ -91.096329645423182, 33.963432044909737 ], [ -91.096204993687294, 33.96391213480026 ], [ -91.096253702940643, 33.964160718738327 ], [ -91.096058685835473, 33.964433766960681 ], [ -91.095602171486249, 33.964706448682172 ], [ -91.095571705469041, 33.966836368646128 ], [ -91.095319683264847, 33.96934000131958 ], [ -91.094992251675379, 33.969910253154048 ], [ -91.094557746299827, 33.970352999518113 ], [ -91.094346249543037, 33.970466060903306 ], [ -91.094119519375539, 33.970471506544989 ], [ -91.093830932948663, 33.970300288109307 ], [ -91.093765100005697, 33.970036056278126 ], [ -91.094230252395562, 33.969479530279528 ], [ -91.094446140517093, 33.96907164282819 ], [ -91.094428454379013, 33.968603031352337 ], [ -91.0946891604341, 33.966734397051482 ], [ -91.094632440612287, 33.965944086866941 ], [ -91.094706004930103, 33.964589332901717 ], [ -91.094812281241317, 33.964287862264129 ], [ -91.095306239692079, 33.963874309579616 ], [ -91.095427561486659, 33.96339919864046 ], [ -91.095244123042676, 33.962380605069917 ], [ -91.094973184209678, 33.961511967393037 ], [ -91.095023656873991, 33.961256588783087 ], [ -91.095186635315628, 33.961097242157173 ], [ -91.095545628259245, 33.961048228844682 ], [ -91.095817577180014, 33.961205805874059 ] ] ], [ [ [ -91.089223025520809, 33.963142056522422 ], [ -91.089894489476237, 33.964453216539283 ], [ -91.089507716064418, 33.965087121377238 ], [ -91.089590686942103, 33.965526778323294 ], [ -91.089478014976962, 33.966011602969417 ], [ -91.089581007678049, 33.966296259989647 ], [ -91.089379763878298, 33.966598498986031 ], [ -91.089402832115894, 33.967019628829505 ], [ -91.08932197021538, 33.967234501858158 ], [ -91.089389473136976, 33.967624513327955 ], [ -91.089277998224404, 33.967773122671211 ], [ -91.089015584991145, 33.967907754803875 ], [ -91.088998223539107, 33.968135284054107 ], [ -91.088788903689306, 33.968408151321945 ], [ -91.088482717382874, 33.96858131347831 ], [ -91.088125197839403, 33.968606738278872 ], [ -91.087706400842663, 33.969186405904175 ], [ -91.087289756501733, 33.969212519299816 ], [ -91.08689092230334, 33.968941877100491 ], [ -91.086380776200059, 33.96880505803481 ], [ -91.086212196638385, 33.968510243938994 ], [ -91.086245911776075, 33.967979862855543 ], [ -91.086568346814559, 33.967690969898555 ], [ -91.086798777309397, 33.966922633554276 ], [ -91.087018469022254, 33.966762846979258 ], [ -91.087285166747591, 33.966749869962747 ], [ -91.08736240328777, 33.966545818437233 ], [ -91.087873405023274, 33.966081482279137 ], [ -91.087906417569585, 33.965809295551644 ], [ -91.087749009708844, 33.965630519812485 ], [ -91.087701942487939, 33.965409696201242 ], [ -91.087882392027495, 33.965027964542763 ], [ -91.087933523797545, 33.964541942761251 ], [ -91.087690540870327, 33.964118236481099 ], [ -91.087925945294032, 33.963718723982872 ], [ -91.087799818835663, 33.963549375729002 ], [ -91.087811547765938, 33.963324562078469 ], [ -91.087244645126646, 33.962665839690729 ], [ -91.087217549995145, 33.962478300986383 ], [ -91.087318017656585, 33.962286401130619 ], [ -91.087562357676788, 33.962159410317973 ], [ -91.088074810671756, 33.962143962336057 ], [ -91.088295402967404, 33.962051034688351 ], [ -91.088669141712487, 33.96213142449843 ], [ -91.089174863442878, 33.962766379094163 ], [ -91.089223025520809, 33.963142056522422 ] ] ] ] } },
{ "type": "Feature", "properties": { "depth_bin": "225-230 ft", "bin_order": -227.5, "survey_id": "LM_15_CVB_20150513_CS_MB_5998_6000", "date": "2015-05-13", "year": 2015, "mile": 600.0 }, "geometry": { "type": "MultiPolygon", "coordinates": [ [ [ [ -91.096225064086269, 33.962316831259308 ], [ -91.096395722196149, 33.963445374907515 ], [ -91.096237416679415, 33.964303994795642 ], [ -91.095668462509167, 33.964746389167644 ], [ -91.095620069822019, 33.966712412327439 ], [ -91.095353030231422, 33.969381013749036 ], [ -91.095064353524847, 33.969893674444087 ], [ -91.094640319131543, 33.970366228375838 ], [ -91.09442882244349, 33.970479289905434 ], [ -91.094152621497699, 33.970485041540002 ], [ -91.093880647119676, 33.970327460146741 ], [ -91.093814814004133, 33.970063228338041 ], [ -91.094480023915281, 33.969168904063679 ], [ -91.094478045338121, 33.968616464284857 ], [ -91.094722261181261, 33.966747931913062 ], [ -91.094755348732264, 33.964575287997661 ], [ -91.0948715564747, 33.964300846223935 ], [ -91.095356799589936, 33.963940214770439 ], [ -91.095476414328999, 33.963330197907581 ], [ -91.095038524511239, 33.96144286480942 ], [ -91.095073121172348, 33.961256282657175 ], [ -91.0952360995243, 33.961096935962544 ], [ -91.095644556628883, 33.961047616144768 ], [ -91.095916505741101, 33.961205192961607 ], [ -91.096225064086269, 33.962316831259308 ] ] ], [ [ [ -91.088677145559444, 33.962994774708179 ], [ -91.089114898514836, 33.963935897668001 ], [ -91.089037490737965, 33.964135080126077 ], [ -91.088783068152892, 33.964324516096369 ], [ -91.08900741914573, 33.964945392880864 ], [ -91.088789541280221, 33.965356948896172 ], [ -91.088808341984148, 33.965689993790484 ], [ -91.088934330104181, 33.966003796593277 ], [ -91.088867732120917, 33.966432366229739 ], [ -91.088574282205897, 33.966927466755415 ], [ -91.088272638562188, 33.967053182862898 ], [ -91.088022020225466, 33.9673779777047 ], [ -91.087626829492464, 33.967549798193666 ], [ -91.087499460041826, 33.967768147386614 ], [ -91.087599690159109, 33.967990496536899 ], [ -91.087531871077061, 33.968281676266422 ], [ -91.08723719582008, 33.96863938443731 ], [ -91.086803202511007, 33.968866401048786 ], [ -91.086445753510404, 33.968874195874399 ], [ -91.085924829032265, 33.968605437501587 ], [ -91.085747101788584, 33.968128378324295 ], [ -91.085815613466394, 33.967803878341613 ], [ -91.086070386230489, 33.96736447992523 ], [ -91.086084998662258, 33.966813231712628 ], [ -91.086197695149266, 33.966380834367143 ], [ -91.086564019029183, 33.965767545769722 ], [ -91.087198859795691, 33.965108296057245 ], [ -91.087194790601075, 33.9639664111413 ], [ -91.086892494862226, 33.962682271744278 ], [ -91.086940292662604, 33.962401413401423 ], [ -91.087121246055418, 33.962256157622896 ], [ -91.087481100890088, 33.962161663475619 ], [ -91.088123027282336, 33.962286338364528 ], [ -91.088292811642447, 33.962420065425221 ], [ -91.088474798317932, 33.962840818110557 ], [ -91.088677145559444, 33.962994774708179 ] ] ] ] } },
{ "type": "Feature", "properties": { "depth_bin": "230-235 ft", "bin_order": -232.5, "survey_id": "LM_15_CVB_20150513_CS_MB_5998_6000", "date": "2015-05-13", "year": 2015, "mile": 600.0 }, "geometry": { "type": "Polygon", "coordinates": [ [ [ -91.095933484249656, 33.961260046370612 ], [ -91.096341349568334, 33.962896125191996 ], [ -91.096266830728666, 33.963060004095212 ], [ -91.096096607055628, 33.963179687585551 ], [ -91.096319290479087, 33.963349425618119 ], [ -91.096364340008662, 33.96362418577867 ], [ -91.096103862414452, 33.964418848934763 ], [ -91.095667965993783, 33.964774406469509 ], [ -91.095543577028934, 33.967737432855209 ], [ -91.095398700139057, 33.968954801354499 ], [ -91.095159030967906, 33.969204176323139 ], [ -91.095271929725399, 33.96953265277466 ], [ -91.095117380797333, 33.969738705973342 ], [ -91.094857832598549, 33.969815870553987 ], [ -91.09486950005693, 33.97006386616156 ], [ -91.094672931547521, 33.970324807728772 ], [ -91.094501686983705, 33.970426568300716 ], [ -91.094251194788839, 33.970443213223142 ], [ -91.093979220347563, 33.97028563204519 ], [ -91.093913509268901, 33.970035139152643 ], [ -91.094157403974293, 33.969693094784084 ], [ -91.094448949353236, 33.969592656949658 ], [ -91.094452333478685, 33.969311567772152 ], [ -91.094665870164263, 33.969129451187911 ], [ -91.094549835538459, 33.96894165721578 ], [ -91.094540641523224, 33.968596409478877 ], [ -91.094763318130646, 33.966803204997724 ], [ -91.094811826598729, 33.964540077848767 ], [ -91.094921389905764, 33.964341756782154 ], [ -91.09541372196729, 33.963993917721254 ], [ -91.09552212376849, 33.963402413224429 ], [ -91.095748774436743, 33.963187919758546 ], [ -91.095571910036782, 33.96307768008802 ], [ -91.095461374348176, 33.962870147574478 ], [ -91.0951433935832, 33.961532305163438 ], [ -91.095172539691006, 33.961310625900381 ], [ -91.095335517972657, 33.961151279072524 ], [ -91.095661534934578, 33.961102469585583 ], [ -91.095933484249656, 33.961260046370612 ] ] ] } }
]
}
