{
"type": "FeatureCollection",
"name": "LM_13_OZE_20220421_CS_5740_5722_depth_polygons",
"crs": { "type": "name", "properties": { "name": "urn:ogc:def:crs:OGC:1.3:CRS84" } },
"features": [
{ "type": "Feature", "properties": { "depth_bin": "10-11 ft", "survey_id": "LM_13_OZE_20220421_CS_5740_5722", "date": "2022-04-21 00:00:00+00:00", "year": 2022, "mile": 573.0, "bin_order": 7 }, "geometry": { "type": "MultiPolygon", "coordinates": [ [ [ [ -91.178416004498132, 33.703725224850473 ], [ -91.17860430120524, 33.703498457765441 ], [ -91.178929296937881, 33.703449391780779 ], [ -91.179200615319203, 33.703606768880782 ], [ -91.179259322285176, 33.703878400412734 ], [ -91.179071026375738, 33.704105168513266 ], [ -91.17874602821685, 33.70415423478655 ], [ -91.178474709037843, 33.70399685667104 ], [ -91.178416004498132, 33.703725224850473 ] ] ], [ [ [ -91.175337838411068, 33.704187357864576 ], [ -91.175526144055425, 33.703960595793923 ], [ -91.175851142907177, 33.703911538032521 ], [ -91.176122456762428, 33.704068921747727 ], [ -91.17618115420828, 33.704340554411772 ], [ -91.175992849361322, 33.704567317498032 ], [ -91.175667848083151, 33.704616375547872 ], [ -91.175396533430515, 33.704458990817066 ], [ -91.175337838411068, 33.704187357864576 ] ] ], [ [ [ -91.188779656798914, 33.704655435488235 ], [ -91.18896792915109, 33.704428651792689 ], [ -91.189292923811792, 33.704379558452906 ], [ -91.18956426503189, 33.704536913476957 ], [ -91.189623005369484, 33.70480854114377 ], [ -91.189434733816043, 33.705035325854631 ], [ -91.18910973672935, 33.705084419483704 ], [ -91.188838394710515, 33.704927063444337 ], [ -91.188779656798914, 33.704655435488235 ] ] ], [ [ [ -91.168849620928242, 33.705909936014386 ], [ -91.16903794713879, 33.70568318459641 ], [ -91.16936295540367, 33.705634144269204 ], [ -91.169634262005204, 33.705791541987686 ], [ -91.169692939779239, 33.706063177021321 ], [ -91.169504614365508, 33.706289929455103 ], [ -91.169179603673797, 33.706338970070355 ], [ -91.168908296275433, 33.706181571336074 ], [ -91.168849620928242, 33.705909936014386 ] ] ] ] } },
{ "type": "Feature", "properties": { "depth_bin": "11-12 ft", "survey_id": "LM_13_OZE_20220421_CS_5740_5722", "date": "2022-04-21 00:00:00+00:00", "year": 2022, "mile": 573.0, "bin_order": 6 }, "geometry": { "type": "Polygon", "coordinates": [ [ [ -91.168772468290001, 33.705854701252342 ], [ -91.168904246921855, 33.705601599911816 ], [ -91.169211562853249, 33.705500508826091 ], [ -91.169514395949292, 33.705610645319112 ], [ -91.169635351866688, 33.705867493512628 ], [ -91.169503574899679, 33.706120595681391 ], [ -91.169196257031118, 33.706221687421966 ], [ -91.168893422270216, 33.706111550100694 ], [ -91.168772468290001, 33.705854701252342 ] ] ] } },
{ "type": "Feature", "properties": { "depth_bin": "12-13 ft", "survey_id": "LM_13_OZE_20220421_CS_5740_5722", "date": "2022-04-21 00:00:00+00:00", "year": 2022, "mile": 573.0, "bin_order": 5 }, "geometry": { "type": "MultiPolygon", "coordinates": [ [ [ [ -91.198735244038303, 33.698928292246599 ], [ -91.198895975168554, 33.69868716254242 ], [ -91.199213618575001, 33.698611654827673 ], [ -91.199502104629616, 33.698746000156603 ], [ -91.199592443003127, 33.699011501521383 ], [ -91.199431713130082, 33.699252632164381 ], [ -91.199114067501228, 33.699328140361388 ], [ -91.198825580189421, 33.699193794093631 ], [ -91.198735244038303, 33.698928292246599 ] ] ], [ [ [ -91.195398317563772, 33.699390462745242 ], [ -91.195586560841889, 33.699163667818745 ], [ -91.195911532577313, 33.699114556237035 ], [ -91.196182870449576, 33.699271896693809 ], [ -91.196241628978228, 33.699543522001086 ], [ -91.196053386499273, 33.699770317942559 ], [ -91.195728412338738, 33.6998194298139 ], [ -91.195457073667299, 33.699662088342158 ], [ -91.195398317563772, 33.699390462745242 ] ] ], [ [ [ -91.185254089181186, 33.7039682824024 ], [ -91.185442368963862, 33.703741504317001 ], [ -91.185767362583405, 33.703692420233914 ], [ -91.186038694900631, 33.703849782738928 ], [ -91.186097423688551, 33.704121411728785 ], [ -91.185909144704226, 33.704348190829549 ], [ -91.185584148658648, 33.7043972752017 ], [ -91.185312815543057, 33.70423991168132 ], [ -91.185254089181186, 33.7039682824024 ] ] ] ] } },
{ "type": "Feature", "properties": { "depth_bin": "13-14 ft", "survey_id": "LM_13_OZE_20220421_CS_5740_5722", "date": "2022-04-21 00:00:00+00:00", "year": 2022, "mile": 573.0, "bin_order": 4 }, "geometry": { "type": "MultiPolygon", "coordinates": [ [ [ [ -91.174275615192954, 33.700270358716068 ], [ -91.174489599740767, 33.700060116439744 ], [ -91.174818772082673, 33.700037921838423 ], [ -91.175070309317547, 33.700216776148714 ], [ -91.175096864562803, 33.700491909685326 ], [ -91.174882880323509, 33.700702153013864 ], [ -91.174553705446726, 33.700724347699847 ], [ -91.174302167903349, 33.700545492337355 ], [ -91.174275615192954, 33.700270358716068 ] ] ], [ [ [ -91.181980950778694, 33.703618100698179 ], [ -91.182194925873333, 33.703407844826188 ], [ -91.182524110028567, 33.703385630050271 ], [ -91.182775673423379, 33.703564469424663 ], [ -91.182802253851676, 33.703839602013353 ], [ -91.182588279066394, 33.704049858937623 ], [ -91.182259092375986, 33.704072073798734 ], [ -91.182007528671789, 33.703893233372071 ], [ -91.181980950778694, 33.703618100698179 ] ] ], [ [ [ -91.175334546699034, 33.704014726089106 ], [ -91.175548538479134, 33.703804482322127 ], [ -91.175877725020797, 33.703782285377386 ], [ -91.176129275105183, 33.703961137864134 ], [ -91.176155834322756, 33.704236271165435 ], [ -91.175941842851344, 33.704446515984777 ], [ -91.175612653774351, 33.704468713014272 ], [ -91.175361103381292, 33.704289859475161 ], [ -91.175334546699034, 33.704014726089106 ] ] ], [ [ [ -91.195841379951275, 33.704427246163057 ], [ -91.196055324489762, 33.704216965243894 ], [ -91.196384509919852, 33.704194713496356 ], [ -91.196636105673676, 33.70437352563146 ], [ -91.196662730590702, 33.704648656669555 ], [ -91.196448786363035, 33.704858938640875 ], [ -91.196119598397871, 33.704881190474545 ], [ -91.195868002333199, 33.704702377287276 ], [ -91.195841379951275, 33.704427246163057 ] ] ], [ [ [ -91.192279033115753, 33.704512167412965 ], [ -91.192492986269428, 33.704301892963727 ], [ -91.192822172495269, 33.704279650756398 ], [ -91.193073760759319, 33.704458469913668 ], [ -91.193100374288179, 33.704733601342426 ], [ -91.192886421444953, 33.704943876843878 ], [ -91.192557232683981, 33.704966119137083 ], [ -91.192305644109467, 33.704787298927613 ], [ -91.192279033115753, 33.704512167412965 ] ] ], [ [ [ -91.188796096250741, 33.704482502429016 ], [ -91.18901005753419, 33.704272234293356 ], [ -91.189339244105284, 33.704250001399103 ], [ -91.189590824727816, 33.704428827413594 ], [ -91.189617427104452, 33.70470395922689 ], [ -91.189403466131097, 33.704914228414786 ], [ -91.189074277024829, 33.704936461394695 ], [ -91.188822696092174, 33.704757634327954 ], [ -91.188796096250741, 33.704482502429016 ] ] ], [ [ [ -91.171775494493673, 33.704663175930698 ], [ -91.171989496340544, 33.704452938697273 ], [ -91.172318685828245, 33.704430751358196 ], [ -91.172570230012269, 33.704609610896014 ], [ -91.172596777939205, 33.704884744563394 ], [ -91.172382776400639, 33.705094982849225 ], [ -91.172053584377494, 33.705117170272842 ], [ -91.171802039885122, 33.704938309682611 ], [ -91.171775494493673, 33.704663175930698 ] ] ], [ [ [ -91.168662286259703, 33.705469349815928 ], [ -91.168940039554585, 33.705266332346802 ], [ -91.16930401404629, 33.705316986108841 ], [ -91.169540152319257, 33.705640736296715 ], [ -91.169479546885157, 33.705944940188978 ], [ -91.169201731831407, 33.706094198114528 ], [ -91.168879007574304, 33.7060355547125 ], [ -91.168642870833864, 33.705711803326487 ], [ -91.168662286259703, 33.705469349815928 ] ] ] ] } },
{ "type": "Feature", "properties": { "depth_bin": "14-15 ft", "survey_id": "LM_13_OZE_20220421_CS_5740_5722", "date": "2022-04-21 00:00:00+00:00", "year": 2022, "mile": 573.0, "bin_order": 3 }, "geometry": { "type": "MultiPolygon", "coordinates": [ [ [ [ -91.170486127721318, 33.700894083654205 ], [ -91.170646939998022, 33.700652993550108 ], [ -91.170964611993824, 33.70057755960147 ], [ -91.171253057334638, 33.700711969652481 ], [ -91.171343309539068, 33.70097748878274 ], [ -91.17118249851714, 33.701218579826715 ], [ -91.170864824297212, 33.701294014256028 ], [ -91.170576377701636, 33.701159603265147 ], [ -91.170486127721318, 33.700894083654205 ] ] ], [ [ [ -91.188743095506126, 33.703968875440204 ], [ -91.189006655449191, 33.703709863135153 ], [ -91.189374818709382, 33.703730395900536 ], [ -91.18958938992445, 33.703981284535544 ], [ -91.189543682383686, 33.704358570213074 ], [ -91.189284752336391, 33.704529911761576 ], [ -91.18895670047354, 33.704498041718601 ], [ -91.1887516968673, 33.704281629351897 ], [ -91.188743095506126, 33.703968875440204 ] ] ] ] } },
{ "type": "Feature", "properties": { "depth_bin": "15-17.5 ft", "survey_id": "LM_13_OZE_20220421_CS_5740_5722", "date": "2022-04-21 00:00:00+00:00", "year": 2022, "mile": 573.0, "bin_order": 2 }, "geometry": { "type": "MultiPolygon", "coordinates": [ [ [ [ -91.188601637501733, 33.699382250215919 ], [ -91.188839213436367, 33.699190522452668 ], [ -91.189169402812027, 33.699195364072153 ], [ -91.189398786971125, 33.699393939005084 ], [ -91.189392995649612, 33.699669925490305 ], [ -91.189155419524539, 33.69986165430209 ], [ -91.188825227602521, 33.699856812561322 ], [ -91.188595843633877, 33.699658236579872 ], [ -91.188601637501733, 33.699382250215919 ] ] ], [ [ [ -91.1813806731451, 33.69949523565063 ], [ -91.181699627130129, 33.699284194067324 ], [ -91.182055897756115, 33.699364383929399 ], [ -91.182241896513261, 33.699744042560646 ], [ -91.18214048313493, 33.70000673333184 ], [ -91.181846539054661, 33.70013254536557 ], [ -91.181532253840857, 33.700047779110164 ], [ -91.181387207278235, 33.699837185268237 ], [ -91.1813806731451, 33.69949523565063 ] ] ], [ [ [ -91.181988936403698, 33.703446925333616 ], [ -91.182226538059894, 33.703255211274723 ], [ -91.182556741775286, 33.703260071080727 ], [ -91.18278612049258, 33.703458658029248 ], [ -91.182780307134976, 33.703734643320679 ], [ -91.182542705287617, 33.703926358428248 ], [ -91.182212499025411, 33.70392149850052 ], [ -91.181983120499282, 33.70372291050333 ], [ -91.181988936403698, 33.703446925333616 ] ] ], [ [ [ -91.185248357382619, 33.703626909331476 ], [ -91.185567318138069, 33.703415858083048 ], [ -91.185923609775259, 33.703496037418027 ], [ -91.1860741498338, 33.703741721521858 ], [ -91.18607746573467, 33.703984999612913 ], [ -91.185984493187973, 33.704142092407999 ], [ -91.185690539899667, 33.704267913232655 ], [ -91.185376235565869, 33.70418315619186 ], [ -91.185231172926933, 33.703972566458184 ], [ -91.185248357382619, 33.703626909331476 ] ] ], [ [ [ -91.188791952182797, 33.703762465274643 ], [ -91.188954251289019, 33.703602966273564 ], [ -91.189152894975734, 33.703546826358675 ], [ -91.189397702915485, 33.703591270337824 ], [ -91.189571711187682, 33.703741899355215 ], [ -91.189619087550497, 33.70391262875706 ], [ -91.189544005672062, 33.70410944122002 ], [ -91.189645233244818, 33.70449781350365 ], [ -91.189413317571166, 33.704777171265931 ], [ -91.189084128991055, 33.704799404289986 ], [ -91.18883254842342, 33.704620577252093 ], [ -91.188763416724655, 33.704348118481221 ], [ -91.188837165130693, 33.704115931770467 ], [ -91.188757549354364, 33.703935351521743 ], [ -91.188791952182797, 33.703762465274643 ] ] ], [ [ [ -91.177746664129202, 33.699854866306964 ], [ -91.177984264550801, 33.699663160291138 ], [ -91.178314453744335, 33.69966803098108 ], [ -91.178543813158868, 33.699866625278929 ], [ -91.178537987024612, 33.700142610079851 ], [ -91.178300386411422, 33.700334317144183 ], [ -91.177970194671559, 33.700329446332248 ], [ -91.177740835448603, 33.700130850985872 ], [ -91.177746664129202, 33.699854866306964 ] ] ], [ [ [ -91.174322170468059, 33.70037138750935 ], [ -91.174559779664321, 33.700179688400475 ], [ -91.174889970203523, 33.700184568308217 ], [ -91.175119322746497, 33.700383168735229 ], [ -91.175113485548437, 33.700659152986276 ], [ -91.174875876160215, 33.700850853143663 ], [ -91.174545683074655, 33.700845973113708 ], [ -91.174316330723613, 33.700647371638176 ], [ -91.174322170468059, 33.70037138750935 ] ] ], [ [ [ -91.178384609667702, 33.7035269791064 ], [ -91.178622219235208, 33.703335272260624 ], [ -91.178952422594989, 33.703340141710562 ], [ -91.179181792898035, 33.703538735084706 ], [ -91.17917596799623, 33.703814719819398 ], [ -91.178938358237176, 33.704006427713828 ], [ -91.178608152330597, 33.704001558141933 ], [ -91.178378782219099, 33.70380296371912 ], [ -91.178384609667702, 33.7035269791064 ] ] ], [ [ [ -91.175256621435253, 33.703717671855706 ], [ -91.175534354075367, 33.703514638789031 ], [ -91.175898326024623, 33.703565273004983 ], [ -91.17613428791563, 33.703927511794689 ], [ -91.17606414527063, 33.704197241676596 ], [ -91.175786346681278, 33.704346515028419 ], [ -91.17546362360811, 33.704287888893163 ], [ -91.175237225129806, 33.703960127100437 ], [ -91.175256621435253, 33.703717671855706 ] ] ], [ [ [ -91.171733014724737, 33.704358376823208 ], [ -91.172052009681209, 33.704147361710007 ], [ -91.172408289882156, 33.704227579723899 ], [ -91.172581729046343, 33.704610524366124 ], [ -91.172480280192644, 33.704873205833451 ], [ -91.172186306191961, 33.704998993749328 ], [ -91.171872014140462, 33.704914202690127 ], [ -91.171726984091137, 33.704703598169928 ], [ -91.171733014724737, 33.704358376823208 ] ] ], [ [ [ -91.168626841848209, 33.70530776684938 ], [ -91.16888581328179, 33.705136470096221 ], [ -91.169213857598947, 33.705168393304817 ], [ -91.169418812627541, 33.705384836522221 ], [ -91.169380618006613, 33.705659010957561 ], [ -91.169121645887273, 33.70583030871537 ], [ -91.168793599109648, 33.705798385181907 ], [ -91.168588644766828, 33.705581940959874 ], [ -91.168626841848209, 33.70530776684938 ] ] ] ] } },
{ "type": "Feature", "properties": { "depth_bin": "17.5-20 ft", "survey_id": "LM_13_OZE_20220421_CS_5740_5722", "date": "2022-04-21 00:00:00+00:00", "year": 2022, "mile": 573.0, "bin_order": 1 }, "geometry": { "type": "MultiPolygon", "coordinates": [ [ [ [ -91.185005063407672, 33.699267252811673 ], [ -91.185219020081249, 33.699056990954887 ], [ -91.185548187181439, 33.699034767524118 ], [ -91.185799744877428, 33.699213600643404 ], [ -91.185826334301581, 33.699488733040724 ], [ -91.185612377937602, 33.699698995949582 ], [ -91.18528320830282, 33.699721219465701 ], [ -91.185031650297219, 33.699542385294372 ], [ -91.185005063407672, 33.699267252811673 ] ] ], [ [ [ -91.178300681015969, 33.703289960630613 ], [ -91.178553256949954, 33.703065146100215 ], [ -91.178957344481788, 33.703104437784539 ], [ -91.179095401788217, 33.703236353021467 ], [ -91.179170716212468, 33.703471965610724 ], [ -91.179100583420833, 33.703741697565107 ], [ -91.178822791266924, 33.703890977983939 ], [ -91.178500067441277, 33.703832359770381 ], [ -91.178331023462718, 33.703634659042251 ], [ -91.178300681015969, 33.703289960630613 ] ] ], [ [ [ -91.188782098693963, 33.70352167043734 ], [ -91.188996057515624, 33.703311402217118 ], [ -91.189325240409218, 33.703289169235696 ], [ -91.189576818292736, 33.70346799521154 ], [ -91.189603420473262, 33.703743127057287 ], [ -91.189389461961682, 33.70395339632973 ], [ -91.189060276533027, 33.703975629396801 ], [ -91.188808698339429, 33.703796802368743 ], [ -91.188782098693963, 33.70352167043734 ] ] ], [ [ [ -91.175215636081134, 33.703584451255587 ], [ -91.175453252566683, 33.703392750750773 ], [ -91.175783455563305, 33.703397628678161 ], [ -91.176012818434728, 33.703596227700416 ], [ -91.176006983385903, 33.703872211945296 ], [ -91.175769366708465, 33.70406391349875 ], [ -91.175439161165059, 33.704059035449184 ], [ -91.175209798485525, 33.703860435378289 ], [ -91.175215636081134, 33.703584451255587 ] ] ], [ [ [ -91.199512241781235, 33.704315080240335 ], [ -91.1997261773773, 33.704104792652267 ], [ -91.200055361891643, 33.704082531070846 ], [ -91.200306965292796, 33.70426133596748 ], [ -91.20033360194077, 33.704536466602718 ], [ -91.200119666655922, 33.704746755242923 ], [ -91.199790479606563, 33.704769016910696 ], [ -91.199538875894191, 33.704590210961925 ], [ -91.199512241781235, 33.704315080240335 ] ] ], [ [ [ -91.195822845851509, 33.704290111837018 ], [ -91.196036790077684, 33.704079830935825 ], [ -91.196365974985099, 33.704057579220134 ], [ -91.196617570312043, 33.704236391382338 ], [ -91.196644195148011, 33.70451152242692 ], [ -91.196430251232655, 33.70472180438027 ], [ -91.196101063790195, 33.704744056182079 ], [ -91.195849468152417, 33.704565242967711 ], [ -91.195822845851509, 33.704290111837018 ] ] ], [ [ [ -91.192261012074852, 33.704376484989346 ], [ -91.192474964918731, 33.704166210557268 ], [ -91.192804150627381, 33.704143968380585 ], [ -91.193055738469766, 33.704322787564017 ], [ -91.193082351919514, 33.704597918999141 ], [ -91.1928683993861, 33.704808194483405 ], [ -91.192539211142332, 33.704830436745979 ], [ -91.192287622989483, 33.704651616510333 ], [ -91.192261012074852, 33.704376484989346 ] ] ], [ [ [ -91.168527242435133, 33.705071166761549 ], [ -91.168846247559742, 33.704860160305614 ], [ -91.169202527249112, 33.704940387561365 ], [ -91.169390361585755, 33.705320738871151 ], [ -91.169288902197096, 33.705583417334353 ], [ -91.168994921434077, 33.705709197400196 ], [ -91.168680630354388, 33.705624398243607 ], [ -91.168507826773876, 33.705313620256021 ], [ -91.168527242435133, 33.705071166761549 ] ] ] ] } },
{ "type": "Feature", "properties": { "depth_bin": "5-6 ft", "survey_id": "LM_13_OZE_20220421_CS_5740_5722", "date": "2022-04-21 00:00:00+00:00", "year": 2022, "mile": 573.0, "bin_order": 12 }, "geometry": { "type": "MultiPolygon", "coordinates": [ [ [ [ -91.181963625153443, 33.703929567807805 ], [ -91.18215191326108, 33.703702795023766 ], [ -91.182476908195014, 33.703653719659904 ], [ -91.182748234046173, 33.703811089194559 ], [ -91.18280695237506, 33.704082719406657 ], [ -91.182618665065448, 33.704309493206125 ], [ -91.182293667705366, 33.704358568858851 ], [ -91.182022341056182, 33.704201198308738 ], [ -91.181963625153443, 33.703929567807805 ] ] ], [ [ [ -91.175412652272158, 33.704454835852758 ], [ -91.175600958342841, 33.704228073690231 ], [ -91.175925958176705, 33.704179015766073 ], [ -91.1761972729946, 33.704336399342957 ], [ -91.176255970819696, 33.704608031974168 ], [ -91.176067665546398, 33.704834795152294 ], [ -91.175742663286073, 33.704883853364926 ], [ -91.175471347670808, 33.704726468772428 ], [ -91.175412652272158, 33.704454835852758 ] ] ], [ [ [ -91.192299211241519, 33.704957532841938 ], [ -91.192487475288956, 33.704730743505422 ], [ -91.192812469530722, 33.704681640873929 ], [ -91.193083818463052, 33.704838988398336 ], [ -91.193142570126568, 33.705110614750708 ], [ -91.192954306878249, 33.705337405102469 ], [ -91.192629310210563, 33.70538650802348 ], [ -91.192357960479143, 33.705229159483821 ], [ -91.192299211241519, 33.704957532841938 ] ] ], [ [ [ -91.171957497049959, 33.705223248591935 ], [ -91.172145813728918, 33.704996492085733 ], [ -91.172470818010765, 33.704947443425695 ], [ -91.17274212851089, 33.705104834447837 ], [ -91.172800815781585, 33.705376468344184 ], [ -91.172612499899714, 33.705603225866085 ], [ -91.172287493191206, 33.705652274814376 ], [ -91.17201618189398, 33.70549488277652 ], [ -91.171957497049959, 33.705223248591935 ] ] ] ] } },
{ "type": "Feature", "properties": { "depth_bin": "6-7 ft", "survey_id": "LM_13_OZE_20220421_CS_5740_5722", "date": "2022-04-21 00:00:00+00:00", "year": 2022, "mile": 573.0, "bin_order": 11 }, "geometry": { "type": "MultiPolygon", "coordinates": [ [ [ [ -91.170437218660126, 33.700726600542573 ], [ -91.170625528841398, 33.700499846004057 ], [ -91.170950516728894, 33.700450800775208 ], [ -91.171221810541283, 33.700608194682218 ], [ -91.171280490606037, 33.700879829227127 ], [ -91.171092181221525, 33.701106584781215 ], [ -91.170767190907853, 33.70115563029816 ], [ -91.170495896298718, 33.700998235375565 ], [ -91.170437218660126, 33.700726600542573 ] ] ], [ [ [ -91.178452484418514, 33.703998843294443 ], [ -91.178640781664043, 33.703772076179995 ], [ -91.178965778419069, 33.703723010134993 ], [ -91.179237097707855, 33.703880387179034 ], [ -91.179295804934796, 33.704152018692213 ], [ -91.17910750848695, 33.704378786822161 ], [ -91.178782509305634, 33.704427853155813 ], [ -91.178511189219179, 33.704270475096244 ], [ -91.178452484418514, 33.703998843294443 ] ] ], [ [ [ -91.185233095933128, 33.704243146989995 ], [ -91.18542137640388, 33.704016368967935 ], [ -91.185746371076021, 33.703967284976905 ], [ -91.186017704193759, 33.704124647548788 ], [ -91.186076433061203, 33.704396276541146 ], [ -91.185888153388817, 33.704623055578594 ], [ -91.185563156290613, 33.70467213985868 ], [ -91.185291822374509, 33.704514776271409 ], [ -91.185233095933128, 33.704243146989995 ] ] ], [ [ [ -91.188771280033279, 33.704758630944198 ], [ -91.188985242092187, 33.70454836288517 ], [ -91.18931442972395, 33.704526130093093 ], [ -91.189566011071093, 33.70470495617549 ], [ -91.189592613411776, 33.704980087982634 ], [ -91.189378651662963, 33.705190357093926 ], [ -91.189049461495983, 33.705212589971651 ], [ -91.188797879838759, 33.70503376283699 ], [ -91.188771280033279, 33.704758630944198 ] ] ], [ [ [ -91.168919087479807, 33.706003645132611 ], [ -91.169133099536651, 33.705793413238169 ], [ -91.169462294528529, 33.705771233716092 ], [ -91.169713836286803, 33.705950098970007 ], [ -91.169740375278849, 33.706225232904167 ], [ -91.169526363530082, 33.706435465851108 ], [ -91.169197166002533, 33.706457645457526 ], [ -91.168945623936182, 33.706278779151127 ], [ -91.168919087479807, 33.706003645132611 ] ] ] ] } },
{ "type": "Feature", "properties": { "depth_bin": "7-8 ft", "survey_id": "LM_13_OZE_20220421_CS_5740_5722", "date": "2022-04-21 00:00:00+00:00", "year": 2022, "mile": 573.0, "bin_order": 10 }, "geometry": { "type": "MultiPolygon", "coordinates": [ [ [ [ -91.192003801610127, 33.699225168961668 ], [ -91.192164551736738, 33.698984048671136 ], [ -91.192482201323486, 33.698908558508819 ], [ -91.192770677122269, 33.699042919247248 ], [ -91.192860994811127, 33.699308424852099 ], [ -91.192700245941154, 33.699549546081698 ], [ -91.19238259413163, 33.699625036725891 ], [ -91.192094117076223, 33.699490675048402 ], [ -91.192003801610127, 33.699225168961668 ] ] ], [ [ [ -91.192312006657829, 33.704855126908384 ], [ -91.192472767179623, 33.704614006743739 ], [ -91.192790437503149, 33.704538516529624 ], [ -91.193078932233391, 33.70467287706883 ], [ -91.193169255958864, 33.704938382443864 ], [ -91.193008496694077, 33.705179503547747 ], [ -91.192690824147164, 33.705254994243873 ], [ -91.192402328159915, 33.705120632765414 ], [ -91.192312006657829, 33.704855126908384 ] ] ] ] } },
{ "type": "Feature", "properties": { "depth_bin": "8-9 ft", "survey_id": "LM_13_OZE_20220421_CS_5740_5722", "date": "2022-04-21 00:00:00+00:00", "year": 2022, "mile": 573.0, "bin_order": 9 }, "geometry": { "type": "MultiPolygon", "coordinates": [ [ [ [ -91.188563182604071, 33.699334204626062 ], [ -91.188751443231325, 33.699107420709275 ], [ -91.189076417793814, 33.699058327239868 ], [ -91.189347742315249, 33.699215682301897 ], [ -91.189406479135386, 33.699487310151923 ], [ -91.189218219306625, 33.699714095083834 ], [ -91.18889324231877, 33.699763188842446 ], [ -91.188621916998841, 33.699605832765286 ], [ -91.188563182604071, 33.699334204626062 ] ] ], [ [ [ -91.199537942662644, 33.704451503749503 ], [ -91.199751878552206, 33.704241216130391 ], [ -91.200081063585557, 33.704218954497804 ], [ -91.200332667427176, 33.704397759353157 ], [ -91.200359304179074, 33.704672889981126 ], [ -91.200145368600715, 33.704883178652366 ], [ -91.199816181032332, 33.70490544037132 ], [ -91.19956457687951, 33.704726634463853 ], [ -91.199537942662644, 33.704451503749503 ] ] ], [ [ [ -91.192311041999261, 33.704649372703457 ], [ -91.192524995433729, 33.704439098211843 ], [ -91.192854182180767, 33.70441685593665 ], [ -91.193105770901099, 33.704595675040316 ], [ -91.193132384554062, 33.704870806461116 ], [ -91.192918431430087, 33.705081082004931 ], [ -91.192589242147889, 33.705103324366014 ], [ -91.192337653117079, 33.704924504210155 ], [ -91.192311041999261, 33.704649372703457 ] ] ], [ [ [ -91.171820191214167, 33.704827365608722 ], [ -91.172083803008789, 33.704568391246923 ], [ -91.172333510169793, 33.704551560932615 ], [ -91.172521454168887, 33.704629287262605 ], [ -91.172752513505358, 33.705104957584396 ], [ -91.172656535532425, 33.705402734716806 ], [ -91.172362559926682, 33.705528522990477 ], [ -91.172048265775359, 33.705443732316674 ], [ -91.171912794683749, 33.705267606385398 ], [ -91.171820191214167, 33.704827365608722 ] ] ] ] } },
{ "type": "Feature", "properties": { "depth_bin": "9-10 ft", "survey_id": "LM_13_OZE_20220421_CS_5740_5722", "date": "2022-04-21 00:00:00+00:00", "year": 2022, "mile": 573.0, "bin_order": 8 }, "geometry": { "type": "MultiPolygon", "coordinates": [ [ [ [ -91.184945432751235, 33.699165186234616 ], [ -91.18513370223873, 33.698938408131497 ], [ -91.185458677767315, 33.698889324230514 ], [ -91.185729994794826, 33.699046687010835 ], [ -91.185788720050624, 33.699318316207837 ], [ -91.185600451361253, 33.699545095326151 ], [ -91.185275473407188, 33.699594179516104 ], [ -91.185004155581552, 33.699436815720574 ], [ -91.184945432751235, 33.699165186234616 ] ] ], [ [ [ -91.18197639242041, 33.703756440887815 ], [ -91.18219036788507, 33.703546185039968 ], [ -91.182519552570653, 33.703523970294256 ], [ -91.182771116345492, 33.703702809687208 ], [ -91.182797696780867, 33.703977942271955 ], [ -91.182583721625562, 33.704188199172073 ], [ -91.182254534404791, 33.704210414002979 ], [ -91.182002970320582, 33.704031573557756 ], [ -91.18197639242041, 33.703756440887815 ] ] ], [ [ [ -91.178460162446584, 33.703825669520846 ], [ -91.178674146373694, 33.703615420060544 ], [ -91.179003331783932, 33.703593214729892 ], [ -91.179254888121164, 33.703772061050358 ], [ -91.179281457313266, 33.704047194017086 ], [ -91.179067473695156, 33.704257444529695 ], [ -91.178738285749674, 33.704279649945306 ], [ -91.178486729103426, 33.704100802572526 ], [ -91.178460162446584, 33.703825669520846 ] ] ], [ [ [ -91.185245841107829, 33.704105383186935 ], [ -91.185434121228027, 33.703878605129539 ], [ -91.18575911537161, 33.703829521086483 ], [ -91.186030448092424, 33.70398688362009 ], [ -91.186089176927055, 33.704258512610366 ], [ -91.185900897605222, 33.704485291683135 ], [ -91.185575901035591, 33.704534376015253 ], [ -91.185304567516411, 33.704377012466274 ], [ -91.185245841107829, 33.704105383186935 ] ] ], [ [ [ -91.195879425865826, 33.704562540255246 ], [ -91.196093370665864, 33.704352259282565 ], [ -91.196422556609008, 33.704330007450721 ], [ -91.196674152826873, 33.70450881952015 ], [ -91.196700777887074, 33.704783950549675 ], [ -91.196486833397884, 33.704994232574563 ], [ -91.196157644919637, 33.705016484492532 ], [ -91.195906048390938, 33.704837671370925 ], [ -91.195879425865826, 33.704562540255246 ] ] ], [ [ [ -91.175380641256268, 33.704287455930036 ], [ -91.175594633636265, 33.704077212110782 ], [ -91.175923821216344, 33.704055015078353 ], [ -91.176175372169368, 33.704233867493379 ], [ -91.176201931576998, 33.704509000780895 ], [ -91.175987939505674, 33.704719245652505 ], [ -91.175658749390237, 33.704741442769709 ], [ -91.175407198128511, 33.704562589302334 ], [ -91.175380641256268, 33.704287455930036 ] ] ] ] } },
{ "type": "Feature", "properties": { "depth_bin": "<5 ft", "survey_id": "LM_13_OZE_20220421_CS_5740_5722", "date": "2022-04-21 00:00:00+00:00", "year": 2022, "mile": 573.0, "bin_order": 13 }, "geometry": { "type": "MultiPolygon", "coordinates": [ [ [ [ -91.198803414326335, 33.698434664147683 ], [ -91.199152922264588, 33.69833584945161 ], [ -91.199466034210758, 33.698498985820322 ], [ -91.199573094593504, 33.698875583247386 ], [ -91.199377919568533, 33.699137298235769 ], [ -91.199052949290561, 33.699186419003539 ], [ -91.198781606147165, 33.69902908468886 ], [ -91.198671733876495, 33.698687800945216 ], [ -91.198803414326335, 33.698434664147683 ] ] ], [ [ [ -91.192109669507118, 33.69865040853059 ], [ -91.192500954761016, 33.6985574183133 ], [ -91.192793414083695, 33.69874543699251 ], [ -91.192825353822514, 33.699208554699808 ], [ -91.192600408569788, 33.699453006340825 ], [ -91.192271240795549, 33.699475248579823 ], [ -91.192019668320484, 33.699296428184823 ], [ -91.191980787352563, 33.69886822351237 ], [ -91.192109669507118, 33.69865040853059 ] ] ], [ [ [ -91.195503302475089, 33.698932982843438 ], [ -91.19585281579937, 33.698834177688212 ], [ -91.196165922873917, 33.698997322267665 ], [ -91.196238852736997, 33.699371659641706 ], [ -91.196043666650269, 33.699633368968911 ], [ -91.195718693005063, 33.699682480832536 ], [ -91.195447354771389, 33.699525139350897 ], [ -91.195374428267058, 33.699150801627134 ], [ -91.195503302475089, 33.698932982843438 ] ] ], [ [ [ -91.188696283591739, 33.698916987496929 ], [ -91.189045803735937, 33.698818201867226 ], [ -91.189358897062405, 33.698981363282542 ], [ -91.189410713778003, 33.699373979949165 ], [ -91.189222454221564, 33.699600764900033 ], [ -91.18889747766562, 33.699649858684879 ], [ -91.18862615268425, 33.699492502625816 ], [ -91.188567392556124, 33.69913479860822 ], [ -91.188696283591739, 33.698916987496929 ] ] ], [ [ [ -91.199691045325253, 33.704415638146649 ], [ -91.200050482536554, 33.704345931918184 ], [ -91.200321844397408, 33.704503263941376 ], [ -91.200420127518839, 33.704875608058842 ], [ -91.200224940565548, 33.705137323782331 ], [ -91.199899947895389, 33.705186446006579 ], [ -91.199628584756795, 33.705029113027194 ], [ -91.199530304938904, 33.704656768395004 ], [ -91.199691045325253, 33.704415638146649 ] ] ], [ [ [ -91.196007800292932, 33.704550402948428 ], [ -91.196399108995394, 33.704457401204955 ], [ -91.196691596652229, 33.704645411418625 ], [ -91.196763077694811, 33.705160876994547 ], [ -91.196538126942883, 33.705405335442322 ], [ -91.196208936897108, 33.705427587444397 ], [ -91.195957339097916, 33.705248774395628 ], [ -91.19587610159428, 33.70480353594764 ], [ -91.196007800292932, 33.704550402948428 ] ] ], [ [ [ -91.188891717582479, 33.704723912955529 ], [ -91.189082823584499, 33.704651770138589 ], [ -91.189331667924947, 33.704675945013122 ], [ -91.189584198361118, 33.704942524736246 ], [ -91.189680815418271, 33.705663169363326 ], [ -91.18965360915071, 33.706143601904834 ], [ -91.189524708820613, 33.706361413495891 ], [ -91.189301728267779, 33.706456861303401 ], [ -91.18897898649972, 33.706398269952999 ], [ -91.188800345935022, 33.706166105366627 ], [ -91.188728127443184, 33.705000341965935 ], [ -91.188891717582479, 33.704723912955529 ] ] ], [ [ [ -91.19241087391643, 33.704914164428885 ], [ -91.192802187628629, 33.704821174274301 ], [ -91.193112100818823, 33.705041447141603 ], [ -91.193214475707705, 33.705416334450618 ], [ -91.19319758341841, 33.705761767252241 ], [ -91.193097675708373, 33.705953778847835 ], [ -91.192927083186916, 33.706055701734677 ], [ -91.192596866876769, 33.706050869295801 ], [ -91.192367458091567, 33.70585229968038 ], [ -91.192279164234847, 33.705167293209954 ], [ -91.19241087391643, 33.704914164428885 ] ] ], [ [ [ -91.18609925295776, 33.704357558547059 ], [ -91.186335283669166, 33.707824517971297 ], [ -91.186146996745748, 33.70805129705839 ], [ -91.185821986748934, 33.70810038157078 ], [ -91.185603149546893, 33.707998449572443 ], [ -91.185488953084345, 33.707812085341459 ], [ -91.185365599210499, 33.705740973575452 ], [ -91.185256142884114, 33.705173075279546 ], [ -91.185262522018121, 33.704379602974804 ], [ -91.18538448096443, 33.704196708618824 ], [ -91.185566208353904, 33.704109262715185 ], [ -91.185894257064476, 33.704141141679195 ], [ -91.18609925295776, 33.704357558547059 ] ] ], [ [ [ -91.188997248355378, 33.707054686351853 ], [ -91.189388575059482, 33.706961707491253 ], [ -91.189607414481131, 33.707063632856311 ], [ -91.189712051515698, 33.707215516298149 ], [ -91.18970224567137, 33.70806846692286 ], [ -91.189580289815879, 33.70825136555726 ], [ -91.189398557288669, 33.708338817160055 ], [ -91.189070490945355, 33.708306946957578 ], [ -91.188865478441883, 33.708090534597829 ], [ -91.188868344928892, 33.707272497127128 ], [ -91.188997248355378, 33.707054686351853 ] ] ], [ [ [ -91.185683589721435, 33.709742380940241 ], [ -91.18594857549941, 33.709642363082502 ], [ -91.186229333993481, 33.709705539817612 ], [ -91.186367412900395, 33.709837447507262 ], [ -91.186475684237166, 33.710157851662721 ], [ -91.186545634578948, 33.711636778598987 ], [ -91.18641671768134, 33.711854586228682 ], [ -91.186193719459311, 33.711950027757183 ], [ -91.185870959802983, 33.71189142771965 ], [ -91.185692317140067, 33.711659258732197 ], [ -91.185694974372524, 33.710722325238272 ], [ -91.185551852584567, 33.709995501457662 ], [ -91.185683589721435, 33.709742380940241 ] ] ], [ [ [ -91.185035929014674, 33.698613283928204 ], [ -91.185427220661396, 33.69852031637587 ], [ -91.18571966364874, 33.698708351297668 ], [ -91.18576731586343, 33.699181748913965 ], [ -91.185542351290636, 33.699426187036259 ], [ -91.185213182691143, 33.699448410400521 ], [ -91.184961625606306, 33.699269576110197 ], [ -91.184907029407469, 33.698831090937041 ], [ -91.185035929014674, 33.698613283928204 ] ] ], [ [ [ -91.18303156476027, 33.705201882661036 ], [ -91.183007377331307, 33.705752627733204 ], [ -91.183162173487688, 33.706121064943886 ], [ -91.183388757489453, 33.708250223818709 ], [ -91.183536594335962, 33.708645547548336 ], [ -91.183449008140144, 33.70898503436478 ], [ -91.183086885810312, 33.709140014369041 ], [ -91.182848458948484, 33.709075716589204 ], [ -91.182710386776606, 33.708943805166911 ], [ -91.182533080555601, 33.708302628517608 ], [ -91.182319492452677, 33.706273084173795 ], [ -91.182144778512907, 33.70581466792563 ], [ -91.18217434019067, 33.705181691467367 ], [ -91.181974646056503, 33.704171913815649 ], [ -91.182027838912518, 33.703967307092469 ], [ -91.182208072910896, 33.703821882347512 ], [ -91.182537258649916, 33.703799667590332 ], [ -91.182788823240244, 33.703978506967516 ], [ -91.18303156476027, 33.705201882661036 ] ] ], [ [ [ -91.183261327837357, 33.712349743030231 ], [ -91.18365268416855, 33.712256783430334 ], [ -91.183871529470238, 33.712358719101495 ], [ -91.183976162153783, 33.712510607159643 ], [ -91.184136941321455, 33.713257250090713 ], [ -91.184089745717387, 33.7137479316048 ], [ -91.183989807975991, 33.713939934614721 ], [ -91.183779069171152, 33.714053178953236 ], [ -91.183450983968925, 33.714021293192225 ], [ -91.183245973105997, 33.71380487170709 ], [ -91.183262290372838, 33.713342147975766 ], [ -91.183129579364092, 33.712602860493 ], [ -91.183261327837357, 33.712349743030231 ] ] ], [ [ [ -91.181453683185495, 33.699084840109229 ], [ -91.181813110199116, 33.699015186672369 ], [ -91.18208442057994, 33.699172557253448 ], [ -91.182198844403075, 33.699543401436252 ], [ -91.182003616355942, 33.699805087135168 ], [ -91.181678635818344, 33.699854161754914 ], [ -91.181407324135435, 33.699696790251977 ], [ -91.181290081228695, 33.69936125906748 ], [ -91.181453683185495, 33.699084840109229 ] ] ], [ [ [ -91.178593705141978, 33.703951714391657 ], [ -91.178816690017968, 33.703856286066966 ], [ -91.179025915859469, 33.703867972236914 ], [ -91.179203845803997, 33.703960711556164 ], [ -91.17931802370228, 33.704147081091016 ], [ -91.180367895474404, 33.710025565561409 ], [ -91.180266462878848, 33.710288253785848 ], [ -91.180014473970161, 33.71040948489685 ], [ -91.179627288497542, 33.710305061058307 ], [ -91.179481393115381, 33.709983459058527 ], [ -91.178463288411393, 33.704240201937189 ], [ -91.178593705141978, 33.703951714391657 ] ] ], [ [ [ -91.177807403976004, 33.699345600599862 ], [ -91.178198705683087, 33.699252656337222 ], [ -91.178491134504469, 33.69944070791864 ], [ -91.178564181051726, 33.699936248065868 ], [ -91.178339194620293, 33.700180672290394 ], [ -91.178010022190264, 33.700202876289609 ], [ -91.177758478613043, 33.700024027766688 ], [ -91.1776756614546, 33.699598712877126 ], [ -91.177807403976004, 33.699345600599862 ] ] ], [ [ [ -91.175544670273084, 33.704411208525627 ], [ -91.175935997320806, 33.704318272354243 ], [ -91.176154813147306, 33.704420220856555 ], [ -91.176259422958907, 33.704572114868512 ], [ -91.177654029814946, 33.710029527995665 ], [ -91.178028766406356, 33.711035806121252 ], [ -91.177958622794094, 33.71130553678929 ], [ -91.177722059145921, 33.711446821461529 ], [ -91.177431944361757, 33.711430614711169 ], [ -91.177241112728424, 33.711294947677906 ], [ -91.176846031796629, 33.710276204770395 ], [ -91.175734122305116, 33.705873683437531 ], [ -91.175443058967204, 33.705010969883269 ], [ -91.175415737805409, 33.704629004344099 ], [ -91.175544670273084, 33.704411208525627 ] ] ], [ [ [ -91.172847568239106, 33.705294187094601 ], [ -91.175275468952449, 33.712255312021171 ], [ -91.175199843249146, 33.712489945309137 ], [ -91.174922015852189, 33.71263921558522 ], [ -91.174599262703481, 33.71258058625024 ], [ -91.174443771390443, 33.712416409130341 ], [ -91.1742306726821, 33.711859146450941 ], [ -91.172067688993124, 33.705659797755352 ], [ -91.172035401858722, 33.705315496631805 ], [ -91.172287999698469, 33.705090695732594 ], [ -91.172618208608625, 33.705095582335957 ], [ -91.172847568239106, 33.705294187094601 ] ] ], [ [ [ -91.17431236683511, 33.699854579770879 ], [ -91.174661905363749, 33.69975583555118 ], [ -91.174950354191978, 33.699890237081433 ], [ -91.175088493125955, 33.7002527807227 ], [ -91.174924868778376, 33.70052919044312 ], [ -91.174607199939729, 33.700604634704092 ], [ -91.174318749348473, 33.700470232325017 ], [ -91.174180613386511, 33.700107687930903 ], [ -91.17431236683511, 33.699854579770879 ] ] ], [ [ [ -91.172045559903069, 33.711061135994328 ], [ -91.172765589748934, 33.712295602803216 ], [ -91.172768036039059, 33.712619634922653 ], [ -91.172530387421887, 33.712811328939125 ], [ -91.172200148997874, 33.712806441120577 ], [ -91.172009323041664, 33.712670766200809 ], [ -91.171519801033341, 33.711891600174113 ], [ -91.170335099355682, 33.70924949120063 ], [ -91.170013738869287, 33.708695140346492 ], [ -91.16981399726258, 33.708092459412335 ], [ -91.169079412640073, 33.706640004863885 ], [ -91.168969374546293, 33.706198457367513 ], [ -91.16920135865773, 33.705919140407822 ], [ -91.169530554122275, 33.705896960719627 ], [ -91.169782096383088, 33.706075825847975 ], [ -91.172045559903069, 33.711061135994328 ] ] ], [ [ [ -91.170510030664786, 33.700304426764397 ], [ -91.170859574879543, 33.700205693523088 ], [ -91.171172636515266, 33.700368900044793 ], [ -91.171218776217643, 33.700754250686586 ], [ -91.171030466965348, 33.700981006154677 ], [ -91.170705477100967, 33.701030051524761 ], [ -91.170434182994995, 33.700872656480463 ], [ -91.17038109236934, 33.700522217242899 ], [ -91.170510030664786, 33.700304426764397 ] ] ], [ [ [ -91.167045295487355, 33.701622977502147 ], [ -91.167404742805985, 33.701553366781972 ], [ -91.16767603314625, 33.701710768353628 ], [ -91.16778922127088, 33.702078857680149 ], [ -91.167593944485873, 33.702340518838405 ], [ -91.167268947940528, 33.702389554914916 ], [ -91.166997656310244, 33.702232152418517 ], [ -91.166881643063121, 33.701899375555023 ], [ -91.167045295487355, 33.701622977502147 ] ] ] ] } },
{ "type": "Feature", "properties": { "depth_bin": ">20 ft", "survey_id": "LM_13_OZE_20220421_CS_5740_5722", "date": "2022-04-21 00:00:00+00:00", "year": 2022, "mile": 573.0, "bin_order": 0 }, "geometry": { "type": "MultiPolygon", "coordinates": [ [ [ [ -91.198872155352447, 33.69884396800586 ], [ -91.199095106049086, 33.698748501803216 ], [ -91.199304323903689, 33.698760153297656 ], [ -91.199482266755723, 33.69885286383569 ], [ -91.199596483118924, 33.699039215985401 ], [ -91.200194272667616, 33.703771642890658 ], [ -91.200326120824329, 33.704261810252113 ], [ -91.200224755865563, 33.704524517336907 ], [ -91.199972810320304, 33.704645790776752 ], [ -91.199723962072099, 33.704621637256295 ], [ -91.199557736849385, 33.704514794820021 ], [ -91.199361344252225, 33.703951120783437 ], [ -91.198788455090394, 33.699682196287363 ], [ -91.198743289629576, 33.699061790593589 ], [ -91.198872155352447, 33.69884396800586 ] ] ], [ [ [ -91.196277586626792, 33.699538429046676 ], [ -91.196667573288849, 33.703820214944706 ], [ -91.196632766540972, 33.704341613059022 ], [ -91.19644451399455, 33.704568409118025 ], [ -91.196119521799389, 33.704617521394169 ], [ -91.195900680206577, 33.70451560748559 ], [ -91.195780984860107, 33.704294157261579 ], [ -91.195795218859956, 33.703653484246495 ], [ -91.195545678290685, 33.701277482709642 ], [ -91.195586277769053, 33.700943592131317 ], [ -91.195447800344368, 33.700181457226257 ], [ -91.195442337650164, 33.699491890901498 ], [ -91.195553263152462, 33.699343161720307 ], [ -91.195776218556105, 33.699247701681848 ], [ -91.196098939252309, 33.699306274596744 ], [ -91.196277586626792, 33.699538429046676 ] ] ], [ [ [ -91.192985745161437, 33.700163223886292 ], [ -91.192928920105288, 33.700691893434765 ], [ -91.193093948466554, 33.70435491480724 ], [ -91.192962241687269, 33.704608044433279 ], [ -91.192654954024647, 33.704709195685965 ], [ -91.192352091792444, 33.704599115069485 ], [ -91.192232405615172, 33.704377661704633 ], [ -91.192052041057337, 33.699399095961809 ], [ -91.192128945063402, 33.699199824808304 ], [ -91.192286750980898, 33.699084418232431 ], [ -91.19261591725683, 33.699062175901361 ], [ -91.19286749036516, 33.699240995106095 ], [ -91.192985745161437, 33.700163223886292 ] ] ], [ [ [ -91.188715154674355, 33.699391303192904 ], [ -91.18893811718857, 33.699295855758152 ], [ -91.189186946092704, 33.699320030431757 ], [ -91.189353148100309, 33.699426886162023 ], [ -91.189444938802367, 33.69962170518567 ], [ -91.189636830626327, 33.703775598893301 ], [ -91.189505114839278, 33.704028724547513 ], [ -91.18924015038381, 33.704128750833249 ], [ -91.188925842633893, 33.704044002729098 ], [ -91.188775293799637, 33.703798321827726 ], [ -91.188575104211566, 33.69978155779765 ], [ -91.188604217605871, 33.699540025837344 ], [ -91.188715154674355, 33.699391303192904 ] ] ], [ [ [ -91.185950378292915, 33.700994797073065 ], [ -91.186033831432383, 33.703745450137042 ], [ -91.185819864504651, 33.703955712934459 ], [ -91.185490678598185, 33.703977936452468 ], [ -91.185260236295377, 33.703829774589579 ], [ -91.18516273040801, 33.703527460784045 ], [ -91.185092306953862, 33.700979083654701 ], [ -91.185002014590339, 33.700471924111838 ], [ -91.185072595146949, 33.700199099925335 ], [ -91.184898641369401, 33.699685206811665 ], [ -91.184977444611604, 33.699341590799214 ], [ -91.185277615565028, 33.699162263030374 ], [ -91.185526442709701, 33.699186445035252 ], [ -91.185738389400285, 33.6993527711601 ], [ -91.185929462274004, 33.700135592353888 ], [ -91.185862320617474, 33.700516296555669 ], [ -91.185950378292915, 33.700994797073065 ] ] ], [ [ [ -91.181553706447517, 33.699649066145639 ], [ -91.181776676952055, 33.699553631932908 ], [ -91.181985893023253, 33.699565312760676 ], [ -91.182163817697102, 33.699658047686121 ], [ -91.182277996867967, 33.699844414630142 ], [ -91.182798454545974, 33.703425623075134 ], [ -91.182697037978997, 33.703688314067165 ], [ -91.182445071979416, 33.70380955101669 ], [ -91.182122345543377, 33.703750942199939 ], [ -91.181943729054879, 33.703518768391199 ], [ -91.181610740547484, 33.70143935792742 ], [ -91.181593255082888, 33.700853388422345 ], [ -91.181440669472465, 33.700212268438705 ], [ -91.18143174644635, 33.69983195678914 ], [ -91.181553706447517, 33.699649066145639 ] ] ], [ [ [ -91.179145362756273, 33.703196539121805 ], [ -91.179075230151028, 33.703466271078035 ], [ -91.178797438865857, 33.703615551474201 ], [ -91.178474716082377, 33.703556933226757 ], [ -91.178305672673403, 33.703359232475421 ], [ -91.177730520096205, 33.700165438000411 ], [ -91.177806126581132, 33.699930802128016 ], [ -91.178042657610348, 33.699789515988414 ], [ -91.178370686234175, 33.699821414326649 ], [ -91.178575652902254, 33.700037842862443 ], [ -91.179145362756273, 33.703196539121805 ] ] ], [ [ [ -91.174448355475391, 33.70039169041867 ], [ -91.174713323887133, 33.700291696010694 ], [ -91.174994042817701, 33.700354897101661 ], [ -91.175132089650035, 33.700486816477849 ], [ -91.175259508432717, 33.700815920134602 ], [ -91.175586211757079, 33.701776906228403 ], [ -91.175627181017347, 33.702381067949162 ], [ -91.175826153024772, 33.702822377672149 ], [ -91.175996975281365, 33.703566327085063 ], [ -91.175921360268504, 33.70380096144806 ], [ -91.175684814642764, 33.703942242953921 ], [ -91.175356771751623, 33.703910337010285 ], [ -91.175151804676162, 33.703693903221854 ], [ -91.175020757289161, 33.703073743809085 ], [ -91.174771984513967, 33.702461499311141 ], [ -91.174735347913014, 33.701894699798821 ], [ -91.174323402535279, 33.700715268971329 ], [ -91.174448355475391, 33.70039169041867 ] ] ], [ [ [ -91.172098425684922, 33.702937275518892 ], [ -91.172518119292704, 33.704304208565013 ], [ -91.172489154700727, 33.704512184723896 ], [ -91.172251528695327, 33.704703879167667 ], [ -91.171921321351675, 33.704698991633961 ], [ -91.171709389792611, 33.70453264237544 ], [ -91.171468599937029, 33.703945000568304 ], [ -91.171347169331781, 33.703359545993017 ], [ -91.170868582673606, 33.702230288142445 ], [ -91.170551241772515, 33.701162933319345 ], [ -91.170570650211531, 33.700920479125429 ], [ -91.170808268971854, 33.700728787582037 ], [ -91.171212340868536, 33.700768104147869 ], [ -91.171438172076904, 33.701058354445514 ], [ -91.171710172477205, 33.702079829649804 ], [ -91.172098425684922, 33.702937275518892 ] ] ], [ [ [ -91.167099770346709, 33.701912801645413 ], [ -91.167491093748353, 33.701819892132526 ], [ -91.167783506446753, 33.702007968512902 ], [ -91.169262953304283, 33.704993528014633 ], [ -91.169243539733927, 33.70523598169747 ], [ -91.169044500297474, 33.705413107333314 ], [ -91.168797965702382, 33.70545030635531 ], [ -91.168601812465226, 33.705388345108659 ], [ -91.168301498852287, 33.705014287560381 ], [ -91.166984345678571, 33.702270850418053 ], [ -91.166977776948016, 33.70209567681551 ], [ -91.167099770346709, 33.701912801645413 ] ] ] ] } }
]
}
