{
"type": "FeatureCollection",
"name": "LM_15_CVB_20250417_CS_MB_5963_5958_depth_polygons",
"crs": { "type": "name", "properties": { "name": "urn:ogc:def:crs:OGC:1.3:CRS84" } },
"features": [
{ "type": "Feature", "properties": { "depth_bin": "10-11 ft", "survey_id": "LM_15_CVB_20250417_CS_MB_5963_5958", "date": "2025-04-17 00:00:00+00:00", "year": 2025, "mile": 596.0, "bin_order": 7 }, "geometry": { "type": "MultiPolygon", "coordinates": [ [ [ [ -91.032230604904484, 33.935423180931238 ], [ -91.03246837674854, 33.935544237083739 ], [ -91.032582512437543, 33.935730735543224 ], [ -91.032597219248629, 33.936049930253084 ], [ -91.032393629945503, 33.936411720807392 ], [ -91.03168313060398, 33.936820059784402 ], [ -91.031135109635784, 33.936966136200191 ], [ -91.030885655008518, 33.93694162080628 ], [ -91.030548308026781, 33.936738686808219 ], [ -91.030443699620321, 33.936586673667165 ], [ -91.030402993326319, 33.936233085136422 ], [ -91.03072208656728, 33.935884383656543 ], [ -91.031252162242424, 33.93558699116025 ], [ -91.031685477316927, 33.935446581511663 ], [ -91.032230604904484, 33.935423180931238 ] ] ], [ [ [ -91.031557823636547, 33.940649079200469 ], [ -91.031851212307004, 33.940890777799154 ], [ -91.032351544652556, 33.940946850048029 ], [ -91.032714186272358, 33.941137981054098 ], [ -91.03283617719616, 33.94128071395216 ], [ -91.032856000956187, 33.941489421994902 ], [ -91.032417441065959, 33.941954577552536 ], [ -91.032179680429977, 33.942007816399268 ], [ -91.031934043960916, 33.941938901393542 ], [ -91.031414120250957, 33.942235066682848 ], [ -91.031124979778099, 33.94226609963777 ], [ -91.030827894398058, 33.942069911903019 ], [ -91.030493677918741, 33.942039088324066 ], [ -91.030322429204716, 33.941892493334123 ], [ -91.029996574062324, 33.941831637203769 ], [ -91.029781385861853, 33.941896930972888 ], [ -91.029574030339063, 33.941867893020628 ], [ -91.029357143326123, 33.941692619020266 ], [ -91.029069731442249, 33.941629712346376 ], [ -91.028690872693687, 33.941304682955966 ], [ -91.028014616751818, 33.941269933290656 ], [ -91.027728241114076, 33.940971907016078 ], [ -91.027660060281789, 33.940769182575778 ], [ -91.027222102044959, 33.940749299816808 ], [ -91.026974983317473, 33.940620402103271 ], [ -91.026883336826756, 33.940425473194544 ], [ -91.026904065072088, 33.940095586912157 ], [ -91.026310114662877, 33.94009492613025 ], [ -91.025463008580473, 33.939823926023969 ], [ -91.024802497497177, 33.939754986234142 ], [ -91.024255606940855, 33.939794708224767 ], [ -91.023680960355293, 33.939493314482945 ], [ -91.023314490975594, 33.939414439613167 ], [ -91.023178987783865, 33.939238154279813 ], [ -91.0231885382819, 33.938980460869757 ], [ -91.023377780988696, 33.938753971660645 ], [ -91.023661871760609, 33.938699485224262 ], [ -91.023982448587091, 33.938753540068689 ], [ -91.024398815620259, 33.938981286969472 ], [ -91.025652308676385, 33.939120343333883 ], [ -91.026440026000188, 33.93936876511863 ], [ -91.026726271612731, 33.93900995501496 ], [ -91.027093095494052, 33.938925482749525 ], [ -91.027711077603115, 33.938482292278223 ], [ -91.028151553060994, 33.938355653676645 ], [ -91.028350493041458, 33.938052750388195 ], [ -91.028984739615723, 33.937899206413206 ], [ -91.029222538404156, 33.937757761622379 ], [ -91.029432696534045, 33.937752526157325 ], [ -91.02974298190486, 33.937973216663792 ], [ -91.029787417360197, 33.938413757939372 ], [ -91.029118370103291, 33.939068315809195 ], [ -91.028261405500757, 33.939749721620942 ], [ -91.028431695905027, 33.939840173539721 ], [ -91.028743685581404, 33.940207539145135 ], [ -91.029081250762715, 33.940182206954283 ], [ -91.029803264494774, 33.94046496815627 ], [ -91.030195850181386, 33.940372511364906 ], [ -91.030512928281794, 33.940477645044915 ], [ -91.030709062412257, 33.940636247165465 ], [ -91.031557823636547, 33.940649079200469 ] ], [ [ -91.027374845546348, 33.939545309709629 ], [ -91.027391999289193, 33.939546815989409 ], [ -91.027418111585447, 33.939506005254231 ], [ -91.027374845546348, 33.939545309709629 ] ] ], [ [ [ -91.028263782960892, 33.945763458005906 ], [ -91.028487563770511, 33.945668333093096 ], [ -91.028697344827876, 33.945680293971947 ], [ -91.029049546950489, 33.945946220974058 ], [ -91.029129758825562, 33.946208095973518 ], [ -91.029056006532059, 33.946539718914799 ], [ -91.028791197791165, 33.946798336509374 ], [ -91.027575698569223, 33.946700889171098 ], [ -91.025981605776138, 33.946166282641506 ], [ -91.025651971975833, 33.946121866069568 ], [ -91.024788796642511, 33.945772451825981 ], [ -91.024394110352731, 33.945752751901445 ], [ -91.024136605656309, 33.945611705921685 ], [ -91.023718402310521, 33.945541913476163 ], [ -91.02298199740963, 33.945200757549379 ], [ -91.022763859552541, 33.944842669984006 ], [ -91.022458774681212, 33.944647422115075 ], [ -91.02205325680373, 33.944465246953179 ], [ -91.021704843960109, 33.944439309111907 ], [ -91.021471242001553, 33.944313691854774 ], [ -91.021169266758449, 33.944264640871253 ], [ -91.020598003302467, 33.943896382976682 ], [ -91.019954463846986, 33.943824293827909 ], [ -91.019616817576249, 33.943487215707961 ], [ -91.019590726339814, 33.943212073839121 ], [ -91.019768877971828, 33.943019746766566 ], [ -91.020094858233179, 33.942971136505129 ], [ -91.020398864824571, 33.943135696203747 ], [ -91.020902747862564, 33.943222475907618 ], [ -91.021521157326575, 33.943601186582434 ], [ -91.022307474758065, 33.943853966785774 ], [ -91.02273480968023, 33.943735892188329 ], [ -91.022944584699687, 33.94374786268375 ], [ -91.023273271549371, 33.943876179021714 ], [ -91.023411449927337, 33.944008268963756 ], [ -91.023593915192194, 33.944694817395209 ], [ -91.023999263059622, 33.94486260663146 ], [ -91.024784753518489, 33.945015342148359 ], [ -91.025505736594894, 33.945295160098809 ], [ -91.025759720488367, 33.945298398164844 ], [ -91.02787209263991, 33.946024146535471 ], [ -91.028132525717254, 33.946052168749702 ], [ -91.028263782960892, 33.945763458005906 ] ] ] ] } },
{ "type": "Feature", "properties": { "depth_bin": "11-12 ft", "survey_id": "LM_15_CVB_20250417_CS_MB_5963_5958", "date": "2025-04-17 00:00:00+00:00", "year": 2025, "mile": 596.0, "bin_order": 6 }, "geometry": { "type": "MultiPolygon", "coordinates": [ [ [ [ -91.032207506649996, 33.935424267546423 ], [ -91.032451893369668, 33.935544330680777 ], [ -91.032566029022036, 33.935730829154288 ], [ -91.032580735771688, 33.936050023865569 ], [ -91.032377146399256, 33.936411814391782 ], [ -91.031823974795088, 33.936659545462405 ], [ -91.031633679724237, 33.936820340246818 ], [ -91.031118401828991, 33.936938751330395 ], [ -91.030868947287772, 33.936914235905519 ], [ -91.03058127524676, 33.936738500125308 ], [ -91.030476666780459, 33.936586487010196 ], [ -91.030445409015471, 33.936267704910769 ], [ -91.030722310595948, 33.935911861943723 ], [ -91.031701960675292, 33.935446488016758 ], [ -91.032207506649996, 33.935424267546423 ] ] ], [ [ [ -91.030960503661888, 33.940647024216197 ], [ -91.031251346985286, 33.940663601349755 ], [ -91.03198526913441, 33.940991921107283 ], [ -91.032252316938525, 33.94094556411288 ], [ -91.03248250424258, 33.94102937791876 ], [ -91.032760554539678, 33.941376783751259 ], [ -91.032648317296946, 33.941798160588675 ], [ -91.032436816569856, 33.941911115624279 ], [ -91.032201458049414, 33.941910666861538 ], [ -91.031943624080043, 33.942078792305054 ], [ -91.031516104291171, 33.942093795986523 ], [ -91.031185606524446, 33.942259954347975 ], [ -91.030978249529113, 33.942230918716056 ], [ -91.030790471314333, 33.942098888096986 ], [ -91.030498961044103, 33.942082495318097 ], [ -91.030275190067542, 33.941894468475795 ], [ -91.029849049295393, 33.94189770291954 ], [ -91.029561086077663, 33.942058772971684 ], [ -91.029071074816514, 33.942048397797024 ], [ -91.028864931706622, 33.941928760347842 ], [ -91.028772436293437, 33.941710311539858 ], [ -91.028566903616493, 33.94168122654186 ], [ -91.027948524373102, 33.941383693637064 ], [ -91.027650666799673, 33.940842820444416 ], [ -91.02736334189207, 33.94084893458043 ], [ -91.027002998789499, 33.940660814817988 ], [ -91.02688886950574, 33.940474311521413 ], [ -91.026883783285911, 33.940111514164258 ], [ -91.02634319561372, 33.940108479710403 ], [ -91.025444565649366, 33.939851915334167 ], [ -91.024263619164245, 33.939804151465751 ], [ -91.023913198665952, 33.939609319355021 ], [ -91.023363904858158, 33.939607351986815 ], [ -91.023133144781681, 33.93945887998801 ], [ -91.023074811778415, 33.939187195620711 ], [ -91.023311304108205, 33.938811496456594 ], [ -91.023661982653863, 33.938713224384834 ], [ -91.024136528279641, 33.938851072512044 ], [ -91.024475261872979, 33.939072843862363 ], [ -91.024802047722687, 33.939036582271029 ], [ -91.025685610515936, 33.939161375401277 ], [ -91.026448579565425, 33.939387935691876 ], [ -91.02675923973608, 33.939009769334206 ], [ -91.027093314899432, 33.938939040736784 ], [ -91.027731647759154, 33.938492256878234 ], [ -91.028193063746727, 33.93836968752138 ], [ -91.028585241844667, 33.938047765803496 ], [ -91.028973733746028, 33.937941640941105 ], [ -91.02918251803095, 33.937796519863937 ], [ -91.029432920166457, 33.937780004449706 ], [ -91.029743205634006, 33.938000694958255 ], [ -91.029717959738491, 33.938308340008916 ], [ -91.029500201061225, 33.938655458960419 ], [ -91.029114514850832, 33.93904274205174 ], [ -91.028248526640084, 33.939732379509891 ], [ -91.028459488507764, 33.939853107644232 ], [ -91.028552059003658, 33.940073722957216 ], [ -91.02881062595381, 33.940305910028542 ], [ -91.029501539808095, 33.940371232495593 ], [ -91.02987164355892, 33.940546504498734 ], [ -91.029990136568131, 33.940761207123153 ], [ -91.030423253049378, 33.940758246786999 ], [ -91.030960503661888, 33.940647024216197 ] ] ], [ [ [ -91.028247185945133, 33.945749811935819 ], [ -91.028470966735171, 33.945654687052404 ], [ -91.028720445727373, 33.945679208187634 ], [ -91.028958353427811, 33.945814010398138 ], [ -91.029115565859854, 33.946037131388927 ], [ -91.029141688268155, 33.946312272238544 ], [ -91.029010827336634, 33.946624915914462 ], [ -91.028829813910463, 33.946770084243695 ], [ -91.028393986621865, 33.946796954477215 ], [ -91.027608669653702, 33.946700703238001 ], [ -91.025564756393564, 33.945986221010784 ], [ -91.025179063673804, 33.945944952305986 ], [ -91.024486970443874, 33.945673810930487 ], [ -91.023807555417577, 33.945554197918035 ], [ -91.023288341472892, 33.945365707426419 ], [ -91.022950868882958, 33.94514901270437 ], [ -91.022775537868029, 33.944828180623603 ], [ -91.02255178882524, 33.944725313824271 ], [ -91.022443030828498, 33.944558244029118 ], [ -91.021737814213495, 33.944439124761857 ], [ -91.02144498582075, 33.944290809674875 ], [ -91.021169156250181, 33.944250901717503 ], [ -91.020443357527043, 33.94384095642188 ], [ -91.020193507194676, 33.943902662205737 ], [ -91.019954574158703, 33.943838032985532 ], [ -91.019633302524298, 33.943487123814236 ], [ -91.019607211234629, 33.943211981947009 ], [ -91.019785362830547, 33.943019654849245 ], [ -91.020111343084423, 33.942971044543782 ], [ -91.020484175305143, 33.943133942764504 ], [ -91.020902637394059, 33.943208736748211 ], [ -91.021517557075526, 33.943589497574777 ], [ -91.022283902495403, 33.943820284898877 ], [ -91.02294447390085, 33.943734123531748 ], [ -91.023398663733602, 33.94394855989102 ], [ -91.023594295290621, 33.944667914477414 ], [ -91.024001283066454, 33.944836888573604 ], [ -91.024553293923972, 33.944934203366245 ], [ -91.025514711928793, 33.945276359459214 ], [ -91.025759609230761, 33.945284659024459 ], [ -91.027885782053929, 33.946010381220404 ], [ -91.028115841210692, 33.946037484638204 ], [ -91.028247185945133, 33.945749811935819 ] ] ] ] } },
{ "type": "Feature", "properties": { "depth_bin": "12-13 ft", "survey_id": "LM_15_CVB_20250417_CS_MB_5963_5958", "date": "2025-04-17 00:00:00+00:00", "year": 2025, "mile": 596.0, "bin_order": 5 }, "geometry": { "type": "MultiPolygon", "coordinates": [ [ [ [ -91.03221423380225, 33.935437013640737 ], [ -91.032463314222511, 33.935571096630419 ], [ -91.032554969011585, 33.935766021793825 ], [ -91.032564252294691, 33.936050117475844 ], [ -91.032360662852909, 33.936411907973977 ], [ -91.031480370395627, 33.936854260804431 ], [ -91.030974785309866, 33.936914529853752 ], [ -91.030614242466442, 33.93673831343358 ], [ -91.030509633940284, 33.936586300344416 ], [ -91.030478376052343, 33.936267518252308 ], [ -91.030722534624914, 33.935939340230711 ], [ -91.031734927391753, 33.935446301020292 ], [ -91.03221423380225, 33.935437013640737 ] ] ], [ [ [ -91.030823357318937, 33.940717437502869 ], [ -91.031849884150475, 33.941007526460247 ], [ -91.032294302590074, 33.940965166305759 ], [ -91.032513524883953, 33.941067381267771 ], [ -91.032721009439172, 33.941308847787397 ], [ -91.032768259410958, 33.94157090801145 ], [ -91.032488787871145, 33.94200327912359 ], [ -91.032265020950916, 33.942098411866354 ], [ -91.03179186446215, 33.942090199430382 ], [ -91.031320644711869, 33.942410554503425 ], [ -91.031121349304485, 33.942466415037558 ], [ -91.030566179835589, 33.94247536191817 ], [ -91.030271479066158, 33.94228359137913 ], [ -91.029955013118979, 33.94232768406853 ], [ -91.029653539263521, 33.942185111577722 ], [ -91.029262207734561, 33.942276643025835 ], [ -91.029042986597034, 33.942174422316818 ], [ -91.028783346659623, 33.941889320555674 ], [ -91.027966571138904, 33.941575948581743 ], [ -91.02785243858645, 33.941389446087157 ], [ -91.027862987068005, 33.941098324922159 ], [ -91.027695272243392, 33.940972092956422 ], [ -91.027625759382602, 33.940766721262499 ], [ -91.027297389586693, 33.940809935333611 ], [ -91.027036301856114, 33.940701846496452 ], [ -91.026931695358201, 33.940549830510903 ], [ -91.02686219573782, 33.940127300705306 ], [ -91.026310225979444, 33.940108665278991 ], [ -91.02542819259665, 33.939865747147998 ], [ -91.024230650714429, 33.93980433646994 ], [ -91.023921938747421, 33.939620665890558 ], [ -91.023396873237317, 33.939607167215485 ], [ -91.023166113100899, 33.939458695276471 ], [ -91.023107779992088, 33.939187010921096 ], [ -91.023294930906985, 33.938825327994252 ], [ -91.023645609526667, 33.938727055972052 ], [ -91.02412026616949, 33.938878643322411 ], [ -91.024468319667633, 33.939089655636856 ], [ -91.024736222484464, 33.939050691734671 ], [ -91.025669237635881, 33.939175207253882 ], [ -91.026471084562516, 33.939400739122469 ], [ -91.026790592405675, 33.939029928500204 ], [ -91.027100750059347, 33.938954417850326 ], [ -91.027695039804726, 33.938537341834184 ], [ -91.028218244058522, 33.938386646467983 ], [ -91.028565230075969, 33.938106497090658 ], [ -91.029144241445778, 33.937865989856995 ], [ -91.029433367432134, 33.937834961034042 ], [ -91.029743653093163, 33.938055651546705 ], [ -91.029718407172936, 33.938363296594375 ], [ -91.029081546720604, 33.939042928353494 ], [ -91.028239870611984, 33.939726607730016 ], [ -91.028500605853864, 33.939881839003228 ], [ -91.028559428574255, 33.940151180336088 ], [ -91.028743071705208, 33.940263700360433 ], [ -91.028829944847189, 33.940427701401724 ], [ -91.029210997673985, 33.940526230158518 ], [ -91.029581364921413, 33.94078222469296 ], [ -91.030294048942679, 33.940805674336517 ], [ -91.030823357318937, 33.940717437502869 ] ] ], [ [ [ -91.028983921290617, 33.945619211711104 ], [ -91.029287389869438, 33.945729712115963 ], [ -91.029408221917905, 33.945986685603906 ], [ -91.02896598734803, 33.946681024353325 ], [ -91.028657644918198, 33.946781725877045 ], [ -91.027625155195793, 33.946700610268152 ], [ -91.0273967055128, 33.946554879670124 ], [ -91.025849798296406, 33.946120753438983 ], [ -91.025559808476103, 33.945969890238821 ], [ -91.025195549078717, 33.945944859663285 ], [ -91.024299158593962, 33.945582719408556 ], [ -91.023939549048848, 33.945567197334334 ], [ -91.023282951105472, 33.945308560047948 ], [ -91.02291745519311, 33.945094240801616 ], [ -91.02279672192401, 33.944839436132554 ], [ -91.022584869918191, 33.944738868391887 ], [ -91.022439065444729, 33.944546594081089 ], [ -91.021886401605499, 33.944465774281952 ], [ -91.021152560652666, 33.944237254663335 ], [ -91.020467846653744, 33.943815223228768 ], [ -91.020133346592317, 33.943774835976065 ], [ -91.01977136418607, 33.943605478471262 ], [ -91.019615782126124, 33.943441107529537 ], [ -91.019607100976813, 33.943198242788334 ], [ -91.019785252542746, 33.943005915689312 ], [ -91.020111232743844, 33.942957305382173 ], [ -91.020488366783937, 33.94312244773694 ], [ -91.020923958544572, 33.943197095456483 ], [ -91.02148197431292, 33.943565178877442 ], [ -91.021987279241444, 33.943735446029862 ], [ -91.022254137383143, 33.943801785286041 ], [ -91.022767336574489, 33.943680750948943 ], [ -91.02301680760354, 33.943705283395687 ], [ -91.023444198255561, 33.943980605845226 ], [ -91.023487411608855, 33.944391883683551 ], [ -91.023610029770651, 33.944646848029599 ], [ -91.024569445944024, 33.944892893369286 ], [ -91.025233783456471, 33.945159849223323 ], [ -91.025742901443053, 33.945257273466567 ], [ -91.02805529211399, 33.94602371178761 ], [ -91.028131870477281, 33.946024665857529 ], [ -91.02818608389957, 33.945833491415193 ], [ -91.028367096305558, 33.945688323980804 ], [ -91.028983921290617, 33.945619211711104 ] ] ] ] } },
{ "type": "Feature", "properties": { "depth_bin": "13-14 ft", "survey_id": "LM_15_CVB_20250417_CS_MB_5963_5958", "date": "2025-04-17 00:00:00+00:00", "year": 2025, "mile": 596.0, "bin_order": 4 }, "geometry": { "type": "MultiPolygon", "coordinates": [ [ [ [ -91.032288363607876, 33.935485266502248 ], [ -91.032488284458722, 33.935641137718939 ], [ -91.03255530592898, 33.935807239226193 ], [ -91.032536664632175, 33.936084368268133 ], [ -91.032344179306463, 33.936412001553968 ], [ -91.031986573328439, 33.936509326509572 ], [ -91.031488779151687, 33.936846509097229 ], [ -91.030974561205284, 33.936887051568526 ], [ -91.030647209685796, 33.93673812673299 ], [ -91.03053307707809, 33.936551626608882 ], [ -91.030544310125208, 33.936267144908868 ], [ -91.030722758654164, 33.935966818517599 ], [ -91.031735039567721, 33.935460040162965 ], [ -91.032049443432555, 33.935420661199764 ], [ -91.032288363607876, 33.935485266502248 ] ] ], [ [ [ -91.030675220882586, 33.940745756212294 ], [ -91.031307429123345, 33.940871597573455 ], [ -91.031493172194672, 33.941043881683001 ], [ -91.031655998652766, 33.941075875882753 ], [ -91.032167739084144, 33.940971686498152 ], [ -91.032449115867124, 33.941035233800974 ], [ -91.032735780634837, 33.941493520923942 ], [ -91.032674485059175, 33.941797623691116 ], [ -91.032405717322391, 33.942047163347759 ], [ -91.032143436078698, 33.942102913014509 ], [ -91.031976825438605, 33.942337824698605 ], [ -91.031765322510751, 33.942450778491668 ], [ -91.031338490825519, 33.942450974187992 ], [ -91.031049302410949, 33.942613680493359 ], [ -91.030727835376098, 33.942555706708376 ], [ -91.030427841772394, 33.942619644620578 ], [ -91.030197652475621, 33.942535826910152 ], [ -91.029933582192513, 33.942290717762823 ], [ -91.029739116289306, 33.942543168341437 ], [ -91.029413141852729, 33.942591804414903 ], [ -91.029166014409341, 33.942462910832667 ], [ -91.029073839600031, 33.942208409796791 ], [ -91.028805025890264, 33.942337842378656 ], [ -91.028481534868007, 33.942278805663967 ], [ -91.028309341473431, 33.942100799113966 ], [ -91.028300685164012, 33.941857825088697 ], [ -91.02808031997067, 33.941847895953899 ], [ -91.027874178801994, 33.941728256907254 ], [ -91.027782529167041, 33.941533328586445 ], [ -91.027795740387134, 33.941216622678688 ], [ -91.027515184420082, 33.940787947330932 ], [ -91.027181343475803, 33.940767520826263 ], [ -91.026950573371309, 33.940619055667412 ], [ -91.026870499517372, 33.940131320175169 ], [ -91.026326822656713, 33.940122311641446 ], [ -91.025744136189374, 33.939940579991983 ], [ -91.025091147044165, 33.939839439507935 ], [ -91.024148229588548, 33.939804798941843 ], [ -91.023859693378782, 33.93962266323598 ], [ -91.023273565928932, 33.93968604533891 ], [ -91.023001825423151, 33.939528314533838 ], [ -91.022943492804444, 33.939256630120347 ], [ -91.023278557700479, 33.938839159529763 ], [ -91.023586876642085, 33.938738470572822 ], [ -91.024460675976059, 33.939107101545659 ], [ -91.024719849469918, 33.939064523462662 ], [ -91.025122278920293, 33.939179566513154 ], [ -91.02570242828223, 33.939202500162132 ], [ -91.026460330066385, 33.939402399759402 ], [ -91.026808803319895, 33.939023229945086 ], [ -91.027099929395135, 33.938969721062108 ], [ -91.027945605559069, 33.938449830613528 ], [ -91.028388224483606, 33.938394277618421 ], [ -91.028766899542035, 33.938087959171789 ], [ -91.029056026375116, 33.9380569312682 ], [ -91.029327774198364, 33.93821464896665 ], [ -91.0294029461121, 33.938527455342744 ], [ -91.029228450130745, 33.938863480125889 ], [ -91.028178936124164, 33.939759832081087 ], [ -91.02845421807433, 33.940033871147492 ], [ -91.028386573521644, 33.940380037261953 ], [ -91.028679047189385, 33.940540392379141 ], [ -91.029272435287041, 33.940578624389886 ], [ -91.029563986802671, 33.940869337062949 ], [ -91.029740644449348, 33.940935021666434 ], [ -91.030072645425406, 33.940791204453333 ], [ -91.030356051764329, 33.940856063629937 ], [ -91.030675220882586, 33.940745756212294 ] ] ], [ [ [ -91.028899251284827, 33.945611048621046 ], [ -91.02925636906528, 33.945691707947347 ], [ -91.029406841630475, 33.945937573433277 ], [ -91.029355960278039, 33.946165443846105 ], [ -91.02911368846766, 33.946357841506448 ], [ -91.029011253175256, 33.946613953899991 ], [ -91.028799735714031, 33.946726902006034 ], [ -91.028403236188055, 33.946768605595381 ], [ -91.027839578826459, 33.946713140588422 ], [ -91.025567202144259, 33.945960395958629 ], [ -91.025221794251564, 33.945931927732886 ], [ -91.0245488513617, 33.945623131842218 ], [ -91.023266244117963, 33.94528117414314 ], [ -91.022933940440211, 33.945094148462935 ], [ -91.022801080871972, 33.944814227487093 ], [ -91.022451540648888, 33.944531505071211 ], [ -91.02159876489344, 33.944372158717307 ], [ -91.021180473520545, 33.944221141367194 ], [ -91.020497738704876, 33.943802205470405 ], [ -91.020133236252633, 33.943761096817923 ], [ -91.019804444415925, 33.943619033800644 ], [ -91.01963226706512, 33.943441015635763 ], [ -91.019623585868899, 33.943198150894055 ], [ -91.019801737398751, 33.94300582376983 ], [ -91.020127717592359, 33.942957213418659 ], [ -91.020940332963335, 33.943183264224274 ], [ -91.021488311826133, 33.943555085656271 ], [ -91.021940555183761, 33.943709786027327 ], [ -91.02224767287494, 33.943780988717137 ], [ -91.022767225804287, 33.943667011797864 ], [ -91.023016696793363, 33.94369154424345 ], [ -91.023443976499337, 33.943953127541143 ], [ -91.023624699546886, 33.944627783264494 ], [ -91.024585820083217, 33.944879061659627 ], [ -91.028023782652951, 33.946010119538094 ], [ -91.028115337702573, 33.94601281275164 ], [ -91.028169486883854, 33.94581984533459 ], [ -91.028350499286702, 33.945674677924295 ], [ -91.028899251284827, 33.945611048621046 ] ] ], [ [ [ -91.027438605678825, 33.942096807222008 ], [ -91.027711152485651, 33.942183045604942 ], [ -91.027856193095175, 33.942393813587564 ], [ -91.027807881377754, 33.942633427363511 ], [ -91.02759401675651, 33.942792519299793 ], [ -91.027304873458462, 33.942823543157232 ], [ -91.027063506491473, 33.942700149139 ], [ -91.026628216017173, 33.942731176982399 ], [ -91.026335334990733, 33.942542754718602 ], [ -91.026309222181311, 33.942267613476098 ], [ -91.026524189950294, 33.942057669811206 ], [ -91.026919819215678, 33.942019947013847 ], [ -91.02720305759685, 33.942149206053763 ], [ -91.027438605678825, 33.942096807222008 ] ] ] ] } },
{ "type": "Feature", "properties": { "depth_bin": "14-15 ft", "survey_id": "LM_15_CVB_20250417_CS_MB_5963_5958", "date": "2025-04-17 00:00:00+00:00", "year": 2025, "mile": 596.0, "bin_order": 3 }, "geometry": { "type": "MultiPolygon", "coordinates": [ [ [ [ -91.032197974945078, 33.935464585492021 ], [ -91.032410172421947, 33.935631179236573 ], [ -91.032523462085493, 33.9359448187803 ], [ -91.032327695759975, 33.936412095131757 ], [ -91.031931972458835, 33.936513263601384 ], [ -91.031439328256738, 33.936846789481052 ], [ -91.030932465842696, 33.936853709842268 ], [ -91.030680176904866, 33.936737940023598 ], [ -91.030559352624948, 33.936480967749247 ], [ -91.030595416933124, 33.936197901486508 ], [ -91.030723094698615, 33.936008035947715 ], [ -91.031735151743774, 33.935473779305624 ], [ -91.032197974945078, 33.935464585492021 ] ] ], [ [ [ -91.031621963234272, 33.941114146996739 ], [ -91.032014516389467, 33.941021714423997 ], [ -91.032617204204058, 33.941328684308239 ], [ -91.032675568888905, 33.941600365189409 ], [ -91.032358370755546, 33.942182637533783 ], [ -91.031910120363705, 33.942410870334818 ], [ -91.031519395427352, 33.94244123167551 ], [ -91.031334612375161, 33.942592752305828 ], [ -91.030679061612901, 33.942812416001239 ], [ -91.030397680568427, 33.942748864506441 ], [ -91.029964642581319, 33.942355059508358 ], [ -91.029819787686066, 33.942652321983203 ], [ -91.029542696607237, 33.942775807400494 ], [ -91.029554458475545, 33.942964554775209 ], [ -91.029460924318315, 33.943121504636636 ], [ -91.029289662820844, 33.943223174030763 ], [ -91.02903924466942, 33.943239688572824 ], [ -91.028820021407114, 33.943137467403346 ], [ -91.02870588504004, 33.942950965605036 ], [ -91.028690074742372, 33.942494379678799 ], [ -91.028843732709504, 33.942289135613436 ], [ -91.028481199843029, 33.942237588254763 ], [ -91.02816678445663, 33.941855976800454 ], [ -91.027923632543931, 33.941727977916926 ], [ -91.027679293680308, 33.941260086418538 ], [ -91.027608133733992, 33.940870810988123 ], [ -91.026986402982502, 33.940647168547059 ], [ -91.026881796637483, 33.940495152523326 ], [ -91.02684120639465, 33.940141247609631 ], [ -91.026310337296081, 33.94012240442774 ], [ -91.025613774479254, 33.939928429799302 ], [ -91.024916186324504, 33.93990276690252 ], [ -91.024457260127207, 33.939778063834275 ], [ -91.024148340556636, 33.939818538097526 ], [ -91.023751139596982, 33.939620394026811 ], [ -91.02327367675602, 33.939699784497407 ], [ -91.023001936207649, 33.939542053691362 ], [ -91.022943603581439, 33.939270369278141 ], [ -91.023262295317238, 33.938866730221811 ], [ -91.023570614377036, 33.938766041310288 ], [ -91.02393377307591, 33.938849992495328 ], [ -91.02444543637597, 33.939128178293657 ], [ -91.024761832340687, 33.939084128196164 ], [ -91.025038907877629, 33.93918949911756 ], [ -91.025686055397188, 33.939216332016947 ], [ -91.026472783976658, 33.939414700712803 ], [ -91.02675784705751, 33.939057592485774 ], [ -91.027121334300659, 33.938966144544004 ], [ -91.027945717138891, 33.938463569760295 ], [ -91.028321595196616, 33.938450974200876 ], [ -91.028732267676787, 33.938282644179857 ], [ -91.028942427086236, 33.938277409599593 ], [ -91.029235300040796, 33.938465825464824 ], [ -91.029246352534273, 33.938774051576559 ], [ -91.028171094380255, 33.939750682014079 ], [ -91.028489914129821, 33.939972570531545 ], [ -91.028454688189129, 33.940449456914543 ], [ -91.028620919432569, 33.940591233000198 ], [ -91.029141342888494, 33.940675544674569 ], [ -91.029753264934939, 33.940956807718052 ], [ -91.029989266935672, 33.940817401177654 ], [ -91.030280110531635, 33.940833980620802 ], [ -91.03044655708041, 33.940941056095305 ], [ -91.030599368827126, 33.941196143400639 ], [ -91.031100198899424, 33.941171936581839 ], [ -91.031502086081915, 33.941288357799259 ], [ -91.031621963234272, 33.941114146996739 ] ] ], [ [ [ -91.028915736612731, 33.945610955474528 ], [ -91.029272854410806, 33.945691614753507 ], [ -91.029423327024304, 33.945937480220941 ], [ -91.029369594624598, 33.946141995475159 ], [ -91.029113861144069, 33.946352036257259 ], [ -91.029011141396069, 33.946600214770406 ], [ -91.028799623969661, 33.946713162877693 ], [ -91.028386638955936, 33.946754959540677 ], [ -91.027888923859337, 33.946699122450291 ], [ -91.023315478251391, 33.945253418690776 ], [ -91.0229500932912, 33.945052838684965 ], [ -91.022802480697578, 33.944809361364882 ], [ -91.022468025790317, 33.944531412797424 ], [ -91.021615250007216, 33.944372066557605 ], [ -91.021127885285523, 33.944188718752578 ], [ -91.020560948004359, 33.943821632403129 ], [ -91.020149721254072, 33.943761004856036 ], [ -91.01977125390475, 33.943591739312566 ], [ -91.019615671868678, 33.943427368371232 ], [ -91.019606990719069, 33.943184503629581 ], [ -91.019785142255017, 33.942992176529316 ], [ -91.020069249120226, 33.942937699008198 ], [ -91.020885710636264, 33.943153872177746 ], [ -91.021511078545444, 33.94355054464414 ], [ -91.021957040170733, 33.943709693816963 ], [ -91.022203246580332, 33.943748628677071 ], [ -91.022544804014402, 33.943567797688338 ], [ -91.023032960148726, 33.943663973584947 ], [ -91.023460350650325, 33.943939295978694 ], [ -91.023508087923815, 33.944409717017678 ], [ -91.023624946148104, 33.944587728191173 ], [ -91.023897946569619, 33.944620910341143 ], [ -91.02441653167115, 33.944850675364947 ], [ -91.025650049104158, 33.945188141521889 ], [ -91.028026242767424, 33.945995681613716 ], [ -91.028317305264878, 33.945647385804278 ], [ -91.028522219236137, 33.945608080112954 ], [ -91.028750445073769, 33.945667102310878 ], [ -91.028915736612731, 33.945610955474528 ] ] ], [ [ [ -91.027347975014351, 33.941962575024341 ], [ -91.027710594699741, 33.942114349890559 ], [ -91.027855635199913, 33.94232511787186 ], [ -91.027784798183347, 33.94259473030521 ], [ -91.02750596524551, 33.942743627858157 ], [ -91.026300154417157, 33.942697011480632 ], [ -91.025976530297854, 33.942479412752249 ], [ -91.025808829045147, 33.942094037273698 ], [ -91.025911037882523, 33.941831511721304 ], [ -91.02620603819787, 33.941706113292298 ], [ -91.026611653592639, 33.941788999649809 ], [ -91.027031808865246, 33.942018069724348 ], [ -91.027347975014351, 33.941962575024341 ] ] ], [ [ [ -91.024590878423496, 33.94175641216416 ], [ -91.024936768880153, 33.941865867124157 ], [ -91.025056681343713, 33.942179097769618 ], [ -91.025377686242535, 33.942067190241552 ], [ -91.025681137323147, 33.942177698989035 ], [ -91.025801953868481, 33.942434675595408 ], [ -91.025669361792097, 33.942687587112417 ], [ -91.025276795064059, 33.942779998898956 ], [ -91.025029673755, 33.9426510972134 ], [ -91.024937998044209, 33.942405758025828 ], [ -91.024600506586353, 33.942517756892052 ], [ -91.024297055854575, 33.942407245491474 ], [ -91.024182930467475, 33.942220739861398 ], [ -91.024197068151992, 33.942018427615828 ], [ -91.024356995427397, 33.941832791499301 ], [ -91.024590878423496, 33.94175641216416 ] ] ] ] } },
{ "type": "Feature", "properties": { "depth_bin": "15-17.5 ft", "survey_id": "LM_15_CVB_20250417_CS_MB_5963_5958", "date": "2025-04-17 00:00:00+00:00", "year": 2025, "mile": 596.0, "bin_order": 2 }, "geometry": { "type": "MultiPolygon", "coordinates": [ [ [ [ -91.032108943227257, 33.93546604632084 ], [ -91.032315076029462, 33.935585678061123 ], [ -91.032475547033613, 33.935875420013517 ], [ -91.03236626465285, 33.936358412636977 ], [ -91.03212883587122, 33.936499382866749 ], [ -91.031827483218166, 33.936499405158422 ], [ -91.031413636961091, 33.936835882599645 ], [ -91.030975576828737, 33.936796259242925 ], [ -91.030604241647993, 33.936454505937796 ], [ -91.030652006033876, 33.936116861185518 ], [ -91.03148304178346, 33.935599421982666 ], [ -91.031857811084805, 33.93546203090709 ], [ -91.032108943227257, 33.93546604632084 ] ] ], [ [ [ -91.031041577316245, 33.941197093809684 ], [ -91.031556390775791, 33.941377341898821 ], [ -91.032022073193048, 33.941302268579904 ], [ -91.032267456835868, 33.94134704389181 ], [ -91.032508588944268, 33.941621174176831 ], [ -91.032545826749754, 33.94186215770425 ], [ -91.032266524919919, 33.942308312643846 ], [ -91.032065680224221, 33.942439022713586 ], [ -91.031963258891551, 33.942695136525522 ], [ -91.031551596357716, 33.942863130174032 ], [ -91.031522432407272, 33.943097422172684 ], [ -91.031293426954065, 33.943312639444514 ], [ -91.031306338728456, 33.943504226873642 ], [ -91.031212807079697, 33.94366117814721 ], [ -91.031001299844206, 33.943774130451992 ], [ -91.030743619287321, 33.943768047783777 ], [ -91.030363595373046, 33.943899178577468 ], [ -91.030515385522435, 33.944144155708813 ], [ -91.030510562889148, 33.944353477838376 ], [ -91.03036701678154, 33.944525289704139 ], [ -91.030133130682302, 33.944601679902924 ], [ -91.029851744283476, 33.944538126982295 ], [ -91.029475151572044, 33.944252668771853 ], [ -91.029184569670846, 33.944410406139951 ], [ -91.028929435760645, 33.944383543704433 ], [ -91.028655250112379, 33.944459715252506 ], [ -91.028452302736525, 33.944413875679587 ], [ -91.028278121302407, 33.944263017581029 ], [ -91.028234441363423, 33.944054041169103 ], [ -91.027654391287044, 33.943734857338917 ], [ -91.027533754604477, 33.943475602508045 ], [ -91.027287923830016, 33.943252473648698 ], [ -91.027191056117147, 33.943279311360236 ], [ -91.027028767836214, 33.943527399866483 ], [ -91.026710077104482, 33.94360242399425 ], [ -91.026198532225948, 33.943382784533782 ], [ -91.026046954947617, 33.943105696587935 ], [ -91.025966311122758, 33.943181343329712 ], [ -91.026004216197677, 33.943375654545299 ], [ -91.025929583499774, 33.943539487183365 ], [ -91.025732371329781, 33.943669165065863 ], [ -91.025523825662731, 33.943691537690064 ], [ -91.025262731750161, 33.943583444903354 ], [ -91.0251506547811, 33.943255592543245 ], [ -91.024928055318867, 33.943191904791689 ], [ -91.024690803897286, 33.942959956163946 ], [ -91.024556701329786, 33.943030004558558 ], [ -91.024550102100918, 33.943232943595618 ], [ -91.024406546361874, 33.943404748176789 ], [ -91.024214772515236, 33.943476609514626 ], [ -91.023965301682111, 33.943452079507949 ], [ -91.023539424713846, 33.943081244723544 ], [ -91.023286203983076, 33.943057432814861 ], [ -91.023095130831379, 33.942921522396986 ], [ -91.023026857318655, 33.942720043344394 ], [ -91.023140496053273, 33.942483909662023 ], [ -91.023094007257129, 33.942264086778842 ], [ -91.022696415559778, 33.942362738399332 ], [ -91.022415042850128, 33.942299168905159 ], [ -91.021996271260733, 33.941840574124683 ], [ -91.02179101967333, 33.941721203847891 ], [ -91.02169938415318, 33.941526271488883 ], [ -91.02173881583424, 33.941145724939553 ], [ -91.021920202138901, 33.940923906948072 ], [ -91.021962119906263, 33.940661080164013 ], [ -91.022106298017633, 33.940533526670542 ], [ -91.02234803486931, 33.940476625984942 ], [ -91.022651476106759, 33.940587141892131 ], [ -91.02281505939672, 33.940909106701014 ], [ -91.023266839647775, 33.940817630277543 ], [ -91.023657044857188, 33.940982387706626 ], [ -91.023857274974404, 33.940879426935439 ], [ -91.02410040951672, 33.940874015944011 ], [ -91.024347524326743, 33.941002919298768 ], [ -91.02443921906287, 33.94119934631567 ], [ -91.02480240020688, 33.94127885047827 ], [ -91.024952949254782, 33.941527421333994 ], [ -91.025193608131914, 33.941513648577299 ], [ -91.025425885017469, 33.94162836253863 ], [ -91.0257079835268, 33.941418624491497 ], [ -91.02630487636138, 33.941405118387294 ], [ -91.026535058478558, 33.941488943152535 ], [ -91.026685852852822, 33.941744206267593 ], [ -91.026791180567898, 33.941781657195499 ], [ -91.026796621781628, 33.9411972765621 ], [ -91.027016351713968, 33.941037598144071 ], [ -91.027307429160231, 33.941024258732192 ], [ -91.027239220397504, 33.940755818836699 ], [ -91.026896257488318, 33.940561064829474 ], [ -91.026815192412798, 33.940194166495758 ], [ -91.026508817812783, 33.940203725802014 ], [ -91.02575808668621, 33.939982574158421 ], [ -91.024347483298712, 33.939982298832277 ], [ -91.024020639607144, 33.939802690256421 ], [ -91.023700906629429, 33.940036837859743 ], [ -91.023062040015731, 33.940030725857689 ], [ -91.022769176237105, 33.939842295634769 ], [ -91.022758147192476, 33.939534069817348 ], [ -91.023050107828013, 33.939128975815095 ], [ -91.023660934807793, 33.938876271373999 ], [ -91.024132580327603, 33.938972535202815 ], [ -91.024466245750062, 33.939164038694997 ], [ -91.025611326449422, 33.939224392189729 ], [ -91.026518409746799, 33.939432959462579 ], [ -91.026808914719325, 33.939036969093621 ], [ -91.027120782761685, 33.938980766667534 ], [ -91.027984776047361, 33.938490274182755 ], [ -91.028536645952627, 33.93840916239045 ], [ -91.028884590260887, 33.93849415469397 ], [ -91.029069509998735, 33.938802685494252 ], [ -91.028966046522356, 33.939029841193502 ], [ -91.028150854988354, 33.939735086546378 ], [ -91.0283845283153, 33.939843479704038 ], [ -91.028520043433801, 33.940019759702899 ], [ -91.028419227029801, 33.940530484441858 ], [ -91.028624451788545, 33.940746343297626 ], [ -91.028986382552432, 33.940716745840369 ], [ -91.029182953692441, 33.940778942383751 ], [ -91.029413034343449, 33.941098730802018 ], [ -91.029595708263344, 33.941151320280099 ], [ -91.029866731177648, 33.941208344003037 ], [ -91.030232605546246, 33.941050538338409 ], [ -91.030471539689671, 33.941115147622817 ], [ -91.030628767450651, 33.941283540535736 ], [ -91.031041577316245, 33.941197093809684 ] ] ], [ [ [ -91.029108808701309, 33.945595530535158 ], [ -91.029287054394061, 33.945688494724301 ], [ -91.029401195408781, 33.945874996079951 ], [ -91.029255628764091, 33.946255338028166 ], [ -91.028867028099356, 33.946378155284826 ], [ -91.028789803311341, 33.946573597668397 ], [ -91.028631315865297, 33.946688766906661 ], [ -91.028053891970444, 33.946711931399683 ], [ -91.027129524865899, 33.946389312450073 ], [ -91.026609688832508, 33.946308834199883 ], [ -91.026408616944821, 33.946158417149149 ], [ -91.026064108959588, 33.946119547737112 ], [ -91.025241632955598, 33.945782457251973 ], [ -91.024775131963253, 33.945742079556112 ], [ -91.024162650342959, 33.945404929783983 ], [ -91.023872054436808, 33.945375219206305 ], [ -91.023633566135445, 33.945215539862396 ], [ -91.02324876121547, 33.945157614218594 ], [ -91.022949428501235, 33.944970403809954 ], [ -91.022485054944568, 33.9445150421477 ], [ -91.021935746366736, 33.944451758529055 ], [ -91.021168714217893, 33.944195945102173 ], [ -91.020493019036422, 33.943747773445708 ], [ -91.020149500569687, 33.943733526539752 ], [ -91.019787628589839, 33.943577908240485 ], [ -91.019632046545027, 33.943413537319294 ], [ -91.01962336534821, 33.943170672576677 ], [ -91.019801516818092, 33.942978345449944 ], [ -91.020085623628347, 33.942923867888886 ], [ -91.020415577510306, 33.943045844625246 ], [ -91.020868783900781, 33.943099007604225 ], [ -91.02157384235575, 33.943559138595681 ], [ -91.021971185546661, 33.943694620217258 ], [ -91.022155526076531, 33.943717192926499 ], [ -91.022312088142641, 33.943568871610879 ], [ -91.02251139118647, 33.943513025653701 ], [ -91.023230447315143, 33.943621647709818 ], [ -91.023460057636385, 33.943820533449625 ], [ -91.023567020927302, 33.944441780942604 ], [ -91.023945849639645, 33.944428284838175 ], [ -91.024463079756373, 33.944797381163234 ], [ -91.024707387623991, 33.944822464570123 ], [ -91.025234956093968, 33.945051261754912 ], [ -91.028063321098671, 33.945954166657359 ], [ -91.028175081059956, 33.945734983185005 ], [ -91.02837229465112, 33.945605301465086 ], [ -91.029108808701309, 33.945595530535158 ] ] ] ] } },
{ "type": "Feature", "properties": { "depth_bin": "17.5-20 ft", "survey_id": "LM_15_CVB_20250417_CS_MB_5963_5958", "date": "2025-04-17 00:00:00+00:00", "year": 2025, "mile": 596.0, "bin_order": 1 }, "geometry": { "type": "MultiPolygon", "coordinates": [ [ [ [ -91.031510980561805, 33.935691958485812 ], [ -91.031829637862273, 33.935616920635312 ], [ -91.032118621145301, 33.935751671478791 ], [ -91.032208648812002, 33.936017276473315 ], [ -91.032046982280136, 33.936258148153044 ], [ -91.031728322722486, 33.936333186481164 ], [ -91.031439338182224, 33.936198434685032 ], [ -91.031349312772718, 33.935932829212902 ], [ -91.031510980561805, 33.935691958485812 ] ] ], [ [ [ -91.029946287124787, 33.941213965940818 ], [ -91.030316102573195, 33.941204751578468 ], [ -91.030557928468582, 33.941433871781271 ], [ -91.030784857000739, 33.941479109911 ], [ -91.030937726936131, 33.941599050784923 ], [ -91.031242598929154, 33.941611696844944 ], [ -91.031441395160613, 33.941758801373275 ], [ -91.031601917975891, 33.941776112548048 ], [ -91.031900132837166, 33.941545835232574 ], [ -91.03219152823705, 33.941538570322479 ], [ -91.032397675375137, 33.94165820233615 ], [ -91.032490605580165, 33.941888500666231 ], [ -91.032158629631738, 33.942457671330914 ], [ -91.031666807187079, 33.942923527377943 ], [ -91.031603869449299, 33.943161547996148 ], [ -91.031380498614311, 33.943322255866633 ], [ -91.031326542569587, 33.943520355417085 ], [ -91.031026687688296, 33.943909161497302 ], [ -91.030765027875987, 33.944054772093516 ], [ -91.030358080780601, 33.944806035221717 ], [ -91.03007446771251, 33.945135899030142 ], [ -91.029808575393645, 33.945235546319026 ], [ -91.029493573420623, 33.945150369391371 ], [ -91.029347585353818, 33.944933525146851 ], [ -91.029087451117505, 33.944748498486767 ], [ -91.028700709420107, 33.944829614922192 ], [ -91.028419323512054, 33.944766058738409 ], [ -91.028251518214745, 33.944571450989343 ], [ -91.027924066310732, 33.944461545427487 ], [ -91.027643514015921, 33.94407890637391 ], [ -91.027411242189672, 33.944479577046117 ], [ -91.027073790762543, 33.944606034397076 ], [ -91.026834849899103, 33.944541418292587 ], [ -91.026668941195538, 33.944351499137156 ], [ -91.026324276648708, 33.944526999754054 ], [ -91.025975729215602, 33.944415020554231 ], [ -91.025621694129072, 33.944418302887115 ], [ -91.025149097180844, 33.943944578153172 ], [ -91.024855388060899, 33.944179779001622 ], [ -91.024399240075851, 33.944109155237307 ], [ -91.024208162799184, 33.943973246423504 ], [ -91.024133251793543, 33.943780839745919 ], [ -91.023585442339751, 33.943456111186023 ], [ -91.02349267211018, 33.943224137688873 ], [ -91.023170171928655, 33.943217754262008 ], [ -91.022950956277498, 33.943115522884845 ], [ -91.022560762273415, 33.942618902393122 ], [ -91.022453275843219, 33.942288289003038 ], [ -91.02217591562345, 33.942366468902812 ], [ -91.021758232399819, 33.942266860772598 ], [ -91.021364519032858, 33.941984643749429 ], [ -91.021156497453646, 33.9416667034155 ], [ -91.021338184539857, 33.94132266244852 ], [ -91.021352774052218, 33.941067049536166 ], [ -91.021638915716707, 33.940687975109341 ], [ -91.021825672805051, 33.940562220858098 ], [ -91.022824733481443, 33.939348190546042 ], [ -91.023383640193259, 33.938983856877094 ], [ -91.023713751581482, 33.938962100213068 ], [ -91.024369269911446, 33.939216243220677 ], [ -91.025161892990084, 33.939307253567335 ], [ -91.025760128362691, 33.939278514503727 ], [ -91.026547266494475, 33.939457969999076 ], [ -91.026809248918113, 33.93907818653895 ], [ -91.027217124626034, 33.939009662292179 ], [ -91.027466271315348, 33.938785947805577 ], [ -91.028076433696413, 33.938576637531966 ], [ -91.028391410175217, 33.938661817264148 ], [ -91.028591767707724, 33.93896236089433 ], [ -91.028522894534802, 33.939331839839618 ], [ -91.028084868943679, 33.939786261146679 ], [ -91.028335298946587, 33.939871237172405 ], [ -91.028470814001849, 33.940047517222688 ], [ -91.028351125308987, 33.940718303619931 ], [ -91.028622483016932, 33.940782108938876 ], [ -91.028787069023508, 33.940968752245254 ], [ -91.029011635535952, 33.940920045183788 ], [ -91.029214575057082, 33.940965883574755 ], [ -91.029432502022701, 33.941238270536786 ], [ -91.02983482590551, 33.941282478931321 ], [ -91.029946287124787, 33.941213965940818 ] ], [ [ -91.026084903679319, 33.940741121674186 ], [ -91.026454716901938, 33.940731918861012 ], [ -91.026714636208453, 33.940966279813608 ], [ -91.02692610800095, 33.940973244698256 ], [ -91.027072587642209, 33.940840782368404 ], [ -91.026862360738804, 33.94052888149718 ], [ -91.02678185233583, 33.940210378952862 ], [ -91.026475849224596, 33.940203911409306 ], [ -91.025555894119179, 33.93997509717817 ], [ -91.025225605363602, 33.940025576836085 ], [ -91.024946415889687, 33.940174949522429 ], [ -91.024433270126252, 33.940182929449008 ], [ -91.024194343718136, 33.940118308682678 ], [ -91.024029360230273, 33.939952096150705 ], [ -91.023734787646688, 33.939978000484302 ], [ -91.023683313887275, 33.940197198315673 ], [ -91.023453369129157, 33.940359732102472 ], [ -91.023377810297902, 33.940529957265937 ], [ -91.024079515840455, 33.940566650174482 ], [ -91.024436171581058, 33.940867456586652 ], [ -91.024839955331331, 33.9408061498454 ], [ -91.025105393672604, 33.940887824867474 ], [ -91.025489438409309, 33.940877345405703 ], [ -91.026084903679319, 33.940741121674186 ] ], [ [ -91.026269582771164, 33.943595015755541 ], [ -91.026236663184577, 33.943593827851331 ], [ -91.026262316026219, 33.943607208261433 ], [ -91.026269582771164, 33.943595015755541 ] ] ], [ [ [ -91.028371959615797, 33.945564084075464 ], [ -91.029158152874572, 33.945581511875311 ], [ -91.029364304971338, 33.945701149093381 ], [ -91.029455962259675, 33.945896076397979 ], [ -91.02940222996844, 33.946100591671438 ], [ -91.029106602714378, 33.946342586786997 ], [ -91.028792257325506, 33.94636792420787 ], [ -91.028433489387979, 33.946689884018674 ], [ -91.028103348598393, 33.946711652304593 ], [ -91.027828472133876, 33.946538510371639 ], [ -91.026939510737577, 33.946320716201669 ], [ -91.025576229344978, 33.945818829352746 ], [ -91.025220349088158, 33.945753318031237 ], [ -91.024938354857525, 33.945595077067622 ], [ -91.024575862674041, 33.945564581619074 ], [ -91.023946302933197, 33.945226657212089 ], [ -91.023463180458762, 33.945170152217251 ], [ -91.022963406929051, 33.944939806122406 ], [ -91.022437662841583, 33.944490064625853 ], [ -91.02196871662332, 33.944451574117089 ], [ -91.021168603709995, 33.944182205948273 ], [ -91.020593384158829, 33.943721704418969 ], [ -91.020173776904656, 33.943715399831746 ], [ -91.019787518306032, 33.943564169081768 ], [ -91.019631936285094, 33.94339979816101 ], [ -91.019623255088007, 33.943156933417924 ], [ -91.019817781083077, 33.942950775208416 ], [ -91.020101887792336, 33.942896297605948 ], [ -91.020429695555393, 33.943028735539471 ], [ -91.020646771847652, 33.943003174961795 ], [ -91.021017037277332, 33.943084439779675 ], [ -91.021581626248206, 33.943546400743763 ], [ -91.021970241058241, 33.943666842474912 ], [ -91.022081863811238, 33.943675215147415 ], [ -91.022211119088638, 33.943534813167112 ], [ -91.022445008530227, 33.943458438165642 ], [ -91.023239762689926, 33.943553852022916 ], [ -91.023522601020247, 33.943798843180701 ], [ -91.023553865175728, 33.944373393835761 ], [ -91.023962112829054, 33.944400714062184 ], [ -91.024150964252982, 33.944534017990492 ], [ -91.024416624587246, 33.944597974742003 ], [ -91.024560340546671, 33.944740322847053 ], [ -91.025682018417314, 33.945064302926056 ], [ -91.026372600220483, 33.9453669938529 ], [ -91.027372566424958, 33.945683501740262 ], [ -91.027896735362688, 33.94575255717497 ], [ -91.028079051904328, 33.94587819809005 ], [ -91.028200691855844, 33.945665751695849 ], [ -91.028371959615797, 33.945564084075464 ] ] ] ] } },
{ "type": "Feature", "properties": { "depth_bin": "5-6 ft", "survey_id": "LM_15_CVB_20250417_CS_MB_5963_5958", "date": "2025-04-17 00:00:00+00:00", "year": 2025, "mile": 596.0, "bin_order": 12 }, "geometry": { "type": "MultiPolygon", "coordinates": [ [ [ [ -91.032181020987494, 33.935354942824567 ], [ -91.032569337346217, 33.935519224081574 ], [ -91.032714379758673, 33.935729986575375 ], [ -91.032685015981968, 33.936083525731505 ], [ -91.032449356067048, 33.936440379553488 ], [ -91.031458687942674, 33.937106208678216 ], [ -91.031104159660018, 33.937213628502661 ], [ -91.030850572371321, 33.93720618550698 ], [ -91.030850289633619, 33.937495393598084 ], [ -91.030637455185484, 33.937797543668545 ], [ -91.030429703456591, 33.93790944688368 ], [ -91.029786670776147, 33.938585528236793 ], [ -91.028356054982879, 33.93979347313438 ], [ -91.029010907087425, 33.939986245542791 ], [ -91.029524314314756, 33.939932385471977 ], [ -91.029745834627718, 33.940070019158362 ], [ -91.030325822287679, 33.940138199490569 ], [ -91.031059694548915, 33.940377508747844 ], [ -91.031357991704553, 33.940402895594261 ], [ -91.031866490396794, 33.940645214832891 ], [ -91.032604753248492, 33.940862018116526 ], [ -91.032820993310963, 33.941010026978923 ], [ -91.03291265412993, 33.941204951949047 ], [ -91.032858933557321, 33.941409469276707 ], [ -91.032677937879996, 33.941554644007113 ], [ -91.032430673714842, 33.941591543060149 ], [ -91.031951725378079, 33.941502234998836 ], [ -91.031630172425054, 33.941548765756359 ], [ -91.031410950062494, 33.941446549221446 ], [ -91.031145945898771, 33.941153394444932 ], [ -91.03064686591263, 33.941175725187875 ], [ -91.030425286653909, 33.941097444534897 ], [ -91.029999554166196, 33.941323067471423 ], [ -91.029732657163436, 33.941339676906992 ], [ -91.029485532729922, 33.94121078405324 ], [ -91.029265118783087, 33.940837415142369 ], [ -91.029049529426544, 33.940954777350292 ], [ -91.028676331079382, 33.940969688014491 ], [ -91.027958192046952, 33.940643026090306 ], [ -91.027671348170074, 33.940777903451924 ], [ -91.027214089346316, 33.940739856738503 ], [ -91.02703585610945, 33.94064688992183 ], [ -91.026921726769473, 33.940460386653449 ], [ -91.027024481508818, 33.939993844720959 ], [ -91.026285382124797, 33.940018727411633 ], [ -91.025194325615772, 33.939642031152282 ], [ -91.024708989004665, 33.939563338980449 ], [ -91.024320100890094, 33.939615729177476 ], [ -91.023422339970097, 33.939069207060953 ], [ -91.023358263490067, 33.938843562745944 ], [ -91.023413270665685, 33.93867442328655 ], [ -91.02359427503383, 33.93852926246506 ], [ -91.023841533178313, 33.938492380975738 ], [ -91.024129029328876, 33.938532881180031 ], [ -91.024413651752454, 33.93870624322787 ], [ -91.024750028401613, 33.938681488349886 ], [ -91.025281615022806, 33.93893620169959 ], [ -91.026380641476877, 33.939284371576846 ], [ -91.026594175305064, 33.938983219357354 ], [ -91.027060345639029, 33.938883941391225 ], [ -91.027642745810297, 33.938406834991824 ], [ -91.02796295400411, 33.93830551820988 ], [ -91.028579368679715, 33.937817881045603 ], [ -91.029046054499304, 33.937714689075278 ], [ -91.029414070336443, 33.937297648336454 ], [ -91.030142258046268, 33.936939778658989 ], [ -91.030412683519643, 33.936886681349591 ], [ -91.030175668130568, 33.936456932223805 ], [ -91.030148480745794, 33.936241906159069 ], [ -91.030223098399489, 33.936078070265602 ], [ -91.030539242328246, 33.935793643426926 ], [ -91.031346601544158, 33.935437450592957 ], [ -91.031857869468254, 33.935326387169226 ], [ -91.032181020987494, 33.935354942824567 ] ], [ [ -91.031287121649342, 33.936304081121989 ], [ -91.031109947874285, 33.936359356093533 ], [ -91.031089529108613, 33.936432264606978 ], [ -91.031287121649342, 33.936304081121989 ] ], [ [ -91.0272555909565, 33.939737581566341 ], [ -91.027457796869584, 33.939582175740355 ], [ -91.027484588691166, 33.939529288535276 ], [ -91.027276175757549, 33.939575889188177 ], [ -91.0272555909565, 33.939737581566341 ] ] ], [ [ [ -91.027648711214937, 33.946077907616655 ], [ -91.028660494690754, 33.94617938582045 ], [ -91.02887972536648, 33.946281607496687 ], [ -91.029000556864148, 33.946538581347561 ], [ -91.028867967090108, 33.946791496263373 ], [ -91.028559624151967, 33.946892197521443 ], [ -91.027245986626326, 33.946702748022446 ], [ -91.026495738389855, 33.946488092720692 ], [ -91.026193459153731, 33.946325671541089 ], [ -91.025196994191703, 33.94612346846278 ], [ -91.023735553198691, 33.945624255890088 ], [ -91.022783508477502, 33.945119430674275 ], [ -91.022424962772547, 33.944659308762603 ], [ -91.021582943238769, 33.944454686689511 ], [ -91.02124865000107, 33.944267166606522 ], [ -91.020921769394363, 33.944238543826096 ], [ -91.020731313897372, 33.944103350987739 ], [ -91.020325121853801, 33.944085530205349 ], [ -91.019707629728885, 33.943880629273963 ], [ -91.019528996817229, 33.943648226535338 ], [ -91.019589535742057, 33.943206560378044 ], [ -91.019828175741836, 33.943015202539996 ], [ -91.020159271077247, 33.943020529349532 ], [ -91.020402491482699, 33.943253284898198 ], [ -91.020747768468595, 33.943224296782759 ], [ -91.021983058570584, 33.943817676846329 ], [ -91.022842744978348, 33.943997012145992 ], [ -91.023169868328623, 33.944197158067738 ], [ -91.023260975915363, 33.944449371846893 ], [ -91.023462387417794, 33.944661660058379 ], [ -91.024163321799278, 33.945002549648251 ], [ -91.025642156264468, 33.94548832030398 ], [ -91.026537537026798, 33.945664995302828 ], [ -91.027648711214937, 33.946077907616655 ] ] ] ] } },
{ "type": "Feature", "properties": { "depth_bin": "6-7 ft", "survey_id": "LM_15_CVB_20250417_CS_MB_5963_5958", "date": "2025-04-17 00:00:00+00:00", "year": 2025, "mile": 596.0, "bin_order": 11 }, "geometry": { "type": "MultiPolygon", "coordinates": [ [ [ [ -91.032173769717957, 33.935367650879648 ], [ -91.032552853972831, 33.93551931769229 ], [ -91.032697896343791, 33.935730080204081 ], [ -91.032668532498988, 33.936083619355514 ], [ -91.032449243778132, 33.936426640411028 ], [ -91.03142152185552, 33.937082599079673 ], [ -91.031005257439162, 33.937214188946321 ], [ -91.03078043138693, 33.937197466039663 ], [ -91.030769286179179, 33.93752885237069 ], [ -91.03045686284689, 33.937737955665575 ], [ -91.03021178509583, 33.938157188813221 ], [ -91.028392646550557, 33.939758969997605 ], [ -91.028601079396012, 33.939961350374787 ], [ -91.030317909829492, 33.94021643140001 ], [ -91.031490652427848, 33.940498321762618 ], [ -91.032064740735009, 33.940766678823017 ], [ -91.032494196187784, 33.940851123868043 ], [ -91.032776715214084, 33.940997187445127 ], [ -91.032890858266214, 33.94118368574464 ], [ -91.032861448202183, 33.941391606867533 ], [ -91.032661565687889, 33.941568476770577 ], [ -91.031663141495528, 33.941548578762422 ], [ -91.031374153945009, 33.941365836987501 ], [ -91.030871124634047, 33.941297447860528 ], [ -91.030453000312491, 33.941371017941037 ], [ -91.029699688159923, 33.941339863382986 ], [ -91.029410919691941, 33.941157428083258 ], [ -91.028807846939841, 33.941138806924741 ], [ -91.028542648924102, 33.940988761370875 ], [ -91.028215033474709, 33.940982483816448 ], [ -91.028023956563302, 33.940846580897237 ], [ -91.027956079296061, 33.940656448040578 ], [ -91.027654975303292, 33.940791735558314 ], [ -91.027230685207996, 33.940753502980058 ], [ -91.026947845443615, 33.940508520213967 ], [ -91.026916599600739, 33.940189738419164 ], [ -91.026999477885425, 33.940016996051234 ], [ -91.026227025474853, 33.940012955102951 ], [ -91.025043663111248, 33.939627894914175 ], [ -91.024171743195538, 33.939616561691608 ], [ -91.023405855886665, 33.939069299451468 ], [ -91.023361385139594, 33.938835734918364 ], [ -91.023461963097773, 33.938643890595081 ], [ -91.023673466591347, 33.938530951066689 ], [ -91.023990110837616, 33.938519027145027 ], [ -91.024220282834222, 33.938602855921211 ], [ -91.024359943051437, 33.938794192251507 ], [ -91.024982138868893, 33.938845062890834 ], [ -91.026396038311574, 33.939297521696581 ], [ -91.026559814405871, 33.939031228142831 ], [ -91.02705455203764, 33.938886218117091 ], [ -91.027426073640783, 33.938656603097947 ], [ -91.027659229752274, 33.938406742031503 ], [ -91.02798764049588, 33.938301400854982 ], [ -91.028579592037318, 33.937845359337679 ], [ -91.029052063650184, 33.937737022060581 ], [ -91.029449099862831, 33.937332073570985 ], [ -91.029939115336333, 33.937179754825983 ], [ -91.030181428892845, 33.936980222385301 ], [ -91.0305208411, 33.936977541024568 ], [ -91.030379220758448, 33.936765655800677 ], [ -91.03026119224279, 33.936304037804099 ], [ -91.030539578282884, 33.935834860860531 ], [ -91.031306471079432, 33.935462470436008 ], [ -91.031799388743067, 33.935344740062767 ], [ -91.032173769717957, 33.935367650879648 ] ], [ [ -91.027293436942543, 33.939712616721458 ], [ -91.027389556617806, 33.939612961774081 ], [ -91.027445417335272, 33.939573173344932 ], [ -91.02728825161546, 33.939603072416404 ], [ -91.027293436942543, 33.939712616721458 ] ] ], [ [ [ -91.027176125679816, 33.94591820386502 ], [ -91.028811954413399, 33.946189281025703 ], [ -91.029017089326118, 33.946405957485794 ], [ -91.02897830229891, 33.946680058751802 ], [ -91.028834123193448, 33.94680762017547 ], [ -91.028592371882482, 33.94686453306899 ], [ -91.027352913131807, 33.946711633653486 ], [ -91.026207858492, 33.946325802561766 ], [ -91.025246451590945, 33.946123190513468 ], [ -91.024363773888638, 33.945840568440126 ], [ -91.023049134097931, 33.945290893497877 ], [ -91.022757668075158, 33.945068304923481 ], [ -91.022421476289907, 33.944645336100379 ], [ -91.021582832663256, 33.944440947537387 ], [ -91.02126716866718, 33.944267023976685 ], [ -91.020879038896894, 33.944251566840549 ], [ -91.019710209681776, 33.943844632422845 ], [ -91.019518635283717, 33.943661485384318 ], [ -91.019525028272213, 33.943385536995862 ], [ -91.019673498836454, 33.943130505382392 ], [ -91.019926398320919, 33.943009638429871 ], [ -91.020213893060401, 33.943049921714021 ], [ -91.020435951143, 33.943225403560312 ], [ -91.020787353576992, 33.943223120335269 ], [ -91.021982964350471, 33.943803946258519 ], [ -91.022384469992048, 33.943925581250667 ], [ -91.02292786176838, 33.943974292739568 ], [ -91.023460590675896, 33.944513028282884 ], [ -91.023528020771238, 33.944690878784179 ], [ -91.024144963632935, 33.944987769458024 ], [ -91.024471645195391, 33.945030840161344 ], [ -91.02480105095286, 33.945219250980259 ], [ -91.026520828915324, 33.94563760985622 ], [ -91.027176125679816, 33.94591820386502 ] ] ] ] } },
{ "type": "Feature", "properties": { "depth_bin": "7-8 ft", "survey_id": "LM_15_CVB_20250417_CS_MB_5963_5958", "date": "2025-04-17 00:00:00+00:00", "year": 2025, "mile": 596.0, "bin_order": 10 }, "geometry": { "type": "MultiPolygon", "coordinates": [ [ [ [ -91.032034211339337, 33.935360803812081 ], [ -91.032486276308603, 33.935497882595193 ], [ -91.032655404705167, 33.935695780526771 ], [ -91.032663153155653, 33.936049555781082 ], [ -91.032449131489273, 33.936412901268547 ], [ -91.031382462508844, 33.937055895797549 ], [ -91.031173934058003, 33.937078278647178 ], [ -91.030680215717084, 33.936962809720718 ], [ -91.030392228391335, 33.936652958924725 ], [ -91.030300851749672, 33.936374323375652 ], [ -91.030452860502109, 33.935953111573291 ], [ -91.031306695293964, 33.935489948723784 ], [ -91.032034211339337, 33.935360803812081 ] ] ], [ [ [ -91.030235167334922, 33.940215050554627 ], [ -91.031191569683159, 33.94051698436563 ], [ -91.031474280248077, 33.940512154375931 ], [ -91.031963726133682, 33.940756258623871 ], [ -91.032530302454688, 33.940883635284415 ], [ -91.032868359494046, 33.941184351810392 ], [ -91.032820599967266, 33.941521997371161 ], [ -91.032499666123542, 33.941675427157911 ], [ -91.032137381639473, 33.941550333353746 ], [ -91.031603709331648, 33.941528176892888 ], [ -91.031304985066399, 33.941622965364111 ], [ -91.030815409167857, 33.9416281837415 ], [ -91.030436831833782, 33.941484581740703 ], [ -91.030279517240089, 33.941321558092731 ], [ -91.029702954567867, 33.94152721721305 ], [ -91.029464019945536, 33.941462606419698 ], [ -91.02931476843797, 33.941310009720688 ], [ -91.029032837382843, 33.941363473803257 ], [ -91.028731170465463, 33.941213889423068 ], [ -91.028388614530982, 33.941241604244347 ], [ -91.028182474323458, 33.941121965739775 ], [ -91.027895645204794, 33.9406978848859 ], [ -91.027488445827913, 33.94085273305236 ], [ -91.027035967546013, 33.940660629065512 ], [ -91.026916416909955, 33.940439026614762 ], [ -91.026970226664517, 33.940039985738586 ], [ -91.026161088441285, 33.940013326155992 ], [ -91.025712509691715, 33.939830978581675 ], [ -91.025401255000858, 33.939825241707382 ], [ -91.024970680791498, 33.939666907443737 ], [ -91.024066111993534, 33.93960437003458 ], [ -91.023385895038942, 33.939156671536502 ], [ -91.023302930328299, 33.938856161855654 ], [ -91.023492172448854, 33.938629672445678 ], [ -91.023818134224243, 33.938581051614236 ], [ -91.024351421889762, 33.938833007899824 ], [ -91.025775375959981, 33.939087920098473 ], [ -91.026396149642366, 33.939311260847397 ], [ -91.026559925765099, 33.939044967291764 ], [ -91.027072840744609, 33.938898927976197 ], [ -91.027216949858996, 33.938752729887199 ], [ -91.027455631559391, 33.938663903759007 ], [ -91.027659452818767, 33.938434220325753 ], [ -91.027994570553375, 33.938322283046197 ], [ -91.028350046470223, 33.937997793803191 ], [ -91.028655369744413, 33.93784071744026 ], [ -91.029250674395882, 33.937712901775825 ], [ -91.029415188444048, 33.93743503978002 ], [ -91.029837284755303, 33.937229485726192 ], [ -91.030087685165469, 33.937212968914459 ], [ -91.030306895224115, 33.937315187432489 ], [ -91.03041150420681, 33.937467200695913 ], [ -91.030324731118583, 33.937920191920298 ], [ -91.030118640166037, 33.938074770224389 ], [ -91.029818967474668, 33.938502906877005 ], [ -91.028305006886583, 33.939787930315433 ], [ -91.028523610817587, 33.939986018393284 ], [ -91.028939910907724, 33.939994899410458 ], [ -91.029276867682739, 33.940126871916057 ], [ -91.029583580507534, 33.940087439352645 ], [ -91.029854855924313, 33.940244594792397 ], [ -91.030235167334922, 33.940215050554627 ] ], [ [ -91.027343958848775, 33.939638814320979 ], [ -91.027307367593352, 33.939616271531058 ], [ -91.027312589338734, 33.939674053971842 ], [ -91.027343958848775, 33.939638814320979 ] ] ], [ [ [ -91.027790540984739, 33.946052296187254 ], [ -91.028847726164742, 33.946180576163322 ], [ -91.02902639005687, 33.946412966368051 ], [ -91.028955552652192, 33.946682579317716 ], [ -91.028718089024636, 33.946823541525205 ], [ -91.028262548779693, 33.946852655513347 ], [ -91.027402369768069, 33.946711354840211 ], [ -91.027025207737609, 33.946546233365851 ], [ -91.026783053240138, 33.946540478437214 ], [ -91.026242248769421, 33.946313130182567 ], [ -91.023735442272468, 33.945610516746804 ], [ -91.022982329822099, 33.945241974985912 ], [ -91.022449059306808, 33.944644968036123 ], [ -91.021566236956076, 33.944427299639145 ], [ -91.021048592831775, 33.944221878115286 ], [ -91.020785113738242, 33.944036947440274 ], [ -91.02048986317088, 33.944070871060589 ], [ -91.019690702544437, 33.943825764550027 ], [ -91.019506651436089, 33.943558262399947 ], [ -91.019606020635933, 33.943206468485791 ], [ -91.01980593309078, 33.943029620937459 ], [ -91.020095078909222, 33.942998614828362 ], [ -91.020416315503567, 33.943183338735345 ], [ -91.020787243127018, 33.943209381175521 ], [ -91.021512638805859, 33.943614793013822 ], [ -91.022297220438588, 33.943900916231826 ], [ -91.022837134513168, 33.943912387334265 ], [ -91.023435403652698, 33.944415507122351 ], [ -91.0235277478412, 33.944682857152415 ], [ -91.023776131237014, 33.944815308027074 ], [ -91.024775555740078, 33.945176100994985 ], [ -91.026553799601842, 33.94563742419794 ], [ -91.027148911632338, 33.945885983069694 ], [ -91.027380187705816, 33.945893823417215 ], [ -91.027790540984739, 33.946052296187254 ] ] ] ] } },
{ "type": "Feature", "properties": { "depth_bin": "8-9 ft", "survey_id": "LM_15_CVB_20250417_CS_MB_5963_5958", "date": "2025-04-17 00:00:00+00:00", "year": 2025, "mile": 596.0, "bin_order": 9 }, "geometry": { "type": "MultiPolygon", "coordinates": [ [ [ [ -91.032207282146388, 33.935396789259165 ], [ -91.032517826884643, 33.935543956279403 ], [ -91.032631962683524, 33.935730454696831 ], [ -91.032646669678996, 33.936049649402371 ], [ -91.032422965498, 33.936413438171577 ], [ -91.031431578228378, 33.937014398000827 ], [ -91.030959310115392, 33.937038275531002 ], [ -91.030729135000101, 33.936954459257848 ], [ -91.030368241344533, 33.936552559883303 ], [ -91.030330024384028, 33.936268358145952 ], [ -91.03047913831854, 33.935966314248446 ], [ -91.03130680740135, 33.935503687867609 ], [ -91.032207282146388, 33.935396789259165 ] ] ], [ [ [ -91.030904814221316, 33.940499585396431 ], [ -91.031778847815147, 33.940660609869177 ], [ -91.032084910212433, 33.940840273661046 ], [ -91.032341001727886, 33.940863515919368 ], [ -91.032729996566047, 33.941055451723471 ], [ -91.032897405890836, 33.94135617695801 ], [ -91.0327952188631, 33.941618709114827 ], [ -91.032542340446639, 33.941739603340402 ], [ -91.031985140115339, 33.941734018880538 ], [ -91.031614341656635, 33.942037914494342 ], [ -91.0313726055752, 33.942094833437004 ], [ -91.03110005493609, 33.942008603043753 ], [ -91.030949083559207, 33.941748798482138 ], [ -91.030842997168705, 33.941723561103842 ], [ -91.030305282606051, 33.941740991620186 ], [ -91.030087553538849, 33.94166518785299 ], [ -91.029810520396879, 33.941716311896357 ], [ -91.029613946627592, 33.941654116271984 ], [ -91.029470226798196, 33.941511773745276 ], [ -91.029033970347882, 33.941540235139428 ], [ -91.028803194829209, 33.941391773285112 ], [ -91.028724549652537, 33.941143424066446 ], [ -91.028299085855664, 33.9412053940909 ], [ -91.028026541456597, 33.941119157087229 ], [ -91.027904559026339, 33.940976419709436 ], [ -91.02786452747938, 33.940718927544289 ], [ -91.027280459277151, 33.940755071666388 ], [ -91.027050278297395, 33.940671248330659 ], [ -91.026905242430544, 33.940460479516716 ], [ -91.026940746146067, 33.940061319498497 ], [ -91.026144604182747, 33.940013418913722 ], [ -91.025711200979586, 33.939843603763052 ], [ -91.024791739387965, 33.93969324288954 ], [ -91.02454779378975, 33.939806213113386 ], [ -91.024281849267652, 33.939781776653888 ], [ -91.02384149704028, 33.939443755568185 ], [ -91.023431500937335, 33.939334384209808 ], [ -91.023286778777361, 33.938897471704841 ], [ -91.023476021036529, 33.938670982325917 ], [ -91.02376011147885, 33.93861649564996 ], [ -91.024036292565668, 33.938686756591409 ], [ -91.024407081879133, 33.938932943336724 ], [ -91.025635490950933, 33.939079218565098 ], [ -91.026398774653913, 33.939326040683071 ], [ -91.026625750669723, 33.939030856862253 ], [ -91.02707474382261, 33.938911736330809 ], [ -91.027217061322631, 33.93876646903486 ], [ -91.027491387970841, 33.938657596100441 ], [ -91.027694147489441, 33.938427428657015 ], [ -91.028111824383984, 33.938317534391786 ], [ -91.028350269755677, 33.938025272095778 ], [ -91.028655593127382, 33.937868195732918 ], [ -91.029385567714201, 33.93770309822218 ], [ -91.029547282094569, 33.937461772443598 ], [ -91.02990781896284, 33.937392603804753 ], [ -91.030127029239765, 33.937494822649164 ], [ -91.030241162096672, 33.937681323136282 ], [ -91.030046967774339, 33.938224040035067 ], [ -91.02834702572315, 33.939756411913827 ], [ -91.028568651467538, 33.93999046208247 ], [ -91.028981004015705, 33.940017895241965 ], [ -91.029231675277586, 33.940160487904436 ], [ -91.029591817168409, 33.940124361467952 ], [ -91.029839815258285, 33.940297851129799 ], [ -91.030160173814266, 33.940254039833533 ], [ -91.030624107377264, 33.940328867234591 ], [ -91.030904814221316, 33.940499585396431 ] ] ], [ [ [ -91.027812377473083, 33.94605184737209 ], [ -91.028846195661643, 33.946213098126051 ], [ -91.028957092382129, 33.946540277869452 ], [ -91.028731011235422, 33.946784382135199 ], [ -91.02830238932286, 33.94682229644166 ], [ -91.027410843142405, 33.946701818704092 ], [ -91.025887328464449, 33.946177085916084 ], [ -91.024380148245143, 33.945826736765774 ], [ -91.024156104651567, 33.945675499303626 ], [ -91.023148378307923, 33.945331557663359 ], [ -91.022441192588843, 33.944645480935669 ], [ -91.02110321588188, 33.944251270102875 ], [ -91.020614460894663, 33.943923265211254 ], [ -91.020300282876363, 33.943995590298158 ], [ -91.019789613711168, 33.943825213091664 ], [ -91.019620500888536, 33.943627298206643 ], [ -91.019605910377962, 33.943192729326981 ], [ -91.019768988257027, 33.943033485926534 ], [ -91.020010733586872, 33.942976590162992 ], [ -91.020416205117201, 33.943169599575718 ], [ -91.020803728022528, 33.943209289121093 ], [ -91.021504782922108, 33.943615017889798 ], [ -91.021746908464777, 33.943643692268331 ], [ -91.022300771955486, 33.943888460086058 ], [ -91.022875051411006, 33.943914392560913 ], [ -91.023435181894357, 33.944388028820889 ], [ -91.023581855039524, 33.944710555054606 ], [ -91.024186341231015, 33.944960238669609 ], [ -91.026223090715703, 33.945515627236311 ], [ -91.027812377473083, 33.94605184737209 ] ] ] ] } },
{ "type": "Feature", "properties": { "depth_bin": "9-10 ft", "survey_id": "LM_15_CVB_20250417_CS_MB_5963_5958", "date": "2025-04-17 00:00:00+00:00", "year": 2025, "mile": 596.0, "bin_order": 8 }, "geometry": { "type": "MultiPolygon", "coordinates": [ [ [ [ -91.032223877750397, 33.935410434838012 ], [ -91.032501343506013, 33.935544049883049 ], [ -91.032615479268259, 33.935730548314503 ], [ -91.032630186202283, 33.936049743021499 ], [ -91.032393742224826, 33.936425459949625 ], [ -91.031267539375676, 33.937034084502699 ], [ -91.030902362740122, 33.936969005704526 ], [ -91.030515340806517, 33.936738873482319 ], [ -91.030360094479889, 33.936303477945479 ], [ -91.030492326129959, 33.936009342850106 ], [ -91.03130714372395, 33.935544905298968 ], [ -91.031783466322082, 33.935413529287338 ], [ -91.032223877750397, 33.935410434838012 ] ] ], [ [ [ -91.03125761885525, 33.940550916495397 ], [ -91.031911396098536, 33.9407422964454 ], [ -91.032763414909851, 33.941110221849122 ], [ -91.03291389038931, 33.941356083289335 ], [ -91.032811703411653, 33.94161861546165 ], [ -91.032558825017048, 33.941739509721963 ], [ -91.032018109260775, 33.941733831790671 ], [ -91.031862258823907, 33.941993095650709 ], [ -91.031553936635277, 33.942093805226712 ], [ -91.031181448791358, 33.942077673447116 ], [ -91.030946403707659, 33.941923019245245 ], [ -91.030702705992468, 33.941958577469414 ], [ -91.030455573612755, 33.941861457797899 ], [ -91.030149360281243, 33.941900650608943 ], [ -91.029859405496609, 33.941716496573363 ], [ -91.029166964502636, 33.941676881258587 ], [ -91.0289887270945, 33.941583917139823 ], [ -91.028586466703857, 33.941134601013651 ], [ -91.028173311607347, 33.941119161573681 ], [ -91.027682939462807, 33.940800131950397 ], [ -91.027255293780414, 33.940776592296139 ], [ -91.027066985560609, 33.940698633736979 ], [ -91.026921949608521, 33.940487864940494 ], [ -91.026913917812323, 33.940080226172299 ], [ -91.026310003346396, 33.940081186981452 ], [ -91.025560440281353, 33.939825924351915 ], [ -91.024982301797593, 33.939737767775476 ], [ -91.024555134415948, 33.939810453136204 ], [ -91.02426536504791, 33.939781869159681 ], [ -91.023820678401648, 33.939461598059033 ], [ -91.023480953342414, 33.939334107021814 ], [ -91.023306689714815, 33.939119919671377 ], [ -91.023286889608002, 33.938911210862443 ], [ -91.023476131899159, 33.938684721484904 ], [ -91.023760222387565, 33.938630234810425 ], [ -91.024086188447995, 33.938741435791371 ], [ -91.024404661956609, 33.938956635041428 ], [ -91.025734729124324, 33.939119879830571 ], [ -91.026402832838457, 33.93933449650148 ], [ -91.026693302407452, 33.939010140692957 ], [ -91.027076328028926, 33.938927646442615 ], [ -91.027731201577325, 33.938437300288818 ], [ -91.028151441452053, 33.93834191452892 ], [ -91.028350381398525, 33.938039011242005 ], [ -91.029271878051915, 33.937743742958077 ], [ -91.029482036148593, 33.937738507407403 ], [ -91.029792321604106, 33.937959197792608 ], [ -91.029836869186056, 33.938413478201944 ], [ -91.028315700250204, 33.93974257974098 ], [ -91.028492456954595, 33.939852921496694 ], [ -91.028584091350993, 33.940098858924699 ], [ -91.028741330007293, 33.940191655151047 ], [ -91.029163239397391, 33.940166154579707 ], [ -91.029566470446127, 33.94024720735819 ], [ -91.0297354027403, 33.940357194736066 ], [ -91.030228594901715, 33.940344846471483 ], [ -91.03066862810752, 33.940567910326386 ], [ -91.03125761885525, 33.940550916495397 ] ] ], [ [ [ -91.028297647007932, 33.9458731849098 ], [ -91.028690225343666, 33.945780763915302 ], [ -91.029000536794257, 33.9460014569894 ], [ -91.028945873430956, 33.94656069544498 ], [ -91.028692171623334, 33.946785156111595 ], [ -91.028318874886764, 33.946822203378737 ], [ -91.027501284120291, 33.946710797147936 ], [ -91.025991368033132, 33.94618746775209 ], [ -91.025185477682584, 33.945960880327569 ], [ -91.024832759049801, 33.945933158153359 ], [ -91.024594006328272, 33.945773101240086 ], [ -91.02372523966892, 33.945568399319335 ], [ -91.023131782186823, 33.945317910885784 ], [ -91.022465755619365, 33.944645182627134 ], [ -91.02110310538427, 33.944237530948925 ], [ -91.020626744368869, 33.943919874139446 ], [ -91.019809120871983, 33.943844080949582 ], [ -91.019604015913743, 33.9436273900996 ], [ -91.019607321492487, 33.943225721105669 ], [ -91.019785473118404, 33.943033394009156 ], [ -91.020111453425031, 33.94298478370537 ], [ -91.020430946434999, 33.943167467064846 ], [ -91.02075405244662, 33.943182086957997 ], [ -91.021503223193804, 33.943600522778382 ], [ -91.021746797858896, 33.943629953112293 ], [ -91.022300661263131, 33.943874720933628 ], [ -91.022911947104987, 33.943789265724149 ], [ -91.023142718084415, 33.943937738441932 ], [ -91.02320342596407, 33.944197660794629 ], [ -91.023459703611266, 33.94440311507708 ], [ -91.023576423973594, 33.944692067866669 ], [ -91.023775909370954, 33.944787829734715 ], [ -91.02458798026386, 33.94503453943706 ], [ -91.024817946187596, 33.945042635245407 ], [ -91.025506360888116, 33.945325078192553 ], [ -91.027987507379549, 33.946077402304752 ], [ -91.028172449682728, 33.946068499605147 ], [ -91.028297647007932, 33.9458731849098 ] ] ] ] } },
{ "type": "Feature", "properties": { "depth_bin": "<5 ft", "survey_id": "LM_15_CVB_20250417_CS_MB_5963_5958", "date": "2025-04-17 00:00:00+00:00", "year": 2025, "mile": 596.0, "bin_order": 13 }, "geometry": { "type": "MultiPolygon", "coordinates": [ [ [ [ -91.033186226052166, 33.936045542181702 ], [ -91.03415266847739, 33.936684800921327 ], [ -91.035602043054013, 33.937480495713402 ], [ -91.035750897339625, 33.93779703361173 ], [ -91.033783623717511, 33.940348640127539 ], [ -91.033599067653299, 33.940473594607738 ], [ -91.033545322200112, 33.940677358833945 ], [ -91.033360383175463, 33.940824013757037 ], [ -91.033114960740832, 33.941231789496349 ], [ -91.032913006094589, 33.941465017541077 ], [ -91.032730619275327, 33.941552212165035 ], [ -91.032289668222973, 33.941558763316273 ], [ -91.032000894035534, 33.94137633509429 ], [ -91.031832000566126, 33.941353240687761 ], [ -91.031472564601614, 33.941389033853675 ], [ -91.031132085640039, 33.941184726022087 ], [ -91.030788057732551, 33.941109129836356 ], [ -91.030524382509711, 33.941179073358192 ], [ -91.030237687442508, 33.94108173380112 ], [ -91.030058514724416, 33.941277300664055 ], [ -91.029732545291921, 33.941325937770969 ], [ -91.029460787075919, 33.941168220664245 ], [ -91.029348986517377, 33.940797049473282 ], [ -91.029077184233458, 33.940774383015196 ], [ -91.028706594326835, 33.940850843645087 ], [ -91.028078877603534, 33.940530066641657 ], [ -91.027785829164372, 33.940744761671006 ], [ -91.027329591589094, 33.940752945516955 ], [ -91.02704675153133, 33.940507962968219 ], [ -91.026996011058742, 33.940210841200305 ], [ -91.027088476286039, 33.939938313900228 ], [ -91.026831855039035, 33.940031227552048 ], [ -91.026292962507185, 33.940012584014603 ], [ -91.026012907156357, 33.939842786068347 ], [ -91.025760707628237, 33.939798730675022 ], [ -91.025589470871282, 33.939652128343859 ], [ -91.02496309634266, 33.939625858698136 ], [ -91.024715263851888, 33.939452582424565 ], [ -91.024104363952517, 33.939438321709225 ], [ -91.023542720161373, 33.939097144595181 ], [ -91.023407216955576, 33.938920859505785 ], [ -91.023468542684711, 33.938616762320557 ], [ -91.025690017740814, 33.936089904771855 ], [ -91.028149909254722, 33.933327697164785 ], [ -91.028407885095888, 33.93306706910338 ], [ -91.028754304574662, 33.93288277443876 ], [ -91.028964450691461, 33.932877539345277 ], [ -91.029183648451266, 33.932979759490266 ], [ -91.029563242940952, 33.933642275087202 ], [ -91.030465766761978, 33.934393143882829 ], [ -91.031498893673913, 33.934402053921552 ], [ -91.032340368771315, 33.934660325506869 ], [ -91.03258044777408, 33.934666460302871 ], [ -91.032860196651853, 33.934803102345995 ], [ -91.033175867132528, 33.935060159648295 ], [ -91.03333794084449, 33.935382947578482 ], [ -91.033336167021474, 33.935702235953947 ], [ -91.033186226052166, 33.936045542181702 ] ], [ [ -91.031074357499278, 33.936469929880161 ], [ -91.031360486653398, 33.936259070477 ], [ -91.031085572360539, 33.936309371795225 ], [ -91.031039525671829, 33.936432016465389 ], [ -91.031074357499278, 33.936469929880161 ] ], [ [ -91.031427011202638, 33.936217518456701 ], [ -91.031613022479476, 33.93607609357138 ], [ -91.031833754259381, 33.935960604503713 ], [ -91.031680371484129, 33.935964914145046 ], [ -91.031427011202638, 33.936217518456701 ] ], [ [ -91.027210964903034, 33.939777839545442 ], [ -91.027544611761698, 33.93946278137301 ], [ -91.02721207125191, 33.939491428013419 ], [ -91.027210964903034, 33.939777839545442 ] ], [ [ -91.027695043034569, 33.939349316129842 ], [ -91.027751340140242, 33.939327791262187 ], [ -91.027782981102362, 33.939286335538846 ], [ -91.027695043034569, 33.939349316129842 ] ], [ [ -91.027934489399058, 33.939176818052808 ], [ -91.027931926670959, 33.939179585296856 ], [ -91.027933591434575, 33.939178789478369 ], [ -91.027934489399058, 33.939176818052808 ] ] ], [ [ [ -91.027176505928054, 33.945947706277941 ], [ -91.028747841676847, 33.946282352574066 ], [ -91.028882371928717, 33.946588278832621 ], [ -91.028752679911705, 33.946805887308017 ], [ -91.028456742298175, 33.947029587739074 ], [ -91.028257434327429, 33.94708544314539 ], [ -91.027480116462243, 33.947074251131802 ], [ -91.027148659507432, 33.946884784449459 ], [ -91.026447431963376, 33.94686787218329 ], [ -91.026163848641204, 33.946692979396417 ], [ -91.025783137271333, 33.946641022560726 ], [ -91.02559804998468, 33.946469944829907 ], [ -91.025290326035957, 33.946489666999788 ], [ -91.024994972473067, 33.946296675506659 ], [ -91.024565152492741, 33.946279111271821 ], [ -91.024356846222361, 33.946118172296025 ], [ -91.02406095333528, 33.946054649443859 ], [ -91.023916454630935, 33.945910852075471 ], [ -91.023605888538086, 33.945899779169082 ], [ -91.023065466849971, 33.945560668259361 ], [ -91.022770544721936, 33.945498551316057 ], [ -91.022424225244691, 33.945261880607177 ], [ -91.022220174347211, 33.945002069685856 ], [ -91.021925255886075, 33.944939950689502 ], [ -91.021574263412504, 33.94463470735721 ], [ -91.020964337820189, 33.944608325410449 ], [ -91.020709982258396, 33.944424581679655 ], [ -91.020319869057971, 33.944419565548216 ], [ -91.020072094312425, 33.944246368915294 ], [ -91.019775996075808, 33.9441825240093 ], [ -91.01962041301293, 33.944018153050166 ], [ -91.019512731241605, 33.943675796738141 ], [ -91.01957327135365, 33.943234130585807 ], [ -91.01973634937427, 33.94307488723463 ], [ -91.019978094841107, 33.943017991540522 ], [ -91.020250636162217, 33.94310424627659 ], [ -91.020394861137575, 33.943312130868136 ], [ -91.020587670750473, 33.943239524843321 ], [ -91.020837139645465, 33.943264061643809 ], [ -91.021983185632564, 33.943831424565815 ], [ -91.022842855761667, 33.944010751298329 ], [ -91.023153826582046, 33.94425220704813 ], [ -91.023429713544701, 33.944662506976556 ], [ -91.024602232929951, 33.945181477817769 ], [ -91.027176505928054, 33.945947706277941 ] ] ] ] } },
{ "type": "Feature", "properties": { "depth_bin": ">20 ft", "survey_id": "LM_15_CVB_20250417_CS_MB_5963_5958", "date": "2025-04-17 00:00:00+00:00", "year": 2025, "mile": 596.0, "bin_order": 0 }, "geometry": { "type": "Polygon", "coordinates": [ [ [ -91.029719196406631, 33.941668663924098 ], [ -91.030089013814887, 33.94165945031569 ], [ -91.030646563059463, 33.942026517725054 ], [ -91.031091634935066, 33.942143262618693 ], [ -91.031221369463168, 33.94213083963551 ], [ -91.031507643588839, 33.941932776019179 ], [ -91.03179904029578, 33.941925512087131 ], [ -91.032029822699954, 33.942073968544904 ], [ -91.032088185891368, 33.942345649625636 ], [ -91.031750775515505, 33.942982097741449 ], [ -91.031123280920738, 33.943652807016861 ], [ -91.030896264640148, 33.944088517486378 ], [ -91.030695414999187, 33.944219224679685 ], [ -91.030618931821081, 33.944447323325456 ], [ -91.030414954972713, 33.944578906134446 ], [ -91.030364344683079, 33.944803607691441 ], [ -91.029444974803425, 33.94604778206714 ], [ -91.029126951469578, 33.946325073005745 ], [ -91.028754553708268, 33.946374413111094 ], [ -91.028460050063657, 33.946544166687701 ], [ -91.02783801656534, 33.946520791874889 ], [ -91.027573608146852, 33.946327127009276 ], [ -91.027234504013606, 33.946341326682933 ], [ -91.026942277870489, 33.946153876552884 ], [ -91.026590009935788, 33.946152600020589 ], [ -91.026301173622187, 33.945970071305453 ], [ -91.02586483721997, 33.945942051935653 ], [ -91.025655559760921, 33.945779706355999 ], [ -91.024966453573242, 33.945546430549207 ], [ -91.024785960128554, 33.945383859698204 ], [ -91.02439969610073, 33.945385998324724 ], [ -91.024149651757483, 33.945209527829334 ], [ -91.023839319365493, 33.945149066463365 ], [ -91.023692700952665, 33.945001336168019 ], [ -91.023247320220193, 33.944979005325408 ], [ -91.022585769347259, 33.944448151112113 ], [ -91.022011447025022, 33.944438550713755 ], [ -91.021802180219026, 33.944276198147328 ], [ -91.021581284606725, 33.944248598502767 ], [ -91.021373143574763, 33.944087879495278 ], [ -91.021077104127286, 33.944024125183539 ], [ -91.020726119305138, 33.943718879131929 ], [ -91.020038476892452, 33.943664184831697 ], [ -91.019823851460941, 33.943413006625669 ], [ -91.019832694825183, 33.942826264894457 ], [ -91.019907338329858, 33.942662436331446 ], [ -91.021883970540841, 33.940411809283539 ], [ -91.022264036871462, 33.940114450826769 ], [ -91.022341548631942, 33.939914616438394 ], [ -91.022824955008872, 33.939375669764765 ], [ -91.023455311939571, 33.939046582762693 ], [ -91.024193566235496, 33.939179245201096 ], [ -91.024602948063162, 33.939396195551154 ], [ -91.024900684303873, 33.93929524777613 ], [ -91.025320184550694, 33.939390810057198 ], [ -91.025734586051811, 33.93931722299493 ], [ -91.026611348008771, 33.939495355825777 ], [ -91.026646414350438, 33.939264918397711 ], [ -91.026846303183234, 33.939088058456072 ], [ -91.027283667798585, 33.939034304999609 ], [ -91.027466605835059, 33.93882716614835 ], [ -91.028010098770736, 33.938671435708564 ], [ -91.028338960965399, 33.938703762219276 ], [ -91.028530544399075, 33.938886895937884 ], [ -91.028550357351847, 33.939095604358251 ], [ -91.028343019441067, 33.939511472461945 ], [ -91.028071019829014, 33.939684740984703 ], [ -91.02804066286977, 33.939812716977215 ], [ -91.028285426548891, 33.939877185050591 ], [ -91.02845455307201, 33.940075088586887 ], [ -91.028385685936769, 33.940518348336624 ], [ -91.028204857434417, 33.940762511513455 ], [ -91.028481581934173, 33.940975623019234 ], [ -91.028563551104824, 33.941541657378288 ], [ -91.028723775409901, 33.941556819145688 ], [ -91.028990037455486, 33.941456837339913 ], [ -91.029235419640656, 33.941501618658009 ], [ -91.029427011032737, 33.941684751192824 ], [ -91.029443662832975, 33.941939473215115 ], [ -91.029719196406631, 33.941668663924098 ] ] ] } }
]
}
