{
"type": "FeatureCollection",
"name": "LM_10_SSL_20220531_CS_5334_5306_depth_polygons",
"crs": { "type": "name", "properties": { "name": "urn:ogc:def:crs:OGC:1.3:CRS84" } },
"features": [
{ "type": "Feature", "properties": { "depth_bin": "10-11 ft", "survey_id": "LM_10_SSL_20220531_CS_5334_5306", "date": "2022-05-31 00:00:00+00:00", "year": 2022, "mile": 532.0, "bin_order": 7 }, "geometry": { "type": "MultiPolygon", "coordinates": [ [ [ [ -91.160681801071206, 33.297765725838971 ], [ -91.160894781665036, 33.297555461627411 ], [ -91.161222429833245, 33.297533250290229 ], [ -91.16147281548001, 33.297712102870115 ], [ -91.161499266301419, 33.2979872506844 ], [ -91.161286286007595, 33.298197515932578 ], [ -91.16095863535395, 33.298219727350954 ], [ -91.160708249407193, 33.298040873734458 ], [ -91.160681801071206, 33.297765725838971 ] ] ], [ [ [ -91.177987084828047, 33.30288721549686 ], [ -91.178200038362945, 33.302676920775639 ], [ -91.178527703581835, 33.302654664303034 ], [ -91.178778140401135, 33.302833483560619 ], [ -91.178804646542062, 33.303108629385534 ], [ -91.178591693309016, 33.303318925143408 ], [ -91.178264025604321, 33.303341181698386 ], [ -91.178013588483182, 33.303162361404141 ], [ -91.177987084828047, 33.30288721549686 ] ] ], [ [ [ -91.173346542432469, 33.304607634776488 ], [ -91.173559511111463, 33.304397348592325 ], [ -91.173887183376024, 33.304375104630431 ], [ -91.174137615015511, 33.304553933043991 ], [ -91.174164106785071, 33.304829079306728 ], [ -91.173951138407503, 33.305039366527645 ], [ -91.173623463656867, 33.30506161057162 ], [ -91.173373031715983, 33.304882781121307 ], [ -91.173346542432469, 33.304607634776488 ] ] ], [ [ [ -91.171242783322796, 33.305309324430276 ], [ -91.171479279369422, 33.305117583415708 ], [ -91.171807972684164, 33.305122421214492 ], [ -91.17203632094683, 33.305321003995907 ], [ -91.172030560708066, 33.305597005390204 ], [ -91.171794064471825, 33.305788747437632 ], [ -91.171465368659909, 33.30578390951694 ], [ -91.171237020586844, 33.305585325702651 ], [ -91.171242783322796, 33.305309324430276 ] ] ], [ [ [ -91.176599059912192, 33.307202434927 ], [ -91.176835550037126, 33.30701068354071 ], [ -91.17716425143675, 33.307015507412729 ], [ -91.177392617055062, 33.307214080870217 ], [ -91.177386873276348, 33.307490083005291 ], [ -91.177150382962338, 33.307681835424553 ], [ -91.17682167906527, 33.307677011430982 ], [ -91.176593313636047, 33.307478436940535 ], [ -91.176599059912192, 33.307202434927 ] ] ], [ [ [ -91.167751560529069, 33.309006554164341 ], [ -91.168118511094377, 33.30889078125351 ], [ -91.168377927864313, 33.308998523209659 ], [ -91.16849705707169, 33.309219992695908 ], [ -91.168444118412793, 33.30942461307189 ], [ -91.168186360534193, 33.309595959115562 ], [ -91.167907005435737, 33.309582762621716 ], [ -91.167624244475491, 33.309699776798823 ], [ -91.167380547367372, 33.309655324845266 ], [ -91.16717648150464, 33.30943889683909 ], [ -91.167214449048302, 33.309164700773557 ], [ -91.167432274848238, 33.309004693441885 ], [ -91.167751560529069, 33.309006554164341 ] ] ], [ [ [ -91.178978783404503, 33.311053090288524 ], [ -91.179191755451242, 33.310842794725161 ], [ -91.179519451207995, 33.310820536696411 ], [ -91.179769912703193, 33.310999354595381 ], [ -91.179796423203413, 33.311274500055227 ], [ -91.179583451458797, 33.311484796655542 ], [ -91.179255753215259, 33.311507054766757 ], [ -91.179005291417951, 33.311328235830842 ], [ -91.178978783404503, 33.311053090288524 ] ] ], [ [ [ -91.170400607031851, 33.313731554682761 ], [ -91.170637128495159, 33.313539816361228 ], [ -91.1709658532574, 33.313544657463794 ], [ -91.171194220577576, 33.31374324222449 ], [ -91.171188455842596, 33.314019243114338 ], [ -91.170951934189517, 33.314210982469071 ], [ -91.170623206929079, 33.314206141244526 ], [ -91.170394839798661, 33.31400755545063 ], [ -91.170400607031851, 33.313731554682761 ] ] ], [ [ [ -91.163813748616562, 33.316670025336769 ], [ -91.164050292153817, 33.316478300416968 ], [ -91.164379026731993, 33.316483159322992 ], [ -91.164607385860322, 33.316681755860138 ], [ -91.164601599723838, 33.316957755601038 ], [ -91.1643650559961, 33.317149481554125 ], [ -91.164036318919386, 33.317144622525696 ], [ -91.16380795998154, 33.31694602495525 ], [ -91.163813748616562, 33.316670025336769 ] ] ] ] } },
{ "type": "Feature", "properties": { "depth_bin": "11-12 ft", "survey_id": "LM_10_SSL_20220531_CS_5334_5306", "date": "2022-05-31 00:00:00+00:00", "year": 2022, "mile": 532.0, "bin_order": 6 }, "geometry": { "type": "MultiPolygon", "coordinates": [ [ [ [ -91.168390955371635, 33.296396667568104 ], [ -91.168627432381243, 33.296204931112271 ], [ -91.168956091743581, 33.29620977531421 ], [ -91.169184411026549, 33.29640836259243 ], [ -91.16917864375651, 33.296684363942759 ], [ -91.168942166557059, 33.296876101431103 ], [ -91.168613504698655, 33.296871257107092 ], [ -91.168385185605516, 33.296672668796369 ], [ -91.168390955371635, 33.296396667568104 ] ] ], [ [ [ -91.167517233325526, 33.30914120030198 ], [ -91.167753747945937, 33.308949467129779 ], [ -91.168082454952, 33.308954315273368 ], [ -91.168310804003653, 33.309152904842364 ], [ -91.168305031189064, 33.309428905491046 ], [ -91.168068516378611, 33.309620639696263 ], [ -91.167739806874906, 33.309615791430517 ], [ -91.167511458013294, 33.309417200828506 ], [ -91.167517233325526, 33.30914120030198 ] ] ], [ [ [ -91.170561877626255, 33.313752206504418 ], [ -91.170798398809225, 33.313560467866097 ], [ -91.171127123678602, 33.313565308544639 ], [ -91.171355491430674, 33.31376389302244 ], [ -91.17134972719937, 33.314039893936247 ], [ -91.171113205826671, 33.314231633607768 ], [ -91.170784478459083, 33.314226792807268 ], [ -91.170556110896726, 33.314028207296268 ], [ -91.170561877626255, 33.313752206504418 ] ] ], [ [ [ -91.168332819384403, 33.31587903225887 ], [ -91.168650353497284, 33.315667965455688 ], [ -91.169048846026001, 33.315746534917999 ], [ -91.169277214327963, 33.315945123185585 ], [ -91.169271443069732, 33.316221123681522 ], [ -91.168953908305753, 33.31643219203788 ], [ -91.168555412785011, 33.316353622175079 ], [ -91.168327045164531, 33.316155032611839 ], [ -91.168332819384403, 33.31587903225887 ] ] ], [ [ [ -91.17021287920663, 33.316357787098489 ], [ -91.170489343981231, 33.316154711925087 ], [ -91.170932996421953, 33.316211318284815 ], [ -91.171161370329102, 33.316409903260428 ], [ -91.171155604906843, 33.316685904026627 ], [ -91.170879139868376, 33.316888980662618 ], [ -91.170435484057791, 33.316832373999958 ], [ -91.170207110806672, 33.316633787720598 ], [ -91.17021287920663, 33.316357787098489 ] ] ], [ [ [ -91.179911387947158, 33.318859466808718 ], [ -91.180147903852372, 33.318667710281304 ], [ -91.180476649606049, 33.318672526873144 ], [ -91.180705052171234, 33.318871095175844 ], [ -91.18069931628942, 33.319147097301503 ], [ -91.1804628001954, 33.319338854862337 ], [ -91.180134051942801, 33.319334038149158 ], [ -91.17990564956645, 33.319135468813016 ], [ -91.179911387947158, 33.318859466808718 ] ] ], [ [ [ -91.154663361152075, 33.283181307278248 ], [ -91.154899829843842, 33.282989596377348 ], [ -91.155228437132692, 33.282994475177695 ], [ -91.155456691089285, 33.283193085831194 ], [ -91.155450883506333, 33.283469085640334 ], [ -91.155214414623387, 33.283660797573184 ], [ -91.154885804840177, 33.283655918649842 ], [ -91.154657551074777, 33.283457306964408 ], [ -91.154663361152075, 33.283181307278248 ] ] ], [ [ [ -91.148878679500626, 33.287224729882837 ], [ -91.149115171655225, 33.287033030929734 ], [ -91.149443793023735, 33.287037925544858 ], [ -91.149672043429462, 33.287236546616299 ], [ -91.149666216744734, 33.287512545343944 ], [ -91.149429724398317, 33.287704245329124 ], [ -91.149101100534978, 33.287699350590628 ], [ -91.148872850321069, 33.28750072848711 ], [ -91.148878679500626, 33.287224729882837 ] ] ], [ [ [ -91.158412782493571, 33.295608293173224 ], [ -91.158649278206283, 33.295416576372595 ], [ -91.158977932771606, 33.29542144685994 ], [ -91.159206226567377, 33.295620051656606 ], [ -91.159200428049274, 33.295896051496314 ], [ -91.158963932145681, 33.296087769329382 ], [ -91.158635275084436, 33.296082898719305 ], [ -91.158406981479544, 33.295884292890186 ], [ -91.158412782493571, 33.295608293173224 ] ] ], [ [ [ -91.164441142526471, 33.299069036835853 ], [ -91.16467763531783, 33.298877308524283 ], [ -91.165006303974181, 33.298882163513944 ], [ -91.165234620619316, 33.299080757904264 ], [ -91.165228840324517, 33.299356758524944 ], [ -91.164992347342888, 33.299548487869117 ], [ -91.164663676190173, 33.299543632757107 ], [ -91.164435359735307, 33.299345037334184 ], [ -91.164441142526471, 33.299069036835853 ] ] ], [ [ [ -91.162120519360712, 33.300667082536144 ], [ -91.162378175844168, 33.300422734454408 ], [ -91.16262672153411, 33.300405883423878 ], [ -91.16287228012142, 33.300534466682954 ], [ -91.16296495982516, 33.300764677734257 ], [ -91.162833833603869, 33.301017808667233 ], [ -91.162580166503517, 33.301116721218285 ], [ -91.162397451607603, 33.301328843799475 ], [ -91.162157593791846, 33.301386088459608 ], [ -91.161856151624306, 33.301275975178413 ], [ -91.161735723219905, 33.301019123306794 ], [ -91.161838001026297, 33.300791796207832 ], [ -91.162120519360712, 33.300667082536144 ] ] ], [ [ [ -91.167026003914501, 33.300750964141415 ], [ -91.167262496007723, 33.300559230918317 ], [ -91.167591171448322, 33.300564079287284 ], [ -91.167819498386152, 33.300762669225911 ], [ -91.16781372586334, 33.301038670171721 ], [ -91.167577233580104, 33.301230404427486 ], [ -91.1672485556429, 33.301225555936341 ], [ -91.167020228895097, 33.301026964965047 ], [ -91.167026003914501, 33.300750964141415 ] ] ], [ [ [ -91.166607707277294, 33.31781567297844 ], [ -91.166844248171415, 33.3176239426653 ], [ -91.167172987565024, 33.317628794325536 ], [ -91.167401356146669, 33.317827386008808 ], [ -91.167395578563969, 33.318103386131142 ], [ -91.167159037479692, 33.318295117477646 ], [ -91.166830295587388, 33.318290265695168 ], [ -91.166601927195913, 33.318091672978532 ], [ -91.166607707277294, 33.31781567297844 ] ] ] ] } },
{ "type": "Feature", "properties": { "depth_bin": "12-13 ft", "survey_id": "LM_10_SSL_20220531_CS_5334_5306", "date": "2022-05-31 00:00:00+00:00", "year": 2022, "mile": 532.0, "bin_order": 5 }, "geometry": { "type": "MultiPolygon", "coordinates": [ [ [ [ -91.160790605257461, 33.29770497909476 ], [ -91.160978017915596, 33.297478196476547 ], [ -91.161301495498336, 33.297429122660603 ], [ -91.161571550907098, 33.29758650422346 ], [ -91.161629989896966, 33.297858149887752 ], [ -91.161442578017954, 33.298084933506821 ], [ -91.161119098056091, 33.298134007604624 ], [ -91.160849041868218, 33.297976625040931 ], [ -91.160790605257461, 33.29770497909476 ] ] ], [ [ [ -91.17079572853352, 33.298157396264564 ], [ -91.171008686687145, 33.297947113920173 ], [ -91.1713363350582, 33.29792487586311 ], [ -91.171586743431959, 33.298103708787714 ], [ -91.171613226192093, 33.298378855525073 ], [ -91.171400268339511, 33.298589138905989 ], [ -91.171072617483134, 33.298611377044914 ], [ -91.170822208808332, 33.298432543083784 ], [ -91.17079572853352, 33.298157396264564 ] ] ], [ [ [ -91.161894370087339, 33.300840062810202 ], [ -91.162107355708571, 33.30062979677502 ], [ -91.162435015265856, 33.300607582634356 ], [ -91.162685411992086, 33.300786433073043 ], [ -91.162711867093265, 33.301061580662832 ], [ -91.162498881772208, 33.301271847734725 ], [ -91.162171219729132, 33.301294061956689 ], [ -91.161920822702726, 33.301115210481264 ], [ -91.161894370087339, 33.300840062810202 ] ] ], [ [ [ -91.164091014706827, 33.316826279808126 ], [ -91.164342456777703, 33.316601444223508 ], [ -91.164671191872003, 33.316606302372293 ], [ -91.16488220089235, 33.316772641125098 ], [ -91.164923855736347, 33.316992268970495 ], [ -91.165240667179816, 33.316881402173991 ], [ -91.165542166789791, 33.316991508968044 ], [ -91.165655847245773, 33.317177884007648 ], [ -91.165627039725535, 33.317385874716457 ], [ -91.165390496946401, 33.317577602648107 ], [ -91.165061758073477, 33.317572746278032 ], [ -91.164850746841864, 33.317406407772822 ], [ -91.164809092036037, 33.317186779916348 ], [ -91.164534415359967, 33.317296531279915 ], [ -91.164221513037106, 33.317211763435402 ], [ -91.164086624379323, 33.317035639462382 ], [ -91.164091014706827, 33.316826279808126 ] ] ], [ [ [ -91.180053332644292, 33.318930864742228 ], [ -91.180266322282563, 33.318720568153999 ], [ -91.180594047496299, 33.318698308310822 ], [ -91.180844533059073, 33.318877124668518 ], [ -91.180871048139196, 33.319152269763393 ], [ -91.18065805880326, 33.319362567388872 ], [ -91.180330331101814, 33.319384827314678 ], [ -91.180079845236676, 33.319206009919718 ], [ -91.180053332644292, 33.318930864742228 ] ] ], [ [ [ -91.178733766266049, 33.322646447960153 ], [ -91.178946768441818, 33.322436154171264 ], [ -91.179274507784783, 33.322413898309243 ], [ -91.17952500079214, 33.322592717497848 ], [ -91.179551512271246, 33.322867862615148 ], [ -91.179338510397756, 33.323078157441429 ], [ -91.179010768566599, 33.323100413386001 ], [ -91.178760275256948, 33.322921593160004 ], [ -91.178733766266049, 33.322646447960153 ] ] ] ] } },
{ "type": "Feature", "properties": { "depth_bin": "13-14 ft", "survey_id": "LM_10_SSL_20220531_CS_5334_5306", "date": "2022-05-31 00:00:00+00:00", "year": 2022, "mile": 532.0, "bin_order": 4 }, "geometry": { "type": "MultiPolygon", "coordinates": [ [ [ [ -91.153761723971115, 33.291324314512195 ], [ -91.153949139847583, 33.291097542436574 ], [ -91.154272596733577, 33.291048486202314 ], [ -91.154542619654023, 33.291205882087205 ], [ -91.154601033394542, 33.291477530424174 ], [ -91.154413618296246, 33.291704303500573 ], [ -91.154090159031639, 33.29175336001618 ], [ -91.153820135333021, 33.291595963130511 ], [ -91.153761723971115, 33.291324314512195 ] ] ], [ [ [ -91.169274371723603, 33.302974356681794 ], [ -91.169461774976057, 33.302747561075996 ], [ -91.169785268488752, 33.302698465705838 ], [ -91.170055355831792, 33.302855829773549 ], [ -91.170113824054297, 33.303127472250232 ], [ -91.169926421582005, 33.303354268856864 ], [ -91.169602925689858, 33.303403364509514 ], [ -91.169332837566671, 33.303245999440946 ], [ -91.169274371723603, 33.302974356681794 ] ] ], [ [ [ -91.167328038055899, 33.309230856050533 ], [ -91.167515460387904, 33.309004064231196 ], [ -91.167838978033785, 33.308954974808394 ], [ -91.168109080427286, 33.309112343500544 ], [ -91.168167545801253, 33.309383986569948 ], [ -91.167980124249482, 33.309610779390397 ], [ -91.167656604223367, 33.309659869095647 ], [ -91.16738650104962, 33.309502499402377 ], [ -91.167328038055899, 33.309230856050533 ] ] ], [ [ [ -91.170709311598486, 33.31380711608773 ], [ -91.170922309846759, 33.313596835705248 ], [ -91.171250016992872, 33.313574599934938 ], [ -91.171500468393816, 33.31375343413152 ], [ -91.171526953228707, 33.314028580381432 ], [ -91.171313955281747, 33.314238861801051 ], [ -91.170986245648393, 33.314261097653322 ], [ -91.17073579394615, 33.314082262419582 ], [ -91.170709311598486, 33.31380711608773 ] ] ], [ [ [ -91.168790866118798, 33.316020788118323 ], [ -91.169003874462121, 33.315810511440503 ], [ -91.169331590165655, 33.315788281041762 ], [ -91.169582043573769, 33.315967119130292 ], [ -91.1696085226897, 33.316242265512734 ], [ -91.169395514647519, 33.316452543227804 ], [ -91.16906779645646, 33.3164747737084 ], [ -91.16881734274719, 33.316295934582627 ], [ -91.168790866118798, 33.316020788118323 ] ] ] ] } },
{ "type": "Feature", "properties": { "depth_bin": "14-15 ft", "survey_id": "LM_10_SSL_20220531_CS_5334_5306", "date": "2022-05-31 00:00:00+00:00", "year": 2022, "mile": 532.0, "bin_order": 3 }, "geometry": { "type": "MultiPolygon", "coordinates": [ [ [ [ -91.170871800616482, 33.313814787431681 ], [ -91.171084798507479, 33.313604506757976 ], [ -91.17141250566192, 33.313582270558392 ], [ -91.171662957431963, 33.313761104439109 ], [ -91.17168944278049, 33.314036250671585 ], [ -91.17147644519082, 33.31424653238242 ], [ -91.171148735549139, 33.314268768663979 ], [ -91.170898283477797, 33.314089933746104 ], [ -91.170871800616482, 33.313814787431681 ] ] ], [ [ [ -91.18031725925475, 33.314882570387297 ], [ -91.180530237958862, 33.314672272859092 ], [ -91.18085794793005, 33.314650011787329 ], [ -91.181108422870423, 33.31482882734754 ], [ -91.1811349381707, 33.315103972543028 ], [ -91.180921959768895, 33.315314271108321 ], [ -91.180594247310481, 33.31533653226267 ], [ -91.180343772067801, 33.315157715665379 ], [ -91.18031725925475, 33.314882570387297 ] ] ], [ [ [ -91.16863004050785, 33.315995733756161 ], [ -91.168740490751148, 33.315847004913778 ], [ -91.168962471173003, 33.3157515554282 ], [ -91.16948298545573, 33.315843792171208 ], [ -91.1697334393414, 33.316022629968849 ], [ -91.169759918943186, 33.316297776333563 ], [ -91.169649469782158, 33.316446506112413 ], [ -91.169427488250392, 33.31654195678145 ], [ -91.168906969920855, 33.316449719675404 ], [ -91.168656516625219, 33.316270880238228 ], [ -91.16863004050785, 33.315995733756161 ] ] ], [ [ [ -91.170050128938001, 33.316333490502764 ], [ -91.170286658445121, 33.316141753192149 ], [ -91.170615392908687, 33.316146595554478 ], [ -91.170843765905047, 33.316345181085829 ], [ -91.170837999496044, 33.316621181805885 ], [ -91.170601469799124, 33.3168129201498 ], [ -91.170272732837034, 33.316808077665463 ], [ -91.170044360030474, 33.316609491100806 ], [ -91.170050128938001, 33.316333490502764 ] ] ], [ [ [ -91.165272341850184, 33.317300848295169 ], [ -91.165485361619019, 33.317090578091921 ], [ -91.165813082573692, 33.31706835717987 ], [ -91.166063531982672, 33.317247202210226 ], [ -91.166090000191616, 33.317522348923248 ], [ -91.165876980723581, 33.317732620163831 ], [ -91.165549257281185, 33.317754841157502 ], [ -91.165298807571375, 33.317575995089811 ], [ -91.165272341850184, 33.317300848295169 ] ] ], [ [ [ -91.151562830356582, 33.289190913689289 ], [ -91.151799322407868, 33.288999209663444 ], [ -91.152127951644815, 33.289004097436113 ], [ -91.152356213281649, 33.289202713903457 ], [ -91.152350394611901, 33.289478712962492 ], [ -91.152113902369067, 33.289670418020513 ], [ -91.151785270637035, 33.289665530124651 ], [ -91.151557009191748, 33.28946691262513 ], [ -91.151562830356582, 33.289190913689289 ] ] ], [ [ [ -91.15581269691323, 33.293588473129034 ], [ -91.156049192404708, 33.2933967612286 ], [ -91.156377838915532, 33.293401638331396 ], [ -91.156606121541543, 33.293600247583647 ], [ -91.156600315281352, 33.293876247109004 ], [ -91.156363819598738, 33.294067960041794 ], [ -91.156035170592276, 33.294063082816088 ], [ -91.155806888157386, 33.293864472531467 ], [ -91.15581269691323, 33.293588473129034 ] ] ], [ [ [ -91.158529731909383, 33.295561131488377 ], [ -91.158742711869706, 33.295350870889941 ], [ -91.15907035203162, 33.29532866495753 ], [ -91.159320726989122, 33.295507521567885 ], [ -91.159347170699732, 33.295782669677322 ], [ -91.159134191039144, 33.29599293131232 ], [ -91.15880654839205, 33.296015137325774 ], [ -91.158556173134826, 33.295836279678859 ], [ -91.158529731909383, 33.295561131488377 ] ] ], [ [ [ -91.160939682584612, 33.297548407566048 ], [ -91.161176178447391, 33.297356686000235 ], [ -91.161504840754915, 33.297361550054674 ], [ -91.161733145349913, 33.297560150518919 ], [ -91.161727354362185, 33.297836150664601 ], [ -91.161490858308781, 33.298027873262939 ], [ -91.161162193505078, 33.298023009085917 ], [ -91.160933889100718, 33.297824407589147 ], [ -91.160939682584612, 33.297548407566048 ] ] ], [ [ [ -91.162028656859093, 33.300710326728684 ], [ -91.162265159315879, 33.300518603393577 ], [ -91.162593833682649, 33.300523464974106 ], [ -91.162822148738243, 33.30072206370896 ], [ -91.162816360484896, 33.300998063882929 ], [ -91.162579857837571, 33.301189788250696 ], [ -91.162251180974238, 33.301184926547663 ], [ -91.162022866109169, 33.300986326780141 ], [ -91.162028656859093, 33.300710326728684 ] ] ] ] } },
{ "type": "Feature", "properties": { "depth_bin": "15-17.5 ft", "survey_id": "LM_10_SSL_20220531_CS_5334_5306", "date": "2022-05-31 00:00:00+00:00", "year": 2022, "mile": 532.0, "bin_order": 2 }, "geometry": { "type": "MultiPolygon", "coordinates": [ [ [ [ -91.177850414660426, 33.302905123115586 ], [ -91.178086890097987, 33.302713368730686 ], [ -91.178415575605698, 33.3027181887457 ], [ -91.178643933436476, 33.302916759747106 ], [ -91.178638194536546, 33.30319276226566 ], [ -91.178401718910081, 33.303384517683348 ], [ -91.178073030905438, 33.303379697546873 ], [ -91.177844673263579, 33.303181125512673 ], [ -91.177850414660426, 33.302905123115586 ] ] ], [ [ [ -91.17352454441928, 33.304477072993294 ], [ -91.173782276831332, 33.304305714861577 ], [ -91.174108820850648, 33.304337576105432 ], [ -91.174312893125048, 33.304553993067259 ], [ -91.174274950408133, 33.304828192325445 ], [ -91.174017217323183, 33.304999551446421 ], [ -91.173690670891702, 33.304967689881643 ], [ -91.1734865992902, 33.30475127193057 ], [ -91.17352454441928, 33.304477072993294 ] ] ], [ [ [ -91.176779451160044, 33.307135588168521 ], [ -91.17703718560675, 33.306964223400435 ], [ -91.177363741093572, 33.306996076450829 ], [ -91.17756782755113, 33.307212488461516 ], [ -91.177529893424875, 33.307486688911339 ], [ -91.177272158305541, 33.307658054668806 ], [ -91.176945600406128, 33.307626201297701 ], [ -91.176741514621213, 33.307409788297598 ], [ -91.176779451160044, 33.307135588168521 ] ] ], [ [ [ -91.179158001749229, 33.311015094326493 ], [ -91.179394497208378, 33.310823338338388 ], [ -91.179723213382218, 33.310828155926252 ], [ -91.179951594560563, 33.311026725098287 ], [ -91.179945858013028, 33.311302727457097 ], [ -91.17970936236506, 33.311494484478324 ], [ -91.179380643693278, 33.311489666769063 ], [ -91.179152262703766, 33.311291096563913 ], [ -91.179158001749229, 33.311015094326493 ] ] ], [ [ [ -91.171068443394617, 33.31377262295856 ], [ -91.171409075549875, 33.31358869561727 ], [ -91.17173075618372, 33.313680368338254 ], [ -91.172057530076856, 33.313679188785251 ], [ -91.172307983495656, 33.313858021416763 ], [ -91.172334470893119, 33.314133167577886 ], [ -91.172083055966638, 33.314358020378428 ], [ -91.171626116001306, 33.314383308834145 ], [ -91.171106891482239, 33.314172073462146 ], [ -91.17101550742322, 33.313977244399922 ], [ -91.171068443394617, 33.31377262295856 ] ] ], [ [ [ -91.184733825669525, 33.315293438875955 ], [ -91.184991570131757, 33.31512205809797 ], [ -91.185318159813548, 33.315153891321785 ], [ -91.185522284615388, 33.315370291303083 ], [ -91.185484370521579, 33.315644494567628 ], [ -91.185226625387259, 33.315815876335449 ], [ -91.184900033291726, 33.31578404279135 ], [ -91.184695909161974, 33.315567641820216 ], [ -91.184733825669525, 33.315293438875955 ] ] ], [ [ [ -91.169430926846957, 33.315873557236046 ], [ -91.170598480539766, 33.316179602595255 ], [ -91.170717624360691, 33.316401070234733 ], [ -91.17061667870486, 33.316663780916699 ], [ -91.170365842963136, 33.316785037718155 ], [ -91.169335991919795, 33.316559214732564 ], [ -91.169084594893746, 33.316292617907578 ], [ -91.169154388627973, 33.316022866096155 ], [ -91.169430926846957, 33.315873557236046 ] ] ], [ [ [ -91.180251970971341, 33.318884412527531 ], [ -91.180550801963932, 33.318705041986114 ], [ -91.180956409181533, 33.318772064355322 ], [ -91.181184813126819, 33.318970631818253 ], [ -91.181179078735425, 33.319246634013119 ], [ -91.180902627500913, 33.319449733406927 ], [ -91.180455949604664, 33.31939071055394 ], [ -91.180227546327558, 33.319192141781841 ], [ -91.180251970971341, 33.318884412527531 ] ] ], [ [ [ -91.178909674788756, 33.322655529315327 ], [ -91.179250326985496, 33.322471581327328 ], [ -91.179641688221309, 33.322575465786315 ], [ -91.179845814962263, 33.322791874966079 ], [ -91.179807878827475, 33.323066075471246 ], [ -91.179467225354074, 33.323250024933529 ], [ -91.17907586137342, 33.323146139839636 ], [ -91.178871735813814, 33.322929729442286 ], [ -91.178909674788756, 33.322655529315327 ] ] ], [ [ [ -91.154527724344646, 33.283260582451717 ], [ -91.154764193542917, 33.283068871829016 ], [ -91.155092801103706, 33.283073750998142 ], [ -91.155321054938355, 33.28327236189498 ], [ -91.155315246911002, 33.283548361679493 ], [ -91.155078777521538, 33.283740073334144 ], [ -91.154750167466375, 33.283735194042023 ], [ -91.154521913822933, 33.283536582113229 ], [ -91.154527724344646, 33.283260582451717 ] ] ], [ [ [ -91.163036441987771, 33.292491688774902 ], [ -91.163294157450295, 33.292320351588828 ], [ -91.163620651837974, 33.292352238803446 ], [ -91.163824670870952, 33.292568671548217 ], [ -91.163786702490441, 33.292842867155635 ], [ -91.163528986354336, 33.293014205330323 ], [ -91.163202489556213, 33.292982317794234 ], [ -91.162998471196815, 33.292765884060849 ], [ -91.163036441987771, 33.292491688774902 ] ] ], [ [ [ -91.155953718110965, 33.293466870299191 ], [ -91.156211449670877, 33.293295548412466 ], [ -91.156537944187079, 33.293327454277851 ], [ -91.15674194730444, 33.293543898099792 ], [ -91.156703956286762, 33.293818090721857 ], [ -91.15644622405253, 33.293989413597139 ], [ -91.156119727125912, 33.293957507409779 ], [ -91.155915724682885, 33.29374106259931 ], [ -91.155953718110965, 33.293466870299191 ] ] ], [ [ [ -91.161069902287039, 33.297465698307143 ], [ -91.161306397644694, 33.297273976473427 ], [ -91.161635059666111, 33.297278840172886 ], [ -91.161863364361622, 33.297477440402979 ], [ -91.161857573802166, 33.297753440572542 ], [ -91.161621078253916, 33.297945163438783 ], [ -91.161292413736334, 33.297940299616769 ], [ -91.161064109231447, 33.297741698354137 ], [ -91.161069902287039, 33.297465698307143 ] ] ], [ [ [ -91.169459515713612, 33.302807367909821 ], [ -91.169717250597955, 33.302636018275329 ], [ -91.170043786421758, 33.302667889952943 ], [ -91.170247844633451, 33.302884313173237 ], [ -91.170209890224129, 33.303158510848384 ], [ -91.169952154666532, 33.303329861471994 ], [ -91.169625616430864, 33.303297989473229 ], [ -91.16942155889241, 33.303081565263824 ], [ -91.169459515713612, 33.302807367909821 ] ] ], [ [ [ -91.164256393345184, 33.316848093852748 ], [ -91.164514180568545, 33.316676757154696 ], [ -91.164840765961401, 33.316708644179158 ], [ -91.165044841936364, 33.316925076167053 ], [ -91.165006863078361, 33.31719927089496 ], [ -91.164749075180765, 33.317370608582586 ], [ -91.164422487374523, 33.317338721236503 ], [ -91.164218412073765, 33.317122288259043 ], [ -91.164256393345184, 33.316848093852748 ] ] ], [ [ [ -91.166194240990947, 33.317586502048506 ], [ -91.16633713438587, 33.317458725259797 ], [ -91.166577034416392, 33.317401474084832 ], [ -91.167069777971449, 33.317574227637557 ], [ -91.167273861551607, 33.31779065619115 ], [ -91.167235889136805, 33.318064851791227 ], [ -91.167092995971075, 33.31819262961357 ], [ -91.166853094035602, 33.318249881715829 ], [ -91.166360347210684, 33.318077127205179 ], [ -91.166156265329207, 33.317860697213987 ], [ -91.166194240990947, 33.317586502048506 ] ] ] ] } },
{ "type": "Feature", "properties": { "depth_bin": "17.5-20 ft", "survey_id": "LM_10_SSL_20220531_CS_5334_5306", "date": "2022-05-31 00:00:00+00:00", "year": 2022, "mile": 532.0, "bin_order": 1 }, "geometry": { "type": "MultiPolygon", "coordinates": [ [ [ [ -91.173977685182834, 33.300432997645302 ], [ -91.174190641759466, 33.300222709845578 ], [ -91.174518298271593, 33.300200463664744 ], [ -91.174768719735752, 33.300379290555782 ], [ -91.174795212867664, 33.300654436884201 ], [ -91.17458225659243, 33.300864725720501 ], [ -91.174254597594739, 33.300886971983445 ], [ -91.174004175829182, 33.300708144055818 ], [ -91.173977685182834, 33.300432997645302 ] ] ], [ [ [ -91.179320601419604, 33.311021132761077 ], [ -91.179557096554475, 33.310829376451885 ], [ -91.179885812780711, 33.310834193610368 ], [ -91.180114194357458, 33.311032762496239 ], [ -91.18010845832093, 33.311308764879762 ], [ -91.17987196299724, 33.311500522222076 ], [ -91.179543244273063, 33.311495704942232 ], [ -91.17931486288515, 33.311297135023217 ], [ -91.179320601419604, 33.311021132761077 ] ] ], [ [ [ -91.171205999551503, 33.313853889610328 ], [ -91.17144251966856, 33.313662149709074 ], [ -91.171771245037917, 33.313666988696461 ], [ -91.17199961456302, 33.313865572045508 ], [ -91.17199385233917, 33.314141573054179 ], [ -91.171757332032442, 33.314333313988634 ], [ -91.171428604164831, 33.314328474879325 ], [ -91.171200234829428, 33.314129890497071 ], [ -91.171205999551503, 33.313853889610328 ] ] ], [ [ [ -91.180484516947914, 33.314882144100729 ], [ -91.180697495262919, 33.314671846271892 ], [ -91.181025205211284, 33.314649584757163 ], [ -91.181275680508477, 33.314828399991555 ], [ -91.181302196336219, 33.315103545169229 ], [ -91.181089218323535, 33.315313844035146 ], [ -91.180761505887958, 33.31533610563249 ], [ -91.180511030288443, 33.315157289361018 ], [ -91.180484516947914, 33.314882144100729 ] ] ], [ [ [ -91.180545073980326, 33.319000773749551 ], [ -91.180781588952129, 33.318809015984833 ], [ -91.181110335352145, 33.318813830917861 ], [ -91.181338739764811, 33.31901239811193 ], [ -91.181333005849453, 33.31928840032856 ], [ -91.18109649068893, 33.319480159126719 ], [ -91.180767741790007, 33.319475344072387 ], [ -91.180539337566074, 33.319276775844877 ], [ -91.180545073980326, 33.319000773749551 ] ] ], [ [ [ -91.179184976766322, 33.322808813147702 ], [ -91.179421505289653, 33.322617058537688 ], [ -91.179750265737738, 33.322621877553779 ], [ -91.180105909656902, 33.32285236590409 ], [ -91.180117528983899, 33.323160623113822 ], [ -91.179881000394971, 33.323352379035889 ], [ -91.179552237180076, 33.323347560272886 ], [ -91.17919659284621, 33.32311707033503 ], [ -91.179184976766322, 33.322808813147702 ] ] ], [ [ [ -91.156574083700605, 33.285443859360583 ], [ -91.156810554738584, 33.285252144954974 ], [ -91.157139170860361, 33.285257018995679 ], [ -91.157367434962566, 33.285455626422603 ], [ -91.157361632894904, 33.285731626428415 ], [ -91.157125161665917, 33.285923341866052 ], [ -91.156796543049481, 33.285918467702501 ], [ -91.15656827913827, 33.285719859243542 ], [ -91.156574083700605, 33.285443859360583 ] ] ], [ [ [ -91.156060155070406, 33.293410235051731 ], [ -91.156296649543037, 33.293218522639542 ], [ -91.156625295431439, 33.293223399065035 ], [ -91.156853578196063, 33.293422007871186 ], [ -91.156847772754332, 33.293698007442956 ], [ -91.156611278090622, 33.293889720887492 ], [ -91.156282629706581, 33.293884844339111 ], [ -91.156054347133065, 33.293686234500598 ], [ -91.156060155070406, 33.293410235051731 ] ] ], [ [ [ -91.158673483889601, 33.295442878936662 ], [ -91.158909978591595, 33.295251161599666 ], [ -91.159238632584916, 33.29525603137634 ], [ -91.159466926582425, 33.29545463570431 ], [ -91.159461128921677, 33.295730635591866 ], [ -91.159224634028831, 33.295922353961295 ], [ -91.158895977539629, 33.295917484061896 ], [ -91.158667683732958, 33.295718878701472 ], [ -91.158673483889601, 33.295442878936662 ] ] ], [ [ [ -91.164573620914339, 33.298983010626401 ], [ -91.164810113186476, 33.298791282042075 ], [ -91.165138781544627, 33.298796136670354 ], [ -91.165367098287277, 33.298994730822344 ], [ -91.165361318428594, 33.299270731467352 ], [ -91.165124825966188, 33.299462461084282 ], [ -91.164796155111688, 33.299457606333654 ], [ -91.164567838559293, 33.299259011149076 ], [ -91.164573620914339, 33.298983010626401 ] ] ], [ [ [ -91.169568759706408, 33.302749768308686 ], [ -91.169805252078518, 33.302558030295984 ], [ -91.170133935484102, 33.30256287219548 ], [ -91.17036227340742, 33.302761457774416 ], [ -91.170356508455626, 33.303037459024196 ], [ -91.170120015893758, 33.303229198069666 ], [ -91.169791329991313, 33.303224356048148 ], [ -91.169562992257752, 33.303025769436445 ], [ -91.169568759706408, 33.302749768308686 ] ] ], [ [ [ -91.166316808013448, 33.317688567898806 ], [ -91.166553349160822, 33.317496838146241 ], [ -91.166882088023726, 33.317501690559901 ], [ -91.167110455601559, 33.31770028274812 ], [ -91.167104677129942, 33.317976282831118 ], [ -91.16686813579237, 33.318168013617026 ], [ -91.166539394430785, 33.31816316108111 ], [ -91.166311027043164, 33.317964567859541 ], [ -91.166316808013448, 33.317688567898806 ] ] ] ] } },
{ "type": "Feature", "properties": { "depth_bin": "5-6 ft", "survey_id": "LM_10_SSL_20220531_CS_5334_5306", "date": "2022-05-31 00:00:00+00:00", "year": 2022, "mile": 532.0, "bin_order": 12 }, "geometry": { "type": "MultiPolygon", "coordinates": [ [ [ [ -91.171520070899192, 33.305217153232917 ], [ -91.17173304536648, 33.305006870401634 ], [ -91.172060720149844, 33.304984631355282 ], [ -91.172311149563214, 33.30516346336767 ], [ -91.172337635665642, 33.305438609804426 ], [ -91.172124661499581, 33.305648893672505 ], [ -91.171796984230042, 33.305671132800818 ], [ -91.171546554515459, 33.305492299751627 ], [ -91.171520070899192, 33.305217153232917 ] ] ], [ [ [ -91.176284275897004, 33.30726780729151 ], [ -91.176520766865892, 33.307076056536204 ], [ -91.176849468453113, 33.307080881249227 ], [ -91.177077833492774, 33.307279455265096 ], [ -91.17707208870813, 33.307555457348855 ], [ -91.176835597550138, 33.307747209137133 ], [ -91.176506893465472, 33.307742384302536 ], [ -91.176278528614915, 33.307543809253701 ], [ -91.176284275897004, 33.30726780729151 ] ] ], [ [ [ -91.17164409758368, 33.308270689254826 ], [ -91.171880601102885, 33.308078947806436 ], [ -91.172209305601598, 33.308083784921848 ], [ -91.172437662208509, 33.308282367170655 ], [ -91.172431902586297, 33.308558368495163 ], [ -91.17219539887752, 33.308750110976547 ], [ -91.171866691881235, 33.308745273739234 ], [ -91.171638335463939, 33.308546690457447 ], [ -91.17164409758368, 33.308270689254826 ] ] ], [ [ [ -91.171793670874763, 33.310951345485201 ], [ -91.172030181607383, 33.310759604067087 ], [ -91.172358896192108, 33.310764441129095 ], [ -91.172587259849578, 33.310963023272102 ], [ -91.172581500112358, 33.31123902450048 ], [ -91.172344989190137, 33.311430766951702 ], [ -91.172016272107541, 33.3114259297678 ], [ -91.171787908639672, 33.311227346591707 ], [ -91.171793670874763, 33.310951345485201 ] ] ], [ [ [ -91.170075710678134, 33.313693921511188 ], [ -91.170312232717436, 33.313502183828362 ], [ -91.170640957278692, 33.313507025785697 ], [ -91.170869323738685, 33.313705611116518 ], [ -91.170863557988156, 33.313981611957921 ], [ -91.170627035759068, 33.31417335067394 ], [ -91.1702983086996, 33.314168508594612 ], [ -91.170069942429393, 33.313969922230591 ], [ -91.170075710678134, 33.313693921511188 ] ] ], [ [ [ -91.179847818591824, 33.314785840555793 ], [ -91.180084323190627, 33.314594083659919 ], [ -91.180413053641828, 33.314598899902172 ], [ -91.180641445872112, 33.314797468078986 ], [ -91.180635710677009, 33.315073470376035 ], [ -91.180399205889415, 33.315265228305179 ], [ -91.180070472939818, 33.315260411941566 ], [ -91.179842080898325, 33.315061842731502 ], [ -91.179847818591824, 33.314785840555793 ] ] ], [ [ [ -91.178301632647745, 33.322447584016018 ], [ -91.178538162010895, 33.322255831111072 ], [ -91.178866920941047, 33.322260652418827 ], [ -91.179095328682905, 33.322459223768462 ], [ -91.179089586945466, 33.3227352254873 ], [ -91.178853057393312, 33.322926979425816 ], [ -91.17852429596384, 33.322922157996608 ], [ -91.178295888410958, 33.322723585613396 ], [ -91.178301632647745, 33.322447584016018 ] ] ], [ [ [ -91.161118237921357, 33.301348322010078 ], [ -91.161331226637017, 33.301138057429064 ], [ -91.161658888199341, 33.30111584541018 ], [ -91.16190928466672, 33.301294697395392 ], [ -91.16193573739676, 33.301569845050501 ], [ -91.161722748981191, 33.301780110668261 ], [ -91.161395084933019, 33.301802322768388 ], [ -91.16114468816555, 33.301623469746431 ], [ -91.161118237921357, 33.301348322010078 ] ] ], [ [ [ -91.16887672062991, 33.303119384774163 ], [ -91.169113215490952, 33.302927648176379 ], [ -91.169441900155704, 33.302932491953527 ], [ -91.169670237370838, 33.303131078772964 ], [ -91.16966447015831, 33.303407079899443 ], [ -91.169427975107425, 33.303598817530002 ], [ -91.16909928794577, 33.303593973630797 ], [ -91.168870950920478, 33.303395385778579 ], [ -91.16887672062991, 33.303119384774163 ] ] ], [ [ [ -91.168941260138368, 33.308825756817569 ], [ -91.169177770885938, 33.308634020787572 ], [ -91.169506476970469, 33.308638865123775 ], [ -91.169734828591729, 33.308837452166038 ], [ -91.169729060332713, 33.309113453048752 ], [ -91.169492549395287, 33.309305190111758 ], [ -91.169163840813141, 33.30930034565349 ], [ -91.168935489381767, 33.309101757578226 ], [ -91.168941260138368, 33.308825756817569 ] ] ], [ [ [ -91.166876828111938, 33.309257432192794 ], [ -91.167113344402054, 33.309065700302703 ], [ -91.167442051726312, 33.309070550155269 ], [ -91.167670399558304, 33.309269140859051 ], [ -91.167664624700578, 33.309545141403561 ], [ -91.167428108220349, 33.30973687432666 ], [ -91.167099398398449, 33.309732024351895 ], [ -91.166871050756555, 33.309533432615119 ], [ -91.166876828111938, 33.309257432192794 ] ] ], [ [ [ -91.167708360433949, 33.315715670957509 ], [ -91.167944893119127, 33.315523938208614 ], [ -91.168273624832906, 33.315528786687871 ], [ -91.168501990762351, 33.315727376308253 ], [ -91.168496217108853, 33.316003376694113 ], [ -91.168259684233618, 33.316195110476265 ], [ -91.167930950021415, 33.316190261874858 ], [ -91.167702584282011, 33.315991671221205 ], [ -91.167708360433949, 33.315715670957509 ] ] ], [ [ [ -91.165870033093128, 33.31752018574084 ], [ -91.166106574704827, 33.317328456852501 ], [ -91.166435312853352, 33.317333310426747 ], [ -91.166663678956539, 33.317531903392059 ], [ -91.166657899113829, 33.317807903413438 ], [ -91.166421357311876, 33.317999633335106 ], [ -91.166092616664699, 33.317994779638582 ], [ -91.165864250751767, 33.317796185639942 ], [ -91.165870033093128, 33.31752018574084 ] ] ], [ [ [ -91.168385551596984, 33.318515270880397 ], [ -91.168622090726132, 33.318323537131846 ], [ -91.168950833073268, 33.318328384177462 ], [ -91.169179207596841, 33.318526972770009 ], [ -91.169173435463932, 33.318802973135995 ], [ -91.168936896144771, 33.318994707917916 ], [ -91.168608151298841, 33.318989860750193 ], [ -91.168379776965267, 33.318791271124255 ], [ -91.168385551596984, 33.318515270880397 ] ] ] ] } },
{ "type": "Feature", "properties": { "depth_bin": "6-7 ft", "survey_id": "LM_10_SSL_20220531_CS_5334_5306", "date": "2022-05-31 00:00:00+00:00", "year": 2022, "mile": 532.0, "bin_order": 11 }, "geometry": { "type": "MultiPolygon", "coordinates": [ [ [ [ -91.171386516871095, 33.305243112487233 ], [ -91.171623012430359, 33.305051371180085 ], [ -91.171951705523099, 33.30505620859023 ], [ -91.172180053959195, 33.305254791114599 ], [ -91.172174294187698, 33.305530792534007 ], [ -91.171937798438833, 33.305722534874015 ], [ -91.171609102848919, 33.30571769734199 ], [ -91.171380754602396, 33.305519113784747 ], [ -91.171386516871095, 33.305243112487233 ] ] ], [ [ [ -91.171825909890984, 33.310688786980236 ], [ -91.172191444979163, 33.310750703811266 ], [ -91.172402455336012, 33.310917029938373 ], [ -91.172428942589889, 33.311192176182843 ], [ -91.172215953967481, 33.311402459551211 ], [ -91.170990095584173, 33.311406414893469 ], [ -91.170657363227235, 33.311212572334014 ], [ -91.170630881557216, 33.3109374259028 ], [ -91.170843872669693, 33.310727145330034 ], [ -91.171825909890984, 33.310688786980236 ] ] ], [ [ [ -91.178665709524267, 33.311016301555433 ], [ -91.178902206019899, 33.31082454654188 ], [ -91.179230922108189, 33.310829365432255 ], [ -91.179459302129089, 33.311027935471813 ], [ -91.179453564030169, 33.311303937754957 ], [ -91.179217067345661, 33.311495693801625 ], [ -91.178888348759429, 33.311490874789826 ], [ -91.17865996892742, 33.311292303717167 ], [ -91.178665709524267, 33.311016301555433 ] ] ], [ [ [ -91.170678842847963, 33.316485626444994 ], [ -91.170915371463153, 33.31629388790801 ], [ -91.171244106613329, 33.316298728626293 ], [ -91.171472481472662, 33.316497313058946 ], [ -91.171466717011711, 33.316773313869248 ], [ -91.171230188206778, 33.316965053439539 ], [ -91.170901450558034, 33.316960212599305 ], [ -91.170673075888445, 33.316761627133346 ], [ -91.170678842847963, 33.316485626444994 ] ] ], [ [ [ -91.160442615937782, 33.297906235879623 ], [ -91.16067911384701, 33.297714515341632 ], [ -91.161007777404564, 33.297719380756554 ], [ -91.161236081720944, 33.297917982117021 ], [ -91.161230289089161, 33.298193982169678 ], [ -91.160993790989252, 33.298385703740209 ], [ -91.160665124935491, 33.298380838202668 ], [ -91.160436820809792, 33.298182235809669 ], [ -91.160442615937782, 33.297906235879623 ] ] ], [ [ [ -91.162664370025809, 33.300280498699614 ], [ -91.162900869943101, 33.300088774053421 ], [ -91.163229542815131, 33.300093633897482 ], [ -91.163457858296312, 33.30029223148766 ], [ -91.16345207213962, 33.300568231779259 ], [ -91.163215572031874, 33.300759957458105 ], [ -91.162886896663323, 33.300755097491574 ], [ -91.162658581372597, 33.300556498868744 ], [ -91.162664370025809, 33.300280498699614 ] ] ], [ [ [ -91.161022649226766, 33.301415900369285 ], [ -91.161259155773621, 33.301224179112175 ], [ -91.161548403361223, 33.301216534144501 ], [ -91.161777770973046, 33.301364711846411 ], [ -91.161836212556622, 33.301636357365602 ], [ -91.16164879263296, 33.301863140904977 ], [ -91.161323927737001, 33.301911905006897 ], [ -91.161127572314612, 33.302198927297738 ], [ -91.160804076906558, 33.302248000014814 ], [ -91.160534008992101, 33.302090616447593 ], [ -91.160475571243779, 33.301818970463096 ], [ -91.160662994019347, 33.30159218879421 ], [ -91.16098785800412, 33.301543426390779 ], [ -91.161022649226766, 33.301415900369285 ] ] ], [ [ [ -91.164996080477493, 33.317143902712253 ], [ -91.165232622865645, 33.316952175508767 ], [ -91.16556135944063, 33.316957031347229 ], [ -91.165910204109153, 33.31717043327545 ], [ -91.166286734632479, 33.317275822258082 ], [ -91.166400417047171, 33.317462196674867 ], [ -91.166371611161665, 33.317670187604882 ], [ -91.166135069145938, 33.317861916976391 ], [ -91.165806329068488, 33.317857062540007 ], [ -91.165603509537362, 33.317702674392976 ], [ -91.165404122829557, 33.317690020748273 ], [ -91.165080951048566, 33.317538268745409 ], [ -91.164967271411797, 33.31735189321563 ], [ -91.164996080477493, 33.317143902712253 ] ] ] ] } },
{ "type": "Feature", "properties": { "depth_bin": "7-8 ft", "survey_id": "LM_10_SSL_20220531_CS_5334_5306", "date": "2022-05-31 00:00:00+00:00", "year": 2022, "mile": 532.0, "bin_order": 10 }, "geometry": { "type": "MultiPolygon", "coordinates": [ [ [ [ -91.170944549726144, 33.305421290979709 ], [ -91.171181046712661, 33.30522955056913 ], [ -91.171509740392636, 33.305234389171076 ], [ -91.171738088231962, 33.305432972484354 ], [ -91.171732327029233, 33.30570897382767 ], [ -91.171495829853058, 33.305900715271129 ], [ -91.171167133675894, 33.305895876547261 ], [ -91.170938786026213, 33.305697292201103 ], [ -91.170944549726144, 33.305421290979709 ] ] ], [ [ [ -91.176440161501347, 33.307223190583528 ], [ -91.176676652017917, 33.307031439514262 ], [ -91.177005353466299, 33.307036263809238 ], [ -91.177233718761926, 33.307234837547874 ], [ -91.177227974478114, 33.307510839657596 ], [ -91.17699148377244, 33.307702591759828 ], [ -91.176662779826628, 33.307697767343278 ], [ -91.176434414720077, 33.307499192571683 ], [ -91.176440161501347, 33.307223190583528 ] ] ], [ [ [ -91.184721120938505, 33.311091670327613 ], [ -91.184957604936983, 33.310899903338651 ], [ -91.185286322414299, 33.310904706218992 ], [ -91.185514716896776, 33.311103265592024 ], [ -91.185508997861021, 33.311379268800493 ], [ -91.185272513674278, 33.311571036822578 ], [ -91.184943793698991, 33.311566233821218 ], [ -91.18471539940478, 33.311367673415077 ], [ -91.184721120938505, 33.311091670327613 ] ] ], [ [ [ -91.178826543978161, 33.311019246505886 ], [ -91.179063040144541, 33.310827491174344 ], [ -91.179391756273318, 33.310832309639622 ], [ -91.179620136680711, 33.311030879395929 ], [ -91.17961439908791, 33.311306881703665 ], [ -91.179377902732668, 33.311498638068315 ], [ -91.179049184105963, 33.31149381948164 ], [ -91.178820803887433, 33.311295248692204 ], [ -91.178826543978161, 33.311019246505886 ] ] ], [ [ [ -91.170808973512308, 33.310928388685348 ], [ -91.171045486246356, 33.310736649213887 ], [ -91.171374200564017, 33.310741488877966 ], [ -91.171602561842391, 33.310940072754235 ], [ -91.171596799007617, 33.311216073831758 ], [ -91.171360286083882, 33.311407814336306 ], [ -91.171031569268351, 33.311402974550283 ], [ -91.170803208179663, 33.31120438964092 ], [ -91.170808973512308, 33.310928388685348 ] ] ], [ [ [ -91.171695444442832, 33.313891975702084 ], [ -91.171931963639878, 33.313700234836432 ], [ -91.172260689242108, 33.313705072533779 ], [ -91.172489060016531, 33.313903655022791 ], [ -91.172483299326657, 33.31417965610526 ], [ -91.172246779939982, 33.314371398004113 ], [ -91.171918051839526, 33.314366560184894 ], [ -91.171689681254733, 33.314167976662667 ], [ -91.171695444442832, 33.313891975702084 ] ] ], [ [ [ -91.179605820274617, 33.318761404908003 ], [ -91.179882272127813, 33.318558308408846 ], [ -91.180326856104685, 33.318617952447298 ], [ -91.180555258180192, 33.318816521010824 ], [ -91.180549521838145, 33.319092523115899 ], [ -91.180273069714289, 33.319295621079497 ], [ -91.179828482362836, 33.319235976738682 ], [ -91.179600080952184, 33.319037406869725 ], [ -91.179605820274617, 33.318761404908003 ] ] ], [ [ [ -91.178477198009432, 33.322457551857305 ], [ -91.178734975876324, 33.322286185391292 ], [ -91.179061589099575, 33.322318035870751 ], [ -91.179265713789874, 33.322534445943596 ], [ -91.179227775996267, 33.322808646224225 ], [ -91.178969997456434, 33.322980013680265 ], [ -91.178643381818745, 33.322948162880039 ], [ -91.178439257801386, 33.322731751817187 ], [ -91.178477198009432, 33.322457551857305 ] ] ], [ [ [ -91.165640138958167, 33.294341213822236 ], [ -91.165876615966013, 33.294149482560151 ], [ -91.166205267114719, 33.294154333773136 ], [ -91.166433574783468, 33.294352925772856 ], [ -91.166427799301829, 33.294628926789301 ], [ -91.16619132210387, 33.294820659083797 ], [ -91.165862668459368, 33.294815807748563 ], [ -91.165634360980746, 33.294617214716411 ], [ -91.165640138958167, 33.294341213822236 ] ] ], [ [ [ -91.158290114636628, 33.295700650300461 ], [ -91.158526610865692, 33.295508933754 ], [ -91.158855265754639, 33.295513804577602 ], [ -91.159083559491719, 33.295712409595659 ], [ -91.159077760567001, 33.295988409412217 ], [ -91.158841264147057, 33.296180126991132 ], [ -91.158512606762173, 33.296175256044769 ], [ -91.158284313215987, 33.295976649994266 ], [ -91.158290114636628, 33.295700650300461 ] ] ], [ [ [ -91.168539529072191, 33.296331525513125 ], [ -91.168776005587489, 33.296139788755291 ], [ -91.169104664732899, 33.296144632555986 ], [ -91.169332984203393, 33.296343219568783 ], [ -91.1693272174155, 33.296619220944962 ], [ -91.169090740710359, 33.296810958735307 ], [ -91.168762079068884, 33.296806114812526 ], [ -91.168533759788232, 33.296607526767239 ], [ -91.168539529072191, 33.296331525513125 ] ] ], [ [ [ -91.160572852803966, 33.297821712921412 ], [ -91.160809350202925, 33.297629992115255 ], [ -91.161138013467578, 33.297634857174899 ], [ -91.161366317879995, 33.297833458301085 ], [ -91.161360525676969, 33.298109458377709 ], [ -91.161124028087329, 33.298301180216413 ], [ -91.160795362326482, 33.298296315034158 ], [ -91.160567058104718, 33.298097712875439 ], [ -91.160572852803966, 33.297821712921412 ] ] ], [ [ [ -91.1643061656643, 33.299147054109973 ], [ -91.164542658957643, 33.298955326075124 ], [ -91.164871327881684, 33.298960181431774 ], [ -91.165099644403426, 33.299158776064331 ], [ -91.165093863666414, 33.299434776660654 ], [ -91.164857370182787, 33.299626505728106 ], [ -91.164528698762368, 33.299621650249101 ], [ -91.164300382430909, 33.29942305458394 ], [ -91.1643061656643, 33.299147054109973 ] ] ], [ [ [ -91.166899175132869, 33.30083923529439 ], [ -91.167135667739828, 33.300647502333113 ], [ -91.167464343488149, 33.300652351048818 ], [ -91.167692670347435, 33.30085094121597 ], [ -91.167686897405801, 33.301126942138239 ], [ -91.167450404608829, 33.301318676132205 ], [ -91.167121726363902, 33.301313827294315 ], [ -91.166893399694644, 33.301115236094475 ], [ -91.166899175132869, 33.30083923529439 ] ] ], [ [ [ -91.167996964847987, 33.309055916778824 ], [ -91.168233478222646, 33.308864182646403 ], [ -91.168562184997015, 33.308869029510028 ], [ -91.168790534966774, 33.309067618229051 ], [ -91.168784763682282, 33.309343618955666 ], [ -91.168548250117666, 33.309535354121088 ], [ -91.168219540845655, 33.309530507135328 ], [ -91.16799119106588, 33.30933191738329 ], [ -91.167996964847987, 33.309055916778824 ] ] ], [ [ [ -91.167052499370513, 33.309192115437135 ], [ -91.167310258126449, 33.309020771771969 ], [ -91.167636816466697, 33.309052650534362 ], [ -91.167840882650381, 33.30926907780492 ], [ -91.167802916998369, 33.309543274123357 ], [ -91.167545157568753, 33.309714618777861 ], [ -91.167218596815914, 33.309682739694075 ], [ -91.167014531305924, 33.3094663114342 ], [ -91.167052499370513, 33.309192115437135 ] ] ], [ [ [ -91.168260278083466, 33.318418061661028 ], [ -91.168518062646328, 33.318246716580376 ], [ -91.168844655841227, 33.318278593315725 ], [ -91.169048745510693, 33.318495019135042 ], [ -91.169010778217853, 33.31876921542846 ], [ -91.16875299298114, 33.318940561498806 ], [ -91.168426397372528, 33.318908684442086 ], [ -91.168222308376897, 33.318692257633074 ], [ -91.168260278083466, 33.318418061661028 ] ] ] ] } },
{ "type": "Feature", "properties": { "depth_bin": "8-9 ft", "survey_id": "LM_10_SSL_20220531_CS_5334_5306", "date": "2022-05-31 00:00:00+00:00", "year": 2022, "mile": 532.0, "bin_order": 9 }, "geometry": { "type": "MultiPolygon", "coordinates": [ [ [ [ -91.156684647210838, 33.285390503325523 ], [ -91.156897605524833, 33.285180244863589 ], [ -91.15722520775391, 33.28515804246728 ], [ -91.157475550711695, 33.285336901942053 ], [ -91.157501987100503, 33.28561205056603 ], [ -91.15728902908586, 33.285822310064127 ], [ -91.156961424372852, 33.285844512541296 ], [ -91.156711081115674, 33.285665652030353 ], [ -91.156684647210838, 33.285390503325523 ] ] ], [ [ [ -91.162525282653377, 33.300404277012255 ], [ -91.162738265701535, 33.300194009792435 ], [ -91.163065923544025, 33.300171793924036 ], [ -91.163316320418161, 33.300350643104004 ], [ -91.163342777443376, 33.300625790641341 ], [ -91.163129794695436, 33.300836058897865 ], [ -91.16280213436724, 33.300858274847585 ], [ -91.162551737192871, 33.300679424630928 ], [ -91.162525282653377, 33.300404277012255 ] ] ], [ [ [ -91.169007234199455, 33.303087073156625 ], [ -91.169220209062644, 33.302876794595768 ], [ -91.169547876164486, 33.302854561921706 ], [ -91.169798294318511, 33.303033398675574 ], [ -91.169824772179126, 33.303308545445454 ], [ -91.169611797616881, 33.303518825043049 ], [ -91.169284128029076, 33.303541057798888 ], [ -91.169033709574123, 33.303362220008289 ], [ -91.169007234199455, 33.303087073156625 ] ] ], [ [ [ -91.171077157125026, 33.305395447668431 ], [ -91.171290133073683, 33.305185165653775 ], [ -91.171617808582297, 33.305162927803472 ], [ -91.171868237539954, 33.305341760690716 ], [ -91.171894722272668, 33.305616907168655 ], [ -91.171681746625197, 33.305827190220114 ], [ -91.171354068630379, 33.305849428152342 ], [ -91.171103639371523, 33.305670594228303 ], [ -91.171077157125026, 33.305395447668431 ] ] ], [ [ [ -91.170220931005574, 33.313757036155515 ], [ -91.170433930258767, 33.313546756645223 ], [ -91.170761637278261, 33.313524522161593 ], [ -91.1710120874952, 33.313703357305648 ], [ -91.171038570782258, 33.313978503608801 ], [ -91.170825571830292, 33.314188784156222 ], [ -91.170497862323572, 33.314211018721778 ], [ -91.170247411805377, 33.314032182540572 ], [ -91.170220931005574, 33.313757036155515 ] ] ], [ [ [ -91.167850547006481, 33.315786613228575 ], [ -91.168063556933348, 33.31557633821437 ], [ -91.168391271875336, 33.315554110274959 ], [ -91.168641722622965, 33.315732950177974 ], [ -91.168668198737834, 33.31600809666714 ], [ -91.168455189111995, 33.316218372718595 ], [ -91.168127471682467, 33.316240600739782 ], [ -91.16787702063381, 33.316061759799524 ], [ -91.167850547006481, 33.315786613228575 ] ] ], [ [ [ -91.170509923425683, 33.316469263892031 ], [ -91.170722928925755, 33.316258984175334 ], [ -91.171050646097783, 33.316236749283107 ], [ -91.17130110442595, 33.316415584055704 ], [ -91.171327589031506, 33.316690730242208 ], [ -91.171114583832761, 33.316901010996148 ], [ -91.170786864173181, 33.316923245970358 ], [ -91.170536405543686, 33.316744410160489 ], [ -91.170509923425683, 33.316469263892031 ] ] ], [ [ [ -91.16469616206723, 33.317031777169937 ], [ -91.164932704769598, 33.31684005054673 ], [ -91.165261440868392, 33.316844907164359 ], [ -91.165489802982137, 33.317043502168609 ], [ -91.165484019547122, 33.317319502030024 ], [ -91.165247476654386, 33.317511229686545 ], [ -91.164918738056997, 33.317506372946553 ], [ -91.164690376133635, 33.317307776909011 ], [ -91.16469616206723, 33.317031777169937 ] ] ], [ [ [ -91.166022806843372, 33.317569124299034 ], [ -91.166259348272035, 33.317377395114114 ], [ -91.166588086632402, 33.317382248290393 ], [ -91.166816453218246, 33.317580840989486 ], [ -91.166810673846285, 33.317856841032309 ], [ -91.166574132227382, 33.31804857125055 ], [ -91.166245391368349, 33.318043717952008 ], [ -91.166017024972746, 33.317845124219588 ], [ -91.166022806843372, 33.317569124299034 ] ] ] ] } },
{ "type": "Feature", "properties": { "depth_bin": "9-10 ft", "survey_id": "LM_10_SSL_20220531_CS_5334_5306", "date": "2022-05-31 00:00:00+00:00", "year": 2022, "mile": 532.0, "bin_order": 8 }, "geometry": { "type": "MultiPolygon", "coordinates": [ [ [ [ -91.169134657127501, 33.302999179978002 ], [ -91.169347631471268, 33.302788901177976 ], [ -91.169675298227119, 33.302766668155016 ], [ -91.169925716411214, 33.302945504654623 ], [ -91.169952194660397, 33.303220651413852 ], [ -91.169739220617586, 33.30343093125061 ], [ -91.169411551375802, 33.303453164355354 ], [ -91.16916113289075, 33.303274326819015 ], [ -91.169134657127501, 33.302999179978002 ] ] ], [ [ [ -91.167831322988405, 33.309066786034116 ], [ -91.168067836741045, 33.308875052230967 ], [ -91.168396543525702, 33.308879899534169 ], [ -91.168624893132048, 33.30907848854558 ], [ -91.168619121323331, 33.309354489246111 ], [ -91.168382607380693, 33.309546224082261 ], [ -91.168053898098421, 33.309541376656924 ], [ -91.16782554868206, 33.309342786612511 ], [ -91.167831322988405, 33.309066786034116 ] ] ], [ [ [ -91.180009961291063, 33.31481153050693 ], [ -91.180286399330456, 33.314608432528473 ], [ -91.180695429545509, 33.314642984895201 ], [ -91.180945904118587, 33.314821800771497 ], [ -91.180972418905228, 33.315096945984521 ], [ -91.180721022436515, 33.315321816905161 ], [ -91.180272055027913, 33.315298605279381 ], [ -91.18000422410293, 33.315087532706386 ], [ -91.180009961291063, 33.31481153050693 ] ] ], [ [ [ -91.168020854146008, 33.315794176463221 ], [ -91.168297321925792, 33.315591106266631 ], [ -91.168746291795031, 33.315639576198222 ], [ -91.168974659116145, 33.315838164992499 ], [ -91.1689688869279, 33.316114165446457 ], [ -91.168692418922376, 33.316317237118994 ], [ -91.168243445634261, 33.316268766879524 ], [ -91.168015078961631, 33.316070176771731 ], [ -91.168020854146008, 33.315794176463221 ] ] ], [ [ [ -91.178609618588936, 33.322540521136538 ], [ -91.17884614756656, 33.322348767633088 ], [ -91.17917490690202, 33.322353588137638 ], [ -91.179403315602627, 33.322552158949861 ], [ -91.179397574815752, 33.322828160711886 ], [ -91.179161045649153, 33.323019915248892 ], [ -91.178832283814359, 33.323015094622903 ], [ -91.178603875302713, 33.32281652277711 ], [ -91.178609618588936, 33.322540521136538 ] ] ], [ [ [ -91.153664841314153, 33.291396271421831 ], [ -91.153877821927253, 33.291186019085778 ], [ -91.154205447064001, 33.291163825477511 ], [ -91.154455800119621, 33.291342691254727 ], [ -91.154482227881061, 33.291617840003816 ], [ -91.154269247567129, 33.29182809337631 ], [ -91.153941619945627, 33.291850287065273 ], [ -91.153691266590855, 33.291671420251618 ], [ -91.153664841314153, 33.291396271421831 ] ] ], [ [ [ -91.162651098371299, 33.300268553153145 ], [ -91.163053316348808, 33.300307835590139 ], [ -91.163236555733434, 33.300575118451377 ], [ -91.163106757283316, 33.300863626414774 ], [ -91.1627033031792, 33.301036357692084 ], [ -91.162390460200967, 33.30095158708113 ], [ -91.162240629819664, 33.300705884832503 ], [ -91.1623415795478, 33.300443180550161 ], [ -91.162651098371299, 33.300268553153145 ] ] ], [ [ [ -91.161376035461544, 33.301128172300707 ], [ -91.161612540459686, 33.300936450308754 ], [ -91.161941216273121, 33.300941313668957 ], [ -91.162169530833296, 33.301139913577543 ], [ -91.162163740432604, 33.30141591363175 ], [ -91.161927235243851, 33.301607636656385 ], [ -91.161598556933811, 33.301602773173613 ], [ -91.161370242564246, 33.30140417223236 ], [ -91.161376035461544, 33.301128172300707 ] ] ], [ [ [ -91.1639636512583, 33.31672371203716 ], [ -91.164200194631931, 33.316531986827044 ], [ -91.164528929439271, 33.316536845343322 ], [ -91.164757289055331, 33.316735441619599 ], [ -91.164751503379478, 33.317011441381332 ], [ -91.164514959815421, 33.31720316762474 ], [ -91.164186222509528, 33.317198308986057 ], [ -91.163957863083908, 33.31699971167648 ], [ -91.1639636512583, 33.31672371203716 ] ] ], [ [ [ -91.165441049596538, 33.317315543342374 ], [ -91.165677591533353, 33.317123815278642 ], [ -91.166006328834641, 33.317128669961718 ], [ -91.16648298296316, 33.317398226034818 ], [ -91.166515588682259, 33.317737156931685 ], [ -91.16627904678046, 33.317928886580162 ], [ -91.165950306425088, 33.317924032516139 ], [ -91.165473651251759, 33.317654474377683 ], [ -91.165441049596538, 33.317315543342374 ] ] ] ] } },
{ "type": "Feature", "properties": { "depth_bin": "<5 ft", "survey_id": "LM_10_SSL_20220531_CS_5334_5306", "date": "2022-05-31 00:00:00+00:00", "year": 2022, "mile": 532.0, "bin_order": 13 }, "geometry": { "type": "MultiPolygon", "coordinates": [ [ [ [ -91.178892555986806, 33.302370611327291 ], [ -91.179140252518735, 33.302394769440134 ], [ -91.179305707485256, 33.302501619287817 ], [ -91.179397099546833, 33.302696442811545 ], [ -91.179344190820444, 33.302901069042811 ], [ -91.179110486406643, 33.303114192751515 ], [ -91.178853550976072, 33.30322738019035 ], [ -91.17852414409569, 33.303279427763592 ], [ -91.1783225877886, 33.303233878390863 ], [ -91.178118508203539, 33.303017467741547 ], [ -91.178156437881853, 33.302743266795517 ], [ -91.178299289205668, 33.302615474526725 ], [ -91.178892555986806, 33.302370611327291 ] ] ], [ [ [ -91.181717849853612, 33.305953594116929 ], [ -91.1820295514907, 33.306116736012619 ], [ -91.1820622155156, 33.306455665320833 ], [ -91.181675188133937, 33.306715510787591 ], [ -91.18134648703446, 33.306710698886178 ], [ -91.181118113354856, 33.306512132424139 ], [ -91.181123845165985, 33.306236129672328 ], [ -91.181321909607462, 33.306058942208679 ], [ -91.181717849853612, 33.305953594116929 ] ] ], [ [ [ -91.18501126403963, 33.310965353754646 ], [ -91.185285426191044, 33.310887478733179 ], [ -91.186104572169697, 33.310949714164977 ], [ -91.186332968693179, 33.311148272098507 ], [ -91.186327252225837, 33.311424275430234 ], [ -91.186009774447399, 33.31163538955262 ], [ -91.185106688560907, 33.31157885816436 ], [ -91.184941209520517, 33.311472015370576 ], [ -91.184849796705393, 33.311277195457969 ], [ -91.18501126403963, 33.310965353754646 ] ] ], [ [ [ -91.179028251011545, 33.31081618658731 ], [ -91.179257674135854, 33.310964333654312 ], [ -91.179323087572243, 33.311201057289672 ], [ -91.179194793799752, 33.311418890109067 ], [ -91.178972834867835, 33.311514358707434 ], [ -91.176228996829906, 33.311482231891759 ], [ -91.175969562389412, 33.311374505797744 ], [ -91.175855866451784, 33.311188139543006 ], [ -91.175925634669227, 33.310918382862752 ], [ -91.176202145519298, 33.31076905785936 ], [ -91.179028251011545, 33.31081618658731 ] ] ], [ [ [ -91.176151691008258, 33.314119607726191 ], [ -91.180250479581716, 33.31458599232726 ], [ -91.180478871396431, 33.314784560789818 ], [ -91.180473135691841, 33.315060563062474 ], [ -91.180311579849942, 33.315220084265768 ], [ -91.180071693568465, 33.315277362509015 ], [ -91.177593710746109, 33.315019926167444 ], [ -91.176054446821084, 33.314822357731096 ], [ -91.17584953598805, 33.314702998083298 ], [ -91.175758140705682, 33.31450817214813 ], [ -91.175859068331178, 33.314245456587336 ], [ -91.176151691008258, 33.314119607726191 ] ] ], [ [ [ -91.185003711617071, 33.315207407947554 ], [ -91.185277887243601, 33.315129533444718 ], [ -91.185840665929163, 33.315236356823235 ], [ -91.18601854608292, 33.315468512468733 ], [ -91.185948804394741, 33.315738275566581 ], [ -91.185630491055889, 33.315892205792537 ], [ -91.18533835321081, 33.315891509242597 ], [ -91.185025572762413, 33.315786502610031 ], [ -91.184842235702689, 33.315519249171906 ], [ -91.185003711617071, 33.315207407947554 ] ] ], [ [ [ -91.187182259889369, 33.315461157410361 ], [ -91.187380007132504, 33.315404987368296 ], [ -91.187955920597659, 33.315430454351066 ], [ -91.189170087532005, 33.315601038535469 ], [ -91.189420582889909, 33.315779837969195 ], [ -91.18944712455135, 33.31605498224544 ], [ -91.18927069327043, 33.316247629047076 ], [ -91.189030809170518, 33.316304924694684 ], [ -91.18728285075332, 33.316107749043297 ], [ -91.187077920789093, 33.315988407327957 ], [ -91.186986498909164, 33.31579358880176 ], [ -91.187020715080834, 33.315620687723872 ], [ -91.187182259889369, 33.315461157410361 ] ] ], [ [ [ -91.171312039930143, 33.316341457137106 ], [ -91.180051378965047, 33.31855181933431 ], [ -91.180255497846161, 33.318768227688778 ], [ -91.180217565342261, 33.319042428591061 ], [ -91.179999735959242, 33.319202458052743 ], [ -91.179751138379018, 33.319219342101853 ], [ -91.177887923083944, 33.318718750744942 ], [ -91.17656550753135, 33.318444089784911 ], [ -91.175007476731878, 33.317987687733755 ], [ -91.174684050330029, 33.317974620408577 ], [ -91.171049529858067, 33.31702464875783 ], [ -91.170838508022044, 33.316858320071027 ], [ -91.170801065954521, 33.316617351258095 ], [ -91.170988496289041, 33.31639055468586 ], [ -91.171312039930143, 33.316341457137106 ] ] ], [ [ [ -91.184609426268764, 33.319875949568996 ], [ -91.184891388418279, 33.319821014698952 ], [ -91.185307205231268, 33.319966564788281 ], [ -91.185427727287802, 33.320223396299411 ], [ -91.185296633004342, 33.320476551421351 ], [ -91.184948648446991, 33.320575382988132 ], [ -91.184532829443967, 33.320429831633497 ], [ -91.184415111233264, 33.320137683142875 ], [ -91.184609426268764, 33.319875949568996 ] ] ], [ [ [ -91.18859185692699, 33.320893691664878 ], [ -91.188949703462143, 33.320823960941397 ], [ -91.190890567628628, 33.321298507016706 ], [ -91.191119001314064, 33.321497057113717 ], [ -91.191113297685916, 33.321773060716659 ], [ -91.190876796084922, 33.321964838572896 ], [ -91.19050481910503, 33.321972990636887 ], [ -91.188687314159111, 33.321507193608007 ], [ -91.188521812327281, 33.321400354964332 ], [ -91.1884303821071, 33.321205537362282 ], [ -91.18859185692699, 33.320893691664878 ] ] ], [ [ [ -91.169264580986251, 33.318417128702713 ], [ -91.178785616888504, 33.322247174483437 ], [ -91.178940455012523, 33.322411332786785 ], [ -91.178934712797329, 33.322687334483959 ], [ -91.17869818305455, 33.322879088121645 ], [ -91.178449574869163, 33.322895969190704 ], [ -91.177922211326674, 33.322706589983248 ], [ -91.168729244423432, 33.319017841001745 ], [ -91.16853865776352, 33.31883494413848 ], [ -91.168544431904067, 33.318558943871984 ], [ -91.168820907571671, 33.318355872852919 ], [ -91.169264580986251, 33.318417128702713 ] ] ], [ [ [ -91.183046954347702, 33.32411171506449 ], [ -91.183370521499825, 33.324062586889632 ], [ -91.183883100774636, 33.324289390444925 ], [ -91.184003623927737, 33.324546223228836 ], [ -91.183872518517049, 33.324799376319639 ], [ -91.183482924293571, 33.324892400615276 ], [ -91.18297034267826, 33.324665595343845 ], [ -91.182852624738743, 33.324373445544744 ], [ -91.183046954347702, 33.32411171506449 ] ] ], [ [ [ -91.176690950833972, 33.307117408829797 ], [ -91.176880926060377, 33.307253055246292 ], [ -91.176949134505193, 33.307454463944744 ], [ -91.176872585007871, 33.307653748119805 ], [ -91.17667707870612, 33.307783736654912 ], [ -91.174966046097211, 33.308131141643294 ], [ -91.174686577771823, 33.308067979356558 ], [ -91.174531771954321, 33.307903816525965 ], [ -91.17453752481795, 33.307627814848701 ], [ -91.174774020462181, 33.307436067594558 ], [ -91.176282160836067, 33.30711156955779 ], [ -91.176690950833972, 33.307117408829797 ] ] ], [ [ [ -91.174592316899108, 33.300049866315149 ], [ -91.174946964788887, 33.300130026256838 ], [ -91.175098162201209, 33.300411091122967 ], [ -91.174855174027556, 33.300772970662884 ], [ -91.174549314629118, 33.300874130497483 ], [ -91.174247857149695, 33.300764046814074 ], [ -91.174127392445911, 33.300507205718588 ], [ -91.174229637917136, 33.300279867273844 ], [ -91.174592316899108, 33.300049866315149 ] ] ], [ [ [ -91.173745520419459, 33.304445152772132 ], [ -91.1739504048833, 33.304564515161282 ], [ -91.174041786769166, 33.304759342231399 ], [ -91.174007550417855, 33.30493223929092 ], [ -91.173846002785709, 33.305091752564898 ], [ -91.172160896550054, 33.305636568401852 ], [ -91.171913193491108, 33.305612396131835 ], [ -91.17172322976667, 33.305476742466027 ], [ -91.171664755299361, 33.3052051006201 ], [ -91.171852157590493, 33.304978301435725 ], [ -91.173179002704615, 33.304518217687622 ], [ -91.173745520419459, 33.304445152772132 ] ] ], [ [ [ -91.173145804321308, 33.307787879040681 ], [ -91.173416551258683, 33.30787374111911 ], [ -91.173560970810342, 33.308084334293376 ], [ -91.173513498822118, 33.308324054107771 ], [ -91.173295685373489, 33.308484072562408 ], [ -91.172477613503872, 33.308712032659457 ], [ -91.169960770736111, 33.309170400017898 ], [ -91.16862801353578, 33.30952939568332 ], [ -91.168342516780456, 33.309489523553687 ], [ -91.168151950736757, 33.309306626568855 ], [ -91.168124952772828, 33.309132828454977 ], [ -91.168224417382945, 33.308940811814296 ], [ -91.168700346278655, 33.308731027328136 ], [ -91.173145804321308, 33.307787879040681 ] ] ], [ [ [ -91.172932236950601, 33.310675633957075 ], [ -91.173150082009002, 33.310777560413072 ], [ -91.173263771574895, 33.310963928942115 ], [ -91.173234984810193, 33.311171922302293 ], [ -91.173107717220972, 33.311310850759327 ], [ -91.172341805813645, 33.311448000885846 ], [ -91.172012558075195, 33.311311272898322 ], [ -91.17192265042722, 33.3110457519698 ], [ -91.172082686899046, 33.310804621114073 ], [ -91.172932236950601, 33.310675633957075 ] ] ], [ [ [ -91.172019150405958, 33.31374448061684 ], [ -91.172259036953676, 33.313687217954765 ], [ -91.172949298233874, 33.313776937497089 ], [ -91.173153388423671, 33.31399335670627 ], [ -91.173115436567059, 33.314267554950192 ], [ -91.172774805059333, 33.314451486986052 ], [ -91.172042403720397, 33.314362883191407 ], [ -91.17182333714554, 33.314076886354314 ], [ -91.171857582234267, 33.31390399040874 ], [ -91.172019150405958, 33.31374448061684 ] ] ], [ [ [ -91.171383595607992, 33.297656279330184 ], [ -91.171632132564099, 33.297639409940636 ], [ -91.171819215409897, 33.297717112481898 ], [ -91.171967593510573, 33.298033496663862 ], [ -91.17189384743962, 33.298197462063307 ], [ -91.171589053126056, 33.298454269695114 ], [ -91.171272864845108, 33.298529759520918 ], [ -91.17098572130574, 33.298395386276184 ], [ -91.170895828168156, 33.298129864640252 ], [ -91.170995273139383, 33.297937844820851 ], [ -91.171383595607992, 33.297656279330184 ] ] ], [ [ [ -91.168870200769717, 33.303057018332289 ], [ -91.169186407361337, 33.302981535307325 ], [ -91.169473562634124, 33.30311591303893 ], [ -91.169563455793067, 33.303381435529545 ], [ -91.169403427102239, 33.303622563639259 ], [ -91.165647308950454, 33.30564309976041 ], [ -91.16514387740844, 33.3058261320379 ], [ -91.164672516061444, 33.306147105089693 ], [ -91.163249608225641, 33.306893126491808 ], [ -91.162772806195051, 33.307056449796313 ], [ -91.16241908103396, 33.306890901558184 ], [ -91.162360634916709, 33.30661925634864 ], [ -91.162548063830954, 33.306392472186531 ], [ -91.168870200769717, 33.303057018332289 ] ] ], [ [ [ -91.171318577814262, 33.305276633187219 ], [ -91.171523460665924, 33.305395999518851 ], [ -91.171614837842768, 33.305590828195115 ], [ -91.171561909012794, 33.305795450338472 ], [ -91.171382513620571, 33.305940895671526 ], [ -91.163254970546575, 33.308941319272037 ], [ -91.16284204928175, 33.308984386786136 ], [ -91.162550926466182, 33.308796332562075 ], [ -91.162524470720939, 33.308521185200355 ], [ -91.162737474467207, 33.308310918921947 ], [ -91.165441066451706, 33.307378184820976 ], [ -91.166216638683522, 33.307017763279575 ], [ -91.166592231792961, 33.306962602889506 ], [ -91.167677495077243, 33.30647953112549 ], [ -91.168581718040727, 33.306218979303289 ], [ -91.170726109808086, 33.305386241392988 ], [ -91.171110308619532, 33.305264965655574 ], [ -91.171318577814262, 33.305276633187219 ] ] ], [ [ [ -91.16900098585765, 33.310628653750975 ], [ -91.169760995796508, 33.310687561148399 ], [ -91.170966530007206, 33.310662272188537 ], [ -91.171236643472454, 33.310819634409057 ], [ -91.17129511950624, 33.311091276306193 ], [ -91.171173721821646, 33.311274185391916 ], [ -91.170909954887051, 33.311374218060486 ], [ -91.169722608653487, 33.311407479713047 ], [ -91.16912846539104, 33.311341262104932 ], [ -91.167922410050522, 33.311380753005231 ], [ -91.167173812101808, 33.311324842220166 ], [ -91.166287587633988, 33.311369874914845 ], [ -91.164432518026402, 33.311273041356756 ], [ -91.164214682657914, 33.311171099919662 ], [ -91.164095562070017, 33.310949626671643 ], [ -91.164196519616254, 33.310686921507354 ], [ -91.16448914557985, 33.310561100230451 ], [ -91.166255752523796, 33.310650292559217 ], [ -91.16900098585765, 33.310628653750975 ] ] ], [ [ [ -91.165130237435193, 33.31285050586208 ], [ -91.170480672636629, 33.313483427186775 ], [ -91.170709038659666, 33.313682012798587 ], [ -91.170703272409227, 33.313958013616286 ], [ -91.170541701509464, 33.314117521595094 ], [ -91.170301812806244, 33.314174780856575 ], [ -91.165876420844398, 33.313695545943297 ], [ -91.164951337254436, 33.313541850486004 ], [ -91.16476136822655, 33.313406186113667 ], [ -91.164693184177196, 33.31320477170577 ], [ -91.16482432508981, 33.312951639723373 ], [ -91.165130237435193, 33.31285050586208 ] ] ], [ [ [ -91.168772139037472, 33.296084327846017 ], [ -91.169088320233556, 33.296008844130064 ], [ -91.169375453002118, 33.296143221442904 ], [ -91.169465339730493, 33.296408744032156 ], [ -91.169305324450193, 33.296649872699973 ], [ -91.168989141073254, 33.296725356888068 ], [ -91.168702007075808, 33.296590978648915 ], [ -91.168612122528273, 33.296325455587542 ], [ -91.168772139037472, 33.296084327846017 ] ] ], [ [ [ -91.16713394439185, 33.30071500928775 ], [ -91.167413383232258, 33.30077818765227 ], [ -91.167568163323409, 33.300942358646971 ], [ -91.167588242533867, 33.301151071573798 ], [ -91.167466852072906, 33.301333977520585 ], [ -91.162490536266091, 33.304740655525123 ], [ -91.162174318306256, 33.304816121062835 ], [ -91.161914921944231, 33.304708366765723 ], [ -91.161794489135175, 33.304451514917481 ], [ -91.161925623933968, 33.30419838549512 ], [ -91.166770328030267, 33.300870275944419 ], [ -91.16713394439185, 33.30071500928775 ] ] ], [ [ [ -91.167283855110114, 33.309110581828591 ], [ -91.167473819236932, 33.30924624224501 ], [ -91.167539199447361, 33.309482971015917 ], [ -91.1674397326871, 33.309674987019136 ], [ -91.167229977422238, 33.309788242541096 ], [ -91.164794196525747, 33.310207644829511 ], [ -91.164538148140863, 33.310376668715236 ], [ -91.164023317476904, 33.310403101979261 ], [ -91.163413339467681, 33.310560922262944 ], [ -91.163092072885007, 33.310502310079769 ], [ -91.162923785408537, 33.310304603440663 ], [ -91.162943075356964, 33.310062133676027 ], [ -91.163104651776791, 33.309902635704539 ], [ -91.163803438586569, 33.309706330269975 ], [ -91.164171957049774, 33.309693497384075 ], [ -91.164425618414342, 33.309527686570576 ], [ -91.165690107753363, 33.309360586287909 ], [ -91.167036144087945, 33.309086399551767 ], [ -91.167283855110114, 33.309110581828591 ] ] ], [ [ [ -91.164899322507054, 33.314663144293114 ], [ -91.168186803200342, 33.315533228626578 ], [ -91.168364635865203, 33.315765407974489 ], [ -91.168294839962229, 33.316035159276218 ], [ -91.168099302252742, 33.316165133061546 ], [ -91.167892297608631, 33.316187801149646 ], [ -91.165924409424065, 33.31571253202808 ], [ -91.164640567659902, 33.315336436026939 ], [ -91.164467348143646, 33.315185790681362 ], [ -91.164423005680447, 33.314979734779428 ], [ -91.164583070062747, 33.314738614690683 ], [ -91.164899322507054, 33.314663144293114 ] ] ], [ [ [ -91.165898256576767, 33.294119409505605 ], [ -91.166214432717979, 33.294043932924957 ], [ -91.166501554459444, 33.294178316550003 ], [ -91.166591430647742, 33.294443840930789 ], [ -91.166431411488674, 33.294684965819883 ], [ -91.166115233166664, 33.294760442872466 ], [ -91.165828110196685, 33.294626058321064 ], [ -91.165738236189185, 33.294360533468357 ], [ -91.165898256576767, 33.294119409505605 ] ] ], [ [ [ -91.163390687483925, 33.292203477738461 ], [ -91.163789127821431, 33.292143018883259 ], [ -91.164070348503344, 33.292387653325612 ], [ -91.164010081305165, 33.292691882921893 ], [ -91.163650794950897, 33.292921875870995 ], [ -91.163324298435299, 33.292889988664975 ], [ -91.163120279969093, 33.292673555125674 ], [ -91.163139563110647, 33.292431084524779 ], [ -91.163390687483925, 33.292203477738461 ] ] ], [ [ [ -91.164545653786888, 33.299020272284245 ], [ -91.164789319849106, 33.299064728807771 ], [ -91.164962509398578, 33.299215372999107 ], [ -91.165006846964374, 33.299421428974405 ], [ -91.164907387253294, 33.299613443446354 ], [ -91.163418276492379, 33.300644321661011 ], [ -91.163136365582218, 33.300699209584991 ], [ -91.16290770716833, 33.300615684997418 ], [ -91.162757875834032, 33.300369983330107 ], [ -91.162858823594576, 33.300107278547102 ], [ -91.16431364069625, 33.299096987799636 ], [ -91.164545653786888, 33.299020272284245 ] ] ], [ [ [ -91.163475307104434, 33.316392220338763 ], [ -91.163791566411362, 33.31631675301999 ], [ -91.164253044651929, 33.316467189303388 ], [ -91.164426266213496, 33.316617834992861 ], [ -91.164469001587463, 33.316832004114914 ], [ -91.164750570448589, 33.31671608863202 ], [ -91.165160337393829, 33.316787878581877 ], [ -91.165364414359928, 33.317004310075326 ], [ -91.165326436451949, 33.317278504930854 ], [ -91.165147006673351, 33.317423939836793 ], [ -91.164901577450209, 33.317461170494227 ], [ -91.164476087929259, 33.31732608772483 ], [ -91.164360049026001, 33.31702580927054 ], [ -91.164078478674284, 33.317141723810302 ], [ -91.163674039729798, 33.317058929788111 ], [ -91.163432879146413, 33.316925504810307 ], [ -91.163328725387558, 33.316773607466359 ], [ -91.163333117483177, 33.316564247892344 ], [ -91.163475307104434, 33.316392220338763 ] ] ], [ [ [ -91.15525455587904, 33.282771212153989 ], [ -91.155598046202527, 33.282880227474415 ], [ -91.155715622923111, 33.283172399921405 ], [ -91.15544016070649, 33.283511478848801 ], [ -91.15512401507732, 33.283586929115522 ], [ -91.154836945988905, 33.283452520772002 ], [ -91.154747115487382, 33.283186989058031 ], [ -91.154990859832196, 33.282871213779551 ], [ -91.15525455587904, 33.282771212153989 ] ] ], [ [ [ -91.157521298010565, 33.284877981599344 ], [ -91.157853902382854, 33.285071855689132 ], [ -91.157846757264565, 33.285411837862561 ], [ -91.157363894198497, 33.285738398509906 ], [ -91.156997504426656, 33.285717829433359 ], [ -91.156793517934076, 33.285501386379892 ], [ -91.156831503792006, 33.28522719324782 ], [ -91.157086718400507, 33.284998315083904 ], [ -91.157521298010565, 33.284877981599344 ] ] ], [ [ [ -91.149150708370513, 33.287092011074691 ], [ -91.149504328478145, 33.287257593972804 ], [ -91.149536862753465, 33.28759652823117 ], [ -91.149098761780465, 33.287949422513044 ], [ -91.148731726737694, 33.287959089909542 ], [ -91.148503476746839, 33.287760467140686 ], [ -91.148509307146668, 33.287484468605662 ], [ -91.148876593502095, 33.287169808067723 ], [ -91.149150708370513, 33.287092011074691 ] ] ], [ [ [ -91.151708035442837, 33.289069127796544 ], [ -91.152103670659358, 33.289141360127736 ], [ -91.152254776166984, 33.28942245009393 ], [ -91.152200491794389, 33.289591686549976 ], [ -91.15200690276599, 33.28977236096128 ], [ -91.151701058763976, 33.289873465111548 ], [ -91.151399669896847, 33.289763328080269 ], [ -91.15127928682719, 33.289506467224356 ], [ -91.151381576443342, 33.289279148810081 ], [ -91.151708035442837, 33.289069127796544 ] ] ], [ [ [ -91.161420595420822, 33.289841799455004 ], [ -91.161749746174834, 33.289978552631972 ], [ -91.161821728333436, 33.29031317102254 ], [ -91.161408753506876, 33.290694618214062 ], [ -91.161044606384039, 33.290734489485807 ], [ -91.160794240903272, 33.290555636569032 ], [ -91.160767793407871, 33.29028048844566 ], [ -91.161146481399626, 33.289919623573503 ], [ -91.161420595420822, 33.289841799455004 ] ] ], [ [ [ -91.15397445794639, 33.291252077284966 ], [ -91.154328104251761, 33.291417647240877 ], [ -91.154360658007008, 33.291756580719628 ], [ -91.153902149851646, 33.292093521400766 ], [ -91.153535097256793, 33.292103202403098 ], [ -91.153306825605625, 33.291904587836328 ], [ -91.153312641800341, 33.291628588736081 ], [ -91.153590832046177, 33.291378823769946 ], [ -91.15397445794639, 33.291252077284966 ] ] ], [ [ [ -91.155848485489017, 33.293518665516494 ], [ -91.156252070832949, 33.293491320839401 ], [ -91.15644198434623, 33.293626996698933 ], [ -91.156510136151041, 33.293828415060695 ], [ -91.156433554178108, 33.294027685861685 ], [ -91.15562579294587, 33.294557526641078 ], [ -91.155380425161169, 33.294594740679898 ], [ -91.15518519347529, 33.294532786100213 ], [ -91.155007437050799, 33.294300589814682 ], [ -91.155077252930099, 33.294030845898682 ], [ -91.155848485489017, 33.293518665516494 ] ] ], [ [ [ -91.158551248749617, 33.295556249209355 ], [ -91.158788538259557, 33.295620558850374 ], [ -91.158925947932431, 33.295752481859445 ], [ -91.158970269835066, 33.295958539549382 ], [ -91.158896501744493, 33.296122496505809 ], [ -91.157924800191481, 33.296830874283863 ], [ -91.157684952337263, 33.296888110668618 ], [ -91.157447660352148, 33.296823798840933 ], [ -91.157269893418771, 33.296591605507352 ], [ -91.157339704564166, 33.296321860236418 ], [ -91.158277114357645, 33.295634066222526 ], [ -91.158551248749617, 33.295556249209355 ] ] ], [ [ [ -91.160704982200102, 33.29776366347329 ], [ -91.160942279394064, 33.297827969238064 ], [ -91.161079695728375, 33.297959890050713 ], [ -91.161124023599243, 33.298165947115542 ], [ -91.161050257416974, 33.298329905370814 ], [ -91.160060287533753, 33.299052162323228 ], [ -91.159820434719151, 33.29910940265129 ], [ -91.159583135027461, 33.299045094664251 ], [ -91.159405358062017, 33.298812904115614 ], [ -91.159475164793974, 33.29854315757008 ], [ -91.160430842484246, 33.297841485042134 ], [ -91.160704982200102, 33.29776366347329 ] ] ], [ [ [ -91.162042163474666, 33.300746589151366 ], [ -91.162279469751255, 33.300810892643696 ], [ -91.162434239960362, 33.300975069707491 ], [ -91.162461224841579, 33.301148868800801 ], [ -91.162361757501429, 33.30134088092381 ], [ -91.161708482361774, 33.301711461454936 ], [ -91.161584940624863, 33.301905153036927 ], [ -91.160783079299904, 33.30249681915631 ], [ -91.160465446630894, 33.302613408860111 ], [ -91.160152600534573, 33.302528632512512 ], [ -91.160002774081988, 33.302282927746361 ], [ -91.16010373248406, 33.302020225640298 ], [ -91.161218607978057, 33.301289834051367 ], [ -91.161373874196386, 33.301072839354362 ], [ -91.161802307073572, 33.300803833177234 ], [ -91.162042163474666, 33.300746589151366 ] ] ] ] } },
{ "type": "Feature", "properties": { "depth_bin": ">20 ft", "survey_id": "LM_10_SSL_20220531_CS_5334_5306", "date": "2022-05-31 00:00:00+00:00", "year": 2022, "mile": 532.0, "bin_order": 0 }, "geometry": { "type": "MultiPolygon", "coordinates": [ [ [ [ -91.179844694721211, 33.310805705881734 ], [ -91.185083332204201, 33.310885658027253 ], [ -91.185333805786229, 33.311064465093892 ], [ -91.185360333842311, 33.311339609958047 ], [ -91.185218194712348, 33.31151166445261 ], [ -91.184986164234914, 33.311588417935724 ], [ -91.180687563173848, 33.311560021476737 ], [ -91.179747485012101, 33.311508460271071 ], [ -91.179542576387888, 33.311389106750312 ], [ -91.179451175857636, 33.311194283272556 ], [ -91.179552088241934, 33.310931564068675 ], [ -91.179844694721211, 33.310805705881734 ] ] ], [ [ [ -91.180898101563727, 33.31467430546811 ], [ -91.185080481786969, 33.315105970464636 ], [ -91.185330967024782, 33.315284777831337 ], [ -91.185357495712154, 33.315559922561462 ], [ -91.185144525945063, 33.315770228662323 ], [ -91.184730559520403, 33.315813408781047 ], [ -91.184218417013199, 33.315708886894711 ], [ -91.181123636676261, 33.315398404230464 ], [ -91.18081069311863, 33.315306222103068 ], [ -91.180655863301226, 33.315142066262148 ], [ -91.180661598447742, 33.314866063965056 ], [ -91.180898101563727, 33.31467430546811 ] ] ], [ [ [ -91.180972770411188, 33.31885012287929 ], [ -91.18486356896085, 33.319788173490849 ], [ -91.185091984659451, 33.319986734125983 ], [ -91.185086262361807, 33.320262736874646 ], [ -91.1847687486528, 33.320473846348051 ], [ -91.184119642119981, 33.320385104093639 ], [ -91.181108340152107, 33.319600035584322 ], [ -91.180812002114294, 33.319471802797558 ], [ -91.180677075930561, 33.319295695652819 ], [ -91.180715007149502, 33.319021494575516 ], [ -91.180972770411188, 33.31885012287929 ] ] ], [ [ [ -91.181772940477885, 33.323460752995196 ], [ -91.183418431061327, 33.324071312943843 ], [ -91.183568358955526, 33.324316992149825 ], [ -91.183467441096582, 33.324579713965043 ], [ -91.18325766860589, 33.324692995796859 ], [ -91.18300828083818, 33.324689347251102 ], [ -91.18131436658436, 33.324075577076613 ], [ -91.180990521024796, 33.323888914045853 ], [ -91.179628200949509, 33.323370665659006 ], [ -91.179473359882962, 33.323206508135804 ], [ -91.17945324972618, 33.322997796695233 ], [ -91.179640672734649, 33.322770986983464 ], [ -91.179964236376449, 33.322721867573044 ], [ -91.1813864438178, 33.323251211470208 ], [ -91.181772940477885, 33.323460752995196 ] ] ], [ [ [ -91.178099418995899, 33.30273886024608 ], [ -91.178370155940684, 33.302824711223238 ], [ -91.178514579945599, 33.30303529892138 ], [ -91.178485809115031, 33.303243294265648 ], [ -91.178287745797476, 33.303420477303511 ], [ -91.174204340586201, 33.304931565610509 ], [ -91.173875647547447, 33.304926734174693 ], [ -91.173664648156333, 33.304760410796533 ], [ -91.173671737150812, 33.304420426666994 ], [ -91.173995915579397, 33.304206777452514 ], [ -91.178099418995899, 33.30273886024608 ] ] ], [ [ [ -91.181491910910239, 33.306068424459802 ], [ -91.18172132636947, 33.306216566800849 ], [ -91.181786743602729, 33.306453289416339 ], [ -91.18165846336575, 33.30667112538498 ], [ -91.181363182913657, 33.306793600857972 ], [ -91.177391332381973, 33.307631299845063 ], [ -91.1771058368073, 33.307591447927948 ], [ -91.176915255743083, 33.307408563854956 ], [ -91.176921000989751, 33.307132561788791 ], [ -91.17715749024309, 33.306940809756803 ], [ -91.179250888991405, 33.306461503636527 ], [ -91.181283637656293, 33.30605677388202 ], [ -91.181491910910239, 33.306068424459802 ] ] ], [ [ [ -91.170922934832973, 33.298021379269841 ], [ -91.17125160142902, 33.298026217633492 ], [ -91.171493432364116, 33.298258330169837 ], [ -91.171474170218616, 33.298500802600856 ], [ -91.171163143991848, 33.298829268335822 ], [ -91.16899436747039, 33.300232485465692 ], [ -91.167782587655353, 33.301115100761301 ], [ -91.167500677468425, 33.301169998630705 ], [ -91.167241284592691, 33.301062255545474 ], [ -91.167120840401807, 33.300805408355387 ], [ -91.167251954103335, 33.300552272451093 ], [ -91.170922934832973, 33.298021379269841 ] ] ], [ [ [ -91.17437490727022, 33.300267143955544 ], [ -91.174579783142804, 33.300386505077775 ], [ -91.174671162541898, 33.300581331708116 ], [ -91.174636929458259, 33.300754229149938 ], [ -91.174475391009892, 33.300913743647236 ], [ -91.170582652623239, 33.303009475516703 ], [ -91.170087443255994, 33.303174600421862 ], [ -91.169733718576495, 33.303009072985354 ], [ -91.169675251603081, 33.302737430367927 ], [ -91.169862653309721, 33.302510634095981 ], [ -91.172774067092888, 33.301015866180329 ], [ -91.173855107904018, 33.300358232275059 ], [ -91.174166649302094, 33.300255481934379 ], [ -91.17437490727022, 33.300267143955544 ] ] ], [ [ [ -91.167214325298659, 33.3176347264342 ], [ -91.168828936635023, 33.31830499272413 ], [ -91.168918841176364, 33.318570515532052 ], [ -91.168758780946078, 33.318811641238575 ], [ -91.168442516186332, 33.3188871210195 ], [ -91.167192171978556, 33.318446424155262 ], [ -91.166827897530254, 33.318216849497112 ], [ -91.166737999717967, 33.317951325390574 ], [ -91.166898063700799, 33.317710202394487 ], [ -91.167214325298659, 33.3176347264342 ] ] ], [ [ [ -91.165913035054302, 33.294210046337987 ], [ -91.166150327056442, 33.294274341987034 ], [ -91.166305093802961, 33.294438514243247 ], [ -91.166325169256851, 33.294647227427312 ], [ -91.166203785893828, 33.294830132540291 ], [ -91.161866372456032, 33.297811422767445 ], [ -91.161550179348851, 33.297886887638285 ], [ -91.161290803927699, 33.29777913265626 ], [ -91.1611703815162, 33.297522280321715 ], [ -91.161301506732968, 33.297269150995248 ], [ -91.165505680067966, 33.294369707122733 ], [ -91.165913035054302, 33.294210046337987 ] ] ], [ [ [ -91.168623363360481, 33.29626659920573 ], [ -91.168902789400832, 33.296329773811905 ], [ -91.169071065449941, 33.296527472312356 ], [ -91.169051797229756, 33.296769944215043 ], [ -91.168838309328066, 33.29698026262156 ], [ -91.165320386194949, 33.299339505335446 ], [ -91.16503848050688, 33.299394397773654 ], [ -91.164779096064024, 33.299286649800933 ], [ -91.164658661399486, 33.299029800485044 ], [ -91.164789779183124, 33.298776667264711 ], [ -91.166457882781515, 33.297613961727563 ], [ -91.167712651913504, 33.296845333902326 ], [ -91.167999713900215, 33.296591835783047 ], [ -91.168623363360481, 33.29626659920573 ] ] ], [ [ [ -91.159116782545524, 33.287634291420872 ], [ -91.159354051349652, 33.287698599333609 ], [ -91.159508793930584, 33.287862779384788 ], [ -91.159528852396406, 33.288071493267559 ], [ -91.159407464949112, 33.288254391747344 ], [ -91.157877428365225, 33.289343425172056 ], [ -91.15636010120825, 33.290272919529869 ], [ -91.154847123937813, 33.291441360136048 ], [ -91.154387629366624, 33.291670400385669 ], [ -91.1540023153607, 33.291565954035747 ], [ -91.153881922318106, 33.291309095423451 ], [ -91.154013058040888, 33.291055973957967 ], [ -91.154626136443127, 33.290671768820715 ], [ -91.155888722648427, 33.289673500718031 ], [ -91.157396030069606, 33.288748852920826 ], [ -91.158706147295462, 33.287791067180649 ], [ -91.159116782545524, 33.287634291420872 ] ] ], [ [ [ -91.161114534159594, 33.290117478985266 ], [ -91.16130976080693, 33.290179424091548 ], [ -91.161464511326812, 33.290343601921229 ], [ -91.161484574746638, 33.290552315589174 ], [ -91.161363187598482, 33.290735215933225 ], [ -91.16081955293879, 33.291020109993532 ], [ -91.16030682271068, 33.291440686973822 ], [ -91.159821428432295, 33.291706829106261 ], [ -91.156815245038146, 33.293769937007113 ], [ -91.15653335306024, 33.293824810620286 ], [ -91.156273996108482, 33.293717045721721 ], [ -91.156153593649179, 33.293460189063602 ], [ -91.156284726450011, 33.293207065167216 ], [ -91.159732352414295, 33.290907043589755 ], [ -91.160243646627933, 33.290487752776819 ], [ -91.160869180705632, 33.290154704402127 ], [ -91.161114534159594, 33.290117478985266 ] ] ], [ [ [ -91.163157116345261, 33.292397089375399 ], [ -91.163445835066483, 33.29241328322788 ], [ -91.163674131886282, 33.292611879981891 ], [ -91.163683242542064, 33.292854770342302 ], [ -91.163465822898928, 33.293108835314705 ], [ -91.15942551205903, 33.295801075238451 ], [ -91.159143614827428, 33.29585595459023 ], [ -91.158884248505245, 33.295748194857907 ], [ -91.158763835766791, 33.295491340449658 ], [ -91.158894964487203, 33.295238213720438 ], [ -91.163157116345261, 33.292397089375399 ] ] ], [ [ [ -91.154519080272465, 33.283197541640078 ], [ -91.154835224925748, 33.283122092877939 ], [ -91.155094549235869, 33.283229859810156 ], [ -91.155214935950596, 33.283486717303155 ], [ -91.155083816038712, 33.283739840841946 ], [ -91.152955087027962, 33.285299692537258 ], [ -91.152469559586365, 33.285540824682542 ], [ -91.149662979568632, 33.287557910449998 ], [ -91.149346814915148, 33.287633345287617 ], [ -91.14908748549685, 33.287525566221312 ], [ -91.148973876445638, 33.287339177718664 ], [ -91.148987811125068, 33.287164299359603 ], [ -91.149331757957981, 33.286825692034384 ], [ -91.150605092221326, 33.285991733506066 ], [ -91.15082761834303, 33.285756589608219 ], [ -91.151992055286996, 33.284944378458611 ], [ -91.152385805657772, 33.28476145284364 ], [ -91.154519080272465, 33.283197541640078 ] ] ], [ [ [ -91.156738603823896, 33.2853418621401 ], [ -91.15702729744288, 33.285358070087007 ], [ -91.157217195200829, 33.285493744362441 ], [ -91.157282532830692, 33.285730477826668 ], [ -91.157154225742104, 33.285948288123571 ], [ -91.156277878767867, 33.286531577318776 ], [ -91.15593547255699, 33.286864946957159 ], [ -91.152342134281795, 33.289522271029718 ], [ -91.152025964428091, 33.289597712498875 ], [ -91.151766625742994, 33.28948993874311 ], [ -91.151646241916282, 33.289233078207886 ], [ -91.151777380581038, 33.288979959138658 ], [ -91.155391543971021, 33.286310148132387 ], [ -91.15569281292349, 33.286007443567733 ], [ -91.156738603823896, 33.2853418621401 ] ] ] ] } }
]
}
