{
"type": "FeatureCollection",
"crs": { "type": "name", "properties": { "name": "urn:ogc:def:crs:OGC:1.3:CRS84" } },
"features": [
{ "type": "Feature", "properties": { "depth_bin": 15, "survey_id": "UM_SL_DIC_20260825_BD_3", "date": "2026-08-25 00:00:00+00:00", "year": 2026, "mile": 40.0, "bin_order": -15 }, "geometry": { "type": "MultiPolygon", "coordinates": [ [ [ [ -89.441355400388261, 37.167786293066492 ], [ -89.441765723850182, 37.167700002520313 ], [ -89.442083342316849, 37.167925094028377 ], [ -89.442056955940231, 37.168410533416647 ], [ -89.442211593499195, 37.168733427569009 ], [ -89.44210262401495, 37.168923449825932 ], [ -89.441922208566382, 37.169022350369758 ], [ -89.441501849081931, 37.168976409385124 ], [ -89.441316252531905, 37.16868566936315 ], [ -89.441091911987826, 37.168619081928675 ], [ -89.440933872589, 37.168452596841263 ], [ -89.440946805704883, 37.168177164548979 ], [ -89.441355400388261, 37.167786293066492 ] ] ], [ [ [ -89.451228800844504, 37.179511111115239 ], [ -89.451457148108076, 37.179304745554411 ], [ -89.451800981081661, 37.179288020089835 ], [ -89.452058889215394, 37.179470732279981 ], [ -89.452079793543319, 37.179745852657142 ], [ -89.451851446450746, 37.179952219427548 ], [ -89.45150761044664, 37.179968944880621 ], [ -89.451249702141894, 37.179786231480897 ], [ -89.451228800844504, 37.179511111115239 ] ] ] ] } },
{ "type": "Feature", "properties": { "depth_bin": 16, "survey_id": "UM_SL_DIC_20260825_BD_3", "date": "2026-08-25 00:00:00+00:00", "year": 2026, "mile": 40.0, "bin_order": -16 }, "geometry": { "type": "MultiPolygon", "coordinates": [ [ [ [ -89.442818061792238, 37.168584174171315 ], [ -89.443065596562008, 37.168819947572466 ], [ -89.442994888761618, 37.169122649958162 ], [ -89.442786854124094, 37.169249127826717 ], [ -89.44247626500497, 37.169249554427459 ], [ -89.442281689578962, 37.169396409427762 ], [ -89.442023716550707, 37.169429471808513 ], [ -89.441754682106335, 37.169317566502471 ], [ -89.441479542743437, 37.16892654087853 ], [ -89.441082499777565, 37.168690774355809 ], [ -89.440994967479199, 37.16842419767616 ], [ -89.441134803199958, 37.168208900317659 ], [ -89.441417551579065, 37.168113428905528 ], [ -89.44131718244769, 37.167896366270149 ], [ -89.441401844598786, 37.167663373522537 ], [ -89.441609876777164, 37.167536897957113 ], [ -89.441827242122741, 37.167517736325699 ], [ -89.44212467776012, 37.167656699488546 ], [ -89.442818061792238, 37.168584174171315 ] ] ], [ [ [ -89.444363824156781, 37.169847075537319 ], [ -89.444638075994064, 37.169680335467163 ], [ -89.444979332380242, 37.169717622007056 ], [ -89.445187691977409, 37.169937093542664 ], [ -89.445141099850858, 37.170210187411691 ], [ -89.444866847011468, 37.170376928594408 ], [ -89.444525587761618, 37.170339641580654 ], [ -89.444317229166558, 37.170120168932478 ], [ -89.444363824156781, 37.169847075537319 ] ] ], [ [ [ -89.45033486455209, 37.175988301670571 ], [ -89.450652341614216, 37.175814251241476 ], [ -89.450987421088314, 37.175878110691912 ], [ -89.451145497867302, 37.176044584132903 ], [ -89.451162178959549, 37.176249736989206 ], [ -89.451396577352227, 37.176298360769216 ], [ -89.451574286403087, 37.176451633678965 ], [ -89.451651643222618, 37.176866301461665 ], [ -89.451874677645236, 37.176880558985026 ], [ -89.452086343233972, 37.17700314404766 ], [ -89.452230693735274, 37.177328629537733 ], [ -89.452204168927324, 37.177518204861009 ], [ -89.452385129843108, 37.177785264284992 ], [ -89.452208188773326, 37.178093859527095 ], [ -89.451919047613657, 37.178166992995969 ], [ -89.451624583461864, 37.17806660854739 ], [ -89.451462833403511, 37.178205502315031 ], [ -89.451254291062966, 37.178258248191426 ], [ -89.450868631122717, 37.178116661011181 ], [ -89.450781055574097, 37.177850089552848 ], [ -89.450980853128982, 37.177597704943629 ], [ -89.451016290592847, 37.177391492197302 ], [ -89.450508844806166, 37.176835516559727 ], [ -89.450561199316724, 37.176505279553183 ], [ -89.450301596214956, 37.176295095905274 ], [ -89.45033486455209, 37.175988301670571 ] ] ], [ [ [ -89.452393732865431, 37.178248859740663 ], [ -89.452668000483513, 37.178082101896571 ], [ -89.453009300258486, 37.178119367393776 ], [ -89.453217705436927, 37.178338826944135 ], [ -89.453171134383609, 37.178611924906534 ], [ -89.452896865763947, 37.178778683863698 ], [ -89.452555563123823, 37.178741417893079 ], [ -89.452347158946935, 37.178521957229634 ], [ -89.452393732865431, 37.178248859740663 ] ] ] ] } },
{ "type": "Feature", "properties": { "depth_bin": 17, "survey_id": "UM_SL_DIC_20260825_BD_3", "date": "2026-08-25 00:00:00+00:00", "year": 2026, "mile": 40.0, "bin_order": -17 }, "geometry": { "type": "MultiPolygon", "coordinates": [ [ [ [ -89.45174787314302, 37.176829713288946 ], [ -89.451905953494546, 37.176996185882196 ], [ -89.451925812073412, 37.17718773960685 ], [ -89.452304216247185, 37.17730040003665 ], [ -89.452712085956477, 37.177852712034124 ], [ -89.452676758466069, 37.178059870413968 ], [ -89.452424007929508, 37.17835203918419 ], [ -89.452130632418786, 37.178496482442839 ], [ -89.451832546940011, 37.178451916868013 ], [ -89.450915184902215, 37.177894352184381 ], [ -89.45092815367407, 37.177274123388287 ], [ -89.450644737952871, 37.177183897014537 ], [ -89.450498694150198, 37.176971246712455 ], [ -89.450635257344629, 37.176651678289559 ], [ -89.450385840896701, 37.176415506717994 ], [ -89.450292802588834, 37.176002457234851 ], [ -89.450435933156896, 37.175716601026025 ], [ -89.450758878279331, 37.175620734555963 ], [ -89.451071949609755, 37.175735675971858 ], [ -89.451177282605784, 37.175889048475732 ], [ -89.451176988988351, 37.176085052803472 ], [ -89.451736026047385, 37.176498106788777 ], [ -89.45174787314302, 37.176829713288946 ] ] ], [ [ [ -89.452555777396327, 37.178302093269643 ], [ -89.452849151397757, 37.178157648870375 ], [ -89.453184243446813, 37.178221502710386 ], [ -89.453364763014633, 37.178456250558057 ], [ -89.453284963096863, 37.178724381014625 ], [ -89.452991587554138, 37.178868826413257 ], [ -89.45265649289037, 37.178804971891786 ], [ -89.45247597486383, 37.178570223044765 ], [ -89.452555777396327, 37.178302093269643 ] ] ], [ [ [ -89.451296248826878, 37.178772574684722 ], [ -89.451504297939721, 37.17864608262839 ], [ -89.451721694397008, 37.178626904365743 ], [ -89.452343362043763, 37.178902219517873 ], [ -89.452563415784141, 37.179479853161972 ], [ -89.452420284767115, 37.179765711847899 ], [ -89.452185390252438, 37.179857297729455 ], [ -89.45184327607285, 37.179788941773779 ], [ -89.451521668224061, 37.17988389963881 ], [ -89.451208579466396, 37.179768958548607 ], [ -89.450999064427251, 37.17939241555964 ], [ -89.451060116921056, 37.17922436529939 ], [ -89.45123174179119, 37.179090929090158 ], [ -89.451296248826878, 37.178772574684722 ] ] ], [ [ [ -89.443001096774481, 37.168506272152115 ], [ -89.44304316570144, 37.168705784841841 ], [ -89.443361296705689, 37.169077571130011 ], [ -89.443342377360509, 37.169251921043092 ], [ -89.443201492616183, 37.169413001448419 ], [ -89.443625783010347, 37.16957996809321 ], [ -89.443771794245919, 37.169792625347363 ], [ -89.443691972511346, 37.170060748346977 ], [ -89.443398615531208, 37.17020517090549 ], [ -89.44289722026619, 37.170087766469898 ], [ -89.442692719785356, 37.169936187123191 ], [ -89.442448964346625, 37.169964382305551 ], [ -89.442245971395067, 37.169899280866673 ], [ -89.442023009113726, 37.169535560979384 ], [ -89.441827123878255, 37.169374700192478 ], [ -89.441497987870264, 37.168712286410631 ], [ -89.441558541166856, 37.168508902944275 ], [ -89.441755937596128, 37.168364713635768 ], [ -89.441541277093094, 37.167852694607461 ], [ -89.441653558013016, 37.167592125985969 ], [ -89.441963183040457, 37.167471413496791 ], [ -89.442288779463169, 37.16756126828048 ], [ -89.442412362542925, 37.167705648460462 ], [ -89.442489889073215, 37.16801615234214 ], [ -89.442783279908767, 37.168081249508198 ], [ -89.442939686818605, 37.168203560196957 ], [ -89.443001096774481, 37.168506272152115 ] ] ], [ [ [ -89.444161525380366, 37.169250113099032 ], [ -89.44454293160301, 37.169101409154457 ], [ -89.444890676995598, 37.169132846847312 ], [ -89.445102309613432, 37.169255442823086 ], [ -89.445193677117103, 37.16948680873012 ], [ -89.445086243121239, 37.1697067015063 ], [ -89.44531385902819, 37.169833015737723 ], [ -89.445404716654537, 37.17002904294214 ], [ -89.445227768687374, 37.170337627522891 ], [ -89.444894655666076, 37.170407688244033 ], [ -89.444597203978873, 37.170268731272095 ], [ -89.444505837587158, 37.170037364974675 ], [ -89.444613273773498, 37.169817472848578 ], [ -89.444338363238515, 37.169788587408263 ], [ -89.444142765557928, 37.169649980130785 ], [ -89.444076358899949, 37.169447769557031 ], [ -89.444161525380366, 37.169250113099032 ] ] ] ] } },
{ "type": "Feature", "properties": { "depth_bin": 18, "survey_id": "UM_SL_DIC_20260825_BD_3", "date": "2026-08-25 00:00:00+00:00", "year": 2026, "mile": 40.0, "bin_order": -18 }, "geometry": { "type": "MultiPolygon", "coordinates": [ [ [ [ -89.451993857761579, 37.177465431399625 ], [ -89.45229056236775, 37.177415327178316 ], [ -89.452559642150689, 37.177527210695729 ], [ -89.4528287100363, 37.177918830836035 ], [ -89.452760815712494, 37.178218117888846 ], [ -89.453248140326778, 37.178379291940637 ], [ -89.453528288635582, 37.178638550295737 ], [ -89.453594727041121, 37.178840757043453 ], [ -89.453451086656926, 37.179091278557507 ], [ -89.453099211578248, 37.179185144593909 ], [ -89.45292360282545, 37.179503415786193 ], [ -89.452396091835979, 37.17967810684511 ], [ -89.452235942778302, 37.179866601054783 ], [ -89.451946794727291, 37.179939734222096 ], [ -89.450993257699722, 37.179533491198718 ], [ -89.450773916708329, 37.179000968491565 ], [ -89.450340025723392, 37.178732599782705 ], [ -89.450234690996723, 37.178579226474362 ], [ -89.450260906242164, 37.178337489668891 ], [ -89.450434118271744, 37.178180952391095 ], [ -89.450730826435347, 37.17813085229006 ], [ -89.450996297472955, 37.178227424264506 ], [ -89.450955952216034, 37.17794301864074 ], [ -89.451052577154215, 37.177616589770395 ], [ -89.450802027347592, 37.177484958009416 ], [ -89.450711148028844, 37.177288933956518 ], [ -89.450924142375129, 37.176922193340395 ], [ -89.450599712767627, 37.176726007263639 ], [ -89.45055455488793, 37.17655477159343 ], [ -89.450629453615704, 37.17636971276854 ], [ -89.450434923206203, 37.176127650292472 ], [ -89.450470255445552, 37.175920492800984 ], [ -89.450643461128294, 37.175763954853593 ], [ -89.450983573765626, 37.175720344930923 ], [ -89.45126260734142, 37.175881951035855 ], [ -89.451329037769838, 37.176084158691388 ], [ -89.451254141055983, 37.176269218070736 ], [ -89.451973432453514, 37.176864512235113 ], [ -89.451989289236295, 37.177073204957566 ], [ -89.451804322420031, 37.177410845889042 ], [ -89.451905340485709, 37.177523105719587 ], [ -89.451993857761579, 37.177465431399625 ] ], [ [ -89.451778086903204, 37.178319045936853 ], [ -89.451763401574752, 37.178333708802015 ], [ -89.451782867890685, 37.178342527390711 ], [ -89.45177963153462, 37.178330256306609 ], [ -89.451778086903204, 37.178319045936853 ] ] ], [ [ [ -89.443102812338353, 37.168106550871499 ], [ -89.443446984627471, 37.168116894083951 ], [ -89.443663843230993, 37.168286475579372 ], [ -89.443697047238203, 37.168527660654561 ], [ -89.443503272116402, 37.168819030545379 ], [ -89.443889703587473, 37.168783145569158 ], [ -89.444164927883406, 37.168998364645049 ], [ -89.444152006062751, 37.169273797863525 ], [ -89.443978803677055, 37.16943032651244 ], [ -89.443755130933909, 37.169483200364027 ], [ -89.443827061713392, 37.169551257924006 ], [ -89.444097232977825, 37.169402253325693 ], [ -89.444358013283733, 37.169389580814034 ], [ -89.444891885415728, 37.16968045447485 ], [ -89.445015476811619, 37.169824832332075 ], [ -89.44503131444317, 37.17003352510951 ], [ -89.444899599637552, 37.170214088113568 ], [ -89.444620831274619, 37.17030953077056 ], [ -89.444338771370155, 37.170246525209194 ], [ -89.44427880982893, 37.17045416788266 ], [ -89.444057088870863, 37.170606688720142 ], [ -89.444456878627037, 37.170547417457207 ], [ -89.444735878844, 37.170709037358847 ], [ -89.444778023796133, 37.171015131006996 ], [ -89.444509083320398, 37.171235385272112 ], [ -89.44416489649042, 37.171225044407535 ], [ -89.443921058728762, 37.170998662344978 ], [ -89.443614894898445, 37.171083236396726 ], [ -89.443333441412847, 37.170992976242971 ], [ -89.443102695241706, 37.170751388727872 ], [ -89.443068878046859, 37.170512835081638 ], [ -89.442678878299162, 37.170401174047605 ], [ -89.442560247418015, 37.170182650307801 ], [ -89.442237955641573, 37.169941644618412 ], [ -89.442203686766646, 37.169705036805588 ], [ -89.441980898842118, 37.169620025241329 ], [ -89.441857313795225, 37.169475644527537 ], [ -89.441870244038554, 37.169200212006025 ], [ -89.442161985488795, 37.169002848030196 ], [ -89.442079616488897, 37.168781981429269 ], [ -89.442180057551411, 37.168569080529792 ], [ -89.44188147164428, 37.168396100126955 ], [ -89.441776167345523, 37.168242720712477 ], [ -89.441710893071985, 37.167784984437169 ], [ -89.441796063363867, 37.167587329863778 ], [ -89.442145104221296, 37.167305186334531 ], [ -89.442529873576433, 37.167301631716569 ], [ -89.442786518396431, 37.167571985409317 ], [ -89.442673276546259, 37.167977704874644 ], [ -89.442800842744703, 37.168144332754487 ], [ -89.443102812338353, 37.168106550871499 ] ] ], [ [ [ -89.449754191354955, 37.175051386508677 ], [ -89.450063836676676, 37.174930653842708 ], [ -89.450389475897836, 37.175020488399369 ], [ -89.450540355579449, 37.175268266924206 ], [ -89.450428091020754, 37.17552884471673 ], [ -89.450118443677326, 37.175649578229638 ], [ -89.449792802192931, 37.175559742809604 ], [ -89.449641924533069, 37.1753119634378 ], [ -89.449754191354955, 37.175051386508677 ] ] ] ] } },
{ "type": "Feature", "properties": { "depth_bin": 19, "survey_id": "UM_SL_DIC_20260825_BD_3", "date": "2026-08-25 00:00:00+00:00", "year": 2026, "mile": 40.0, "bin_order": -19 }, "geometry": { "type": "MultiPolygon", "coordinates": [ [ [ [ -89.450669736993106, 37.176864046536338 ], [ -89.450963108414953, 37.176719606686788 ], [ -89.451298192169062, 37.176783465471111 ], [ -89.451478702585462, 37.177018215761429 ], [ -89.451398898020486, 37.17728634472801 ], [ -89.451105525057258, 37.177430785576774 ], [ -89.450770438688707, 37.177366926110913 ], [ -89.450589929813688, 37.177132174821374 ], [ -89.450669736993106, 37.176864046536338 ] ] ], [ [ [ -89.451950092862788, 37.177779983879901 ], [ -89.452239232489617, 37.177706850252569 ], [ -89.452864252108654, 37.177825532467999 ], [ -89.453118832274257, 37.178259736723405 ], [ -89.452995835929016, 37.178568202348771 ], [ -89.453451176255513, 37.178739281565363 ], [ -89.453602587341692, 37.179022395680398 ], [ -89.453388697474921, 37.17931562955215 ], [ -89.452927412840296, 37.179454880233855 ], [ -89.452638210639776, 37.17941401183792 ], [ -89.452292207090636, 37.179540302216999 ], [ -89.452085491763555, 37.179783920240077 ], [ -89.4518327803342, 37.179837078115284 ], [ -89.451466312489316, 37.179665926699386 ], [ -89.451371159220656, 37.179179739991291 ], [ -89.451012530882679, 37.179305680771087 ], [ -89.450671030851808, 37.179163681882109 ], [ -89.450477895961598, 37.178886450950159 ], [ -89.45044769830659, 37.178636539628663 ], [ -89.450206032014719, 37.178528750231635 ], [ -89.449837296235202, 37.178119269617234 ], [ -89.449792139529777, 37.177948033734964 ], [ -89.449870231650962, 37.177759057791498 ], [ -89.449485708240232, 37.177617455845166 ], [ -89.449406251068552, 37.177316143971034 ], [ -89.449687530405214, 37.177061943026359 ], [ -89.450070936212484, 37.177088565701304 ], [ -89.450279329853331, 37.177308029870844 ], [ -89.450215710943795, 37.177602052606588 ], [ -89.450505765907963, 37.177669796693912 ], [ -89.451034949119119, 37.178065337926455 ], [ -89.451213049128185, 37.17805234216889 ], [ -89.451504663232853, 37.177858878986328 ], [ -89.451830692008016, 37.177889798772135 ], [ -89.451950092862788, 37.177779983879901 ] ], [ [ -89.451648130657546, 37.178624368346831 ], [ -89.451409928149701, 37.178753843335159 ], [ -89.451478821268239, 37.178937468043443 ], [ -89.451659322384927, 37.178711726284142 ], [ -89.451648130657546, 37.178624368346831 ] ], [ [ -89.451470172676366, 37.179029508237726 ], [ -89.45147148945405, 37.179028429808653 ], [ -89.451471018721989, 37.17901292695008 ], [ -89.451465370497147, 37.179034302988725 ], [ -89.451470172676366, 37.179029508237726 ] ] ], [ [ [ -89.444440988713879, 37.169346668446998 ], [ -89.444782432801944, 37.169488682601063 ], [ -89.444873288678366, 37.16968471012963 ], [ -89.444819692722405, 37.169877394718036 ], [ -89.445201149773325, 37.170000920709725 ], [ -89.445352514325634, 37.170284043206053 ], [ -89.445267349501293, 37.170481700595978 ], [ -89.444952643428124, 37.170730539606197 ], [ -89.445103431817742, 37.170946255816922 ], [ -89.44504772225298, 37.171184769768701 ], [ -89.444709746840672, 37.171360613748284 ], [ -89.444566396384133, 37.171632039986093 ], [ -89.444243462228741, 37.171727890069505 ], [ -89.443877051230515, 37.171556717882417 ], [ -89.443811154341617, 37.171389845714849 ], [ -89.443857609893954, 37.171208161831309 ], [ -89.443564819654441, 37.171208334701831 ], [ -89.443353184549892, 37.171085735850845 ], [ -89.443273180603853, 37.170786888150737 ], [ -89.442982396711727, 37.170648924370852 ], [ -89.442797771093254, 37.17038763162607 ], [ -89.442750666239561, 37.170094371653086 ], [ -89.442461358861536, 37.16987587200758 ], [ -89.442457859191833, 37.169633243975113 ], [ -89.4427637835105, 37.169258317122775 ], [ -89.44259109062483, 37.168915080990175 ], [ -89.442629656228391, 37.168702973274129 ], [ -89.441996842919977, 37.168279294552953 ], [ -89.441883589335106, 37.167819690921633 ], [ -89.441944140702134, 37.167616307141429 ], [ -89.442259883802564, 37.167241593783466 ], [ -89.4425929844857, 37.167171539855666 ], [ -89.442890420377751, 37.167310501100737 ], [ -89.442977958497622, 37.167577076699139 ], [ -89.442765209817566, 37.16789590923397 ], [ -89.443209514097944, 37.168256985924167 ], [ -89.443474058329301, 37.168221029321138 ], [ -89.443743091870374, 37.168332930659908 ], [ -89.443857515846673, 37.168520888392948 ], [ -89.443817507391245, 37.168735223776395 ], [ -89.444297876154536, 37.169014717015088 ], [ -89.444372893679841, 37.16932817702574 ], [ -89.444440988713879, 37.169346668446998 ] ] ], [ [ [ -89.450324757491032, 37.175630952269493 ], [ -89.450618124530138, 37.175486513036837 ], [ -89.45095320253904, 37.175550372509946 ], [ -89.451133709213124, 37.175785123157446 ], [ -89.451053905100949, 37.176053251940353 ], [ -89.450760536520548, 37.176197692172167 ], [ -89.450425455897388, 37.176133832017534 ], [ -89.450244950764613, 37.175899080370854 ], [ -89.450324757491032, 37.175630952269493 ] ] ] ] } },
{ "type": "Feature", "properties": { "depth_bin": 20, "survey_id": "UM_SL_DIC_20260825_BD_3", "date": "2026-08-25 00:00:00+00:00", "year": 2026, "mile": 40.0, "bin_order": -20 }, "geometry": { "type": "MultiPolygon", "coordinates": [ [ [ [ -89.445184835411538, 37.16958282597087 ], [ -89.44546383393596, 37.169744444071057 ], [ -89.445513836914841, 37.170028916931685 ], [ -89.445770340429831, 37.170057406864032 ], [ -89.445940983594753, 37.170166856019655 ], [ -89.446020421598732, 37.170468169404892 ], [ -89.445919572136901, 37.170623456093516 ], [ -89.445724385730216, 37.170726098210586 ], [ -89.44566961219644, 37.171067397741169 ], [ -89.445298165324928, 37.171216012577304 ], [ -89.445150834691887, 37.171494825268113 ], [ -89.445181663380779, 37.171681641008696 ], [ -89.445100316273511, 37.17184408964777 ], [ -89.444803235212376, 37.172066335791861 ], [ -89.444501842263435, 37.172092909792994 ], [ -89.443968798844594, 37.171723875871415 ], [ -89.44345570697017, 37.171088854047326 ], [ -89.443431758954148, 37.170914900475687 ], [ -89.443555137458091, 37.170641264053216 ], [ -89.443872703500574, 37.170467222681346 ], [ -89.443583800469256, 37.170210545622254 ], [ -89.44351673262986, 37.169771317389511 ], [ -89.44316170237623, 37.169784038202977 ], [ -89.443308708041712, 37.170101956856904 ], [ -89.443059924090406, 37.170376981717361 ], [ -89.442675138976739, 37.170380537242828 ], [ -89.442440907247871, 37.170178461332682 ], [ -89.442425076788098, 37.16996976858421 ], [ -89.44255679679803, 37.169789208617807 ], [ -89.442791669164961, 37.169697640720223 ], [ -89.44302134628974, 37.169716569802084 ], [ -89.442874342476443, 37.169398650876332 ], [ -89.442955691179122, 37.169236203827261 ], [ -89.443151083014371, 37.169114053968634 ], [ -89.442924177475987, 37.168709043206611 ], [ -89.442414423942708, 37.168494927294994 ], [ -89.441996304692424, 37.16806055303482 ], [ -89.442009233769042, 37.167785120405831 ], [ -89.442379752764666, 37.16732831871726 ], [ -89.44270266964206, 37.167232472809616 ], [ -89.443015693348215, 37.167347433241247 ], [ -89.443222937534486, 37.167701200908553 ], [ -89.443175721814086, 37.167966961948032 ], [ -89.443519041819158, 37.168108961905858 ], [ -89.443596425856924, 37.168415898402586 ], [ -89.443813779987423, 37.168628522395785 ], [ -89.444020293488279, 37.168677143521158 ], [ -89.444264961781727, 37.168850213150293 ], [ -89.444383336315383, 37.169066849590287 ], [ -89.44468903588222, 37.168982579150637 ], [ -89.444970483968845, 37.169072835795248 ], [ -89.445116498255544, 37.169285491549481 ], [ -89.445056171190473, 37.169529678934168 ], [ -89.445184835411538, 37.16958282597087 ] ] ], [ [ [ -89.450224934594615, 37.175512820975484 ], [ -89.450562200710138, 37.175364509396303 ], [ -89.450919433096701, 37.175479040375635 ], [ -89.451024765457817, 37.175632412986062 ], [ -89.451017591152549, 37.175834156980549 ], [ -89.451282590955671, 37.175923255932943 ], [ -89.451548807659975, 37.17622719725059 ], [ -89.451564663276855, 37.176435889980155 ], [ -89.451432951076981, 37.176616460338316 ], [ -89.451110002306876, 37.176712328459914 ], [ -89.450796926991373, 37.176597386946398 ], [ -89.450562303104462, 37.176318141817838 ], [ -89.450556167786331, 37.176082700167228 ], [ -89.450325632237565, 37.176015700773881 ], [ -89.450167557406374, 37.175849226333035 ], [ -89.450224934594615, 37.175512820975484 ] ] ], [ [ [ -89.448694922867489, 37.176408174902022 ], [ -89.44898829582074, 37.176263740049301 ], [ -89.449357839113517, 37.176349705688132 ], [ -89.449509144859064, 37.176626928688769 ], [ -89.449754723321703, 37.176780755990507 ], [ -89.449820993496076, 37.176984409697887 ], [ -89.450120035043739, 37.177217567300211 ], [ -89.450469604727715, 37.177332171335571 ], [ -89.450864324613462, 37.177844632471817 ], [ -89.451120380741614, 37.17793913761092 ], [ -89.45133557228003, 37.178163133492411 ], [ -89.45175175376373, 37.178178531001741 ], [ -89.452089500320639, 37.17842947380597 ], [ -89.452176829602223, 37.178599698465604 ], [ -89.452418455650133, 37.178610816625678 ], [ -89.452601711763307, 37.178706344813016 ], [ -89.452721012649207, 37.178929423872148 ], [ -89.452608748972466, 37.179190003713778 ], [ -89.452342990835533, 37.17930686915637 ], [ -89.45208409405231, 37.179278599832941 ], [ -89.451826092585364, 37.178998933302253 ], [ -89.451504274508537, 37.178958374042061 ], [ -89.451129970958817, 37.178661394363985 ], [ -89.450713787132571, 37.178645994534499 ], [ -89.450048193357404, 37.178146674670032 ], [ -89.449822151638273, 37.178061194803917 ], [ -89.449309359689778, 37.177517857700423 ], [ -89.449243090565403, 37.177314203768503 ], [ -89.449041473724634, 37.177214397740372 ], [ -89.448921759263314, 37.176961872391317 ], [ -89.448654911820114, 37.17677707081473 ], [ -89.448613577196198, 37.176570625982521 ], [ -89.448694922867489, 37.176408174902022 ] ] ] ] } },
{ "type": "Feature", "properties": { "depth_bin": 21, "survey_id": "UM_SL_DIC_20260825_BD_3", "date": "2026-08-25 00:00:00+00:00", "year": 2026, "mile": 40.0, "bin_order": -21 }, "geometry": { "type": "MultiPolygon", "coordinates": [ [ [ [ -89.449693295517761, 37.176524498073903 ], [ -89.450133235726753, 37.176865282747471 ], [ -89.450398633319097, 37.177213885204857 ], [ -89.450861042963041, 37.177359597194844 ], [ -89.451168301486533, 37.177198102413669 ], [ -89.451503387546779, 37.177261960731656 ], [ -89.451683899645531, 37.177496710785974 ], [ -89.451627430350527, 37.177736178755517 ], [ -89.451993584431506, 37.177767160065358 ], [ -89.452188673643363, 37.177952923587597 ], [ -89.452202262869534, 37.178167859866477 ], [ -89.452444501112836, 37.178159868661481 ], [ -89.452670167888357, 37.178265261298677 ], [ -89.452789982668222, 37.178523678977612 ], [ -89.452665268616073, 37.178758696917825 ], [ -89.452869368206848, 37.179038342360741 ], [ -89.45272623928615, 37.179324201538172 ], [ -89.45240328003247, 37.179420072640788 ], [ -89.452090191607169, 37.179305133908777 ], [ -89.451984852504111, 37.179151761945604 ], [ -89.451987377647455, 37.178962811256447 ], [ -89.451727136617905, 37.178934768441891 ], [ -89.451510230178542, 37.178765199450908 ], [ -89.451465069369448, 37.178593964005358 ], [ -89.451538007327542, 37.178388250165142 ], [ -89.451414371790449, 37.178546577641981 ], [ -89.451222695612131, 37.178630864428861 ], [ -89.450809923336934, 37.178552201065983 ], [ -89.450676076427683, 37.178381928116501 ], [ -89.450421999045233, 37.178270709218033 ], [ -89.450309383258855, 37.178089725194148 ], [ -89.449912817992811, 37.177932609843296 ], [ -89.449613082767769, 37.177573020599176 ], [ -89.449260508669866, 37.177458441954926 ], [ -89.448820222137073, 37.176837898959825 ], [ -89.448541641384153, 37.176676391998257 ], [ -89.448475218139592, 37.176474183154085 ], [ -89.448618868829115, 37.176223668197416 ], [ -89.448941818064412, 37.176127806931468 ], [ -89.449503166925538, 37.176314614556532 ], [ -89.449693295517761, 37.176524498073903 ] ] ], [ [ [ -89.445424118295321, 37.169692009989184 ], [ -89.445658357070798, 37.16989408033902 ], [ -89.445682310108666, 37.170068033734331 ], [ -89.445578519542423, 37.170252894824607 ], [ -89.445796797568889, 37.170429849136994 ], [ -89.445968229789713, 37.170873698924154 ], [ -89.445883065747822, 37.171071356791103 ], [ -89.445664823108046, 37.171200421005473 ], [ -89.445533816368979, 37.171402045478274 ], [ -89.445713720532041, 37.171791244570215 ], [ -89.445558280702784, 37.172085365339974 ], [ -89.445796024271019, 37.172261635779527 ], [ -89.445829235830317, 37.172502820571125 ], [ -89.445663705680701, 37.1727061190199 ], [ -89.44537458050894, 37.172779237278625 ], [ -89.445127579184273, 37.172711083434201 ], [ -89.444444777733125, 37.172255524200438 ], [ -89.444059664208808, 37.171443232042996 ], [ -89.443712940683127, 37.171433758011396 ], [ -89.443478702986638, 37.171231683871468 ], [ -89.443511994921053, 37.170924892673689 ], [ -89.443829463989928, 37.170750860159124 ], [ -89.444198973704957, 37.170836840278085 ], [ -89.444347592804036, 37.171145243925309 ], [ -89.444566999016402, 37.171055023051345 ], [ -89.444282398004418, 37.170889488446328 ], [ -89.444191032000347, 37.170658121936327 ], [ -89.444303819519078, 37.170432889205728 ], [ -89.444624016423504, 37.170262774434377 ], [ -89.44464722344145, 37.170057883747141 ], [ -89.444218666372308, 37.169811858022292 ], [ -89.443969766891087, 37.169821525209109 ], [ -89.443775723707233, 37.169740817142774 ], [ -89.443629712548244, 37.169528159896622 ], [ -89.443666445126112, 37.16923964194325 ], [ -89.443319848786075, 37.169097672394408 ], [ -89.443020822057278, 37.168577473640418 ], [ -89.442739348099778, 37.168574785855007 ], [ -89.442502764662905, 37.168423029671722 ], [ -89.442344006480681, 37.167970408211026 ], [ -89.442420179387057, 37.16761300655439 ], [ -89.442287415609542, 37.167379354809022 ], [ -89.442430556654898, 37.167093508684751 ], [ -89.442753472453546, 37.166997662579512 ], [ -89.443066495306141, 37.167112622833542 ], [ -89.443304698469035, 37.167538483987286 ], [ -89.443282186026636, 37.167772793143747 ], [ -89.443395691423433, 37.168077264853039 ], [ -89.443792250620533, 37.16821790643084 ], [ -89.444127537101849, 37.168870804958367 ], [ -89.444379680793716, 37.168938912514172 ], [ -89.4447578957991, 37.169275905145881 ], [ -89.445252073221781, 37.169514983094395 ], [ -89.445424118295321, 37.169692009989184 ] ] ] ] } },
{ "type": "Feature", "properties": { "depth_bin": 22, "survey_id": "UM_SL_DIC_20260825_BD_3", "date": "2026-08-25 00:00:00+00:00", "year": 2026, "mile": 40.0, "bin_order": -22 }, "geometry": { "type": "MultiPolygon", "coordinates": [ [ [ [ -89.446134765704599, 37.172250721189265 ], [ -89.446330373633089, 37.172389325663133 ], [ -89.446396788354747, 37.172591535338903 ], [ -89.446311623108045, 37.172789193425743 ], [ -89.446103582959253, 37.172915676831174 ], [ -89.445730653375065, 37.173007195141921 ], [ -89.445324348672784, 37.172986358063206 ], [ -89.445130296025809, 37.172905651755826 ], [ -89.444820802647513, 37.172617416885771 ], [ -89.444813121804245, 37.172168317825069 ], [ -89.444636389065366, 37.171935961445961 ], [ -89.444683737584896, 37.171710324500744 ], [ -89.44450115589963, 37.171555005390871 ], [ -89.444459834412868, 37.171348559699886 ], [ -89.444633478646281, 37.171110523633615 ], [ -89.444975765137201, 37.171041835471229 ], [ -89.445137592242702, 37.170729016563193 ], [ -89.444824816271606, 37.170287025471978 ], [ -89.444840061571142, 37.170008011481194 ], [ -89.444575632362529, 37.169896802126573 ], [ -89.444456878710938, 37.169677424350361 ], [ -89.444003711917958, 37.16953117779056 ], [ -89.443607309426497, 37.169144468447605 ], [ -89.443548183711769, 37.168892242084127 ], [ -89.442652145060279, 37.168354304823673 ], [ -89.442465740142126, 37.167356406472756 ], [ -89.442550907934219, 37.167158751215631 ], [ -89.442718336028207, 37.167046173957807 ], [ -89.443019708995692, 37.167019603467743 ], [ -89.443273736746605, 37.167152069897625 ], [ -89.443536106138694, 37.167575784876632 ], [ -89.443489541268235, 37.167848830196256 ], [ -89.443564297912118, 37.167995204179903 ], [ -89.44399564629343, 37.168347224160343 ], [ -89.444054773239841, 37.168599450374472 ], [ -89.444288921974163, 37.168686157463704 ], [ -89.44453488757128, 37.168953670664614 ], [ -89.444793924924241, 37.169049456687972 ], [ -89.444944264884569, 37.16929353319766 ], [ -89.445235465710653, 37.169406971217072 ], [ -89.445349894915822, 37.169594927756521 ], [ -89.445312227734718, 37.169805663947614 ], [ -89.445788813703814, 37.169966161812845 ], [ -89.445939739950745, 37.17025334430528 ], [ -89.446260396190667, 37.170518756849219 ], [ -89.446264852936466, 37.170826682606595 ], [ -89.445923978036276, 37.171310775060384 ], [ -89.445703369950238, 37.171440437372674 ], [ -89.446040058853342, 37.171841546555449 ], [ -89.446004589450567, 37.172151024912594 ], [ -89.446134765704599, 37.172250721189265 ] ] ], [ [ [ -89.448416745583614, 37.176127652833458 ], [ -89.448710117880452, 37.175983218636595 ], [ -89.449201154310202, 37.176037687448009 ], [ -89.449515694103013, 37.176339983615051 ], [ -89.449987775999048, 37.17654092634811 ], [ -89.450584104344983, 37.17722248929369 ], [ -89.450775119286021, 37.177258542960502 ], [ -89.450986492198936, 37.177085818470431 ], [ -89.45126841409197, 37.177056314821165 ], [ -89.451329406134974, 37.176884304322073 ], [ -89.45152095347801, 37.176742103795817 ], [ -89.451944963608994, 37.176754817010064 ], [ -89.452162482104413, 37.177008857549581 ], [ -89.452082679936879, 37.177276987104989 ], [ -89.45187463565783, 37.177403480449669 ], [ -89.451633317799491, 37.177419082154188 ], [ -89.451419483188687, 37.177716272281501 ], [ -89.450987281883897, 37.17773326880598 ], [ -89.450974821745746, 37.17778014352146 ], [ -89.451319266101322, 37.177816617789887 ], [ -89.451612345009693, 37.177963760566342 ], [ -89.451749800807548, 37.178143828349874 ], [ -89.451897189117588, 37.178176703435007 ], [ -89.451958001096884, 37.177992330587657 ], [ -89.452110843573365, 37.177867150408225 ], [ -89.452534375500846, 37.177846544743524 ], [ -89.45276865786937, 37.178048603085166 ], [ -89.452735397756456, 37.178355398385705 ], [ -89.452461129234678, 37.178522156336051 ], [ -89.452153395374381, 37.178498846429306 ], [ -89.452092583355423, 37.178683219368025 ], [ -89.451901031801015, 37.178825420582726 ], [ -89.451477010117742, 37.178812706609911 ], [ -89.451268082087324, 37.178591246123268 ], [ -89.450794046256632, 37.178397268560154 ], [ -89.450658507748216, 37.178222712588038 ], [ -89.450242591226527, 37.178144843372159 ], [ -89.4501056660784, 37.177966772102955 ], [ -89.450105258593538, 37.177785905925511 ], [ -89.449809685020142, 37.177577386577809 ], [ -89.449482077945547, 37.177462576546873 ], [ -89.448972566624462, 37.176824912138159 ], [ -89.448451377837415, 37.176583733559887 ], [ -89.448332093021847, 37.176360650969556 ], [ -89.448416745583614, 37.176127652833458 ] ] ] ] } },
{ "type": "Feature", "properties": { "depth_bin": 23, "survey_id": "UM_SL_DIC_20260825_BD_3", "date": "2026-08-25 00:00:00+00:00", "year": 2026, "mile": 40.0, "bin_order": -23 }, "geometry": { "type": "MultiPolygon", "coordinates": [ [ [ [ -89.446487439842741, 37.17154267716478 ], [ -89.446611037168452, 37.171687053634948 ], [ -89.446626879186908, 37.171895746395741 ], [ -89.446495164439384, 37.172076311161334 ], [ -89.446302891691573, 37.17216069338653 ], [ -89.446450754256972, 37.172479221932662 ], [ -89.446369408805225, 37.172641671524929 ], [ -89.446174147947687, 37.172763779949577 ], [ -89.446534689195943, 37.172952769729918 ], [ -89.446725964845399, 37.173589321180977 ], [ -89.446966017449569, 37.173696878447657 ], [ -89.447085294568595, 37.173919962068268 ], [ -89.446973020761007, 37.17418053611069 ], [ -89.446663374335685, 37.1743012605952 ], [ -89.44630615485157, 37.17418671736155 ], [ -89.446196294323755, 37.173866942501746 ], [ -89.445956242421232, 37.173759383703342 ], [ -89.445267600741829, 37.173029902918003 ], [ -89.445201188799359, 37.172827692757416 ], [ -89.445275436406902, 37.172643447688522 ], [ -89.444963769009433, 37.172433439923388 ], [ -89.444985724502672, 37.172021459238024 ], [ -89.444805438280667, 37.171908917071441 ], [ -89.444714580384769, 37.171712889419879 ], [ -89.444833012556344, 37.171188435883231 ], [ -89.445104604205696, 37.171005024149451 ], [ -89.445361084620188, 37.170952142997081 ], [ -89.445505026373198, 37.170651246995334 ], [ -89.445798381559428, 37.170506819098463 ], [ -89.446192236074296, 37.170507838073462 ], [ -89.446450101482668, 37.170690560451362 ], [ -89.446538497228644, 37.171091160782026 ], [ -89.446345899908536, 37.171408717920784 ], [ -89.446487439842741, 37.17154267716478 ] ] ], [ [ [ -89.450138371527075, 37.175388984347968 ], [ -89.45034641264732, 37.175262493886933 ], [ -89.450563799435798, 37.175243317253333 ], [ -89.450907515212364, 37.175442387707079 ], [ -89.450886975111899, 37.175787384054615 ], [ -89.451023859281506, 37.17594026754422 ], [ -89.451047825519439, 37.176114220452043 ], [ -89.450799046817551, 37.176389261811451 ], [ -89.450455227081434, 37.17640598504348 ], [ -89.45019733294545, 37.176223270024444 ], [ -89.450217876459845, 37.175878273987486 ], [ -89.450053725176303, 37.175621984060214 ], [ -89.450138371527075, 37.175388984347968 ] ] ], [ [ [ -89.4482170617637, 37.175898250212363 ], [ -89.448578442469355, 37.175720333878708 ], [ -89.449028151359329, 37.175862752731469 ], [ -89.449211535877154, 37.176118438082788 ], [ -89.44948887849182, 37.176143596446579 ], [ -89.449684502494364, 37.17628219614204 ], [ -89.449750928898496, 37.176484404471765 ], [ -89.449665767004888, 37.176682065098753 ], [ -89.449372393520875, 37.176826501607515 ], [ -89.449037311648979, 37.176762637439097 ], [ -89.448853926358268, 37.176506951789236 ], [ -89.44857658275447, 37.176481791878402 ], [ -89.448247389915366, 37.17629766313943 ], [ -89.448156518548288, 37.176101637510349 ], [ -89.4482170617637, 37.175898250212363 ] ] ], [ [ [ -89.449608271110179, 37.176797621978416 ], [ -89.449840426297811, 37.176641521672579 ], [ -89.450184639821018, 37.176651847329715 ], [ -89.45079228122367, 37.177205892672532 ], [ -89.45148093745712, 37.177439367903652 ], [ -89.451588817411306, 37.177767735201968 ], [ -89.451330936017854, 37.178013930565086 ], [ -89.45160017290614, 37.178019704224582 ], [ -89.451836804495287, 37.178171444518263 ], [ -89.451899420541764, 37.178408860793567 ], [ -89.451759593191809, 37.178624171201434 ], [ -89.451436635988244, 37.178720039763959 ], [ -89.451123552049111, 37.178605098688088 ], [ -89.45101567325051, 37.178276731045727 ], [ -89.451273556578656, 37.178030536479447 ], [ -89.450809648174229, 37.178056105915701 ], [ -89.450474992302489, 37.177791908142837 ], [ -89.450128320828313, 37.177703927382431 ], [ -89.449592373588999, 37.177136907417747 ], [ -89.449608271110179, 37.176797621978416 ] ] ], [ [ [ -89.442592801059092, 37.167014165526744 ], [ -89.442886146551302, 37.166869744338776 ], [ -89.443184179871935, 37.166914329885799 ], [ -89.443654640124464, 37.167462837440581 ], [ -89.443721044328484, 37.167665048156074 ], [ -89.443620513642273, 37.167930640392512 ], [ -89.443711322311415, 37.168161361194151 ], [ -89.443620279353411, 37.168364885003953 ], [ -89.443986996398522, 37.168423414493525 ], [ -89.444297890662185, 37.168793061975073 ], [ -89.44426254659966, 37.169000217114515 ], [ -89.444089345101403, 37.169156745975904 ], [ -89.443792669562299, 37.169206831075932 ], [ -89.443555218528132, 37.169119629095093 ], [ -89.443287900497452, 37.168806662651399 ], [ -89.44336448355871, 37.168498092371209 ], [ -89.442997766795557, 37.168439560957317 ], [ -89.442688760653795, 37.168101401877614 ], [ -89.442636390999041, 37.167823473215243 ], [ -89.442459649974026, 37.16771206084595 ], [ -89.442368802448996, 37.16751603186021 ], [ -89.442592801059092, 37.167014165526744 ] ] ] ] } },
{ "type": "Feature", "properties": { "depth_bin": 24, "survey_id": "UM_SL_DIC_20260825_BD_3", "date": "2026-08-25 00:00:00+00:00", "year": 2026, "mile": 40.0, "bin_order": -24 }, "geometry": { "type": "MultiPolygon", "coordinates": [ [ [ [ -89.447132807601193, 37.171874199651974 ], [ -89.447327870219908, 37.172059969930508 ], [ -89.447314958447933, 37.172335403953554 ], [ -89.447062446588134, 37.172522858744713 ], [ -89.446721524563969, 37.172513574050974 ], [ -89.446976331377257, 37.173142413071993 ], [ -89.446934853208589, 37.173359020772452 ], [ -89.447132534999227, 37.173559872937851 ], [ -89.447145187129436, 37.173777349362354 ], [ -89.447373586518367, 37.173926465020813 ], [ -89.447540389929614, 37.174486823554894 ], [ -89.447755554504738, 37.174631694079245 ], [ -89.447821580592446, 37.174837535451239 ], [ -89.448086176840064, 37.174995792255523 ], [ -89.448148864326797, 37.175232424521532 ], [ -89.448408960214536, 37.175321189461506 ], [ -89.448643910204396, 37.175561470778369 ], [ -89.449184068923785, 37.175717325106639 ], [ -89.449593557863764, 37.176065667943938 ], [ -89.449890870678772, 37.176446400547903 ], [ -89.450198949562079, 37.176586081381366 ], [ -89.450278409403481, 37.176887392877333 ], [ -89.450037737941472, 37.17712769259213 ], [ -89.449613726604426, 37.177114972444734 ], [ -89.449411375290367, 37.176910797993429 ], [ -89.449131709812164, 37.176798172036101 ], [ -89.449015515331823, 37.17659754181544 ], [ -89.448660998660898, 37.176308954743583 ], [ -89.448390403884858, 37.176324987558665 ], [ -89.448164749300147, 37.17621958733568 ], [ -89.447727307648947, 37.175779521969829 ], [ -89.447664621184757, 37.175542889543081 ], [ -89.44734452423863, 37.175402367138048 ], [ -89.447253538375378, 37.175167370110188 ], [ -89.447013904023677, 37.175038267001092 ], [ -89.446922550650285, 37.174808637388729 ], [ -89.446613986243293, 37.174580581522015 ], [ -89.446359960469152, 37.17415691514617 ], [ -89.446135511826583, 37.174031342461134 ], [ -89.446035948964649, 37.173725597589915 ], [ -89.445829335827185, 37.173643014099106 ], [ -89.44570573716976, 37.173498636761174 ], [ -89.44572069423495, 37.173220063939631 ], [ -89.445431945423095, 37.172918972872289 ], [ -89.44541610672816, 37.172710280141452 ], [ -89.445551334397024, 37.17252735726202 ], [ -89.445351537429516, 37.172064080559522 ], [ -89.445427989278571, 37.171800091312825 ], [ -89.445060400474844, 37.171613126287319 ], [ -89.445018254237127, 37.171307032687743 ], [ -89.445207886345841, 37.171117697598703 ], [ -89.445876766872459, 37.170906888426572 ], [ -89.446057398305697, 37.170778095376953 ], [ -89.446401192306311, 37.170761383639565 ], [ -89.446659059070001, 37.170944105626802 ], [ -89.446660836387863, 37.171256159534273 ], [ -89.446805241906588, 37.171544985145005 ], [ -89.447132807601193, 37.171874199651974 ] ] ], [ [ [ -89.451204944834871, 37.176107822872147 ], [ -89.451419930568548, 37.1761399664422 ], [ -89.451615558358824, 37.176278563125827 ], [ -89.451681990008183, 37.176480770639373 ], [ -89.451596833049322, 37.176678432920987 ], [ -89.451303462874776, 37.176822874415627 ], [ -89.450826338598773, 37.176867437289182 ], [ -89.450579318394972, 37.17679929392245 ], [ -89.450398811346915, 37.176564542424401 ], [ -89.450478618430495, 37.176296414251702 ], [ -89.450686661648717, 37.176169923307953 ], [ -89.451204944834871, 37.176107822872147 ] ] ], [ [ [ -89.450638879641119, 37.177367835038552 ], [ -89.450932253146789, 37.177223395380466 ], [ -89.451267339063605, 37.177287254362831 ], [ -89.45144785045477, 37.177522004741796 ], [ -89.451368045105582, 37.177790133635682 ], [ -89.451074670058489, 37.177934574293012 ], [ -89.450739581527174, 37.177870714629073 ], [ -89.450559071677432, 37.177635963250886 ], [ -89.450638879641119, 37.177367835038552 ] ] ], [ [ [ -89.45162448058818, 37.177898030930287 ], [ -89.451825556312301, 37.177829182322625 ], [ -89.452084448038576, 37.177857451954374 ], [ -89.452583060903649, 37.178249806185178 ], [ -89.452587541284075, 37.178557732744622 ], [ -89.452227286769272, 37.178825066074829 ], [ -89.451883455900614, 37.17884179289512 ], [ -89.45140883797346, 37.178686397123307 ], [ -89.451231124399072, 37.178533123755415 ], [ -89.451226649535116, 37.178225197431388 ], [ -89.45162448058818, 37.177898030930287 ] ] ], [ [ [ -89.443024725451522, 37.167554516502911 ], [ -89.44336196726951, 37.167406224189975 ], [ -89.443747558240077, 37.16754783248345 ], [ -89.443834327708373, 37.168019482542775 ], [ -89.444216158548514, 37.168477061877738 ], [ -89.444195225600623, 37.168708221602834 ], [ -89.44451032390333, 37.16874992460361 ], [ -89.444854244504285, 37.169039742389643 ], [ -89.444870081702007, 37.16924843517922 ], [ -89.444704556915511, 37.169451732612501 ], [ -89.444459602481928, 37.169524440501775 ], [ -89.444205454073298, 37.169475987227834 ], [ -89.443878904571335, 37.169218659864782 ], [ -89.443869161529662, 37.168921309679561 ], [ -89.443634240104629, 37.168909049496115 ], [ -89.44342261100131, 37.168786451061216 ], [ -89.442845455351744, 37.168092146425771 ], [ -89.442842930070199, 37.167917152051992 ], [ -89.443024725451522, 37.167554516502911 ] ] ] ] } },
{ "type": "Feature", "properties": { "depth_bin": 25, "survey_id": "UM_SL_DIC_20260825_BD_3", "date": "2026-08-25 00:00:00+00:00", "year": 2026, "mile": 40.0, "bin_order": -25 }, "geometry": { "type": "MultiPolygon", "coordinates": [ [ [ [ -89.447659201833346, 37.172020712281068 ], [ -89.448081760714302, 37.172348570836633 ], [ -89.448173140474438, 37.172579935013665 ], [ -89.44795925061284, 37.172873159171296 ], [ -89.447604388244358, 37.172913326708198 ], [ -89.44726186816014, 37.173068269991674 ], [ -89.447435816553067, 37.173619082901645 ], [ -89.447234641479923, 37.173905331762491 ], [ -89.447524753607127, 37.174106627488115 ], [ -89.447534528235678, 37.174403941606776 ], [ -89.447943862323825, 37.174631074062574 ], [ -89.448312693095474, 37.175048955457633 ], [ -89.448561057505245, 37.175136905304669 ], [ -89.448702845327517, 37.175333450635257 ], [ -89.448899912579975, 37.17539765278989 ], [ -89.449585592437884, 37.175878123618709 ], [ -89.450187583299936, 37.176561708656244 ], [ -89.450518938660977, 37.176703004827267 ], [ -89.450726992860623, 37.177081282777479 ], [ -89.451036258572302, 37.176994617829443 ], [ -89.45134933589695, 37.177109558807466 ], [ -89.451465326983779, 37.177403186339369 ], [ -89.45121654510902, 37.177678228387208 ], [ -89.450691941923282, 37.177815700142581 ], [ -89.450400755099636, 37.17774796699269 ], [ -89.450260051542571, 37.177613984030039 ], [ -89.450217873856772, 37.177415270463328 ], [ -89.449948334022636, 37.177303349572988 ], [ -89.44973427487696, 37.177035091995059 ], [ -89.449431332969382, 37.176920850482659 ], [ -89.448874552992365, 37.176314336847874 ], [ -89.448618751973996, 37.176172451456054 ], [ -89.447908143439875, 37.176045381034221 ], [ -89.447784537090484, 37.175901005505416 ], [ -89.447766059363303, 37.175703584657434 ], [ -89.447517276803239, 37.1755867610471 ], [ -89.447404783754166, 37.175406199893708 ], [ -89.447083439296023, 37.175164509127292 ], [ -89.446733973250474, 37.174727740857236 ], [ -89.44668236812926, 37.174346199630641 ], [ -89.446378298649236, 37.174124280150892 ], [ -89.446304856237688, 37.173656363637413 ], [ -89.446015532919262, 37.173588603608259 ], [ -89.445844164202683, 37.173388425936643 ], [ -89.445853962871865, 37.173179495716205 ], [ -89.44600551764961, 37.173011239515823 ], [ -89.44558943807364, 37.172289809855293 ], [ -89.445524545278104, 37.171967264476244 ], [ -89.445734621652392, 37.171709253568771 ], [ -89.446096125391676, 37.17167063781698 ], [ -89.445990247321291, 37.171598913269754 ], [ -89.445718987551558, 37.171689306845174 ], [ -89.445427829298012, 37.17162156285157 ], [ -89.445256466233843, 37.171421384588093 ], [ -89.445282692944915, 37.171179649351316 ], [ -89.445577313944369, 37.170981548654588 ], [ -89.445795989972751, 37.170979522916276 ], [ -89.446020359430833, 37.171083936493545 ], [ -89.446265935806622, 37.170907158823034 ], [ -89.446610121980939, 37.170917493509911 ], [ -89.446826995654476, 37.171087069927133 ], [ -89.446954829540573, 37.171460805679224 ], [ -89.447221782024499, 37.171809556627387 ], [ -89.447659201833346, 37.172020712281068 ] ] ], [ [ [ -89.451847551016854, 37.177978300171937 ], [ -89.452105550943557, 37.177945217686535 ], [ -89.452308574770441, 37.178010303690492 ], [ -89.45249444571354, 37.178315519617037 ], [ -89.452350802934404, 37.178566039674102 ], [ -89.451833151800116, 37.178766888291548 ], [ -89.451520066985211, 37.178651948225173 ], [ -89.451400256479033, 37.178393529479024 ], [ -89.451513036508956, 37.178168289589429 ], [ -89.451847551016854, 37.177978300171937 ] ] ], [ [ [ -89.443169955857442, 37.167796569217131 ], [ -89.443507198541724, 37.167648276536283 ], [ -89.443892791018456, 37.167789884430029 ], [ -89.444099443196762, 37.168073644624933 ], [ -89.44416116826261, 37.1684162946123 ], [ -89.444601322588383, 37.168834982488356 ], [ -89.444591522011379, 37.169043912577564 ], [ -89.444438326897568, 37.169213274073748 ], [ -89.444019403269564, 37.169266971952752 ], [ -89.443592792944415, 37.168952153323382 ], [ -89.443501467268248, 37.168720451718634 ], [ -89.443049894958676, 37.168232557354983 ], [ -89.443169955857442, 37.167796569217131 ] ] ] ] } },
{ "type": "Feature", "properties": { "depth_bin": 26, "survey_id": "UM_SL_DIC_20260825_BD_3", "date": "2026-08-25 00:00:00+00:00", "year": 2026, "mile": 40.0, "bin_order": -26 }, "geometry": { "type": "MultiPolygon", "coordinates": [ [ [ [ -89.448227197389443, 37.172505585179685 ], [ -89.4484222643419, 37.172691353861453 ], [ -89.448409356247353, 37.172966788182613 ], [ -89.448236153083357, 37.173123323009101 ], [ -89.447566196621807, 37.173358402948239 ], [ -89.447608769040912, 37.173566656238791 ], [ -89.44752094441418, 37.173735576850454 ], [ -89.447737042845944, 37.174053337622688 ], [ -89.447705355739203, 37.174303490717342 ], [ -89.447965185092883, 37.174633401490006 ], [ -89.448220696987548, 37.174789544663071 ], [ -89.448451534004434, 37.175244784245187 ], [ -89.449031047724631, 37.175408580305586 ], [ -89.449454691644419, 37.175691721434291 ], [ -89.449459159983633, 37.175999647547997 ], [ -89.449121313535741, 37.176205053851845 ], [ -89.448862429047168, 37.17617677807641 ], [ -89.448261044238023, 37.175914460934315 ], [ -89.448039710221138, 37.17563259192702 ], [ -89.447704980166804, 37.175543552701342 ], [ -89.447409379436024, 37.17508814568091 ], [ -89.447207240722022, 37.174988213572078 ], [ -89.446863064815105, 37.174589653241078 ], [ -89.446850881956976, 37.17429715380608 ], [ -89.446683486090265, 37.174170285051083 ], [ -89.446458156422494, 37.173786246233441 ], [ -89.446493497833487, 37.173579090375661 ], [ -89.446689880331732, 37.173412367941914 ], [ -89.446460369087035, 37.173306386559041 ], [ -89.446341094680591, 37.17308330243587 ], [ -89.446388553112413, 37.172597142185865 ], [ -89.446525324630073, 37.172460583634425 ], [ -89.44675944999797, 37.172383564873378 ], [ -89.44649991202057, 37.172226479803648 ], [ -89.446470865847772, 37.171894212852202 ], [ -89.446162746745046, 37.171671348784784 ], [ -89.446220136892222, 37.1713349459434 ], [ -89.44651349361483, 37.171190516352475 ], [ -89.446848548490749, 37.171254386324534 ], [ -89.447006606888991, 37.171420864426103 ], [ -89.447022170939135, 37.171630325319612 ], [ -89.447289361474603, 37.171677623590085 ], [ -89.44765350964731, 37.171915039257428 ], [ -89.447719927651335, 37.172117248365744 ], [ -89.447651627601132, 37.172294198296278 ], [ -89.448227197389443, 37.172505585179685 ] ] ], [ [ [ -89.449682179387025, 37.174954757620711 ], [ -89.449956439938688, 37.174788005682174 ], [ -89.450297723018608, 37.174825278181032 ], [ -89.450506111652729, 37.175044741727795 ], [ -89.450459533897103, 37.175317838340156 ], [ -89.450185272343717, 37.175484591391587 ], [ -89.449843986399202, 37.175447318419167 ], [ -89.449635598766818, 37.175227853759516 ], [ -89.449682179387025, 37.174954757620711 ] ] ], [ [ [ -89.450157977824659, 37.175749301380847 ], [ -89.450432240439753, 37.175582548451978 ], [ -89.450773527416686, 37.175619819772166 ], [ -89.450981919498659, 37.175839282642386 ], [ -89.450935342722062, 37.176112379476635 ], [ -89.450661079105259, 37.176279133518456 ], [ -89.450319789263617, 37.176241861724719 ], [ -89.450111398183353, 37.176022397741576 ], [ -89.450157977824659, 37.175749301380847 ] ] ], [ [ [ -89.449649648042467, 37.176584260227479 ], [ -89.449857693357671, 37.176457770861298 ], [ -89.450118498140284, 37.176445086872 ], [ -89.450372569845257, 37.176577540176112 ], [ -89.450463828359418, 37.176799783746482 ], [ -89.450745573129026, 37.176913554326795 ], [ -89.451000408986573, 37.176859228485313 ], [ -89.451281894346891, 37.176949471926747 ], [ -89.451429476485899, 37.177267797082813 ], [ -89.451197729170119, 37.177664732728161 ], [ -89.450799908673559, 37.177782823657935 ], [ -89.450241642707979, 37.177588343333312 ], [ -89.449964895387552, 37.177153030995065 ], [ -89.449609641459162, 37.17695315669247 ], [ -89.449568304146794, 37.176746712058168 ], [ -89.449649648042467, 37.176584260227479 ] ] ], [ [ [ -89.451402513850383, 37.178067532723823 ], [ -89.451695888874113, 37.177923091249667 ], [ -89.452030978661455, 37.177986948256255 ], [ -89.452211494008395, 37.178221697657094 ], [ -89.452131690383013, 37.17848982714353 ], [ -89.451838313817902, 37.178634269617 ], [ -89.451503221415933, 37.178570411928881 ], [ -89.451322707610373, 37.178335661528749 ], [ -89.451402513850383, 37.178067532723823 ] ] ], [ [ [ -89.443532759607606, 37.168248909267291 ], [ -89.443870003753105, 37.168100615628774 ], [ -89.444227190982957, 37.168215164625742 ], [ -89.444564986738385, 37.168719940296072 ], [ -89.444426686458854, 37.169040917556721 ], [ -89.44410376347885, 37.169136767860984 ], [ -89.443790730708656, 37.169021809865342 ], [ -89.443462054372119, 37.168551612081593 ], [ -89.443532759607606, 37.168248909267291 ] ] ] ] } },
{ "type": "Feature", "properties": { "depth_bin": 27, "survey_id": "UM_SL_DIC_20260825_BD_3", "date": "2026-08-25 00:00:00+00:00", "year": 2026, "mile": 40.0, "bin_order": -27 }, "geometry": { "type": "MultiPolygon", "coordinates": [ [ [ [ -89.448118151316052, 37.172581876758613 ], [ -89.448459617266678, 37.172723881350898 ], [ -89.448526738433799, 37.173059129612653 ], [ -89.448337108932449, 37.173248470155279 ], [ -89.447669354606887, 37.173481237935185 ], [ -89.447668465097252, 37.173727813965137 ], [ -89.448124892040838, 37.174038268769259 ], [ -89.448170043310739, 37.174209505061249 ], [ -89.448094945158601, 37.174485971892217 ], [ -89.448299978368169, 37.174606440719231 ], [ -89.44854525601275, 37.174982874583058 ], [ -89.449019858779906, 37.175284768056493 ], [ -89.449086282719705, 37.175486976648926 ], [ -89.449008639456608, 37.175675401960362 ], [ -89.449257564310571, 37.175623908993096 ], [ -89.449504579349338, 37.175692054870701 ], [ -89.450066351192291, 37.176302646876074 ], [ -89.450327517257747, 37.176460098901174 ], [ -89.450369686291168, 37.176766191662786 ], [ -89.45010073925026, 37.176986458259876 ], [ -89.449680328593985, 37.176940543840857 ], [ -89.449505077518637, 37.176725712651766 ], [ -89.449059125188384, 37.176424090906849 ], [ -89.448805438587954, 37.176075333233477 ], [ -89.448868613179329, 37.175781861606715 ], [ -89.448354586305598, 37.175834899967853 ], [ -89.448085519331769, 37.175723007490483 ], [ -89.447668090886197, 37.1751407537162 ], [ -89.447438681624149, 37.175034790146249 ], [ -89.447242013648307, 37.174735878689738 ], [ -89.446927903192872, 37.174473609327293 ], [ -89.446863367457865, 37.174254054028076 ], [ -89.446657493216307, 37.174188760343412 ], [ -89.446499430340822, 37.174022281576143 ], [ -89.446495918611134, 37.173779653114188 ], [ -89.446661397775685, 37.173603558285066 ], [ -89.446586975858139, 37.173426738235428 ], [ -89.44665984146323, 37.17320821941464 ], [ -89.446605008485378, 37.17287162324925 ], [ -89.446828723735521, 37.172576657505864 ], [ -89.447182523219638, 37.172455522591846 ], [ -89.44748745501461, 37.172564123150785 ], [ -89.447773845214556, 37.172492497603557 ], [ -89.448118151316052, 37.172581876758613 ] ] ], [ [ [ -89.449907570889863, 37.175100041462791 ], [ -89.450115611529171, 37.174973551381655 ], [ -89.450376411180343, 37.174960866551629 ], [ -89.450818225685282, 37.175274285032579 ], [ -89.450872724777511, 37.175546441462245 ], [ -89.450727554169006, 37.175854182818853 ], [ -89.450574713886624, 37.175979361336736 ], [ -89.450234599933466, 37.176022970008404 ], [ -89.449955568255049, 37.175861361567243 ], [ -89.449822924237665, 37.175333040998737 ], [ -89.449907570889863, 37.175100041462791 ] ] ], [ [ [ -89.443438363395416, 37.168111015988416 ], [ -89.443755820289255, 37.167936982996601 ], [ -89.444156901808753, 37.168047661884017 ], [ -89.444415587980771, 37.16853289243199 ], [ -89.444277287488546, 37.168853869510798 ], [ -89.443954365169901, 37.168949719441201 ], [ -89.443641333409104, 37.168834761099312 ], [ -89.443391766676356, 37.168384108964794 ], [ -89.443438363395416, 37.168111015988416 ] ] ], [ [ [ -89.444265880337142, 37.168984496882565 ], [ -89.444559230918188, 37.168840071813939 ], [ -89.444894273452263, 37.168903946715815 ], [ -89.445074746414576, 37.169138705019058 ], [ -89.444994930101473, 37.169406829199708 ], [ -89.444701577978975, 37.169551255267059 ], [ -89.44436653283185, 37.169487379683396 ], [ -89.444186061411017, 37.169252620381435 ], [ -89.444265880337142, 37.168984496882565 ] ] ], [ [ [ -89.446311911032225, 37.171257101081359 ], [ -89.44662937573321, 37.171083060791453 ], [ -89.447030478542587, 37.171193730971908 ], [ -89.447383427815424, 37.171753866868393 ], [ -89.447245132624943, 37.172074847628359 ], [ -89.446922199329592, 37.172170705102651 ], [ -89.446609149500262, 37.172055753739066 ], [ -89.446265321724226, 37.17153019551376 ], [ -89.446311911032225, 37.171257101081359 ] ] ] ] } },
{ "type": "Feature", "properties": { "depth_bin": 28, "survey_id": "UM_SL_DIC_20260825_BD_3", "date": "2026-08-25 00:00:00+00:00", "year": 2026, "mile": 40.0, "bin_order": -28 }, "geometry": { "type": "MultiPolygon", "coordinates": [ [ [ [ -89.447984473252532, 37.172742509966298 ], [ -89.448407976309554, 37.172721917634242 ], [ -89.448655541923799, 37.172957680812708 ], [ -89.448629324843793, 37.173199417269437 ], [ -89.448312684063438, 37.173528610466661 ], [ -89.447857754959784, 37.173733948374242 ], [ -89.448298927740552, 37.174212347870167 ], [ -89.448322023534914, 37.174481398875123 ], [ -89.448553015589681, 37.174655495210338 ], [ -89.448720154695536, 37.175014681698251 ], [ -89.448717402639303, 37.175204236713569 ], [ -89.448995309458383, 37.175250587865129 ], [ -89.449370348376902, 37.175504267296482 ], [ -89.449374816423813, 37.175812193402784 ], [ -89.449080184757435, 37.176010302971171 ], [ -89.44881908395071, 37.176002468212083 ], [ -89.448504555201723, 37.175853330181539 ], [ -89.448346484884524, 37.175686853528411 ], [ -89.448335928094664, 37.175463600625221 ], [ -89.448058021034285, 37.175417247905003 ], [ -89.447681738977749, 37.17515521275746 ], [ -89.447332586376717, 37.174631248428383 ], [ -89.447351365427821, 37.174346781909989 ], [ -89.447012846784816, 37.173963935899266 ], [ -89.446921615335114, 37.173601456690363 ], [ -89.446647584247387, 37.173357202619954 ], [ -89.446694173850759, 37.173084108091714 ], [ -89.447151200947431, 37.172711845606386 ], [ -89.447491300920106, 37.172668245102898 ], [ -89.447773182350517, 37.172834033161706 ], [ -89.447984473252532, 37.172742509966298 ] ] ], [ [ [ -89.450022676452477, 37.175641055333919 ], [ -89.450275192528636, 37.175453594459178 ], [ -89.450619400824948, 37.175463918573172 ], [ -89.450853670914626, 37.175665980124833 ], [ -89.45084077025686, 37.175941415034778 ], [ -89.450588253757104, 37.176128877093461 ], [ -89.450244042455694, 37.176118552732142 ], [ -89.450009772789628, 37.175916489996553 ], [ -89.450022676452477, 37.175641055333919 ] ] ], [ [ [ -89.449213744173647, 37.176045515774575 ], [ -89.449488009817088, 37.175878765207877 ], [ -89.449829297430682, 37.175916039298272 ], [ -89.450576960390237, 37.176606194267677 ], [ -89.451175707045337, 37.176882673113916 ], [ -89.451291697168628, 37.177176300772032 ], [ -89.451088155327881, 37.177561245909224 ], [ -89.450765202068752, 37.177657112843335 ], [ -89.450452123559927, 37.177542170254846 ], [ -89.450046235889801, 37.177046724105274 ], [ -89.449497592492051, 37.176712405650065 ], [ -89.449219115710875, 37.176415773627227 ], [ -89.449153203444908, 37.176248903712626 ], [ -89.449213744173647, 37.176045515774575 ] ] ] ] } },
{ "type": "Feature", "properties": { "depth_bin": 29, "survey_id": "UM_SL_DIC_20260825_BD_3", "date": "2026-08-25 00:00:00+00:00", "year": 2026, "mile": 40.0, "bin_order": -29 }, "geometry": { "type": "MultiPolygon", "coordinates": [ [ [ [ -89.447918271393846, 37.173053899034187 ], [ -89.448126309169524, 37.172927412298804 ], [ -89.448387101718367, 37.172914731503674 ], [ -89.448612747169932, 37.173020130851583 ], [ -89.448718071673795, 37.173173505146444 ], [ -89.448691854661419, 37.173415241616446 ], [ -89.44834782177756, 37.173762027013524 ], [ -89.448508589453297, 37.174097652259597 ], [ -89.448386636180757, 37.174405249967869 ], [ -89.448518126150532, 37.174680370451675 ], [ -89.448820436784402, 37.174819654479464 ], [ -89.449070434680252, 37.175272418598361 ], [ -89.448990624060897, 37.175540545653796 ], [ -89.448740467969984, 37.175677684257394 ], [ -89.448399182214089, 37.175640407106108 ], [ -89.448071365103758, 37.175397836702849 ], [ -89.44753809798614, 37.174672250820436 ], [ -89.447451303998832, 37.174266229605138 ], [ -89.447243235760055, 37.174183431296477 ], [ -89.447106324358501, 37.174005357199086 ], [ -89.447069385009144, 37.173669708884532 ], [ -89.447154549499885, 37.173472050223879 ], [ -89.447918271393846, 37.173053899034187 ] ] ], [ [ [ -89.449020706381503, 37.175875032427484 ], [ -89.449252859701929, 37.175718933171545 ], [ -89.449556071694616, 37.175716115952582 ], [ -89.449813962540176, 37.175898832212425 ], [ -89.44984013955623, 37.176159416858276 ], [ -89.450109327635019, 37.176172040560125 ], [ -89.450192010031387, 37.175997227955307 ], [ -89.450400052824378, 37.175870737492922 ], [ -89.450660855582754, 37.175858052195672 ], [ -89.450854922179701, 37.175938750093906 ], [ -89.45099184588112, 37.176116820445074 ], [ -89.45098206031868, 37.176325751727859 ], [ -89.450828862761981, 37.1764951213149 ], [ -89.450597835947221, 37.176566610713394 ], [ -89.451112291635923, 37.176871684109933 ], [ -89.45115363324436, 37.177078128423986 ], [ -89.451044671814799, 37.177268159252556 ], [ -89.450864246157579, 37.177367072903522 ], [ -89.450603438176145, 37.177379758377434 ], [ -89.450300266471444, 37.177181823593322 ], [ -89.449983297180509, 37.177091907667496 ], [ -89.449834060727497, 37.176856065898811 ], [ -89.449545484297516, 37.176666212110042 ], [ -89.449519308268208, 37.176405627460781 ], [ -89.449221700369833, 37.176383890676576 ], [ -89.449026077029544, 37.176245290247607 ], [ -89.448960165315796, 37.176078420251443 ], [ -89.449020706381503, 37.175875032427484 ] ] ], [ [ [ -89.443745485703616, 37.168486516690471 ], [ -89.444083309328761, 37.168281124496829 ], [ -89.444452807571224, 37.168367103236129 ], [ -89.444783609182849, 37.16883380453703 ], [ -89.444685289091979, 37.169164084719412 ], [ -89.444375660679569, 37.169284804175604 ], [ -89.444050054065016, 37.169194954643949 ], [ -89.44373256260009, 37.16876194980712 ], [ -89.443745485703616, 37.168486516690471 ] ] ] ] } },
{ "type": "Feature", "properties": { "depth_bin": 30, "survey_id": "UM_SL_DIC_20260825_BD_3", "date": "2026-08-25 00:00:00+00:00", "year": 2026, "mile": 40.0, "bin_order": -30 }, "geometry": { "type": "MultiPolygon", "coordinates": [ [ [ [ -89.448684160613041, 37.174632425412199 ], [ -89.448942168664601, 37.174946355768085 ], [ -89.449043692443098, 37.174788181193534 ], [ -89.449266225312755, 37.174678619192242 ], [ -89.449527321690582, 37.174686452729141 ], [ -89.449738977288575, 37.174809041513413 ], [ -89.449829851574222, 37.175005066093433 ], [ -89.449769313535484, 37.175208454505736 ], [ -89.449537162849097, 37.175364554924194 ], [ -89.449237915761444, 37.1753682941889 ], [ -89.449219365090585, 37.175481664164685 ], [ -89.449549810558381, 37.175571077272004 ], [ -89.449673419938037, 37.175715451108964 ], [ -89.449689983372977, 37.175921090639605 ], [ -89.449913046940111, 37.17593534619926 ], [ -89.450201399948739, 37.176066424420121 ], [ -89.450371301677436, 37.176262838443897 ], [ -89.451002178788073, 37.176682757883775 ], [ -89.451089754113042, 37.176949329190947 ], [ -89.450916114518535, 37.177187374912435 ], [ -89.450582974792454, 37.177257450299791 ], [ -89.450194793489445, 37.177104591813368 ], [ -89.449408014951615, 37.176493677186734 ], [ -89.449327845888945, 37.176195418478322 ], [ -89.448921536356636, 37.176085628688078 ], [ -89.448816207854378, 37.175932254402454 ], [ -89.448820641158136, 37.175738071599518 ], [ -89.448430193749999, 37.175596901132678 ], [ -89.447981246581534, 37.175059787266825 ], [ -89.447945540550037, 37.174829252073565 ], [ -89.447718030814229, 37.174656270847514 ], [ -89.447719056138041, 37.174150925164142 ], [ -89.44743507177391, 37.174103347277374 ], [ -89.447257376738207, 37.173950068820936 ], [ -89.447216046881096, 37.173743623699977 ], [ -89.447325011840178, 37.173553596546114 ], [ -89.448241418660317, 37.173045697553192 ], [ -89.44858269270631, 37.17308297455839 ], [ -89.44879107173638, 37.173302440670959 ], [ -89.448781281110882, 37.173511371553829 ], [ -89.448494325512357, 37.173897405442105 ], [ -89.448796095459954, 37.174291413264967 ], [ -89.448684160613041, 37.174632425412199 ] ] ], [ [ [ -89.449866483613036, 37.175282591011296 ], [ -89.450140745040272, 37.175115838693408 ], [ -89.450482029719367, 37.175153110740318 ], [ -89.450690419739502, 37.175372574027307 ], [ -89.45064384234486, 37.175645670724236 ], [ -89.4503695799159, 37.175812424155033 ], [ -89.450028292372167, 37.175775151634575 ], [ -89.449819903353756, 37.175555687234677 ], [ -89.449866483613036, 37.175282591011296 ] ] ], [ [ [ -89.443885648970891, 37.168616988300563 ], [ -89.444223472859562, 37.168411595720571 ], [ -89.444592971921665, 37.168497574061846 ], [ -89.444917663824313, 37.168934832919966 ], [ -89.444819344142005, 37.169265113233003 ], [ -89.444509715488337, 37.169385833028244 ], [ -89.444184108259805, 37.169295983836037 ], [ -89.443872726315021, 37.168892421453123 ], [ -89.443885648970891, 37.168616988300563 ] ] ] ] } },
{ "type": "Feature", "properties": { "depth_bin": 31, "survey_id": "UM_SL_DIC_20260825_BD_3", "date": "2026-08-25 00:00:00+00:00", "year": 2026, "mile": 40.0, "bin_order": -31 }, "geometry": { "type": "MultiPolygon", "coordinates": [ [ [ [ -89.448901745588884, 37.173409931383034 ], [ -89.448904284034697, 37.173584926237289 ], [ -89.448781758347934, 37.173768405601599 ], [ -89.448896038290982, 37.174218095676707 ], [ -89.448741309571503, 37.174443422684035 ], [ -89.44869927356055, 37.174829998571568 ], [ -89.448470933706261, 37.175036359242903 ], [ -89.448127120177816, 37.17505307600014 ], [ -89.447943878747552, 37.174957541584298 ], [ -89.447829435875789, 37.174769586933742 ], [ -89.447857490309033, 37.174404920254169 ], [ -89.447951705768631, 37.174256257589967 ], [ -89.447740357371558, 37.174010524633367 ], [ -89.447453921511396, 37.173847801692943 ], [ -89.44741176501806, 37.173541708469614 ], [ -89.447601397507469, 37.173352369578275 ], [ -89.44792200971979, 37.173305853150396 ], [ -89.448125080734798, 37.173031399962625 ], [ -89.448390821787683, 37.172914543092986 ], [ -89.448649694957567, 37.172942819322273 ], [ -89.448820348788999, 37.173052264835221 ], [ -89.448901745588884, 37.173409931383034 ] ] ], [ [ [ -89.448551259181201, 37.175346876984563 ], [ -89.448889103022864, 37.175141472166771 ], [ -89.449258640802128, 37.17522743783703 ], [ -89.449557677272239, 37.175575360246057 ], [ -89.449953219923046, 37.175855289567892 ], [ -89.450044129278538, 37.176053619097083 ], [ -89.450292151905444, 37.176082850447116 ], [ -89.450487777339376, 37.176221448882877 ], [ -89.450550387980769, 37.176458865631176 ], [ -89.450441426100085, 37.176648895887233 ], [ -89.450218888725871, 37.176758459857993 ], [ -89.449957785021581, 37.176750627474199 ], [ -89.449746123863918, 37.176628038812424 ], [ -89.449655214740702, 37.176429709074341 ], [ -89.449296532790584, 37.17634278626209 ], [ -89.448576993873047, 37.175685775563792 ], [ -89.448551259181201, 37.175346876984563 ] ] ] ] } },
{ "type": "Feature", "properties": { "depth_bin": 32, "survey_id": "UM_SL_DIC_20260825_BD_3", "date": "2026-08-25 00:00:00+00:00", "year": 2026, "mile": 40.0, "bin_order": -32 }, "geometry": { "type": "MultiPolygon", "coordinates": [ [ [ [ -89.449225307523434, 37.174700844391268 ], [ -89.449235920351896, 37.175166911216287 ], [ -89.44949131202327, 37.175299564381582 ], [ -89.449578880732176, 37.175566136497345 ], [ -89.44940524009435, 37.175804179961972 ], [ -89.449072105509089, 37.175874251349065 ], [ -89.448803037206204, 37.175762360442931 ], [ -89.44868349289527, 37.17552138117744 ], [ -89.44827858319384, 37.175250817029237 ], [ -89.448051090883368, 37.174815529494182 ], [ -89.44801564535085, 37.174498180477947 ], [ -89.44819678133878, 37.174088426380955 ], [ -89.448070449784808, 37.173639760248584 ], [ -89.448280522956836, 37.173381744664653 ], [ -89.44862062558532, 37.173338141039075 ], [ -89.448899645293992, 37.173499752052912 ], [ -89.449188941103088, 37.174039912559437 ], [ -89.449109809816107, 37.174351047622174 ], [ -89.449225307523434, 37.174700844391268 ] ] ], [ [ [ -89.449495620480846, 37.174944380015702 ], [ -89.449748135305754, 37.174756920195883 ], [ -89.450092340244623, 37.174767245676591 ], [ -89.450326606837322, 37.174969308106164 ], [ -89.450313704591522, 37.175244742890918 ], [ -89.450061189342989, 37.17543220389463 ], [ -89.449716981399135, 37.175421878166567 ], [ -89.449482715230076, 37.175219814553117 ], [ -89.449495620480846, 37.174944380015702 ] ] ], [ [ [ -89.449373677972972, 37.175985010955912 ], [ -89.449668308826887, 37.175786900610049 ], [ -89.45004660107584, 37.175843465905906 ], [ -89.45023232041882, 37.176149953437339 ], [ -89.450515244352488, 37.17619585908529 ], [ -89.451168962924513, 37.176600247046579 ], [ -89.451259842776039, 37.176796270784642 ], [ -89.451175197885462, 37.177029271353163 ], [ -89.45083792514437, 37.177177584323367 ], [ -89.450365706330288, 37.177051231582197 ], [ -89.449930026717084, 37.176724752015595 ], [ -89.449838775090797, 37.176492120076176 ], [ -89.449595040611811, 37.176462509385956 ], [ -89.44942437828189, 37.176353064582663 ], [ -89.449333503737833, 37.176157039697351 ], [ -89.449373677972972, 37.175985010955912 ] ] ] ] } },
{ "type": "Feature", "properties": { "depth_bin": 33, "survey_id": "UM_SL_DIC_20260825_BD_3", "date": "2026-08-25 00:00:00+00:00", "year": 2026, "mile": 40.0, "bin_order": -33 }, "geometry": { "type": "MultiPolygon", "coordinates": [ [ [ [ -89.449507966793078, 37.174402300468252 ], [ -89.449799063015945, 37.174676135939677 ], [ -89.449861670583942, 37.174913552923471 ], [ -89.449688032466071, 37.17515159694927 ], [ -89.449337106160996, 37.175257247574343 ], [ -89.449595818500867, 37.175367588810552 ], [ -89.450030754619959, 37.175854709220282 ], [ -89.450313029681666, 37.175991379998408 ], [ -89.450398046572417, 37.176148405862463 ], [ -89.450721403488089, 37.176052203913343 ], [ -89.451062890061195, 37.176194201989816 ], [ -89.451215785351309, 37.176686425510809 ], [ -89.450967005180729, 37.176961467135968 ], [ -89.450709008347388, 37.176994547289659 ], [ -89.450471524512764, 37.176907357603817 ], [ -89.450261184810017, 37.176472924670975 ], [ -89.449981988609167, 37.176568714724404 ], [ -89.449656343451664, 37.176478878741818 ], [ -89.448861311953735, 37.175770257770246 ], [ -89.448819977086941, 37.175563812981139 ], [ -89.448926081779689, 37.175376639253251 ], [ -89.448397958746938, 37.175198762600772 ], [ -89.448220259252494, 37.175045485378689 ], [ -89.448256120528939, 37.174339522742216 ], [ -89.448575203960203, 37.174001219395571 ], [ -89.448827897290613, 37.173948067545162 ], [ -89.449207154081606, 37.174028360471425 ], [ -89.449507966793078, 37.174402300468252 ] ] ], [ [ [ -89.448237091754805, 37.173372171110138 ], [ -89.448489603915007, 37.173184713827496 ], [ -89.44883380125151, 37.173195042593015 ], [ -89.449068059757323, 37.173397107130903 ], [ -89.449055153677222, 37.173672541612426 ], [ -89.448802641093238, 37.173860000078875 ], [ -89.448458440752034, 37.173849671065916 ], [ -89.448224182670003, 37.173647605344222 ], [ -89.448237091754805, 37.173372171110138 ] ] ] ] } },
{ "type": "Feature", "properties": { "depth_bin": 34, "survey_id": "UM_SL_DIC_20260825_BD_3", "date": "2026-08-25 00:00:00+00:00", "year": 2026, "mile": 40.0, "bin_order": -34 }, "geometry": { "type": "Polygon", "coordinates": [ [ [ -89.449367992803673, 37.1744223049092 ], [ -89.449690933385, 37.174326441122318 ], [ -89.45000399766981, 37.174441385023087 ], [ -89.450123284986915, 37.174664466083996 ], [ -89.450023839065054, 37.174912243933655 ], [ -89.450252541257001, 37.175018096383688 ], [ -89.450371830097495, 37.175241177261832 ], [ -89.450228700339025, 37.175527033445881 ], [ -89.449901581021024, 37.175622608618959 ], [ -89.449760269161118, 37.175851608530493 ], [ -89.449481484649951, 37.175947061813105 ], [ -89.449227310916385, 37.175898618085107 ], [ -89.448997014964164, 37.175698947161187 ], [ -89.448727146628329, 37.175651886802832 ], [ -89.448532071849115, 37.175466118261937 ], [ -89.448532432805081, 37.175074911609791 ], [ -89.448818422630879, 37.174841644835723 ], [ -89.448598038026404, 37.174757007467441 ], [ -89.448461122382042, 37.174578934732644 ], [ -89.448494873984316, 37.17432559888676 ], [ -89.448243635692037, 37.173781415653188 ], [ -89.4484205809282, 37.173472826481316 ], [ -89.448753705216504, 37.173402756387226 ], [ -89.449051177233002, 37.173541703881945 ], [ -89.449351176252733, 37.174107128835821 ], [ -89.449367992803673, 37.1744223049092 ] ] ] } },
{ "type": "Feature", "properties": { "depth_bin": 35, "survey_id": "UM_SL_DIC_20260825_BD_3", "date": "2026-08-25 00:00:00+00:00", "year": 2026, "mile": 40.0, "bin_order": -35 }, "geometry": { "type": "Polygon", "coordinates": [ [ [ -89.449758251813677, 37.174238855535286 ], [ -89.450014945229114, 37.174509195854434 ], [ -89.449996038744587, 37.174683547432458 ], [ -89.449827768488746, 37.174916360310263 ], [ -89.449933942720406, 37.17511453847726 ], [ -89.450341123396726, 37.175163795254996 ], [ -89.4506238264415, 37.175499668343136 ], [ -89.450597614070077, 37.17574140543455 ], [ -89.450357909318129, 37.175924480315068 ], [ -89.450560596981319, 37.176167680671803 ], [ -89.450825604500608, 37.17630176814032 ], [ -89.450916996608882, 37.176533130757903 ], [ -89.45080421768445, 37.176758370163682 ], [ -89.450581680444984, 37.17686793482644 ], [ -89.450168918484138, 37.176789269742457 ], [ -89.450037897684496, 37.176626139997481 ], [ -89.449801303828792, 37.176519107545325 ], [ -89.449690030850277, 37.176343200787876 ], [ -89.449428373904439, 37.176232419785194 ], [ -89.44916874067998, 37.175859388826751 ], [ -89.448995687484569, 37.175494242078599 ], [ -89.449048454240355, 37.175069145605995 ], [ -89.44886369872674, 37.174888757267617 ], [ -89.448743035458691, 37.174372962928679 ], [ -89.448384522763206, 37.173947058577241 ], [ -89.448493779846757, 37.173509072897296 ], [ -89.448787141455426, 37.173364637920116 ], [ -89.449122208249136, 37.173428502031193 ], [ -89.449262902504785, 37.173562485913742 ], [ -89.449306257876557, 37.173750304461727 ], [ -89.449522206579815, 37.173873892875115 ], [ -89.449758251813677, 37.174238855535286 ] ] ] } },
{ "type": "Feature", "properties": { "depth_bin": 36, "survey_id": "UM_SL_DIC_20260825_BD_3", "date": "2026-08-25 00:00:00+00:00", "year": 2026, "mile": 40.0, "bin_order": -36 }, "geometry": { "type": "MultiPolygon", "coordinates": [ [ [ [ -89.450260445177946, 37.175323996217458 ], [ -89.450730067331548, 37.17579423724699 ], [ -89.4508720820576, 37.176124990461425 ], [ -89.450609357825783, 37.176597595750572 ], [ -89.45025554308782, 37.17671874012877 ], [ -89.449914055932965, 37.176576739685615 ], [ -89.449770426007561, 37.17620140705921 ], [ -89.449382375437992, 37.176060027728134 ], [ -89.449291501295349, 37.175864002826735 ], [ -89.449367082979109, 37.175642140370527 ], [ -89.448920139483803, 37.17544821348077 ], [ -89.448804160852617, 37.175154584044513 ], [ -89.44891312426401, 37.174964555361186 ], [ -89.449153148879219, 37.174852040279454 ], [ -89.449296409500477, 37.174575033920931 ], [ -89.449832629588471, 37.174447307436843 ], [ -89.450035642005005, 37.174512396784394 ], [ -89.450193713979331, 37.17467887127124 ], [ -89.450119892115026, 37.175119429796155 ], [ -89.450260445177946, 37.175323996217458 ] ] ], [ [ [ -89.448633008091647, 37.173787024501173 ], [ -89.448885520808005, 37.173599566404441 ], [ -89.44922972017433, 37.173609894117824 ], [ -89.449463980994665, 37.173811957981812 ], [ -89.44945107615797, 37.174087392562448 ], [ -89.449198563017887, 37.174274851843002 ], [ -89.448854360646777, 37.174264523882208 ], [ -89.448620100250182, 37.174062458834399 ], [ -89.448633008091647, 37.173787024501173 ] ] ] ] } },
{ "type": "Feature", "properties": { "depth_bin": 37, "survey_id": "UM_SL_DIC_20260825_BD_3", "date": "2026-08-25 00:00:00+00:00", "year": 2026, "mile": 40.0, "bin_order": -37 }, "geometry": { "type": "MultiPolygon", "coordinates": [ [ [ [ -89.449466423554767, 37.17489841644084 ], [ -89.44964006169738, 37.174660372738416 ], [ -89.44997319045298, 37.174590299432793 ], [ -89.450270669447704, 37.174729244196421 ], [ -89.450358240452346, 37.174995815864378 ], [ -89.450184603626965, 37.175233860688571 ], [ -89.449851472137468, 37.175303934446262 ], [ -89.449553991825539, 37.175164988560859 ], [ -89.449466423554767, 37.17489841644084 ] ] ], [ [ [ -89.450189818472097, 37.176501795926093 ], [ -89.450363458515483, 37.176263751286356 ], [ -89.450696593945537, 37.176193676290609 ], [ -89.450994080478651, 37.176332619601268 ], [ -89.45108165546992, 37.176599190904568 ], [ -89.450908016743924, 37.17683723666611 ], [ -89.450574878579843, 37.176907312113997 ], [ -89.450277390729312, 37.176768367681532 ], [ -89.450189818472097, 37.176501795926093 ] ] ] ] } },
{ "type": "Feature", "properties": { "depth_bin": 38, "survey_id": "UM_SL_DIC_20260825_BD_3", "date": "2026-08-25 00:00:00+00:00", "year": 2026, "mile": 40.0, "bin_order": -38 }, "geometry": { "type": "Polygon", "coordinates": [ [ [ -89.44966054102153, 37.176089005853257 ], [ -89.449769503883616, 37.175898976362738 ], [ -89.44994992717929, 37.175800064255014 ], [ -89.450461661455776, 37.175860349464671 ], [ -89.450852933648704, 37.176222316211877 ], [ -89.450857407536375, 37.176530242548829 ], [ -89.450604888991549, 37.176717704527626 ], [ -89.45026067501253, 37.176707380075754 ], [ -89.449748111023467, 37.176355577893673 ], [ -89.44966054102153, 37.176089005853257 ] ] ] } }
]
}
