{
"type": "FeatureCollection",
"name": "LM_08_MVF_20180828_CS_MB_4815_4820_depth",
"crs": { "type": "name", "properties": { "name": "urn:ogc:def:crs:EPSG::26915" } },
"features": [
{ "type": "Feature", "properties": { "depth_bin": "60-65" }, "geometry": { "type": "Polygon", "coordinates": [ [ [ 675269.888684480916709, 3625011.499393811449409 ], [ 675243.724404004518874, 3625038.328799562528729 ], [ 675248.704860368394293, 3625073.68645231006667 ], [ 675288.403499036794528, 3625099.342466457281262 ], [ 675323.761151957791299, 3625094.362010193988681 ], [ 675343.931784878019243, 3625064.413214291445911 ], [ 675338.074275987804867, 3625029.816422445233911 ], [ 675311.971626701415516, 3625009.07613104628399 ], [ 675269.888684480916709, 3625011.499393811449409 ] ] ] } },
{ "type": "Feature", "properties": { "depth_bin": "65-70" }, "geometry": { "type": "Polygon", "coordinates": [ [ [ 675263.833563824184239, 3625009.822290166281164 ], [ 675235.984127744566649, 3625033.862619183026254 ], [ 675232.983364889281802, 3625064.32987574627623 ], [ 675268.779501564800739, 3625103.652004166971892 ], [ 675311.612081951112486, 3625106.52990387333557 ], [ 675299.268035376444459, 3625136.750404745806009 ], [ 675313.915555116254836, 3625169.681893399916589 ], [ 675359.754877617000602, 3625184.59728618292138 ], [ 675405.715579309500754, 3625162.947099036537111 ], [ 675420.708462540060282, 3625125.598831058945507 ], [ 675409.107853602035902, 3625092.744188060518354 ], [ 675380.823582354583777, 3625081.02845930820331 ], [ 675333.901113523985259, 3625089.948419936932623 ], [ 675349.039759794482961, 3625062.168861515820026 ], [ 675338.897940466064028, 3625022.169875842053443 ], [ 675308.278970062383451, 3625003.551963733043522 ], [ 675263.833563824184239, 3625009.822290166281164 ] ] ] } },
{ "type": "Feature", "properties": { "depth_bin": "70-75" }, "geometry": { "type": "Polygon", "coordinates": [ [ [ 675258.729169197496958, 3625008.454390689264983 ], [ 675231.375386510160752, 3625035.270957604516298 ], [ 675228.374623654875904, 3625065.738214167766273 ], [ 675262.173785101156682, 3625109.174474383704364 ], [ 675300.254894421203062, 3625113.295577570796013 ], [ 675288.411968085565604, 3625144.099174771923572 ], [ 675301.536033160984516, 3625176.992189787793905 ], [ 675327.272911145468242, 3625190.262686697300524 ], [ 675357.352109434665181, 3625191.485099234618247 ], [ 675418.01835758856032, 3625158.683714080136269 ], [ 675431.564529946772382, 3625118.250157369766384 ], [ 675418.402090270188637, 3625086.880598216783255 ], [ 675387.983048579306342, 3625073.680530334822834 ], [ 675345.037017361959442, 3625081.722448640037328 ], [ 675353.226014852756634, 3625042.942397799342871 ], [ 675328.510338473366573, 3625006.213302802294493 ], [ 675292.934819779242389, 3624999.544599565677345 ], [ 675258.729169197496958, 3625008.454390689264983 ] ] ] } },
{ "type": "Feature", "properties": { "depth_bin": "75-80" }, "geometry": { "type": "Polygon", "coordinates": [ [ [ 675235.639470751630142, 3624952.601342283189297 ], [ 675222.477780954446644, 3624989.338295715861022 ], [ 675239.851160135585815, 3625018.519757580477744 ], [ 675225.366083894972689, 3625040.915238621179014 ], [ 675224.335540904547088, 3625063.377150916028768 ], [ 675249.841652411036193, 3625108.129324924200773 ], [ 675293.434764408273622, 3625117.446106045972556 ], [ 675282.202920781797729, 3625148.516048523131758 ], [ 675291.16738208848983, 3625178.462149974424392 ], [ 675314.282725848606788, 3625194.803840438369662 ], [ 675347.18348661577329, 3625199.524867406580597 ], [ 675416.556528339977376, 3625164.405149000231177 ], [ 675438.259735075989738, 3625132.339466077741235 ], [ 675428.655524034402333, 3625089.981004088651389 ], [ 675401.083466139971279, 3625071.439832536038011 ], [ 675351.88150108163245, 3625075.996798047795892 ], [ 675357.233379660639912, 3625043.20547251123935 ], [ 675351.063518562354147, 3625021.26431722054258 ], [ 675333.157453286345117, 3625003.281506998930126 ], [ 675307.291822544764727, 3624996.870899111498147 ], [ 675308.256808327627368, 3624970.951170339714736 ], [ 675290.716919917380437, 3624947.741944787558168 ], [ 675260.003056385903619, 3624941.078224463853985 ], [ 675235.639470751630142, 3624952.601342283189297 ] ] ] } },
{ "type": "Feature", "properties": { "depth_bin": "80-85" }, "geometry": { "type": "MultiPolygon", "coordinates": [ [ [ [ 675021.858402727171779, 3622806.852472107391804 ], [ 675014.501207432476804, 3622843.839590564370155 ], [ 675041.167433771537617, 3622870.505816903430969 ], [ 675069.609612716594711, 3622869.22173648327589 ], [ 675090.139044842682779, 3622849.938575719483197 ], [ 675094.738049174076878, 3622871.321476648095995 ], [ 675111.159030274953693, 3622887.742457748856395 ], [ 675133.935585361206904, 3622892.272996242158115 ], [ 675152.678177171968855, 3622885.397718257736415 ], [ 675190.646506185876206, 3622906.187335835769773 ], [ 675212.869315506657586, 3622899.446120327804238 ], [ 675228.924119615112431, 3622877.7987229260616 ], [ 675226.000060827936977, 3622844.284554678015411 ], [ 675200.849493520334363, 3622823.301002871710807 ], [ 675162.004461581469513, 3622828.531449207570404 ], [ 675145.32223704259377, 3622815.510425874497741 ], [ 675126.094214134849608, 3622812.65821810811758 ], [ 675107.792090427246876, 3622819.206822683103383 ], [ 675094.178130327374674, 3622834.793586638290435 ], [ 675087.561059914180078, 3622810.043745861854404 ], [ 675069.609612716594711, 3622795.311373881995678 ], [ 675044.975207981071435, 3622792.996792257763445 ], [ 675021.858402727171779, 3622806.852472107391804 ] ] ], [ [ [ 675221.575412203208543, 3624952.645419283304363 ], [ 675206.971769366646186, 3624972.696821308229119 ], [ 675203.773462639539503, 3624994.097982551902533 ], [ 675210.514678147388622, 3625016.320791872683913 ], [ 675227.014241045573726, 3625030.428466135635972 ], [ 675220.642225013929419, 3625070.11671951552853 ], [ 675243.709454628988169, 3625109.499289854895324 ], [ 675287.996909360517748, 3625120.559177215211093 ], [ 675279.118377110222355, 3625161.500727138482034 ], [ 675292.088204406201839, 3625188.949599709361792 ], [ 675326.88917509408202, 3625205.497255193535239 ], [ 675347.827631918014959, 3625206.489426657091826 ], [ 675431.844594141701236, 3625154.458701770287007 ], [ 675444.967916010064073, 3625127.086574481334537 ], [ 675437.774194601457566, 3625088.998698305804282 ], [ 675405.768957721302286, 3625066.984579760115594 ], [ 675357.650214209221303, 3625070.176347283646464 ], [ 675360.196480624726973, 3625027.138832814991474 ], [ 675344.324432589346543, 3625004.70604350278154 ], [ 675325.950949792051688, 3624996.276179254520684 ], [ 675327.684041433734819, 3624967.602128257509321 ], [ 675313.80510421236977, 3624942.474357013124973 ], [ 675297.132220055093057, 3624932.481014831457287 ], [ 675267.888940529315732, 3624930.60589028801769 ], [ 675221.575412203208543, 3624952.645419283304363 ] ] ] ] } },
{ "type": "Feature", "properties": { "depth_bin": "85-90" }, "geometry": { "type": "MultiPolygon", "coordinates": [ [ [ [ 674897.129894138779491, 3622783.76411121012643 ], [ 674863.052503072074614, 3622791.703721485566348 ], [ 674845.435791891883127, 3622814.836317689623684 ], [ 674846.719872388290241, 3622843.278495042119175 ], [ 674868.367716394132003, 3622864.926339047960937 ], [ 674901.841535273357294, 3622873.001739380415529 ], [ 674965.205128010129556, 3622865.47885479638353 ], [ 674994.772403087234125, 3622875.34119857288897 ], [ 675021.454208326293156, 3622868.232796581927687 ], [ 675043.94588060118258, 3622881.246702375821769 ], [ 675069.940710157039575, 3622884.802795371506363 ], [ 675129.416749886935577, 3622935.050348208751529 ], [ 675178.415296164341271, 3622960.186551809776574 ], [ 675216.875862608896568, 3622953.723479737527668 ], [ 675238.52370661473833, 3622932.075635731685907 ], [ 675241.452619403833523, 3622909.80070094903931 ], [ 675229.07752769428771, 3622848.482125372625887 ], [ 675212.484582445817068, 3622813.188592954073101 ], [ 675194.533135248231702, 3622798.456220974214375 ], [ 675153.976733382442035, 3622795.067088663112372 ], [ 675130.492387045989744, 3622805.793310434091836 ], [ 675085.79855484131258, 3622787.055577675811946 ], [ 675039.03479910211172, 3622786.74946748232469 ], [ 675019.362106581684202, 3622796.964309893548489 ], [ 674991.840550208929926, 3622790.694133181590587 ], [ 674970.089002047199756, 3622796.015476343687624 ], [ 674927.397381826885976, 3622781.543547345791012 ], [ 674897.129894138779491, 3622783.76411121012643 ] ] ], [ [ [ 675202.998276431113482, 3624903.395898983348161 ], [ 675187.14263207570184, 3624931.825408674310893 ], [ 675198.802344592986628, 3624971.855250256601721 ], [ 675194.83165765774902, 3625005.440765408333391 ], [ 675219.327748612849973, 3625037.927397903520614 ], [ 675214.426963100908324, 3625066.881268333643675 ], [ 675227.615693164756522, 3625099.115624938160181 ], [ 675252.177646805415861, 3625118.542592576239258 ], [ 675283.349835788714699, 3625123.490973383188248 ], [ 675274.470516927773133, 3625152.894550909288228 ], [ 675286.328396941185929, 3625189.011225903406739 ], [ 675310.890349529916421, 3625208.438201344572008 ], [ 675347.712510821875185, 3625211.059797234833241 ], [ 675425.658899298752658, 3625166.158846656791866 ], [ 675451.061746042221785, 3625127.240067582111806 ], [ 675446.914939601789229, 3625089.228937098290771 ], [ 675418.000750802108087, 3625064.922946830745786 ], [ 675444.524037492577918, 3625031.143593689892441 ], [ 675445.554579852847382, 3625008.681678703520447 ], [ 675437.243586771306582, 3624991.109560217708349 ], [ 675417.715239713317715, 3624974.922749899793416 ], [ 675392.765540596446954, 3624970.046111629344523 ], [ 675373.909671123372391, 3624974.769261055625975 ], [ 675358.796018372057006, 3624989.009096576366574 ], [ 675339.595782729447819, 3624990.098894391208887 ], [ 675332.567469103028998, 3624945.834252354223281 ], [ 675302.353111736127175, 3624925.624230037909001 ], [ 675275.92697869380936, 3624893.541163746733218 ], [ 675229.27674731425941, 3624889.998270133510232 ], [ 675202.998276431113482, 3624903.395898983348161 ] ] ] ] } },
{ "type": "Feature", "properties": { "depth_bin": "90-95" }, "geometry": { "type": "MultiPolygon", "coordinates": [ [ [ [ 674667.613884757854976, 3622796.742028570733964 ], [ 674636.343937047990039, 3622796.429593235719949 ], [ 674594.528141750954092, 3622814.289358378387988 ], [ 674574.296427877387032, 3622810.962440139148384 ], [ 674555.9943041697843, 3622817.511044714134187 ], [ 674538.985702274483629, 3622842.966216325294226 ], [ 674544.9583289984148, 3622872.992638526950032 ], [ 674570.413500609924085, 3622890.001240422483534 ], [ 674606.316354595590383, 3622879.221801999490708 ], [ 674642.776502884575166, 3622887.759837184101343 ], [ 674722.078564584371634, 3622947.662040188908577 ], [ 674760.526291442918591, 3622970.445361334830523 ], [ 674789.480910139391199, 3622973.221180833410472 ], [ 674829.763054498936981, 3623003.239651678130031 ], [ 674897.887897816952318, 3622991.832545003853738 ], [ 674968.315365005750209, 3623017.970774039626122 ], [ 675032.801574923796579, 3623005.841681730933487 ], [ 675068.993994753458537, 3623010.671350948512554 ], [ 675082.896921805571765, 3623026.86908419104293 ], [ 675105.119731126353145, 3623033.610299699008465 ], [ 675137.478678372921422, 3623017.046399093233049 ], [ 675154.072417593328282, 3623048.201248026452959 ], [ 675139.14489223936107, 3623080.841587067116052 ], [ 675153.769160872790962, 3623111.762005201540887 ], [ 675175.224206626182422, 3623120.648976134136319 ], [ 675199.782969409716316, 3623115.050223456230015 ], [ 675211.108581932610832, 3623138.082336533814669 ], [ 675235.472167566884309, 3623149.60545435314998 ], [ 675258.24872265313752, 3623145.074915859848261 ], [ 675274.669703754014336, 3623128.653934759087861 ], [ 675279.353659509099089, 3623099.783554633148015 ], [ 675262.94511348719243, 3623017.021403740625829 ], [ 675248.490214701974764, 3622996.560576995834708 ], [ 675252.29791852994822, 3622963.428582344204187 ], [ 675244.948425740585662, 3622925.837758865673095 ], [ 675236.807023355970159, 3622899.435884899925441 ], [ 675220.673959658131935, 3622881.844131395220757 ], [ 675229.160551447421312, 3622860.928934422321618 ], [ 675225.959532666951418, 3622832.369918137323111 ], [ 675202.690386463073082, 3622798.726151193492115 ], [ 675158.012476695817895, 3622790.304011142812669 ], [ 675120.943380115553737, 3622800.059526881668717 ], [ 675086.525037035928108, 3622783.931114502251148 ], [ 674965.533497730502859, 3622788.533249754924327 ], [ 674914.451031098840758, 3622776.550467158667743 ], [ 674863.641310473671183, 3622786.458685653749853 ], [ 674713.621076654759236, 3622787.03033898724243 ], [ 674667.613884757854976, 3622796.742028570733964 ] ] ], [ [ [ 674482.423036716296338, 3622835.891754110343754 ], [ 674453.126619736547582, 3622844.778725042939186 ], [ 674437.133160864585079, 3622873.263554682955146 ], [ 674446.02013179694768, 3622902.559971662703902 ], [ 674473.019864318310283, 3622916.991629363037646 ], [ 674503.839730442734435, 3622908.143010464496911 ], [ 674518.271388143068179, 3622881.143277943134308 ], [ 674509.42276923765894, 3622850.323411810677499 ], [ 674482.423036716296338, 3622835.891754110343754 ] ] ], [ [ [ 675179.600641217431985, 3624912.012785814702511 ], [ 675175.492592193651944, 3624944.766191030386835 ], [ 675189.774726892472245, 3624977.750087130814791 ], [ 675189.945050240843557, 3625013.553592456970364 ], [ 675213.141136895399541, 3625043.739385868422687 ], [ 675212.670430023688823, 3625079.676257997751236 ], [ 675237.644893986987881, 3625114.654331469908357 ], [ 675277.845938009442762, 3625126.417148399632424 ], [ 675272.115445391042158, 3625163.668329905252904 ], [ 675291.781215051538311, 3625201.137253111228347 ], [ 675315.270413057180122, 3625213.684597235172987 ], [ 675357.575738852261566, 3625211.782951249275357 ], [ 675437.784930780064315, 3625160.706025064922869 ], [ 675455.980319143156521, 3625132.724755217321217 ], [ 675460.778834543307312, 3625108.315045384690166 ], [ 675452.590907658217475, 3625083.006947697605938 ], [ 675430.301928026834503, 3625065.186368289403617 ], [ 675453.632728532073088, 3625025.168211306445301 ], [ 675450.857265374972485, 3625002.893273240886629 ], [ 675437.807843911694363, 3624982.183934730943292 ], [ 675415.805281555047259, 3624968.712419023737311 ], [ 675348.105908376048319, 3624949.116793742869049 ], [ 675332.493557553738356, 3624929.711219625547528 ], [ 675312.152605310082436, 3624920.203304449561983 ], [ 675296.81305186834652, 3624893.750701993238181 ], [ 675273.984713045880198, 3624883.116366032510996 ], [ 675214.19889487081673, 3624882.195451140869409 ], [ 675179.600641217431985, 3624912.012785814702511 ] ] ] ] } },
{ "type": "Feature", "properties": { "depth_bin": "95-100" }, "geometry": { "type": "MultiPolygon", "coordinates": [ [ [ [ 674369.537291802931577, 3622858.311666262801737 ], [ 674336.653987598605454, 3622869.286033410578966 ], [ 674314.374976177816279, 3622905.234692683443427 ], [ 674317.15047928947024, 3622927.509611551184207 ], [ 674340.606657375930808, 3622974.290078078396618 ], [ 674360.576170655316673, 3622992.389389906078577 ], [ 674383.687120830523781, 3622994.665619821753353 ], [ 674405.685810315655544, 3622982.043590615969151 ], [ 674450.993831675034016, 3623000.468281846493483 ], [ 674491.002019506180659, 3623001.311577012296766 ], [ 674626.90573605557438, 3623041.294698409736156 ], [ 674679.763204962480813, 3623041.754257879219949 ], [ 674722.123982630320825, 3623020.607078012079 ], [ 674802.828727953601629, 3623043.720960771664977 ], [ 674893.220730866072699, 3623049.665543420705944 ], [ 674919.102180317160673, 3623060.846168094780296 ], [ 674976.53490042546764, 3623056.216209049336612 ], [ 674997.370891668600962, 3623066.911645126994699 ], [ 675017.44539711996913, 3623065.721872505731881 ], [ 675043.245216559618711, 3623084.62551231821999 ], [ 675057.714572250493802, 3623112.392605064902455 ], [ 675082.545303491526283, 3623121.445412791334093 ], [ 675120.630068495753221, 3623151.08697676146403 ], [ 675133.669884277856909, 3623186.438747657928616 ], [ 675178.140873767086305, 3623215.720036515500396 ], [ 675203.462720055016689, 3623218.725664223078638 ], [ 675223.123192724655382, 3623211.169639398343861 ], [ 675259.143255248432979, 3623219.45375878084451 ], [ 675288.29482366819866, 3623195.529684859327972 ], [ 675292.32463974156417, 3623163.316351437009871 ], [ 675252.099833739339374, 3622963.393514085095376 ], [ 675228.89397644600831, 3622926.570525364950299 ], [ 675183.197905767010525, 3622892.239312616176903 ], [ 675213.358845654176548, 3622881.796491708606482 ], [ 675227.214525503688492, 3622858.679686455056071 ], [ 675222.313254045555368, 3622818.734018735121936 ], [ 675197.656752762966789, 3622795.485912989359349 ], [ 675156.565724543994293, 3622787.218748379964381 ], [ 675127.455642058048397, 3622797.195957451593131 ], [ 675079.896493760752492, 3622779.284897177480161 ], [ 675029.851701914565638, 3622784.545143056660891 ], [ 674990.623911746544763, 3622778.468049780465662 ], [ 674969.38922408351209, 3622784.617007959168404 ], [ 674908.433921225951053, 3622773.350154615473002 ], [ 674862.833261481369846, 3622783.830236403737217 ], [ 674713.697779826587066, 3622783.983436172362417 ], [ 674544.629906387068331, 3622806.31608789274469 ], [ 674456.29353909951169, 3622839.731446926947683 ], [ 674369.537291802931577, 3622858.311666262801737 ] ], [ [ 675154.222318600164726, 3622885.857938339933753 ], [ 675160.436848166515119, 3622883.921652782242745 ], [ 675170.930625652312301, 3622889.757506664842367 ], [ 675163.849087501410395, 3622890.083309817127883 ], [ 675154.222318600164726, 3622885.857938339933753 ] ] ], [ [ [ 674583.037107712822035, 3623328.293736514635384 ], [ 674563.615363756660372, 3623351.959199998062104 ], [ 674564.861082615563646, 3623381.924824841320515 ], [ 674604.488913006847724, 3623436.840515140909702 ], [ 674630.948302327422425, 3623452.511435018852353 ], [ 674651.886752872844227, 3623451.595994324889034 ], [ 674676.451525365351699, 3623430.272821225225925 ], [ 674708.777154083130881, 3623424.876115751918405 ], [ 674737.84901742823422, 3623391.083650292363018 ], [ 674760.054435643483885, 3623379.880666368175298 ], [ 674771.001575612113811, 3623359.400008001364768 ], [ 674760.054435643483885, 3623323.312123872805387 ], [ 674726.469171850243583, 3623311.993755245581269 ], [ 674701.790431160479784, 3623276.112590064294636 ], [ 674681.309772793669254, 3623265.16545009566471 ], [ 674660.371221953071654, 3623266.0808892888017 ], [ 674641.062190908705816, 3623278.982771351467818 ], [ 674623.138621742953546, 3623329.726112576667219 ], [ 674601.892977185896598, 3623323.570587088353932 ], [ 674583.037107712822035, 3623328.293736514635384 ] ] ], [ [ [ 675168.982599913026206, 3624919.065411019604653 ], [ 675167.222592895734124, 3624943.738317597657442 ], [ 675181.613369193393737, 3625004.372923989314586 ], [ 675210.955110343988054, 3625087.255165368318558 ], [ 675231.406686860951595, 3625113.76267549302429 ], [ 675269.855491857393645, 3625139.361594787798822 ], [ 675269.945582863059826, 3625170.446270113810897 ], [ 675293.089550785953179, 3625206.781939588487148 ], [ 675317.553136119735427, 3625217.269114716909826 ], [ 675371.210104157100432, 3625215.175228995271027 ], [ 675452.800604930496775, 3625150.487183924764395 ], [ 675466.520343583775684, 3625126.212131485808641 ], [ 675468.241985031403601, 3625103.062770282384008 ], [ 675459.355014099041, 3625081.607724528759718 ], [ 675439.050052381353453, 3625064.28377494495362 ], [ 675456.83597886399366, 3625038.231809904798865 ], [ 675460.034286791225895, 3625016.830642067827284 ], [ 675439.546421122387983, 3624976.615989333949983 ], [ 675381.341247149859555, 3624944.97789981495589 ], [ 675356.450104771531187, 3624940.192211787682027 ], [ 675321.344029473722912, 3624915.503791532013565 ], [ 675302.915981736849062, 3624887.072194944135845 ], [ 675262.789886012906209, 3624872.829974851571023 ], [ 675228.25201883749105, 3624870.154969650320709 ], [ 675197.967163003282622, 3624878.872162979561836 ], [ 675178.878766907844692, 3624896.381457499694079 ], [ 675168.982599913026206, 3624919.065411019604653 ] ] ] ] } },
{ "type": "Feature", "properties": { "depth_bin": "100-105" }, "geometry": { "type": "MultiPolygon", "coordinates": [ [ [ [ 674371.973475263337605, 3622854.650439830031246 ], [ 674326.128207617206499, 3622871.730419155210257 ], [ 674316.134865435422398, 3622888.403303312603384 ], [ 674314.989306333940476, 3622915.435543197207153 ], [ 674388.502650627866387, 3623070.009736683685333 ], [ 674409.957258858717978, 3623089.67085079383105 ], [ 674459.804521517711692, 3623088.521692919079214 ], [ 674485.550222263205796, 3623064.428163266275078 ], [ 674506.160103471134789, 3623063.773667648434639 ], [ 674524.57186712033581, 3623052.000938685145229 ], [ 674545.62572774477303, 3623060.590370447840542 ], [ 674589.231381478486583, 3623056.282928202766925 ], [ 674709.966921584913507, 3623072.349804764613509 ], [ 674801.736418663873337, 3623070.533746931701899 ], [ 674878.729830415453762, 3623079.005907341372222 ], [ 674915.937278061406687, 3623092.30116320354864 ], [ 674954.069199641351588, 3623092.925008496269584 ], [ 674975.404223138699308, 3623104.508688782341778 ], [ 674974.892043538275175, 3623129.499271432403475 ], [ 674943.862944934982806, 3623152.86510839452967 ], [ 674864.304678809014149, 3623133.527080840431154 ], [ 674833.07288400712423, 3623148.571192307863384 ], [ 674815.626914230408147, 3623134.960992604959756 ], [ 674796.398891322663985, 3623132.108784838579595 ], [ 674766.636812878074124, 3623150.400731755420566 ], [ 674732.831224086461589, 3623148.891541734337807 ], [ 674691.117147382814437, 3623179.1186981969513 ], [ 674580.211097869207151, 3623181.545149921905249 ], [ 674561.028062646393664, 3623188.747083003167063 ], [ 674509.712680177763104, 3623170.332329554017633 ], [ 674478.792262043221854, 3623184.95659818733111 ], [ 674469.905291110859253, 3623206.4116439409554 ], [ 674473.897393371560611, 3623240.912616000510752 ], [ 674577.077661256538704, 3623451.288774405606091 ], [ 674603.365371241350658, 3623494.946810522116721 ], [ 674618.978452081326395, 3623506.526260456070304 ], [ 674645.897176466067322, 3623507.848692584782839 ], [ 674665.977833397686481, 3623493.906393453478813 ], [ 674709.466557099716738, 3623496.779168475419283 ], [ 674776.196230046218261, 3623479.116611122153699 ], [ 674799.855790662579238, 3623465.231976221781224 ], [ 674842.165158549672924, 3623462.484455434605479 ], [ 674905.35705894860439, 3623427.120738148223609 ], [ 674931.446090121055022, 3623428.146301298867911 ], [ 674976.132632089778781, 3623401.862145235296339 ], [ 675001.881148048560135, 3623397.772455492988229 ], [ 675018.302129149436951, 3623381.351474392227829 ], [ 675022.356971962726675, 3623355.368039522320032 ], [ 675043.052893740939908, 3623354.735095945186913 ], [ 675059.81185903516598, 3623344.646777864545584 ], [ 675086.362682192819193, 3623354.791400848422199 ], [ 675111.738413559389301, 3623345.711818982847035 ], [ 675126.170071259723045, 3623318.712086461484432 ], [ 675117.283100327360444, 3623289.415669481735677 ], [ 675086.362682192819193, 3623274.791400848422199 ], [ 675057.992329808417708, 3623286.602105499710888 ], [ 675051.797483759117313, 3623274.830484418664128 ], [ 675167.115765429683961, 3623258.578177336137742 ], [ 675202.468563979608007, 3623276.348053304944187 ], [ 675264.390305914334022, 3623281.236679524183273 ], [ 675282.692429621936753, 3623274.688074949197471 ], [ 675297.424801601562649, 3623256.73662775196135 ], [ 675302.452511190320365, 3623211.648100732825696 ], [ 675288.755082726711407, 3623146.6335339108482 ], [ 675262.427509460714646, 3623094.894755506422371 ], [ 675225.18907744938042, 3623074.60216097952798 ], [ 675229.007189383497462, 3623032.935739087406546 ], [ 675185.310647887177765, 3622958.762029809411615 ], [ 675126.143603873439133, 3622940.513599642552435 ], [ 675099.485479809576645, 3622946.968174237757921 ], [ 675069.05530796921812, 3622932.884809036273509 ], [ 675029.86832671740558, 3622940.010658860672265 ], [ 675010.294563079020008, 3622951.791055466979742 ], [ 674983.473294362658635, 3622941.4013149170205 ], [ 674950.96117674279958, 3622951.498795566614717 ], [ 674916.594552340335213, 3622933.619861299637705 ], [ 674851.501152237528004, 3622946.267327508889139 ], [ 674827.61950310471002, 3622934.334397713188082 ], [ 674782.736901846132241, 3622932.794671282637864 ], [ 674763.94124209403526, 3622920.535956678912044 ], [ 674742.01865837466903, 3622918.771379346493632 ], [ 674677.47584164107684, 3622874.082107630092651 ], [ 674715.047311762929894, 3622864.492944706231356 ], [ 674744.887286610202864, 3622870.574962798506021 ], [ 674771.650102392304689, 3622863.569731386378407 ], [ 674875.484821787569672, 3622864.424728057812899 ], [ 674918.091124580358155, 3622854.458028148859739 ], [ 674963.659560232074, 3622865.317431672941893 ], [ 675001.094190614414401, 3622859.61297860275954 ], [ 675034.420563861494884, 3622874.814889283850789 ], [ 675074.041441724752076, 3622861.74638282507658 ], [ 675123.242441540583968, 3622880.194091610610485 ], [ 675147.227807542309165, 3622881.262944834306836 ], [ 675199.180208539706655, 3622869.434627321083099 ], [ 675219.14972181909252, 3622851.33531549340114 ], [ 675220.828052545548417, 3622817.172108725644648 ], [ 675196.210000430932269, 3622792.400649745482951 ], [ 675155.08062069164589, 3622785.656941188499331 ], [ 675129.718772648484446, 3622793.884791899472475 ], [ 675083.020106484298594, 3622776.314690747763962 ], [ 675030.516818383708596, 3622781.599318869411945 ], [ 674989.215512417373247, 3622773.859336337074637 ], [ 674961.393636521766894, 3622780.796485974919051 ], [ 674908.510624208720401, 3622770.303248212207109 ], [ 674861.070036635617726, 3622780.148237655870616 ], [ 674687.799107965198345, 3622783.331459540408105 ], [ 674538.574458827963099, 3622804.639231107197702 ], [ 674470.392594707082026, 3622831.695529230404645 ], [ 674371.973475263337605, 3622854.650439830031246 ] ] ], [ [ [ 675036.315256695845164, 3624742.923450778704137 ], [ 675054.092447375063784, 3624776.182235270738602 ], [ 675094.669502931064926, 3624779.955371379386634 ], [ 675128.696931335958652, 3624750.99721411569044 ], [ 675130.642453033709899, 3624703.662808329798281 ], [ 675108.994609027868137, 3624682.014964323956519 ], [ 675076.856479822658002, 3624681.976594897918403 ], [ 675049.57235796994064, 3624704.096020414028317 ], [ 675036.315256695845164, 3624742.923450778704137 ] ] ], [ [ [ 675160.897787950350903, 3624941.187601503916085 ], [ 675177.804939289344475, 3625015.682860668748617 ], [ 675203.586448433226906, 3625063.023532455787063 ], [ 675207.986327539198101, 3625093.735491186380386 ], [ 675258.35406297352165, 3625144.260370286181569 ], [ 675262.474017886444926, 3625169.804855035617948 ], [ 675290.104263367597014, 3625207.192706011235714 ], [ 675312.832600470981561, 3625218.863000044133514 ], [ 675377.534935473930091, 3625231.069318249821663 ], [ 675416.683678848319687, 3625225.467189740855247 ], [ 675438.003683201037347, 3625212.542054163757712 ], [ 675449.526801020489074, 3625188.178468529134989 ], [ 675444.546226552687585, 3625164.651073779910803 ], [ 675471.060122965485789, 3625136.69539539841935 ], [ 675475.897646835888736, 3625101.731178151443601 ], [ 675467.010675903526135, 3625080.27613239781931 ], [ 675446.703613770660013, 3625062.950923868920654 ], [ 675464.290613975725137, 3625033.16589135536924 ], [ 675464.444103156216443, 3625003.849286400713027 ], [ 675423.340713109122589, 3624951.330964574124664 ], [ 675394.633657705038786, 3624934.936817830894142 ], [ 675360.983190482482314, 3624931.153442818671465 ], [ 675328.720170532236807, 3624911.37927636038512 ], [ 675299.779269727994688, 3624875.913390781730413 ], [ 675235.488314592512324, 3624859.3749122726731 ], [ 675200.2992092249915, 3624864.967815093696117 ], [ 675173.342575744725764, 3624883.957573924679309 ], [ 675162.395435776095837, 3624904.43823229148984 ], [ 675160.897787950350903, 3624941.187601503916085 ] ], [ [ 675270.633657351601869, 3624994.498101927805692 ], [ 675269.588865712634288, 3624993.089363480452448 ], [ 675271.471350332489237, 3624993.368603695649654 ], [ 675270.633657351601869, 3624994.498101927805692 ] ] ] ] } },
{ "type": "Feature", "properties": { "depth_bin": "105-110" }, "geometry": { "type": "MultiPolygon", "coordinates": [ [ [ [ 674397.641487843124196, 3622843.149873153306544 ], [ 674344.477948562474921, 3622855.681637197732925 ], [ 674325.168917518109083, 3622868.583519260399044 ], [ 674314.643442018073983, 3622902.411928030196577 ], [ 674329.075099718407728, 3622929.41166055155918 ], [ 674365.301339963916689, 3622937.799358060117811 ], [ 674476.402696390403435, 3622913.631588454823941 ], [ 674558.62959479377605, 3622882.246178301982582 ], [ 674709.239415179472417, 3622862.03630744991824 ], [ 674875.561524968245067, 3622861.377822350244969 ], [ 674916.609973682905547, 3622851.10659512784332 ], [ 674973.750764211174101, 3622862.616541502997279 ], [ 674999.749861528282054, 3622856.057616728357971 ], [ 675034.689028122695163, 3622864.150608640629798 ], [ 675073.361461986438371, 3622857.359567841980606 ], [ 675146.506846412084997, 3622877.345260128378868 ], [ 675206.134032289381139, 3622864.214774728287011 ], [ 675219.188073542551138, 3622849.811859709210694 ], [ 675223.9495746785542, 3622829.432534450665116 ], [ 675212.233845926006325, 3622801.148263202980161 ], [ 675178.19549274421297, 3622783.762135307770222 ], [ 675126.430800657253712, 3622786.806163012981415 ], [ 675081.611706302501261, 3622771.705974821466953 ], [ 674967.402711746282876, 3622776.402393565513194 ], [ 674910.110780343646184, 3622767.294693256728351 ], [ 674617.643466507201083, 3622784.614184350706637 ], [ 674397.641487843124196, 3622843.149873153306544 ] ] ], [ [ [ 674374.964425595244393, 3622977.018712022341788 ], [ 674362.808614745968953, 3622998.594845820218325 ], [ 674365.008138165343553, 3623024.752692819572985 ], [ 674490.081565179047175, 3623273.790245023556054 ], [ 674539.428161451243795, 3623353.922390451189131 ], [ 674577.938729804824106, 3623361.317941979970783 ], [ 674614.717398313106969, 3623346.28692062292248 ], [ 674631.329799727187492, 3623322.41346999630332 ], [ 674655.871281137689948, 3623324.6948087005876 ], [ 674684.209511217777617, 3623306.26864011073485 ], [ 674700.707420254941098, 3623305.122837055940181 ], [ 674722.759213492507115, 3623320.11122812749818 ], [ 674742.863984170835465, 3623322.833382647484541 ], [ 674761.908786009997129, 3623339.389906642958522 ], [ 674794.87403150764294, 3623347.26703774323687 ], [ 674771.986790467170067, 3623349.576451774220914 ], [ 674743.025520365219563, 3623371.57547831395641 ], [ 674661.14473202417139, 3623397.805767175741494 ], [ 674632.220851563382894, 3623371.675200632307678 ], [ 674613.918727855780162, 3623365.126596057321876 ], [ 674589.618722476763651, 3623369.618777538649738 ], [ 674570.492028517415747, 3623388.651548734400421 ], [ 674564.519401793484576, 3623418.677970936056226 ], [ 674598.355405790847726, 3623504.721730901859701 ], [ 674618.8958738661604, 3623544.119265648070723 ], [ 674650.124001109856181, 3623567.992267751134932 ], [ 674683.958197520812973, 3623562.973438813816756 ], [ 674707.87287843611557, 3623526.615399678703398 ], [ 674849.698128122952767, 3623525.374461071100086 ], [ 674877.996483091730624, 3623515.340545426122844 ], [ 674939.278197995969094, 3623511.711893381550908 ], [ 674988.444770838250406, 3623491.046588867437094 ], [ 675028.062074586516246, 3623490.140267870388925 ], [ 675064.500824112910777, 3623457.929941209964454 ], [ 675104.248815369443037, 3623449.131368456874043 ], [ 675126.852274369564839, 3623424.329536332283169 ], [ 675147.99282476620283, 3623417.641488795634359 ], [ 675173.371952500776388, 3623396.417002852074802 ], [ 675209.77499350020662, 3623385.659642016515136 ], [ 675272.411661467049271, 3623333.512782230041921 ], [ 675301.29937243333552, 3623324.569246313069016 ], [ 675314.201254496001638, 3623305.260215268936008 ], [ 675303.246568325557746, 3623213.897354697342962 ], [ 675284.846709602628835, 3623173.204902791883796 ], [ 675257.846977081266232, 3623158.773245091550052 ], [ 675197.364751133485697, 3623160.440538306254894 ], [ 675145.334673191071488, 3623104.051707752980292 ], [ 675119.016233839094639, 3623061.59713359316811 ], [ 675110.053920436534099, 3623031.606114761903882 ], [ 675071.208455023006536, 3623007.541451015509665 ], [ 675012.603413484524935, 3623005.905240853782743 ], [ 674983.004602700471878, 3622994.838201447855681 ], [ 674943.160632315324619, 3622997.824832930695266 ], [ 674872.022435021703131, 3622982.897568933200091 ], [ 674843.059710133937187, 3622988.168192976620048 ], [ 674735.637917880783789, 3622976.321300792507827 ], [ 674680.715653169667348, 3622984.727182044181973 ], [ 674464.846701670903713, 3622954.259903294499964 ], [ 674407.339985139318742, 3622962.448936589993536 ], [ 674374.964425595244393, 3622977.018712022341788 ] ] ], [ [ [ 675033.537698014406487, 3624735.879117009695619 ], [ 675036.27479685714934, 3624759.6775031988509 ], [ 675052.492253599106334, 3624779.190774500835687 ], [ 675070.794377306709066, 3624785.739379075821489 ], [ 675098.552555630565621, 3624782.993108842521906 ], [ 675121.611106071271934, 3624769.772312999237329 ], [ 675136.274439695756882, 3624750.205499781295657 ], [ 675139.697266683797352, 3624702.980241595767438 ], [ 675115.241905241273344, 3624676.074623312801123 ], [ 675079.14408364018891, 3624676.045429553836584 ], [ 675050.540747677674517, 3624694.810910847038031 ], [ 675033.537698014406487, 3624735.879117009695619 ] ] ], [ [ [ 675141.597532039508224, 3624806.382909037638456 ], [ 675125.303334227763116, 3624825.819440911523998 ], [ 675122.988733719685115, 3624850.453846328891814 ], [ 675136.844413569197059, 3624873.570651582442224 ], [ 675158.35212292324286, 3624882.46020971192047 ], [ 675155.0349481505109, 3624943.431345457211137 ], [ 675174.719655737862922, 3625017.129572114907205 ], [ 675204.939415632397868, 3625093.658745598979294 ], [ 675254.814989504986443, 3625147.127398827113211 ], [ 675257.748774254810996, 3625166.179575824644417 ], [ 675276.142505449475721, 3625194.807175114285201 ], [ 675307.536445933161303, 3625220.549107510130852 ], [ 675333.732357677770779, 3625222.052594779990613 ], [ 675367.366825441946276, 3625236.817037777975202 ], [ 675415.045097181922756, 3625229.999288190156221 ], [ 675442.644798056106083, 3625216.261726749595255 ], [ 675459.653399951406755, 3625190.806555138435215 ], [ 675454.683901403448544, 3625162.453751188702881 ], [ 675485.755634771776386, 3625122.864835692103952 ], [ 675479.099516675109044, 3625082.417486337944865 ], [ 675454.848724334966391, 3625061.079303728416562 ], [ 675494.089766166638583, 3625011.730504957959056 ], [ 675496.980346018564887, 3624990.97902406193316 ], [ 675488.985027590533718, 3624969.591612325049937 ], [ 675435.084446360473521, 3624929.562886637635529 ], [ 675366.136115697561763, 3624921.33766052685678 ], [ 675335.349896722123958, 3624907.067793628200889 ], [ 675322.918879184057005, 3624883.251314022578299 ], [ 675299.431235185358673, 3624868.217979587148875 ], [ 675252.701260967296548, 3624849.709535852074623 ], [ 675205.808098855428398, 3624850.052316503599286 ], [ 675202.144102486781776, 3624820.862565201707184 ], [ 675182.174589207395911, 3624802.763253374025226 ], [ 675141.597532039508224, 3624806.382909037638456 ] ], [ [ 675294.809940817998722, 3625040.108741560019553 ], [ 675288.068725310149603, 3625017.885932239238173 ], [ 675268.233748042024672, 3625002.085449181962758 ], [ 675262.751705915899947, 3624981.367882892023772 ], [ 675305.205924434238113, 3624988.371449708938599 ], [ 675326.619863390806131, 3625007.610113059636205 ], [ 675365.336553445551544, 3625009.757110104896128 ], [ 675370.819875831948593, 3625016.832714964170009 ], [ 675352.595053276396357, 3625023.592503984458745 ], [ 675318.509140789392404, 3625054.303213776554912 ], [ 675291.647499740705825, 3625055.664770477451384 ], [ 675294.809940817998722, 3625040.108741560019553 ] ], [ [ 675244.305534545215778, 3624943.593246196396649 ], [ 675244.70559566328302, 3624943.654844096396118 ], [ 675244.695815781480633, 3624943.882698488421738 ], [ 675244.305534545215778, 3624943.593246196396649 ] ] ] ] } },
{ "type": "Feature", "properties": { "depth_bin": "110-115" }, "geometry": { "type": "MultiPolygon", "coordinates": [ [ [ [ 674443.461796655319631, 3622830.313968324102461 ], [ 674332.381430501351133, 3622859.138665978331119 ], [ 674315.372828606050462, 3622884.593837589491159 ], [ 674321.268750990158878, 3622917.667155766859651 ], [ 674339.220198187744245, 3622932.399527746718377 ], [ 674358.448221095488407, 3622935.251735513098538 ], [ 674499.522999663837254, 3622903.542626593727618 ], [ 674534.974286549841054, 3622885.061530549544841 ], [ 674636.113802389823832, 3622864.475435470230877 ], [ 674877.200032496359199, 3622856.845815320499241 ], [ 674899.697664229781367, 3622847.013899536337703 ], [ 674971.430235596955754, 3622859.415374519769102 ], [ 675071.766705357120372, 3622852.873201287351549 ], [ 675116.005307046347298, 3622869.152605232317001 ], [ 675187.908611986902542, 3622867.71646773070097 ], [ 675214.908344508265145, 3622853.284810030367225 ], [ 675224.026278053876013, 3622826.385622876696289 ], [ 675210.825445189140737, 3622796.539544186554849 ], [ 675178.233844376634806, 3622782.238679646980017 ], [ 675127.808161787805147, 3622783.664065016433597 ], [ 675083.211864104145207, 3622768.697416726499796 ], [ 674968.787869558436796, 3622773.292150990106165 ], [ 674932.389608482597396, 3622764.900614839047194 ], [ 674849.210914526600391, 3622764.237180630676448 ], [ 674792.931625093333423, 3622773.709224427584559 ], [ 674615.36069284810219, 3622782.181612722110003 ], [ 674443.461796655319631, 3622830.313968324102461 ] ] ], [ [ [ 674442.372360647888854, 3623092.094739644788206 ], [ 674427.639988668262959, 3623110.046186842024326 ], [ 674423.11091436969582, 3623135.329651253297925 ], [ 674459.601101874723099, 3623210.834256440866739 ], [ 674499.893228306551464, 3623237.984152294695377 ], [ 674541.295480919070542, 3623236.95612707035616 ], [ 674554.14734662801493, 3623253.681341324001551 ], [ 674575.602392381406389, 3623262.568312256596982 ], [ 674598.3789474676596, 3623258.037773763295263 ], [ 674625.728013922227547, 3623236.17413169844076 ], [ 674693.589405252598226, 3623248.373737767804414 ], [ 674717.20617019792553, 3623229.033242414239794 ], [ 674802.462160913972184, 3623204.039116431958973 ], [ 674843.549301776220091, 3623215.959571365267038 ], [ 674880.181851675268263, 3623207.340203151106834 ], [ 674924.593225061194971, 3623214.753603402525187 ], [ 674952.732940263231285, 3623203.266720474231988 ], [ 674972.661832809448242, 3623208.633015180006623 ], [ 675010.287100116140209, 3623202.992301735561341 ], [ 675035.094394203624688, 3623181.156359805259854 ], [ 675054.364898868254386, 3623194.015734558459371 ], [ 675073.779898839071393, 3623194.969532345421612 ], [ 675094.260557205881923, 3623184.022392376791686 ], [ 675105.78367502533365, 3623159.658806742168963 ], [ 675101.329845996107906, 3623133.835342407692224 ], [ 675081.618495207745582, 3623115.858132344670594 ], [ 675065.095522817689925, 3623074.889207288157195 ], [ 675045.452438437030651, 3623061.772247951943427 ], [ 675013.706634097034112, 3623057.276010635774583 ], [ 675002.145813765353523, 3623032.144972732756287 ], [ 674977.782228131080046, 3623020.621854913420975 ], [ 674915.850490286713466, 3623032.972059345804155 ], [ 674861.240863758022897, 3623013.02069859392941 ], [ 674813.971371335792355, 3623021.630929968319833 ], [ 674684.558498449390754, 3623007.048209345433861 ], [ 674658.097211074898951, 3623014.572090528905392 ], [ 674631.275973778218031, 3623004.182378455996513 ], [ 674575.29265826928895, 3623012.409758311696351 ], [ 674558.389082993147895, 3623022.657628919929266 ], [ 674529.54745251161512, 3623014.107950642239302 ], [ 674500.209353632642888, 3623031.69253038847819 ], [ 674495.164761627325788, 3623065.423874865751714 ], [ 674486.190424718894064, 3623074.442760419100523 ], [ 674442.372360647888854, 3623092.094739644788206 ] ] ], [ [ [ 674599.805044641951099, 3623496.27293537510559 ], [ 674638.827146919211373, 3623602.236630936618894 ], [ 674651.881188172381371, 3623616.639545955695212 ], [ 674674.103997493162751, 3623623.380761463660747 ], [ 674726.242670479114167, 3623610.59239313332364 ], [ 674768.05729877052363, 3623585.702984844800085 ], [ 674807.904871755861677, 3623583.100835426710546 ], [ 674958.865551589871757, 3623537.538411198649555 ], [ 675067.932675902033225, 3623516.950342896860093 ], [ 675091.10860441729892, 3623498.345338693354279 ], [ 675139.351275098975748, 3623489.893466542474926 ], [ 675179.618863211828284, 3623465.289452315773815 ], [ 675221.582655920647085, 3623468.98853000625968 ], [ 675247.542643589084037, 3623444.296108524315059 ], [ 675292.635552219930105, 3623426.487604506779462 ], [ 675330.804291189881042, 3623384.104274857323617 ], [ 675333.656498956377618, 3623364.87625194946304 ], [ 675314.469749197131023, 3623271.373145108576864 ], [ 675294.036255155224353, 3623241.993394591379911 ], [ 675239.439669569022954, 3623223.860055157449096 ], [ 675189.583966200472787, 3623238.397120531182736 ], [ 675137.940905164461583, 3623224.259580571204424 ], [ 675095.754576927283779, 3623243.421234948560596 ], [ 675076.920354356756434, 3623233.966337402816862 ], [ 675057.505354385939427, 3623234.920135189779103 ], [ 675010.296211016131565, 3623278.681891454383731 ], [ 675008.973778887302615, 3623305.600615839473903 ], [ 675022.423295872751623, 3623325.315800623036921 ], [ 675014.887319601140916, 3623340.073507620953023 ], [ 674992.373075479757972, 3623346.800405855290592 ], [ 674976.945979549898766, 3623366.693476422224194 ], [ 674914.462854383746162, 3623382.127620365470648 ], [ 674852.203648254158907, 3623415.360769513063133 ], [ 674816.801937023410574, 3623411.591550528071821 ], [ 674758.607073388877325, 3623420.996237871237099 ], [ 674732.931914307759143, 3623435.169482946861535 ], [ 674699.832632462494075, 3623429.697008826769888 ], [ 674657.560434767394327, 3623438.269597043748945 ], [ 674611.328162461402826, 3623471.909349740482867 ], [ 674599.805044641951099, 3623496.27293537510559 ] ] ], [ [ [ 675036.097567236400209, 3624713.753006038721651 ], [ 675030.183069331222214, 3624744.293426579795778 ], [ 675036.35293381055817, 3624766.23457453912124 ], [ 675079.300618955865502, 3624804.256706402637064 ], [ 675115.420860024169087, 3624810.382812804076821 ], [ 675148.646785117103718, 3624787.472241244744509 ], [ 675156.296346019022167, 3624751.390369570348412 ], [ 675142.906829312094487, 3624700.922854296863079 ], [ 675125.281025380943902, 3624676.800849446095526 ], [ 675100.049676001304761, 3624668.459440564736724 ], [ 675074.001417584368028, 3624674.28258313704282 ], [ 675048.644900532439351, 3624690.263808191288263 ], [ 675036.097567236400209, 3624713.753006038721651 ] ] ], [ [ [ 675108.432307084091008, 3624845.351808304898441 ], [ 675115.135151961352676, 3624869.09807274164632 ], [ 675145.436750508961268, 3624898.030217207502574 ], [ 675158.882573499227874, 3624980.144445581361651 ], [ 675206.309380291029811, 3625099.790942200925201 ], [ 675250.319132069125772, 3625149.924854915589094 ], [ 675286.98060249350965, 3625210.16287170117721 ], [ 675309.632191765471362, 3625224.880079176276922 ], [ 675377.304691774072126, 3625240.210061494261026 ], [ 675414.055553283193149, 3625233.132106533739716 ], [ 675451.714801390073262, 3625212.887418827041984 ], [ 675464.223772854544222, 3625190.921676658093929 ], [ 675461.277794949244708, 3625164.790071021299809 ], [ 675485.80009319644887, 3625140.484440807718784 ], [ 675492.348697771201842, 3625122.182317099999636 ], [ 675488.395136811886914, 3625086.157883899286389 ], [ 675463.793129776022397, 3625059.807030964642763 ], [ 675495.250199200236239, 3625038.748798128217459 ], [ 675508.93777763156686, 3625008.268120548687875 ], [ 675507.63823475362733, 3624983.595299234613776 ], [ 675483.177753460360691, 3624936.069434967823327 ], [ 675435.735214268206619, 3624906.150107696652412 ], [ 675378.173921595560387, 3624908.996046636253595 ], [ 675342.44460843806155, 3624901.717972066719085 ], [ 675321.764023149269633, 3624871.512799442745745 ], [ 675278.473499218700454, 3624846.881757818628103 ], [ 675273.559073601965792, 3624807.149670838844031 ], [ 675242.086719159968197, 3624786.940672624856234 ], [ 675192.314397442154586, 3624783.881977956276387 ], [ 675154.837050935835578, 3624793.699162635952234 ], [ 675119.112085291650146, 3624816.967537298798561 ], [ 675108.432307084091008, 3624845.351808304898441 ] ], [ [ 675258.143219320103526, 3624982.781365333590657 ], [ 675233.548863298725337, 3624930.326371718663722 ], [ 675252.422840766259469, 3624938.967914439737797 ], [ 675258.551955041941255, 3624962.384140597190708 ], [ 675274.972936142818071, 3624978.805121697951108 ], [ 675318.197927178931423, 3624984.800443427171558 ], [ 675349.588388405856676, 3625001.129318986553699 ], [ 675384.682270375895314, 3624999.531429430004209 ], [ 675389.389946112525649, 3625013.468762054108083 ], [ 675341.402745436993428, 3625042.497035559266806 ], [ 675312.64111571200192, 3625071.235739800147712 ], [ 675291.865131484111771, 3625069.657861031591892 ], [ 675284.576279670931399, 3625061.904783156234771 ], [ 675285.594552941271104, 3625027.694826440885663 ], [ 675263.374560115975328, 3625005.599108438007534 ], [ 675258.143219320103526, 3624982.781365333590657 ] ], [ [ 675352.683812064002268, 3625142.697402572724968 ], [ 675352.020226689521223, 3625142.531183089129627 ], [ 675352.97629677108489, 3625142.078995617572218 ], [ 675352.683812064002268, 3625142.697402572724968 ] ] ] ] } },
{ "type": "Feature", "properties": { "depth_bin": "115-120" }, "geometry": { "type": "MultiPolygon", "coordinates": [ [ [ [ 674609.519530321122147, 3622781.290991791989654 ], [ 674350.191151491366327, 3622846.570045736152679 ], [ 674319.404093530960381, 3622870.494685022626072 ], [ 674317.687410669401288, 3622906.181339778006077 ], [ 674335.786722496734001, 3622926.15085305692628 ], [ 674361.610173587570898, 3622930.758095835335553 ], [ 674627.461223792051896, 3622860.900270125363022 ], [ 674755.633257272769697, 3622850.804752688854933 ], [ 674798.630073443055153, 3622855.159199297893792 ], [ 674914.201283480389975, 3622844.262516995426267 ], [ 674954.825650512007996, 3622852.89969253866002 ], [ 675072.028988495236263, 3622849.918173058889806 ], [ 675113.111803351086564, 3622862.982081226538867 ], [ 675186.500211205915548, 3622863.107748727314174 ], [ 675210.863796840189025, 3622851.584630907978863 ], [ 675222.386914659640752, 3622827.22104527335614 ], [ 675217.894727804115973, 3622802.9210344129242 ], [ 675197.925214524730109, 3622784.821722585242242 ], [ 675129.127329311566427, 3622778.921350736636668 ], [ 675062.036904025357217, 3622762.066677521914244 ], [ 675035.868983307736926, 3622767.429852855857462 ], [ 674844.678908053552732, 3622762.598673801869154 ], [ 674609.519530321122147, 3622781.290991791989654 ] ] ], [ [ [ 674639.525751251494512, 3623506.548693245276809 ], [ 674620.104007295332849, 3623530.214156728703529 ], [ 674622.758098462363705, 3623564.788493141066283 ], [ 674656.127460892312229, 3623639.570741031784564 ], [ 674671.740541732287966, 3623651.150190965738147 ], [ 674695.538917669910006, 3623654.117475696373731 ], [ 674793.660751671530306, 3623612.64386699302122 ], [ 674904.638950327993371, 3623576.827324718236923 ], [ 674947.645461056032218, 3623571.849860422313213 ], [ 674976.753895127563737, 3623556.256106044631451 ], [ 675063.500005394802429, 3623538.316897095181048 ], [ 675103.236167903873138, 3623538.706458578351885 ], [ 675182.313274995423853, 3623508.10601716581732 ], [ 675283.123977279406972, 3623507.124243166297674 ], [ 675313.732123694033362, 3623494.98678120598197 ], [ 675336.973543511005118, 3623473.676176872104406 ], [ 675348.573376314714551, 3623438.424306302331388 ], [ 675329.386663706158288, 3623344.92118329461664 ], [ 675316.28085113374982, 3623317.292302501853555 ], [ 675296.971820089383982, 3623304.390420439187437 ], [ 675268.600160746718757, 3623304.696944614872336 ], [ 675235.927739234874025, 3623294.092565326485783 ], [ 675184.989933770964853, 3623323.579244603868574 ], [ 675171.753343002521433, 3623344.224507703911513 ], [ 675149.18331296776887, 3623353.166254301555455 ], [ 675114.265077844029292, 3623391.958038302604109 ], [ 675040.296007197001018, 3623409.686646499671042 ], [ 675012.005212217802182, 3623433.002314224373549 ], [ 674948.655379980802536, 3623441.025579387322068 ], [ 674925.366511236410588, 3623459.819012979511172 ], [ 674812.149910496314988, 3623493.545194552280009 ], [ 674785.274504123721272, 3623491.512734843418002 ], [ 674742.065016422071494, 3623473.735453071072698 ], [ 674639.525751251494512, 3623506.548693245276809 ] ] ], [ [ [ 675039.953305308124982, 3624691.495415983255953 ], [ 675029.466141138342209, 3624715.959001123439521 ], [ 675030.180979263735935, 3624759.524024552665651 ], [ 675072.985677749267779, 3624806.411964188329875 ], [ 675097.248759881593287, 3624816.681774734985083 ], [ 675105.26819350628648, 3624865.076028282754123 ], [ 675136.613310250453651, 3624900.576529961079359 ], [ 675152.750379609875381, 3624981.514413930941373 ], [ 675198.690717152436264, 3625089.99509504577145 ], [ 675268.008544560405426, 3625190.074198750313371 ], [ 675300.825876328512095, 3625223.364499097224325 ], [ 675328.786011935095303, 3625227.39048337424174 ], [ 675368.660038567148149, 3625245.996154709719121 ], [ 675462.517480820650235, 3625215.868932941462845 ], [ 675476.373160670162179, 3625192.752127687912434 ], [ 675472.006935021607205, 3625163.818343090359122 ], [ 675490.216973970062099, 3625146.693392385262996 ], [ 675498.365783079760149, 3625125.382726012263447 ], [ 675495.73465453623794, 3625093.054242370184511 ], [ 675479.389530543121509, 3625066.625193118583411 ], [ 675509.99908043583855, 3625032.612175485119224 ], [ 675532.761276869685389, 3625021.326601314358413 ], [ 675543.708416838315316, 3625000.845942947547883 ], [ 675541.777537485468201, 3624964.023766876664013 ], [ 675519.59455547190737, 3624939.591484650503844 ], [ 675509.356464169104584, 3624912.13120435597375 ], [ 675486.857937445747666, 3624892.82073575630784 ], [ 675461.335290091694333, 3624884.974681098014116 ], [ 675351.010687873349525, 3624894.310511082876474 ], [ 675338.422043250640854, 3624872.970830388832837 ], [ 675310.028604223625734, 3624856.688905339688063 ], [ 675298.239811999024823, 3624840.505555321928114 ], [ 675292.605142355896533, 3624809.878479406237602 ], [ 675272.009168426273391, 3624782.632813981268555 ], [ 675222.641510164830834, 3624775.563865699805319 ], [ 675197.073713431600481, 3624758.36736014066264 ], [ 675161.46640605176799, 3624764.974251427222043 ], [ 675147.24697689875029, 3624710.178691189736128 ], [ 675120.749030644539744, 3624675.162286743987352 ], [ 675086.190613816957921, 3624667.551097405608743 ], [ 675039.953305308124982, 3624691.495415983255953 ] ], [ [ 675286.628782218671404, 3625070.373739506118 ], [ 675279.385611416888423, 3625032.111704358365387 ], [ 675260.018177205347456, 3625011.542413860093802 ], [ 675227.848043633857742, 3624919.290444739162922 ], [ 675261.73212930758018, 3624933.410792217124254 ], [ 675266.322723718360066, 3624956.482172304298729 ], [ 675286.292236997745931, 3624974.581484131980687 ], [ 675375.106689518783242, 3624990.054843347053975 ], [ 675407.900200410396792, 3624986.396905798465014 ], [ 675399.961731256684288, 3625012.018436214886606 ], [ 675329.342126107425429, 3625064.646358829922974 ], [ 675320.450303259654902, 3625093.844012802932411 ], [ 675286.628782218671404, 3625070.373739506118 ] ], [ [ 675337.243052798206918, 3625142.723568770103157 ], [ 675336.290866097784601, 3625121.983825170435011 ], [ 675370.23958001867868, 3625129.459817513357848 ], [ 675358.094173834775575, 3625145.745836666319519 ], [ 675337.243052798206918, 3625142.723568770103157 ] ] ], [ [ [ 675569.955357134225778, 3624738.713048879057169 ], [ 675550.64632608985994, 3624751.614930941723287 ], [ 675541.661693885806017, 3624778.92340706801042 ], [ 675525.409165878314525, 3624797.786000723950565 ], [ 675529.067192290327512, 3624836.839606347959489 ], [ 675558.405291169299744, 3624854.424186094198376 ], [ 675582.58882543980144, 3624849.050336731597781 ], [ 675628.708593645715155, 3624855.997375689446926 ], [ 675647.010717353317887, 3624849.448771114461124 ], [ 675660.064758606487885, 3624835.045856095384806 ], [ 675664.826278455555439, 3624814.666527028661221 ], [ 675646.856644956744276, 3624754.050167278386652 ], [ 675619.916383901727386, 3624735.479735849890858 ], [ 675569.955357134225778, 3624738.713048879057169 ] ] ] ] } },
{ "type": "Feature", "properties": { "depth_bin": "120-125" }, "geometry": { "type": "MultiPolygon", "coordinates": [ [ [ [ 674646.169573690043762, 3622775.894396618008614 ], [ 674540.404722034232691, 3622792.489984333049506 ], [ 674350.267855611862615, 3622843.523149554152042 ], [ 674319.519149847095832, 3622865.924341052770615 ], [ 674317.764114923891611, 3622903.134443800430745 ], [ 674335.863426751224324, 3622923.103957079350948 ], [ 674361.686877844622359, 3622927.711199800018221 ], [ 674633.143375054467469, 3622857.071724417153746 ], [ 674758.690895465086214, 3622846.931877947412431 ], [ 674803.315484469640069, 3622850.70389717258513 ], [ 674915.557853055885062, 3622841.314977299887687 ], [ 675047.260279234847985, 3622849.222879179287702 ], [ 675067.980642119655386, 3622843.555593541357666 ], [ 675123.891044651740231, 3622858.68017688812688 ], [ 675186.576914465986192, 3622860.060837177094072 ], [ 675210.940500100259669, 3622848.53771935775876 ], [ 675222.463617919711396, 3622824.174133723136038 ], [ 675215.039574249531142, 3622795.227052418515086 ], [ 675195.070060970145278, 3622777.127740590833127 ], [ 675114.078671708819456, 3622770.936339504085481 ], [ 675068.207425395026803, 3622759.173173883929849 ], [ 674855.419779400341213, 3622759.820228162221611 ], [ 674646.169573690043762, 3622775.894396618008614 ] ] ], [ [ [ 674653.294479447649792, 3623595.37749917851761 ], [ 674648.687222948879935, 3623621.200956268236041 ], [ 674661.022756515187211, 3623651.844224471598864 ], [ 674680.459295632201247, 3623668.138406655285507 ], [ 674702.734220705111511, 3623671.067332720384002 ], [ 674785.275937158148736, 3623635.454262821003795 ], [ 675039.135689382790588, 3623563.953564619645476 ], [ 675324.482892266009003, 3623530.557269768789411 ], [ 675344.963550632819533, 3623519.610129800159484 ], [ 675355.91069060144946, 3623499.129471433348954 ], [ 675346.62737392866984, 3623428.409094223286957 ], [ 675336.907996205613017, 3623406.228247830178589 ], [ 675321.29491536563728, 3623394.648797896225005 ], [ 675296.312224834924564, 3623386.881003653164953 ], [ 675243.416143262875266, 3623387.944787665270269 ], [ 675170.955925216781907, 3623420.649249566718936 ], [ 675126.941347828018479, 3623419.490305127110332 ], [ 675069.136960869189352, 3623451.461008347105235 ], [ 674966.208123603952117, 3623470.43149626115337 ], [ 674820.330380594241433, 3623521.868133658077568 ], [ 674771.15652326005511, 3623528.021647511515766 ], [ 674700.683249244117178, 3623559.918833676259965 ], [ 674653.294479447649792, 3623595.37749917851761 ] ] ], [ [ [ 675019.145829955930822, 3624685.405580431222916 ], [ 675014.5385528675979, 3624711.229044029954821 ], [ 675030.259116279659793, 3624766.081095780711621 ], [ 675084.165193536668085, 3624816.248082341160625 ], [ 675100.737592071993276, 3624873.041442808229476 ], [ 675135.561871505342424, 3624920.028489896096289 ], [ 675149.62672502186615, 3624984.484581267926842 ], [ 675192.694881736068055, 3625071.174303450621665 ], [ 675198.73047355376184, 3625098.075622074771672 ], [ 675266.446714439778589, 3625191.559281564317644 ], [ 675300.749128561117686, 3625226.411412429064512 ], [ 675364.012919030385092, 3625248.927946802228689 ], [ 675391.732749081333168, 3625247.705166302621365 ], [ 675470.096395977190696, 3625217.584260088391602 ], [ 675484.560109758167528, 3625196.790145066101104 ], [ 675481.109307335573249, 3625165.572042846120894 ], [ 675498.212289896910079, 3625131.476557933725417 ], [ 675484.908709033974446, 3625073.919626586604863 ], [ 675529.062032807152718, 3625047.148649974260479 ], [ 675575.46791434136685, 3625001.134132284205407 ], [ 675598.873289125273004, 3624964.605553591158241 ], [ 675600.551619851728901, 3624930.442346823401749 ], [ 675577.834883878706023, 3624908.412047156132758 ], [ 675587.448100840905681, 3624890.077129718847573 ], [ 675640.928034877055325, 3624880.605811179149896 ], [ 675668.74645873089321, 3624856.064530618488789 ], [ 675671.061059300089255, 3624831.430120789445937 ], [ 675649.87401137361303, 3624786.349477798677981 ], [ 675651.420922283898108, 3624763.860615223646164 ], [ 675641.701579689979553, 3624741.679748323746026 ], [ 675618.584774436079897, 3624727.824068474117666 ], [ 675585.381899869651534, 3624731.479455276858062 ], [ 675505.315372940851375, 3624783.915873415768147 ], [ 675480.419584101997316, 3624790.525773860514164 ], [ 675467.741732131224126, 3624804.301054979674518 ], [ 675423.911109009291977, 3624805.292751611210406 ], [ 675399.487739250645973, 3624834.249629272148013 ], [ 675391.071437168051489, 3624877.142599396407604 ], [ 675356.950165074784309, 3624882.905550505034626 ], [ 675296.89614882261958, 3624827.079918292351067 ], [ 675269.038997006719001, 3624779.509161166846752 ], [ 675214.899548828369007, 3624747.478844484314322 ], [ 675167.229879989055917, 3624749.910520677920431 ], [ 675146.520750661264174, 3624706.386867760214955 ], [ 675111.32664155040402, 3624671.46728873392567 ], [ 675048.180891190539114, 3624663.544953700620681 ], [ 675019.145829955930822, 3624685.405580431222916 ] ], [ [ 675276.976355836028233, 3625059.677904692944139 ], [ 675274.700125920353457, 3625036.56695451727137 ], [ 675257.18474725598935, 3625016.275733525399119 ], [ 675244.357464351225644, 3624970.252435837872326 ], [ 675230.922069142456166, 3624952.309643564280123 ], [ 675219.019923335174099, 3624901.86556554492563 ], [ 675245.092886371538043, 3624908.729403905104846 ], [ 675272.511438103625551, 3624929.108987991232425 ], [ 675279.158474401105195, 3624954.023786248639226 ], [ 675302.290956981945783, 3624971.640418474562466 ], [ 675434.737849957426079, 3624970.818064388819039 ], [ 675437.604295812197961, 3624991.859104927163571 ], [ 675365.778161272290163, 3625043.111002970021218 ], [ 675351.075051006744616, 3625061.694252842105925 ], [ 675352.638263155240566, 3625100.427831588312984 ], [ 675367.177388851763681, 3625116.392576825805008 ], [ 675386.874331523431465, 3625123.009704462252557 ], [ 675364.04720521485433, 3625151.011568592395633 ], [ 675332.725786263472401, 3625143.832037016283721 ], [ 675314.942356072599068, 3625100.881753955502063 ], [ 675276.976355836028233, 3625059.677904692944139 ] ] ] ] } },
{ "type": "Feature", "properties": { "depth_bin": "125-130" }, "geometry": { "type": "MultiPolygon", "coordinates": [ [ [ [ 674586.103736573713832, 3622782.628954340703785 ], [ 674339.565367266652174, 3622844.778133244719356 ], [ 674317.917523260810412, 3622866.425977250561118 ], [ 674317.879171198233962, 3622898.56409982778132 ], [ 674335.978483025566675, 3622918.533613106701523 ], [ 674361.801934122573584, 3622923.140855741687119 ], [ 674622.551587382680736, 3622856.538744281046093 ], [ 674763.058895177207887, 3622843.57364097982645 ], [ 675063.59864160430152, 3622838.910267722327262 ], [ 675101.230975106242113, 3622850.487627815455198 ], [ 675185.168513479526155, 3622855.452118278946728 ], [ 675209.532099113799632, 3622843.929000459611416 ], [ 675221.055216933251359, 3622819.565414824988693 ], [ 675215.154628858086653, 3622790.656685170251876 ], [ 675195.185115578700788, 3622772.557373342569917 ], [ 675080.471765960450284, 3622756.433075512293726 ], [ 674840.911627900670283, 3622756.697474312502891 ], [ 674614.865028614061885, 3622773.873227910604328 ], [ 674586.103736573713832, 3622782.628954340703785 ] ] ], [ [ [ 674694.934481059550308, 3623588.603772473055869 ], [ 674664.807855636347085, 3623607.330945053137839 ], [ 674655.920884703984484, 3623636.627362032886595 ], [ 674673.192573837703094, 3623674.855444425716996 ], [ 674705.397530698333867, 3623686.378562245052308 ], [ 674860.029200981254689, 3623627.647015090566128 ], [ 674992.668581787962466, 3623594.797518220264465 ], [ 675188.472934663179331, 3623566.189222752582282 ], [ 675333.655790766817518, 3623558.702588737942278 ], [ 675355.303188168792985, 3623542.647784629371017 ], [ 675363.49032429466024, 3623511.972276965621859 ], [ 675351.499878738890402, 3623467.61795023502782 ], [ 675325.320468509104103, 3623449.924615458585322 ], [ 675190.805170088657178, 3623451.496742832474411 ], [ 675092.875771388295107, 3623474.703157721552998 ], [ 675030.724010004312731, 3623480.152749162632972 ], [ 674902.595582911395468, 3623514.562506062909961 ], [ 674755.078110981849022, 3623561.154100379906595 ], [ 674694.934481059550308, 3623588.603772473055869 ] ] ], [ [ [ 675049.627606900408864, 3624666.630231542047113 ], [ 675029.146948533598334, 3624677.57737151067704 ], [ 675016.029959185863845, 3624697.220425584353507 ], [ 675025.725725130410865, 3624754.838552593719214 ], [ 675039.032432970474474, 3624778.809884325135499 ], [ 675077.412046314682811, 3624813.937532832846045 ], [ 675128.79854135774076, 3624918.656749673187733 ], [ 675158.029225113918073, 3625009.70086803054437 ], [ 675200.17718374566175, 3625101.160906697623432 ], [ 675267.816676150425337, 3625197.691481119953096 ], [ 675300.67238073667977, 3625229.458325756248087 ], [ 675363.936170850764029, 3625251.974861031398177 ], [ 675393.179458129568957, 3625250.790454868227243 ], [ 675473.104937801370397, 3625219.184465711005032 ], [ 675487.536595501704141, 3625192.184733189642429 ], [ 675483.483619784470648, 3625163.999529404100031 ], [ 675490.288013154291548, 3625135.630983332637697 ], [ 675478.510610437020659, 3625111.036927300971001 ], [ 675490.453837179578841, 3625073.187019905541092 ], [ 675522.442312598461285, 3625048.580251160543412 ], [ 675531.194450519164093, 3625028.034175738226622 ], [ 675566.737932317424566, 3625003.889184517320246 ], [ 675602.528488004812971, 3624956.995671414770186 ], [ 675656.97298026306089, 3624938.116598990280181 ], [ 675681.151696264045313, 3624905.700665563344955 ], [ 675685.106256906175986, 3624879.041183209512383 ], [ 675664.158413875033148, 3624818.466751955449581 ], [ 675640.355745240580291, 3624802.402838573791087 ], [ 675612.74204577493947, 3624802.596843525301665 ], [ 675614.435728070093319, 3624779.697783156763762 ], [ 675606.124734988552518, 3624762.125664670951664 ], [ 675569.760172115522437, 3624747.655636819079518 ], [ 675400.777488579507917, 3624805.288539373781532 ], [ 675386.045116599882022, 3624823.239986571017653 ], [ 675370.723000662983395, 3624870.835259534884244 ], [ 675349.679940503905527, 3624873.819975604768842 ], [ 675304.805844294489361, 3624838.826402393635362 ], [ 675281.694894119282253, 3624841.102632309310138 ], [ 675264.519985818536952, 3624854.167167777195573 ], [ 675255.633014886174351, 3624875.622213530819863 ], [ 675258.446851677726954, 3624896.37369292974472 ], [ 675284.852572261937894, 3624923.322029106784612 ], [ 675293.914722889196128, 3624948.342939469497651 ], [ 675312.497974481200799, 3624963.046045743394643 ], [ 675397.426709358231165, 3624959.930942782666534 ], [ 675470.119677241309546, 3624940.031076166313142 ], [ 675473.266929095378146, 3624946.519700548611581 ], [ 675474.105435376870446, 3624982.234114168677479 ], [ 675402.571378637687303, 3625034.89120439440012 ], [ 675383.222531123785302, 3625058.913177547976375 ], [ 675381.544200397329405, 3625093.076384315732867 ], [ 675406.996901578386314, 3625117.718959445599467 ], [ 675379.336226296261884, 3625137.553646316751838 ], [ 675370.489305228576995, 3625158.73869781428948 ], [ 675332.649039100739174, 3625146.878950352780521 ], [ 675307.286601427127607, 3625102.213341428432614 ], [ 675272.141529466607608, 3625063.558445737231523 ], [ 675268.567929774289951, 3625037.93692007753998 ], [ 675219.703648982685991, 3624934.946344323456287 ], [ 675205.603104550624266, 3624874.761963667348027 ], [ 675183.532514683785848, 3624843.755813860800117 ], [ 675190.75119608908426, 3624833.372124746907502 ], [ 675218.673588401055895, 3624845.867583674844354 ], [ 675253.957818504772149, 3624839.549200713634491 ], [ 675270.96642040007282, 3624814.094029102474451 ], [ 675264.993793676141649, 3624784.067606900818646 ], [ 675229.144578570732847, 3624753.640234357211739 ], [ 675169.327265576808713, 3624749.49887532973662 ], [ 675154.577978740097024, 3624714.166816666256636 ], [ 675105.271092549781315, 3624669.790354412514716 ], [ 675049.627606900408864, 3624666.630231542047113 ] ] ] ] } },
{ "type": "Feature", "properties": { "depth_bin": "130-135" }, "geometry": { "type": "MultiPolygon", "coordinates": [ [ [ [ 674869.393905932083726, 3622757.695316905155778 ], [ 674788.999093567836098, 3622759.963883063755929 ], [ 674751.052829553838819, 3622772.58363644964993 ], [ 674722.68739149114117, 3622764.100911085959524 ], [ 674682.015375080402009, 3622769.664974958170205 ], [ 674658.349911596626043, 3622789.086718914564699 ], [ 674655.349148741341196, 3622819.553975477814674 ], [ 674668.251030804007314, 3622838.863006521947682 ], [ 674689.706076557398774, 3622847.749977454543114 ], [ 674736.546458922326565, 3622845.009179371409118 ], [ 674755.298472499474883, 3622835.628791714087129 ], [ 674789.796172228991054, 3622842.741473592352122 ], [ 674934.33484546141699, 3622829.520311270374805 ], [ 674956.694267220678739, 3622839.226960835512727 ], [ 675010.889032459817827, 3622840.685170268174261 ], [ 675065.474706126260571, 3622832.477973121218383 ], [ 675105.266715195029974, 3622846.109873598441482 ], [ 675124.122584668104537, 3622841.386724172160029 ], [ 675139.81188574351836, 3622826.186477444600314 ], [ 675156.489893129561096, 3622843.150894966442138 ], [ 675178.392674048198387, 3622847.950747390277684 ], [ 675203.768405414768495, 3622838.871165524702519 ], [ 675217.624085264280438, 3622815.754360271152109 ], [ 675211.651458540349267, 3622785.727938069496304 ], [ 675186.196286928839982, 3622768.719336173962802 ], [ 675160.038425308070146, 3622770.918863092083484 ], [ 675141.224768767599016, 3622787.089744454715401 ], [ 675124.160936130210757, 3622769.309567977674305 ], [ 675091.09769836824853, 3622758.224992533680052 ], [ 674869.393905932083726, 3622757.695316905155778 ] ] ], [ [ [ 674822.274813499185257, 3623573.110632652416825 ], [ 674792.248391297762282, 3623567.138005928136408 ], [ 674699.327516253222711, 3623603.146902929991484 ], [ 674682.31891435792204, 3623628.602074541151524 ], [ 674688.253181872074492, 3623660.151948052924126 ], [ 674706.204629069659859, 3623674.884320032782853 ], [ 674725.432651977404021, 3623677.736527799163014 ], [ 674822.236454559722915, 3623641.151653687935323 ], [ 674835.290495812892914, 3623626.748738668859005 ], [ 674840.052004178403877, 3623606.36941714445129 ], [ 674822.274813499185257, 3623573.110632652416825 ] ] ], [ [ [ 675017.997829530620947, 3623508.212726941332221 ], [ 674979.719585653743707, 3623514.871034141629934 ], [ 674955.5976060758112, 3623532.496879978571087 ], [ 674949.624979351880029, 3623562.523302180226892 ], [ 674966.6335812471807, 3623587.978473791386932 ], [ 674995.823983874521218, 3623594.60379532771185 ], [ 675166.953003189293668, 3623573.269496678840369 ], [ 675332.818214061902836, 3623562.780016944278032 ], [ 675353.298872428713366, 3623551.832876975648105 ], [ 675364.821990248165093, 3623527.469291341025382 ], [ 675354.526636991999112, 3623493.564145176205784 ], [ 675324.556706903502345, 3623476.008857169188559 ], [ 675151.759728137636557, 3623488.624177819117904 ], [ 675017.997829530620947, 3623508.212726941332221 ] ] ], [ [ [ 675076.018503812490962, 3624681.248972163535655 ], [ 675049.359021458774805, 3624677.29441152093932 ], [ 675026.242216204875149, 3624691.150091370567679 ], [ 675017.355245272512548, 3624712.60513712419197 ], [ 675023.024144971277565, 3624741.050624673254788 ], [ 675052.175713391043246, 3624764.974698594771326 ], [ 675087.121355757582933, 3624755.062826212961227 ], [ 675073.865731914294884, 3624803.483870873227715 ], [ 675096.882200313266367, 3624833.065606087446213 ], [ 675103.100993912667036, 3624862.69728765077889 ], [ 675126.806195039767772, 3624879.267544758971781 ], [ 675127.08539619774092, 3624916.388962454628199 ], [ 675147.054909477126785, 3624934.488274282310158 ], [ 675177.669584066257812, 3624934.488274282310158 ], [ 675195.621031263843179, 3624919.755902302451432 ], [ 675202.16963583859615, 3624893.612407368607819 ], [ 675193.282664906233549, 3624872.157361614983529 ], [ 675171.915830136742443, 3624858.740026552695781 ], [ 675176.205538041191176, 3624835.030337713193148 ], [ 675168.784362819278613, 3624815.551688684150577 ], [ 675179.071956479572691, 3624781.747682292480022 ], [ 675165.5994724718621, 3624755.617294131778181 ], [ 675163.506173112429678, 3624730.405769702978432 ], [ 675136.715663322247565, 3624704.350214059464633 ], [ 675117.300663351430558, 3624703.396416272502393 ], [ 675098.718821728834882, 3624712.622569060884416 ], [ 675076.018503812490962, 3624681.248972163535655 ] ] ], [ [ [ 675182.118170179543085, 3624945.413256700150669 ], [ 675156.774375969311222, 3624968.383532834704965 ], [ 675158.105969145428389, 3625006.65395697299391 ], [ 675198.71963714575395, 3625082.936864155810326 ], [ 675219.20029551256448, 3625093.884004124440253 ], [ 675242.311245687771589, 3625091.607774208765477 ], [ 675263.95908969361335, 3625069.959930202923715 ], [ 675263.95908969361335, 3625039.345255613327026 ], [ 675248.040946785244159, 3625020.68308467278257 ], [ 675229.143595612957142, 3624961.47726563969627 ], [ 675206.864399884361774, 3624945.451628629118204 ], [ 675182.118170179543085, 3624945.413256700150669 ] ] ], [ [ [ 675315.451203670934774, 3625142.455320192035288 ], [ 675282.271859423723072, 3625150.766313273925334 ], [ 675267.840201723389328, 3625177.766045795287937 ], [ 675276.727172655751929, 3625207.062462775036693 ], [ 675310.963776475400664, 3625232.535836466122419 ], [ 675348.527410229318775, 3625228.126733168028295 ], [ 675365.797490184078924, 3625246.342982959002256 ], [ 675392.456972537795082, 3625250.297543601598591 ], [ 675452.963733977871016, 3625230.241565507370979 ], [ 675484.675231283996254, 3625192.219771497882903 ], [ 675479.656402346910909, 3625158.385575086809695 ], [ 675443.043043436482549, 3625131.28282878967002 ], [ 675409.52887146465946, 3625134.206844219937921 ], [ 675388.575017469702289, 3625165.610527006909251 ], [ 675371.487494872300886, 3625170.858934034593403 ], [ 675355.257365550845861, 3625154.756369891110808 ], [ 675315.451203670934774, 3625142.455320192035288 ] ] ], [ [ [ 675616.09695551963523, 3624843.536348209250718 ], [ 675589.191330654430203, 3624867.991712894756347 ], [ 675585.731497652013786, 3624919.247519386000931 ], [ 675608.701773786684498, 3624944.59131359634921 ], [ 675644.799727097619325, 3624944.620516322087497 ], [ 675668.465190581395291, 3624925.198772365693003 ], [ 675680.535877633141354, 3624894.533295685891062 ], [ 675679.582079846295528, 3624875.118295714724809 ], [ 675658.67524724744726, 3624849.89100141543895 ], [ 675616.09695551963523, 3624843.536348209250718 ] ] ], [ [ [ 675418.240082769538276, 3625045.543485801201314 ], [ 675409.237993399961852, 3625079.410276483278722 ], [ 675423.669651100295596, 3625106.410009004641324 ], [ 675452.966068080044352, 3625115.296979937236756 ], [ 675483.051089256885462, 3625099.418609978165478 ], [ 675491.938060189248063, 3625070.122192998416722 ], [ 675476.059690179186873, 3625040.037171825300902 ], [ 675445.239815290900879, 3625031.111828100867569 ], [ 675418.240082769538276, 3625045.543485801201314 ] ] ] ] } }
]
}
