{
"type": "FeatureCollection",
"name": "LM_08_MVF_20190509_CS_4918_4922_depth",
"crs": { "type": "name", "properties": { "name": "urn:ogc:def:crs:EPSG::26915" } },
"features": [
{ "type": "Feature", "properties": { "depth_bin": "95-100" }, "geometry": { "type": "MultiPolygon", "coordinates": [ [ [ [ 676072.627650111098774, 3636963.349370910786092 ], [ 676048.703576189582236, 3636934.197802491020411 ], [ 676011.173429574235342, 3636937.894199299626052 ], [ 675967.398872824851424, 3636991.155749436933547 ], [ 675971.095269633107819, 3637028.685896052513272 ], [ 675996.550441244617105, 3637045.694497948046774 ], [ 676026.576863446040079, 3637039.721871223766357 ], [ 676066.655023387167603, 3636993.375793112441897 ], [ 676072.627650111098774, 3636963.349370910786092 ] ] ], [ [ [ 676304.774235239485279, 3637174.2293909965083 ], [ 676280.850161317968741, 3637145.077822576742619 ], [ 676246.686954550328664, 3637146.756153303664178 ], [ 676209.033014974091202, 3637190.104388930369169 ], [ 676210.711345700547099, 3637224.26759569812566 ], [ 676234.376809184323065, 3637243.689339654520154 ], [ 676264.84406574757304, 3637240.688576798886061 ], [ 676298.801608515554108, 3637204.255813198164105 ], [ 676304.774235239485279, 3637174.2293909965083 ] ] ] ] } },
{ "type": "Feature", "properties": { "depth_bin": "100-105" }, "geometry": { "type": "MultiPolygon", "coordinates": [ [ [ [ 676128.438805162091739, 3636885.228480032179505 ], [ 676099.287236742326058, 3636861.304406110662967 ], [ 676063.199352614232339, 3636872.251546079292893 ], [ 675988.437567967572249, 3636964.068156065419316 ], [ 675983.907029474619776, 3636986.844711151439697 ], [ 675995.430147294071503, 3637011.208296786062419 ], [ 676023.714418541523628, 3637022.924025538377464 ], [ 676051.998689788975753, 3637011.208296786062419 ], [ 676124.742408353835344, 3636922.758626647759229 ], [ 676128.438805162091739, 3636885.228480032179505 ] ] ], [ [ [ 676269.499033572734334, 3637116.044441706500947 ], [ 676240.043288193526678, 3637151.487721140496433 ], [ 676235.512749700574204, 3637174.264276226516813 ], [ 676249.944407400907949, 3637201.264008747879416 ], [ 676279.240824380656704, 3637210.150979680474848 ], [ 676300.695870134048164, 3637201.264008747879416 ], [ 676335.57257026375737, 3637160.648274753242731 ], [ 676344.459541196119972, 3637131.351857773493975 ], [ 676332.936423376668245, 3637106.988272138871253 ], [ 676312.455765009857714, 3637096.041132170241326 ], [ 676289.344814834650606, 3637098.317362085916102 ], [ 676269.499033572734334, 3637116.044441706500947 ] ] ], [ [ [ 676584.728966345777735, 3637315.082861455157399 ], [ 676555.577397926012054, 3637291.158787533640862 ], [ 676522.398053678800352, 3637299.469780615530908 ], [ 676442.733297172235325, 3637392.237946213688701 ], [ 676438.202758679282852, 3637415.014501299709082 ], [ 676447.089729611645453, 3637436.469547053333372 ], [ 676474.089462133008055, 3637450.901204753667116 ], [ 676503.385879112756811, 3637442.014233821071684 ], [ 676581.03256953752134, 3637352.613008070737123 ], [ 676584.728966345777735, 3637315.082861455157399 ] ] ] ] } },
{ "type": "Feature", "properties": { "depth_bin": "105-110" }, "geometry": { "type": "MultiPolygon", "coordinates": [ [ [ [ 676147.638353383284993, 3636779.872850257903337 ], [ 676128.329322338919155, 3636792.774732320569456 ], [ 676064.207086252630688, 3636873.460349143482745 ], [ 676064.207086252630688, 3636904.075023733079433 ], [ 676085.85493025847245, 3636925.722867738921195 ], [ 676108.965880433679558, 3636927.999097654595971 ], [ 676129.446538800490089, 3636917.051957685966045 ], [ 676192.508524965611286, 3636840.373273008037359 ], [ 676199.093847243930213, 3636821.323743274901062 ], [ 676231.232433220604435, 3636793.295136210508645 ], [ 676237.205059944535606, 3636763.268714008852839 ], [ 676220.196458049234934, 3636737.8135423976928 ], [ 676190.17003584781196, 3636731.840915673412383 ], [ 676167.053230593912303, 3636745.696595523040742 ], [ 676147.638353383284993, 3636779.872850257903337 ] ] ], [ [ [ 676370.936272244085558, 3637084.896969437599182 ], [ 676345.592478033853695, 3637061.926693303044885 ], [ 676311.758281622896902, 3637066.945522240363061 ], [ 676277.474284519790672, 3637108.275787208694965 ], [ 676281.170681328047067, 3637145.805933824274689 ], [ 676306.625852939556353, 3637162.814535719808191 ], [ 676336.652275140979327, 3637156.841908995527774 ], [ 676369.257941517629661, 3637119.060176205355674 ], [ 676370.936272244085558, 3637084.896969437599182 ] ] ], [ [ [ 676604.659840361098759, 3637292.021502787712961 ], [ 676583.011996355256997, 3637270.3736587818712 ], [ 676548.84878958761692, 3637272.051989508792758 ], [ 676520.783951734541915, 3637303.553731021471322 ], [ 676522.462282460997812, 3637337.716937789227813 ], [ 676546.127745944773778, 3637357.138681745622307 ], [ 676576.595002508023754, 3637354.137918889988214 ], [ 676604.659840361098759, 3637322.63617737730965 ], [ 676604.659840361098759, 3637292.021502787712961 ] ] ] ] } },
{ "type": "Feature", "properties": { "depth_bin": "110-115" }, "geometry": { "type": "MultiPolygon", "coordinates": [ [ [ [ 676245.932901647174731, 3636747.692869264632463 ], [ 676219.266675308113918, 3636721.02664292557165 ], [ 676182.279556851368397, 3636728.383838220499456 ], [ 676167.811176067683846, 3636756.131086277309805 ], [ 676131.976197279989719, 3636791.075161423534155 ], [ 676129.123989513493143, 3636810.303184331394732 ], [ 676138.010960445855744, 3636831.758230085019022 ], [ 676165.010692967218347, 3636846.189887785352767 ], [ 676194.307109946967103, 3636837.302916852757335 ], [ 676218.457306794705801, 3636797.784606042783707 ], [ 676242.932138791889884, 3636778.160125827882439 ], [ 676245.932901647174731, 3636747.692869264632463 ] ] ], [ [ [ 676032.949922099593095, 3637006.619738250039518 ], [ 676013.528178143431433, 3636982.954274766612798 ], [ 675983.060921580181457, 3636979.953511910978705 ], [ 675959.395458096405491, 3636999.375255867373198 ], [ 675956.394695241120644, 3637029.842512430623174 ], [ 675975.816439197282307, 3637053.507975914049894 ], [ 676006.283695760532282, 3637056.508738769683987 ], [ 676029.949159244308248, 3637037.086994813289493 ], [ 676032.949922099593095, 3637006.619738250039518 ] ] ], [ [ [ 676328.159982595941983, 3637045.905140968970954 ], [ 676308.481550748692825, 3637069.659114128444344 ], [ 676303.951012255740352, 3637092.435669214464724 ], [ 676315.474130075192079, 3637116.799254849087447 ], [ 676335.954788442002609, 3637127.746394817717373 ], [ 676369.134132689214312, 3637119.435401735827327 ], [ 676412.321822903002612, 3637061.247419786639512 ], [ 676406.349196179071441, 3637031.220997584983706 ], [ 676380.894024567562155, 3637014.212395689450204 ], [ 676350.867602366139181, 3637020.185022413730621 ], [ 676328.159982595941983, 3637045.905140968970954 ] ] ], [ [ [ 676274.488418410066515, 3637205.492747123818845 ], [ 676255.066674453904852, 3637181.827283640392125 ], [ 676224.599417890654877, 3637178.826520784758031 ], [ 676200.933954406878911, 3637198.248264741152525 ], [ 676197.933191551594064, 3637228.7155213044025 ], [ 676217.354935507755727, 3637252.38098478782922 ], [ 676247.822192071005702, 3637255.381747643463314 ], [ 676271.487655554781668, 3637235.96000368706882 ], [ 676274.488418410066515, 3637205.492747123818845 ] ] ], [ [ [ 676634.558981287642382, 3637257.434177064802498 ], [ 676609.215187077410519, 3637234.463900930248201 ], [ 676575.380990666453727, 3637239.482729867566377 ], [ 676540.714825313887559, 3637280.492369530722499 ], [ 676544.411222122143954, 3637318.022516146302223 ], [ 676569.86639373365324, 3637335.031118041835725 ], [ 676599.892815935076214, 3637329.058491317555308 ], [ 676632.880650561186485, 3637291.59738383255899 ], [ 676634.558981287642382, 3637257.434177064802498 ] ] ], [ [ [ 676504.999879355425946, 3637407.315594998653978 ], [ 676483.352035349584185, 3637385.667750992812216 ], [ 676452.737360760453157, 3637385.667750992812216 ], [ 676431.089516754611395, 3637407.315594998653978 ], [ 676431.089516754611395, 3637437.930269588250667 ], [ 676452.737360760453157, 3637459.578113594092429 ], [ 676483.352035349584185, 3637459.578113594092429 ], [ 676504.999879355425946, 3637437.930269588250667 ], [ 676504.999879355425946, 3637407.315594998653978 ] ] ] ] } },
{ "type": "Feature", "properties": { "depth_bin": "115-120" }, "geometry": { "type": "MultiPolygon", "coordinates": [ [ [ [ 676265.296452923794277, 3636724.15383006632328 ], [ 676242.326176789123565, 3636698.810035855975002 ], [ 676208.162970021483488, 3636700.48836658289656 ], [ 676180.381921837339178, 3636732.225850707385689 ], [ 676182.060252563795075, 3636766.389057475142181 ], [ 676205.725716047571041, 3636785.810801431536674 ], [ 676236.192972610821016, 3636782.810038575902581 ], [ 676262.29569006850943, 3636754.621086629573256 ], [ 676265.296452923794277, 3636724.15383006632328 ] ] ], [ [ [ 676548.247402037377469, 3636878.17491356888786 ], [ 676528.825658081215806, 3636854.50945008546114 ], [ 676498.358401517965831, 3636851.508687229827046 ], [ 676474.692938034189865, 3636870.93043118622154 ], [ 676471.692175178905018, 3636901.397687749471515 ], [ 676491.113919135066681, 3636925.063151232898235 ], [ 676521.581175698316656, 3636928.063914088532329 ], [ 676545.246639182092622, 3636908.642170132137835 ], [ 676548.247402037377469, 3636878.17491356888786 ] ] ], [ [ [ 676023.268178884056397, 3637018.387675490230322 ], [ 676003.846434927894734, 3636994.722212006803602 ], [ 675973.379178364644758, 3636991.721449151169509 ], [ 675949.713714880868793, 3637011.143193107564002 ], [ 675946.712952025583945, 3637041.610449670813978 ], [ 675966.134695981745608, 3637065.275913154240698 ], [ 675996.601952544995584, 3637068.276676009874791 ], [ 676020.267416028771549, 3637048.854932053480297 ], [ 676023.268178884056397, 3637018.387675490230322 ] ] ], [ [ [ 676421.145334442378953, 3637030.143091068603098 ], [ 676401.72359048621729, 3637006.477627585176378 ], [ 676371.256333922967315, 3637003.476864729542285 ], [ 676347.590870439191349, 3637022.898608685936779 ], [ 676344.590107583906502, 3637053.365865249186754 ], [ 676364.011851540068164, 3637077.031328732613474 ], [ 676394.47910810331814, 3637080.032091588247567 ], [ 676418.144571587094106, 3637060.610347631853074 ], [ 676421.145334442378953, 3637030.143091068603098 ] ] ], [ [ [ 676264.711205105180852, 3637217.182057328522205 ], [ 676245.289461149019189, 3637193.516593845095485 ], [ 676214.822204585769214, 3637190.515830989461392 ], [ 676191.156741101993248, 3637209.937574945855886 ], [ 676188.155978246708401, 3637240.404831509105861 ], [ 676207.577722202870063, 3637264.070294992532581 ], [ 676238.044978766120039, 3637267.071057848166674 ], [ 676261.710442249896005, 3637247.649313891772181 ], [ 676264.711205105180852, 3637217.182057328522205 ] ] ], [ [ [ 676645.846760319895111, 3637249.600989775266498 ], [ 676626.425016363733448, 3637225.935526291839778 ], [ 676595.957759800483473, 3637222.934763436205685 ], [ 676572.292296316707507, 3637242.356507392600179 ], [ 676569.291533461422659, 3637272.823763955850154 ], [ 676588.713277417584322, 3637296.489227439276874 ], [ 676619.180533980834298, 3637299.489990294910967 ], [ 676642.845997464610264, 3637280.068246338516474 ], [ 676645.846760319895111, 3637249.600989775266498 ] ] ], [ [ [ 676496.356961541925557, 3637422.540662926156074 ], [ 676476.935217585763894, 3637398.875199442729354 ], [ 676446.467961022513919, 3637395.874436587095261 ], [ 676422.802497538737953, 3637415.296180543489754 ], [ 676419.801734683453105, 3637445.76343710673973 ], [ 676439.223478639614768, 3637469.42890059016645 ], [ 676469.690735202864744, 3637472.429663445800543 ], [ 676493.35619868664071, 3637453.007919489406049 ], [ 676496.356961541925557, 3637422.540662926156074 ] ] ] ] } },
{ "type": "Feature", "properties": { "depth_bin": "120-125" }, "geometry": { "type": "MultiPolygon", "coordinates": [ [ [ [ 676273.652736233780161, 3636708.686730429530144 ], [ 676252.004892227938399, 3636687.038886423688382 ], [ 676221.390217638807371, 3636687.038886423688382 ], [ 676199.742373632965609, 3636708.686730429530144 ], [ 676199.742373632965609, 3636739.301405019126832 ], [ 676221.390217638807371, 3636760.949249024968594 ], [ 676252.004892227938399, 3636760.949249024968594 ], [ 676273.652736233780161, 3636739.301405019126832 ], [ 676273.652736233780161, 3636708.686730429530144 ] ] ], [ [ [ 676556.702278079465032, 3636862.789514984935522 ], [ 676531.358483869233169, 3636839.819238850381225 ], [ 676497.524287458276376, 3636844.838067787699401 ], [ 676463.237301398068666, 3636886.168310372624546 ], [ 676466.933698206325062, 3636923.698456988204271 ], [ 676492.388869817834347, 3636940.707058883737773 ], [ 676522.415292019257322, 3636934.734432159457356 ], [ 676555.023947353009135, 3636896.952721752692014 ], [ 676556.702278079465032, 3636862.789514984935522 ] ] ], [ [ [ 676439.377522702328861, 3637003.068379186093807 ], [ 676417.729678696487099, 3636981.420535180252045 ], [ 676383.566471928847022, 3636983.098865907173604 ], [ 676355.689851300907321, 3637014.757710744161159 ], [ 676357.368182027363218, 3637048.920917511917651 ], [ 676381.033645511139184, 3637068.342661468312144 ], [ 676411.50090207438916, 3637065.341898612678051 ], [ 676439.377522702328861, 3637033.683053775690496 ], [ 676439.377522702328861, 3637003.068379186093807 ] ] ], [ [ [ 676674.420465037110262, 3637211.317721101921052 ], [ 676649.076670826878399, 3637188.347444967366755 ], [ 676615.242474415921606, 3637193.366273904684931 ], [ 676580.57931227539666, 3637234.375900660641491 ], [ 676584.275709083653055, 3637271.906047276221216 ], [ 676609.730880695162341, 3637288.914649171754718 ], [ 676639.757302896585315, 3637282.942022447474301 ], [ 676672.742134310654365, 3637245.480927869677544 ], [ 676674.420465037110262, 3637211.317721101921052 ] ] ], [ [ [ 676251.933128718519583, 3637221.626881220843643 ], [ 676228.267665234743617, 3637202.205137264449149 ], [ 676197.800408671493642, 3637205.205900120083243 ], [ 676178.378664715331979, 3637228.871363603509963 ], [ 676181.379427570616826, 3637259.338620166759938 ], [ 676205.044891054392792, 3637278.760364123154432 ], [ 676235.512147617642768, 3637275.759601267520338 ], [ 676254.933891573804431, 3637252.094137784093618 ], [ 676251.933128718519583, 3637221.626881220843643 ] ] ], [ [ [ 676485.06917925470043, 3637430.373829029034823 ], [ 676463.421335248858668, 3637408.725985023193061 ], [ 676432.80666065972764, 3637408.725985023193061 ], [ 676411.158816653885879, 3637430.373829029034823 ], [ 676411.158816653885879, 3637460.988503618631512 ], [ 676432.80666065972764, 3637482.636347624473274 ], [ 676463.421335248858668, 3637482.636347624473274 ], [ 676485.06917925470043, 3637460.988503618631512 ], [ 676485.06917925470043, 3637430.373829029034823 ] ] ], [ [ [ 677611.222420664038509, 3636127.561813033185899 ], [ 677582.070852244272828, 3636103.637739111669362 ], [ 677548.891507997061126, 3636111.948732193559408 ], [ 677507.41590415360406, 3636162.152628774289042 ], [ 677504.563696387107484, 3636181.380651682149619 ], [ 677513.450667319470085, 3636202.835697435773909 ], [ 677540.450399840832688, 3636217.267355136107653 ], [ 677569.746816820581444, 3636208.380384203512222 ], [ 677609.544089937582612, 3636161.725019800942391 ], [ 677611.222420664038509, 3636127.561813033185899 ] ] ], [ [ [ 676923.56992102554068, 3636923.086118785198778 ], [ 676894.418352605774999, 3636899.16204486368224 ], [ 676861.239008358563296, 3636907.473037945572287 ], [ 676846.837432718835771, 3636934.269973686896265 ], [ 676828.434345386689529, 3636944.696709202602506 ], [ 676801.507983971037902, 3636977.183376895729452 ], [ 676796.977445478085428, 3636999.959931981749833 ], [ 676805.86441641044803, 3637021.414977735374123 ], [ 676832.864148931810632, 3637035.846635435707867 ], [ 676862.160565911559388, 3637026.959664503112435 ], [ 676896.495923640439287, 3636977.104462843388319 ], [ 676921.891590299084783, 3636957.24932555295527 ], [ 676923.56992102554068, 3636923.086118785198778 ] ] ], [ [ [ 676742.505749827483669, 3637127.065313819330186 ], [ 676718.840286343707703, 3637107.643569862935692 ], [ 676688.373029780457728, 3637110.644332718569785 ], [ 676668.951285824296065, 3637134.309796201996505 ], [ 676671.952048679580912, 3637164.777052765246481 ], [ 676695.617512163356878, 3637184.198796721640974 ], [ 676726.084768726606853, 3637181.198033866006881 ], [ 676745.506512682768516, 3637157.532570382580161 ], [ 676742.505749827483669, 3637127.065313819330186 ] ] ] ] } },
{ "type": "Feature", "properties": { "depth_bin": "125-130" }, "geometry": { "type": "MultiPolygon", "coordinates": [ [ [ [ 676397.827729062642902, 3636552.135293356608599 ], [ 676370.354491369333118, 3636531.759751613251865 ], [ 676337.175147122121416, 3636540.070744695141912 ], [ 676304.912918137502857, 3636582.919034912250936 ], [ 676312.270113432197832, 3636619.906153369229287 ], [ 676339.269845953560434, 3636634.337811069563031 ], [ 676368.56626293330919, 3636625.450840136967599 ], [ 676399.506059789098799, 3636586.298500124365091 ], [ 676397.827729062642902, 3636552.135293356608599 ] ] ], [ [ [ 676279.637975245364942, 3636690.003282234538347 ], [ 676254.182803633855656, 3636672.994680339004844 ], [ 676224.156381432432681, 3636678.967307063285261 ], [ 676207.14777953713201, 3636704.422478674445301 ], [ 676213.120406261063181, 3636734.448900876101106 ], [ 676238.575577872572467, 3636751.457502771634609 ], [ 676268.602000073995441, 3636745.484876047354192 ], [ 676285.610601969296113, 3636720.029704436194152 ], [ 676279.637975245364942, 3636690.003282234538347 ] ] ], [ [ [ 676565.962503997725435, 3636763.009214951656759 ], [ 676533.353852345375344, 3636800.790945024695247 ], [ 676529.246612734743394, 3636826.421149379108101 ], [ 676496.265617668512277, 3636844.184693139046431 ], [ 676490.140275783487596, 3636873.18159335013479 ], [ 676462.130826998734847, 3636884.883820940740407 ], [ 676418.0470813884167, 3636937.702851171605289 ], [ 676411.477060060598888, 3636956.440922902897 ], [ 676378.940867972210981, 3636984.463474232237786 ], [ 676372.96824124827981, 3637014.489896433893591 ], [ 676389.976843143580481, 3637039.945068045053631 ], [ 676416.120338077540509, 3637046.493672620039433 ], [ 676440.483923711813986, 3637034.970554800704122 ], [ 676461.805766558623873, 3636998.481686774641275 ], [ 676479.590137128019705, 3636988.209931740071625 ], [ 676523.673882738337852, 3636935.390901509206742 ], [ 676529.799224623362534, 3636906.394001298118383 ], [ 676557.808673408115283, 3636894.691773707512766 ], [ 676568.908492345246486, 3636859.633167578373104 ], [ 676596.914974166778848, 3636847.931085745338351 ], [ 676646.971333881956525, 3636780.692791647743434 ], [ 676640.998707158025354, 3636750.666369446087629 ], [ 676615.543535546516068, 3636733.657767550554127 ], [ 676588.884053192799911, 3636737.612328193150461 ], [ 676565.962503997725435, 3636763.009214951656759 ] ] ], [ [ [ 676008.567628127988428, 3637019.547290527261794 ], [ 675983.112456516479142, 3637002.538688631728292 ], [ 675953.086034315056168, 3637008.511315356008708 ], [ 675936.077432419755496, 3637033.966486967168748 ], [ 675942.050059143686667, 3637063.992909168824553 ], [ 675967.505230755195953, 3637081.001511064358056 ], [ 675997.531652956618927, 3637075.028884340077639 ], [ 676014.540254851919599, 3637049.573712728917599 ], [ 676008.567628127988428, 3637019.547290527261794 ] ] ], [ [ [ 676921.037246592808515, 3636838.298102578613907 ], [ 676833.425273366621695, 3636939.228999435435981 ], [ 676827.205213906476274, 3636967.587365622632205 ], [ 676795.899074499728158, 3636982.192684984765947 ], [ 676787.341093648108654, 3637013.706972936168313 ], [ 676753.696163652813993, 3637031.465193503070623 ], [ 676747.723536928882822, 3637061.491615704726428 ], [ 676764.732138824183494, 3637086.946787315886468 ], [ 676790.875633758143522, 3637093.49539189087227 ], [ 676815.239219392416999, 3637081.972274071536958 ], [ 676826.433347131125629, 3637047.549446239136159 ], [ 676855.103763881721534, 3637035.852687599137425 ], [ 676866.298336586565711, 3637001.432859485037625 ], [ 676894.968329106224701, 3636989.736080003902316 ], [ 676991.655265278881416, 3636876.545305745210499 ], [ 676994.656028134166263, 3636846.078049181960523 ], [ 676975.2342841780046, 3636822.412585698533803 ], [ 676944.767027614754625, 3636819.41182284289971 ], [ 676921.037246592808515, 3636838.298102578613907 ] ] ], [ [ [ 676750.453128225984983, 3637112.169223465491086 ], [ 676721.115029347012751, 3637094.584643719252199 ], [ 676688.910072486381978, 3637106.107761538587511 ], [ 676657.486387797049247, 3637153.325906810816377 ], [ 676639.080148857668974, 3637163.753431763034314 ], [ 676612.156878112698905, 3637196.240124063100666 ], [ 676607.626339619746432, 3637219.016679149121046 ], [ 676619.149457439198159, 3637243.380264783743769 ], [ 676647.433728686650284, 3637255.095993536058813 ], [ 676675.717999934102409, 3637243.380264783743769 ], [ 676707.141586828744039, 3637196.162131112534553 ], [ 676725.547825768124312, 3637185.734606160316616 ], [ 676752.471194307785481, 3637153.247902259230614 ], [ 676757.001732800737955, 3637130.471347173210233 ], [ 676750.453128225984983, 3637112.169223465491086 ] ] ], [ [ [ 677259.439916729112156, 3635504.645060340873897 ], [ 677231.966679035802372, 3635484.269518597517163 ], [ 677195.878794907708652, 3635495.216658566147089 ], [ 677138.805407897685654, 3635567.043709691613913 ], [ 677136.529177982010879, 3635590.154659867286682 ], [ 677147.476317950640805, 3635610.635318234097213 ], [ 677175.76058919809293, 3635622.351046986412257 ], [ 677204.044860445545055, 3635610.635318234097213 ], [ 677259.439916729112156, 3635542.356799286790192 ], [ 677259.439916729112156, 3635504.645060340873897 ] ] ], [ [ [ 677483.843551006168127, 3635748.696076242718846 ], [ 677456.370313312858343, 3635728.320534499362111 ], [ 677423.190969065646641, 3635736.631527581252158 ], [ 677382.279598052729852, 3635787.316148759331554 ], [ 677379.427390286233276, 3635806.544171667192131 ], [ 677388.314361218595877, 3635827.999217420816422 ], [ 677415.31409373995848, 3635842.430875121150166 ], [ 677444.610510719707236, 3635833.543904188554734 ], [ 677485.521881732624024, 3635782.859283010475338 ], [ 677483.843551006168127, 3635748.696076242718846 ] ] ], [ [ [ 677617.491349488147534, 3636109.117065082769841 ], [ 677588.153250609175302, 3636091.532485336530954 ], [ 677555.948293748544529, 3636103.055603155866265 ], [ 677544.425175929092802, 3636127.419188790488988 ], [ 677550.194999172003008, 3636152.263365569058806 ], [ 677515.546790547086857, 3636153.71230750111863 ], [ 677479.195155792403966, 3636193.19182491209358 ], [ 677474.664617299451493, 3636215.96837999811396 ], [ 677486.18773511890322, 3636240.331965632736683 ], [ 677514.472006366355345, 3636252.047694385051727 ], [ 677542.75627761380747, 3636240.331965632736683 ], [ 677572.680273449397646, 3636200.600545165129006 ], [ 677568.440225844155066, 3636168.065666909329593 ], [ 677595.843952086172067, 3636169.617487832903862 ], [ 677619.509415569948032, 3636150.195743876509368 ], [ 677624.039954062900506, 3636127.419188790488988 ], [ 677617.491349488147534, 3636109.117065082769841 ] ] ] ] } },
{ "type": "Feature", "properties": { "depth_bin": "130-135" }, "geometry": { "type": "MultiPolygon", "coordinates": [ [ [ [ 676424.854836641694419, 3636513.461272325366735 ], [ 676395.516737762722187, 3636495.876692579127848 ], [ 676360.675634015002288, 3636510.308350279461592 ], [ 676336.955759984441102, 3636540.367301506921649 ], [ 676332.898064931621775, 3636566.331508139614016 ], [ 676305.224449118599296, 3636578.017237314023077 ], [ 676294.173715618671849, 3636613.406750582158566 ], [ 676266.500632626004517, 3636625.092453580815345 ], [ 676220.784153956105001, 3636681.599148125387728 ], [ 676216.829593313974328, 3636708.258630479220301 ], [ 676230.685273163486272, 3636731.375435732770711 ], [ 676259.981690143235028, 3636740.262406665366143 ], [ 676286.981422664597631, 3636725.830748965032399 ], [ 676330.06175444740802, 3636672.232594301458448 ], [ 676334.119908620836213, 3636646.271482808049768 ], [ 676361.792991613503546, 3636634.585779809392989 ], [ 676372.843265992822126, 3636599.193171401973814 ], [ 676397.608341924962588, 3636590.143589114304632 ], [ 676424.854836641694419, 3636557.906890966929495 ], [ 676431.596052149543539, 3636535.684081646148115 ], [ 676424.854836641694419, 3636513.461272325366735 ] ] ], [ [ [ 676638.116449990542606, 3636674.465334550011903 ], [ 676564.703834894462489, 3636762.355730504263192 ], [ 676558.578057768987492, 3636791.349696563091129 ], [ 676533.477667222847231, 3636800.415751801338047 ], [ 676504.024856706848368, 3636835.862281762529165 ], [ 676501.024093851563521, 3636866.32953832577914 ], [ 676520.445837807725184, 3636889.99500180920586 ], [ 676547.105320161441341, 3636893.949562451802194 ], [ 676570.222125415340997, 3636880.093882602173835 ], [ 676594.130249163368717, 3636850.19203940872103 ], [ 676598.237960207043216, 3636824.565013197716326 ], [ 676626.246890634065494, 3636812.862811072729528 ], [ 676748.546093627926894, 3636666.522247769869864 ], [ 676752.242490436183289, 3636628.99210115429014 ], [ 676730.594646430341527, 3636607.344257148448378 ], [ 676699.979971841210499, 3636607.344257148448378 ], [ 676638.116449990542606, 3636674.465334550011903 ] ] ], [ [ [ 676474.787342888419516, 3636949.39218975417316 ], [ 676449.332171276910231, 3636932.383587858639657 ], [ 676416.152827029698528, 3636940.694580940529704 ], [ 676392.522935817134567, 3636975.500901618972421 ], [ 676400.833928898675367, 3637008.680245866533369 ], [ 676427.83366142003797, 3637023.111903566867113 ], [ 676457.130078399786726, 3637014.224932634271681 ], [ 676479.806171825504862, 3636983.226386165246367 ], [ 676474.787342888419516, 3636949.39218975417316 ] ] ], [ [ [ 676471.404333157232031, 3637434.987393605988473 ], [ 676445.949161545722745, 3637417.978791710454971 ], [ 676415.922739344299771, 3637423.951418434735388 ], [ 676398.914137448999099, 3637449.406590045895427 ], [ 676404.88676417293027, 3637479.433012247551233 ], [ 676430.341935784439556, 3637496.441614143084735 ], [ 676460.368357985862531, 3637490.468987418804318 ], [ 676477.376959881163202, 3637465.013815807644278 ], [ 676471.404333157232031, 3637434.987393605988473 ] ] ], [ [ [ 677021.620110214687884, 3635707.071029074024409 ], [ 677003.270584493642673, 3635731.816231121774763 ], [ 677001.948152364813723, 3635758.734955506864935 ], [ 677018.002956473268569, 3635780.382352908607572 ], [ 677044.146451407228597, 3635786.930957483593374 ], [ 677068.510037041502073, 3635775.407839664258063 ], [ 677109.869990639039315, 3635725.420553297735751 ], [ 677118.756961571401916, 3635696.124136317986995 ], [ 677104.325303871068172, 3635669.124403796624392 ], [ 677075.028886891319416, 3635660.23743286402896 ], [ 677053.573841137927957, 3635669.124403796624392 ], [ 677021.620110214687884, 3635707.071029074024409 ] ] ], [ [ [ 677039.466991391964257, 3636777.820749382954091 ], [ 677010.128892512992024, 3636760.236169636715204 ], [ 676977.923935652361251, 3636771.759287456050515 ], [ 676929.388572493451647, 3636830.852910633198917 ], [ 676927.112342577776872, 3636853.963860808871686 ], [ 676938.059482546406798, 3636874.444519175682217 ], [ 676966.343753793858923, 3636886.160247927997261 ], [ 676994.628025041311048, 3636874.444519175682217 ], [ 677043.163388200220652, 3636815.350895998533815 ], [ 677039.466991391964257, 3636777.820749382954091 ] ] ], [ [ [ 676850.112934999284334, 3636996.874775598756969 ], [ 676820.774836120312102, 3636979.290195852518082 ], [ 676788.569879259681329, 3636990.813313671853393 ], [ 676693.900903540081345, 3637100.640069019515067 ], [ 676687.680832349229604, 3637128.998356124386191 ], [ 676665.072301334701478, 3637135.720622340682894 ], [ 676644.070980996475555, 3637158.285746308974922 ], [ 676637.522376421722583, 3637184.429241242818534 ], [ 676649.04549424117431, 3637208.792826877441257 ], [ 676677.329765488626435, 3637220.508555629756302 ], [ 676705.61403673607856, 3637208.792826877441257 ], [ 676724.250291955890134, 3637184.286744127515703 ], [ 676726.773966338485479, 3637162.843929048627615 ], [ 676755.44395927968435, 3637151.147149587981403 ], [ 676850.112934999284334, 3637041.320394240319729 ], [ 676856.854150507133454, 3637019.097584919538349 ], [ 676850.112934999284334, 3636996.874775598756969 ] ] ], [ [ [ 677199.337665336439386, 3635571.896345740184188 ], [ 677173.8824937249301, 3635554.887743844650686 ], [ 677140.703149477718398, 3635563.198736926540732 ], [ 677108.437871558358893, 3635606.047081372700632 ], [ 677115.795066853053868, 3635643.034199829678982 ], [ 677142.794799374416471, 3635657.465857530012727 ], [ 677172.091216354165226, 3635648.578886597417295 ], [ 677204.356494273524731, 3635605.730542151257396 ], [ 677199.337665336439386, 3635571.896345740184188 ] ] ], [ [ [ 677442.71627985604573, 3635792.090254354290664 ], [ 677413.378180977073498, 3635774.505674608051777 ], [ 677378.537077229353599, 3635788.937332308385521 ], [ 677325.294152737245895, 3635853.907760319299996 ], [ 677320.571003311197273, 3635872.763629792258143 ], [ 677326.843914453522302, 3635894.205120481550694 ], [ 677303.883988211164251, 3635891.982927793171257 ], [ 677286.311869725235738, 3635900.293920875061303 ], [ 677245.400563411181793, 3635950.975484078750014 ], [ 677248.629402170074172, 3635987.725557216443121 ], [ 677221.857845959370025, 3635986.455782702192664 ], [ 677200.210448557394557, 3636002.510586810763925 ], [ 677193.661843982641585, 3636028.654081744607538 ], [ 677208.093501682975329, 3636055.653814265970141 ], [ 677237.389918662724085, 3636064.540785198565573 ], [ 677264.389651184086688, 3636050.109127498231828 ], [ 677273.276622116449289, 3636028.654081744607538 ], [ 677267.195575591060333, 3636003.290660288650542 ], [ 677290.159357592230663, 3636005.514232589863241 ], [ 677310.640015959041193, 3635994.567092621233314 ], [ 677348.642782392213121, 3635946.521676304284483 ], [ 677345.414689949480817, 3635909.772848320193589 ], [ 677368.374616191838868, 3635911.995041008573025 ], [ 677385.946734677767381, 3635903.684047926682979 ], [ 677442.71627985604573, 3635836.535872995853424 ], [ 677449.45749536389485, 3635814.313063675072044 ], [ 677442.71627985604573, 3635792.090254354290664 ] ] ], [ [ [ 677707.185568256070837, 3636005.35367725091055 ], [ 677681.730396644561552, 3635988.345075355377048 ], [ 677648.551052397349849, 3635996.656068437267095 ], [ 677624.730048868572339, 3636031.302162328269333 ], [ 677633.04104195011314, 3636064.481506575830281 ], [ 677660.040774471475743, 3636078.913164276164025 ], [ 677689.337191451224498, 3636070.026193343568593 ], [ 677712.204397193156183, 3636039.187873661983758 ], [ 677707.185568256070837, 3636005.35367725091055 ] ] ], [ [ [ 677637.425099039217457, 3636086.058587261009961 ], [ 677611.969927427708171, 3636069.049985365476459 ], [ 677578.790583180496469, 3636077.360978447366506 ], [ 677554.969578129821457, 3636112.007062452379614 ], [ 677563.280571211362258, 3636145.186406699940562 ], [ 677590.28030373272486, 3636159.618064400274307 ], [ 677619.576720712473616, 3636150.731093467678875 ], [ 677642.443927976302803, 3636119.892783672083169 ], [ 677637.425099039217457, 3636086.058587261009961 ] ] ], [ [ [ 677535.427097348612733, 3636198.201229055877775 ], [ 677508.42736482725013, 3636183.769571355544031 ], [ 677479.130947847501375, 3636192.656542288139462 ], [ 677464.69929014716763, 3636219.656274809502065 ], [ 677473.586261079530232, 3636248.952691789250821 ], [ 677500.585993600892834, 3636263.384349489584565 ], [ 677529.88241058064159, 3636254.497378556989133 ], [ 677544.314068280975334, 3636227.497646035626531 ], [ 677535.427097348612733, 3636198.201229055877775 ] ] ] ] } },
{ "type": "Feature", "properties": { "depth_bin": "135-140" }, "geometry": { "type": "MultiPolygon", "coordinates": [ [ [ [ 676989.941944371326827, 3635745.287114039994776 ], [ 676961.657716212794185, 3635791.031641589477658 ], [ 676944.172485357616097, 3635801.228466026019305 ], [ 676924.500527744181454, 3635829.669507111888379 ], [ 676927.501290599466302, 3635860.136763675138354 ], [ 676951.166754083242267, 3635879.558507631532848 ], [ 676970.581754054059274, 3635880.512305418495089 ], [ 676991.062412420869805, 3635869.565165449865162 ], [ 677012.300997425336391, 3635832.683288213331252 ], [ 677029.786228280514479, 3635822.486463776789606 ], [ 677068.821688574156724, 3635770.506145426537842 ], [ 677065.820925718871877, 3635740.038888863287866 ], [ 677042.155462235095911, 3635720.617144906893373 ], [ 677015.236737850354984, 3635721.939577035605907 ], [ 676989.941944371326827, 3635745.287114039994776 ] ] ], [ [ [ 676482.939161712187342, 3636442.843619284685701 ], [ 676453.60106283321511, 3636425.259039538446814 ], [ 676421.396105972584337, 3636436.782157357782125 ], [ 676364.32268033712171, 3636508.605649389792234 ], [ 676362.046450421446934, 3636531.716599565465003 ], [ 676372.993590390076861, 3636552.197257932275534 ], [ 676401.277861637528986, 3636563.912986684590578 ], [ 676429.562132884981111, 3636552.197257932275534 ], [ 676484.95722779398784, 3636483.922298078425229 ], [ 676489.487766286940314, 3636461.145742992404848 ], [ 676482.939161712187342, 3636442.843619284685701 ] ] ], [ [ [ 676787.655373354791664, 3636575.315910159610212 ], [ 676758.317274475819431, 3636557.731330413371325 ], [ 676726.112317615188658, 3636569.254448232706636 ], [ 676686.786995831644163, 3636620.998673443682492 ], [ 676685.833198044798337, 3636640.413673414848745 ], [ 676696.780338013428263, 3636660.894331781659275 ], [ 676725.064609260880388, 3636672.61006053397432 ], [ 676753.348880508332513, 3636660.894331781659275 ], [ 676791.351770163048059, 3636612.846056775189936 ], [ 676787.655373354791664, 3636575.315910159610212 ] ] ], [ [ [ 676357.085771644022316, 3636595.846685487776995 ], [ 676331.63060003251303, 3636578.838083592243493 ], [ 676298.451255785301328, 3636587.149076674133539 ], [ 676266.189027038635686, 3636629.997255724389106 ], [ 676273.546222333330661, 3636666.984374181367457 ], [ 676300.545954854693264, 3636681.416031881701201 ], [ 676329.842371834442019, 3636672.529060949105769 ], [ 676362.104600581107661, 3636629.680881898850203 ], [ 676357.085771644022316, 3636595.846685487776995 ] ] ], [ [ [ 676990.797913502901793, 3636757.593947688583285 ], [ 676976.942233653389849, 3636780.710752942133695 ], [ 676980.896794295520522, 3636807.370235295966268 ], [ 677000.866307574906386, 3636825.469547123648226 ], [ 677027.785031959647313, 3636826.791979252360761 ], [ 677044.457916116924025, 3636816.798637070693076 ], [ 677099.262290798476897, 3636753.088256239891052 ], [ 677104.281119735562243, 3636719.254059828817844 ], [ 677084.85937577940058, 3636695.588596345391124 ], [ 677054.392119216150604, 3636692.587833489757031 ], [ 676990.797913502901793, 3636757.593947688583285 ] ] ], [ [ [ 676780.352259385981597, 3637077.581834180746228 ], [ 676754.897087774472311, 3637060.573232285212725 ], [ 676724.870665573049337, 3637066.545859009493142 ], [ 676707.862063677748665, 3637092.001030620653182 ], [ 676713.834690401679836, 3637122.027452822308987 ], [ 676739.289862013189122, 3637139.036054717842489 ], [ 676769.316284214612097, 3637133.063427993562073 ], [ 676786.324886109912768, 3637107.608256382402033 ], [ 676780.352259385981597, 3637077.581834180746228 ] ] ], [ [ [ 676240.140745259122923, 3637229.949421969708055 ], [ 676214.685573647613637, 3637212.940820074174553 ], [ 676184.659151446190663, 3637218.91344679845497 ], [ 676167.650549550889991, 3637244.36861840961501 ], [ 676173.623176274821162, 3637274.395040611270815 ], [ 676199.078347886330448, 3637291.403642506804317 ], [ 676229.104770087753423, 3637285.4310157825239 ], [ 676246.113371983054094, 3637259.97584417136386 ], [ 676240.140745259122923, 3637229.949421969708055 ] ] ], [ [ [ 677267.103457321994938, 3635489.510001488961279 ], [ 677241.648285710485652, 3635472.501399593427777 ], [ 677211.621863509062678, 3635478.474026317708194 ], [ 677194.613261613762006, 3635503.929197928868234 ], [ 677200.585888337693177, 3635533.955620130524039 ], [ 677226.041059949202463, 3635550.964222026057541 ], [ 677256.067482150625437, 3635544.991595301777124 ], [ 677273.076084045926109, 3635519.536423690617085 ], [ 677267.103457321994938, 3635489.510001488961279 ] ] ], [ [ [ 677170.292482011835091, 3635607.206861946266145 ], [ 677140.954383132862858, 3635589.622282200027257 ], [ 677108.749426272232085, 3635601.145400019362569 ], [ 677051.676102129858918, 3635672.969389163888991 ], [ 677049.399872214184143, 3635696.08033933956176 ], [ 677060.347012182814069, 3635716.560997706372291 ], [ 677088.631283430266194, 3635728.276726458687335 ], [ 677116.915554677718319, 3635716.560997706372291 ], [ 677172.310548093635589, 3635648.285540740005672 ], [ 677176.841086586588062, 3635625.508985653985292 ], [ 677170.292482011835091, 3635607.206861946266145 ] ] ], [ [ [ 677227.648152075475082, 3635970.430972924921662 ], [ 677147.630632441258058, 3636067.876676738727838 ], [ 677147.630632441258058, 3636098.491351328324527 ], [ 677169.27847644709982, 3636120.139195334166288 ], [ 677192.389426622306928, 3636122.415425249841064 ], [ 677212.870084989117458, 3636111.468285281211138 ], [ 677305.837241534725763, 3636000.195188648998737 ], [ 677312.578457042574883, 3635977.972379328217357 ], [ 677306.304779578815214, 3635956.529610109049827 ], [ 677343.687772769131698, 3635952.780560962855816 ], [ 677381.714235845487565, 3635909.82893287576735 ], [ 677390.601206777850166, 3635888.37388712214306 ], [ 677384.052602203097194, 3635862.230392188299447 ], [ 677358.597430591587909, 3635845.221790292765945 ], [ 677328.571008390164934, 3635851.194417017046362 ], [ 677284.509782147943042, 3635904.214439176023006 ], [ 677287.738640912109986, 3635940.964545689988881 ], [ 677253.72258756950032, 3635942.69552875449881 ], [ 677227.648152075475082, 3635970.430972924921662 ] ] ], [ [ [ 677687.254920680192299, 3636028.412253113929182 ], [ 677657.916821801220067, 3636010.827673367690295 ], [ 677625.711864940589294, 3636022.350791187025607 ], [ 677577.176458227680996, 3636081.444779126904905 ], [ 677574.90022831200622, 3636104.555729302577674 ], [ 677585.847368280636147, 3636125.036387669388205 ], [ 677614.131639528088272, 3636136.752116421703249 ], [ 677642.415910775540397, 3636125.036387669388205 ], [ 677690.951317488448694, 3636065.942399729508907 ], [ 677687.254920680192299, 3636028.412253113929182 ] ] ], [ [ [ 677527.800136337638833, 3636212.883415722753853 ], [ 677498.4620374586666, 3636195.298835976514965 ], [ 677466.257080598035827, 3636206.821953795850277 ], [ 677389.500905782566406, 3636296.955009317025542 ], [ 677384.970367289613932, 3636319.731564403045923 ], [ 677396.493485109065659, 3636344.095150037668645 ], [ 677424.777756356517784, 3636355.81087878998369 ], [ 677453.062027603969909, 3636344.095150037668645 ], [ 677529.818202419439331, 3636253.96209451649338 ], [ 677534.348740912391804, 3636231.185539430473 ], [ 677527.800136337638833, 3636212.883415722753853 ] ] ] ] } },
{ "type": "Feature", "properties": { "depth_bin": "140-145" }, "geometry": { "type": "MultiPolygon", "coordinates": [ [ [ [ 676930.28604228713084, 3635904.811116203200072 ], [ 676902.812804593821056, 3635884.435574459843338 ], [ 676869.633460346609354, 3635892.746567541733384 ], [ 676855.164915747824125, 3635920.497150131035596 ], [ 676829.011901997379027, 3635943.670125208329409 ], [ 676826.159694230882451, 3635962.898148116189986 ], [ 676835.046665163245052, 3635984.353193869814277 ], [ 676862.046397684607655, 3635998.784851570148021 ], [ 676891.342814664356411, 3635989.897880637552589 ], [ 676905.81135926314164, 3635962.147298048250377 ], [ 676931.964373013586737, 3635938.974322970956564 ], [ 676930.28604228713084, 3635904.811116203200072 ] ] ], [ [ [ 676550.708200695109554, 3636360.458078694995493 ], [ 676521.370101816137321, 3636342.873498948756605 ], [ 676489.165144955506548, 3636354.396616768091917 ], [ 676404.724893250735477, 3636457.978740422986448 ], [ 676400.194354757783003, 3636480.755295509006828 ], [ 676411.71747257723473, 3636505.118881143629551 ], [ 676440.001743824686855, 3636516.834609895944595 ], [ 676468.28601507213898, 3636505.118881143629551 ], [ 676552.726266776910052, 3636401.53675748873502 ], [ 676557.256805269862525, 3636378.76020240271464 ], [ 676550.708200695109554, 3636360.458078694995493 ] ] ], [ [ [ 676846.316148261772469, 3636505.176210759207606 ], [ 676816.978049382800236, 3636487.591631012968719 ], [ 676784.773092522169463, 3636499.114748832304031 ], [ 676709.342360675800592, 3636590.375331054907292 ], [ 676704.811822182848118, 3636613.151886140927672 ], [ 676716.334940002299845, 3636637.515471775550395 ], [ 676744.61921124975197, 3636649.23120052786544 ], [ 676772.903482497204095, 3636637.515471775550395 ], [ 676848.334214343572967, 3636546.254889552947134 ], [ 676852.86475283652544, 3636523.478334466926754 ], [ 676846.316148261772469, 3636505.176210759207606 ] ] ], [ [ [ 675998.888980718445964, 3637031.315403217449784 ], [ 675973.433809106936678, 3637014.306801321916282 ], [ 675943.407386905513704, 3637020.279428046196699 ], [ 675926.398785010213032, 3637045.734599657356739 ], [ 675932.371411734144203, 3637075.761021859012544 ], [ 675957.826583345653489, 3637092.769623754546046 ], [ 675987.853005547076464, 3637086.796997030265629 ], [ 676004.861607442377135, 3637061.341825419105589 ], [ 675998.888980718445964, 3637031.315403217449784 ] ] ], [ [ [ 677025.079049733816646, 3635783.750567527022213 ], [ 676995.740950854844414, 3635766.165987780783325 ], [ 676963.535993994213641, 3635777.689105600118637 ], [ 676942.294270991231315, 3635814.571762972977012 ], [ 676916.141266937134787, 3635837.744735621381551 ], [ 676913.865037021460012, 3635860.855685797054321 ], [ 676924.812176990089938, 3635881.336344163864851 ], [ 676953.096448237542063, 3635893.052072916179895 ], [ 676981.380719484994188, 3635881.336344163864851 ], [ 676992.940726179629564, 3635856.221868223976344 ], [ 677028.775446542073041, 3635821.280714142601937 ], [ 677025.079049733816646, 3635783.750567527022213 ] ] ], [ [ [ 677110.323635836713947, 3636110.711001486051828 ], [ 677076.316039350815117, 3636161.525912112090737 ], [ 677058.531563539290801, 3636171.797693508211523 ], [ 677046.987062146072276, 3636196.59655178617686 ], [ 677029.199613280361518, 3636206.86907789343968 ], [ 676992.875154548324645, 3636251.365952418651432 ], [ 676989.874391693039797, 3636281.833208981901407 ], [ 677009.29613564920146, 3636305.498672465328127 ], [ 677035.955618002917618, 3636309.453233107924461 ], [ 677056.436276369728148, 3636298.506093139294535 ], [ 677090.742669019964524, 3636257.376158461906016 ], [ 677097.312657168484293, 3636238.638762110844254 ], [ 677120.074619278893806, 3636222.304774076677859 ], [ 677126.644505936536007, 3636203.569443618878722 ], [ 677144.428981748060323, 3636193.297662222757936 ], [ 677205.728944104281254, 3636120.249189340975136 ], [ 677214.039937185822055, 3636087.069845093414187 ], [ 677197.031335290521383, 3636061.614673482254148 ], [ 677167.004913089098409, 3636055.642046757973731 ], [ 677146.524254722287878, 3636066.589186726603657 ], [ 677110.323635836713947, 3636110.711001486051828 ] ] ], [ [ [ 677097.514450899325311, 3636633.406011992134154 ], [ 677019.082912334124558, 3636727.090311053209007 ], [ 677019.082912334124558, 3636757.704985642805696 ], [ 677040.73075633996632, 3636779.352829648647457 ], [ 677063.841706515173428, 3636781.629059564322233 ], [ 677084.322364881983958, 3636770.681919595692307 ], [ 677176.652909787022509, 3636664.007666756864637 ], [ 677185.53988071938511, 3636642.552621003240347 ], [ 677176.652909787022509, 3636613.256204023491591 ], [ 677149.653177265659906, 3636598.824546323157847 ], [ 677123.509682331699878, 3636605.373150898143649 ], [ 677097.514450899325311, 3636633.406011992134154 ] ] ], [ [ [ 677717.150891720200889, 3635993.824387198314071 ], [ 677691.695720108691603, 3635976.815785302780569 ], [ 677661.669297907268628, 3635982.788412027060986 ], [ 677644.660696011967957, 3636008.243583638221025 ], [ 677650.633322735899128, 3636038.270005839876831 ], [ 677676.088494347408414, 3636055.278607735410333 ], [ 677706.114916548831388, 3636049.305981011129916 ], [ 677723.12351844413206, 3636023.850809399969876 ], [ 677717.150891720200889, 3635993.824387198314071 ] ] ], [ [ [ 677448.071211742819287, 3636305.117322790436447 ], [ 677418.733112863847055, 3636287.532743044197559 ], [ 677386.528156003216282, 3636299.055860863532871 ], [ 677299.806640723836608, 3636400.717979331500828 ], [ 677295.276102230884135, 3636423.494534417521209 ], [ 677306.799220050335862, 3636447.858120052143931 ], [ 677335.083491297787987, 3636459.573848804458976 ], [ 677363.367762545240112, 3636447.858120052143931 ], [ 677450.089277824619785, 3636346.196001584175974 ], [ 677454.619816317572258, 3636323.419446498155594 ], [ 677448.071211742819287, 3636305.117322790436447 ] ] ] ] } },
{ "type": "Feature", "properties": { "depth_bin": "145-150" }, "geometry": { "type": "MultiPolygon", "coordinates": [ [ [ [ 676806.001530991401523, 3635968.909118135459721 ], [ 676712.837372015113942, 3636084.902750551234931 ], [ 676712.837372015113942, 3636115.51742514083162 ], [ 676734.485216020955704, 3636137.165269146673381 ], [ 676757.596166196162812, 3636139.441499062348157 ], [ 676778.076824562973343, 3636128.494359093718231 ], [ 676974.335148922284134, 3635890.195980117190629 ], [ 676983.414730787742883, 3635864.820248750504106 ], [ 676974.335148922284134, 3635839.444517383817583 ], [ 676947.335416400921531, 3635825.012859683483839 ], [ 676918.038999421172775, 3635833.899830616079271 ], [ 676806.001530991401523, 3635968.909118135459721 ] ] ], [ [ [ 676666.879789837519638, 3636219.222779436036944 ], [ 676637.541690958547406, 3636201.638199689798057 ], [ 676605.336734097916633, 3636213.161317509133369 ], [ 676491.854371398221701, 3636352.053905374836177 ], [ 676487.323832905269228, 3636374.830460460856557 ], [ 676498.846950724720955, 3636399.19404609547928 ], [ 676527.13122197217308, 3636410.909774847794324 ], [ 676555.415493219625205, 3636399.19404609547928 ], [ 676666.879789837519638, 3636263.668398077599704 ], [ 676673.621005345368758, 3636241.445588756818324 ], [ 676666.879789837519638, 3636219.222779436036944 ] ] ], [ [ [ 676817.013526630122215, 3636461.410321877337992 ], [ 676787.557813217979856, 3636496.853658679872751 ], [ 676783.027274725027382, 3636519.630213765893131 ], [ 676797.458932425361127, 3636546.629946287255734 ], [ 676826.755349405109882, 3636555.516917219851166 ], [ 676853.755081926472485, 3636541.085259519517422 ], [ 677049.295131279970519, 3636307.286974721588194 ], [ 677058.18210221233312, 3636285.831928967963904 ], [ 677052.10124267055653, 3636260.468819475732744 ], [ 677089.484060518210754, 3636256.719707590993494 ], [ 677137.290835457271896, 3636202.078732156660408 ], [ 677146.177806389634497, 3636172.782315176911652 ], [ 677134.65468857018277, 3636148.418729542288929 ], [ 677106.370417322730646, 3636136.703000789973885 ], [ 677078.086146075278521, 3636148.418729542288929 ], [ 677030.306069897022098, 3636208.153585804160684 ], [ 677033.534721672302112, 3636244.903346978127956 ], [ 677010.571100264787674, 3636242.679832138586789 ], [ 676990.090441897977144, 3636253.626972107216716 ], [ 676817.013526630122215, 3636461.410321877337992 ] ] ], [ [ [ 676461.438982563442551, 3637446.516507090069354 ], [ 676435.983810951933265, 3637429.507905194535851 ], [ 676405.95738875051029, 3637435.480531918816268 ], [ 676388.948786855209619, 3637460.935703529976308 ], [ 676394.92141357914079, 3637490.962125731632113 ], [ 676420.376585190650076, 3637507.970727627165616 ], [ 676450.40300739207305, 3637501.998100902885199 ], [ 676467.411609287373722, 3637476.542929291725159 ], [ 676461.438982563442551, 3637446.516507090069354 ] ] ], [ [ [ 677489.261402538162656, 3635730.486555372364819 ], [ 677462.261670016800053, 3635716.054897672031075 ], [ 677432.965253037051298, 3635724.941868604626507 ], [ 677418.533595336717553, 3635751.941601125989109 ], [ 677427.420566269080155, 3635781.238018105737865 ], [ 677454.420298790442757, 3635795.669675806071609 ], [ 677483.716715770191513, 3635786.782704873476177 ], [ 677498.148373470525257, 3635759.782972352113575 ], [ 677489.261402538162656, 3635730.486555372364819 ] ] ], [ [ [ 677358.37694473087322, 3636408.880280093289912 ], [ 677329.038845851900987, 3636391.295700347051024 ], [ 677296.833888991270214, 3636402.818818166386336 ], [ 677122.439042125362903, 3636604.879910887684673 ], [ 677115.890437550609931, 3636631.023405821528286 ], [ 677127.413555370061658, 3636655.386991456151009 ], [ 677155.697826617513783, 3636667.102720208466053 ], [ 677183.982097864965908, 3636655.386991456151009 ], [ 677358.37694473087322, 3636453.325898734852672 ], [ 677365.118160238722339, 3636431.103089414071292 ], [ 677358.37694473087322, 3636408.880280093289912 ] ] ] ] } },
{ "type": "Feature", "properties": { "depth_bin": "150-155" }, "geometry": { "type": "MultiPolygon", "coordinates": [ [ [ [ 676653.742311762529425, 3636154.314769629389048 ], [ 676585.661767525249161, 3636241.602233847603202 ], [ 676588.662530380534008, 3636272.069490410853177 ], [ 676612.327993864309974, 3636291.491234367247671 ], [ 676631.742993835126981, 3636292.445032154209912 ], [ 676652.223652201937512, 3636281.497892185579985 ], [ 676771.034271177137271, 3636137.357042856980115 ], [ 676779.921242109499872, 3636115.901997103355825 ], [ 676775.390703616547398, 3636093.125442017335445 ], [ 676751.725240132771432, 3636073.703698060940951 ], [ 676721.257983569521457, 3636076.704460916575044 ], [ 676653.742311762529425, 3636154.314769629389048 ] ] ], [ [ [ 676235.382260136888362, 3637252.250147664919496 ], [ 676215.9605161807267, 3637228.584684181492776 ], [ 676185.493259617476724, 3637225.583921325858682 ], [ 676161.827796133700758, 3637245.005665282253176 ], [ 676158.827033278415911, 3637275.472921845503151 ], [ 676178.248777234577574, 3637299.138385328929871 ], [ 676208.716033797827549, 3637302.139148184563965 ], [ 676232.381497281603515, 3637282.717404228169471 ], [ 676235.382260136888362, 3637252.250147664919496 ] ] ] ] } },
{ "type": "Feature", "properties": { "depth_bin": "155-160" }, "geometry": { "type": "Polygon", "coordinates": [ [ [ 675995.948376395506784, 3637065.309144514147192 ], [ 675984.232647642958909, 3637037.024873266462237 ], [ 675955.948376395506784, 3637025.309144514147192 ], [ 675927.664105148054659, 3637037.024873266462237 ], [ 675915.948376395506784, 3637065.309144514147192 ], [ 675927.664105148054659, 3637093.593415761832148 ], [ 675955.948376395506784, 3637105.309144514147192 ], [ 675984.232647642958909, 3637093.593415761832148 ], [ 675995.948376395506784, 3637065.309144514147192 ] ] ] } },
{ "type": "Feature", "properties": { "depth_bin": "160-165" }, "geometry": { "type": "Polygon", "coordinates": [ [ [ 677283.526457438594662, 3635499.961594001855701 ], [ 677271.810728686046787, 3635471.677322754170746 ], [ 677243.526457438594662, 3635459.961594001855701 ], [ 677215.242186191142537, 3635471.677322754170746 ], [ 677203.526457438594662, 3635499.961594001855701 ], [ 677215.242186191142537, 3635528.245865249540657 ], [ 677243.526457438594662, 3635539.961594001855701 ], [ 677271.810728686046787, 3635528.245865249540657 ], [ 677283.526457438594662, 3635499.961594001855701 ] ] ] } },
{ "type": "Feature", "properties": { "depth_bin": "165-170" }, "geometry": { "type": "Polygon", "coordinates": [ [ [ 677733.860529410419986, 3636004.517983320634812 ], [ 677722.144800657872111, 3635976.233712072949857 ], [ 677693.860529410419986, 3635964.517983320634812 ], [ 677665.576258162967861, 3635976.233712072949857 ], [ 677653.860529410419986, 3636004.517983320634812 ], [ 677665.576258162967861, 3636032.802254568319768 ], [ 677693.860529410419986, 3636044.517983320634812 ], [ 677722.144800657872111, 3636032.802254568319768 ], [ 677733.860529410419986, 3636004.517983320634812 ] ] ] } }
]
}
