{
"type": "FeatureCollection",
"name": "LM_07_FMB_20160713_CS_MB_4713_4718_depth",
"crs": { "type": "name", "properties": { "name": "urn:ogc:def:crs:EPSG::26915" } },
"features": [
{ "type": "Feature", "properties": { "depth_bin": "45-50" }, "geometry": { "type": "Polygon", "coordinates": [ [ [ 676230.439400168252178, 3616500.67426240304485 ], [ 676210.063858425244689, 3616528.147500095888972 ], [ 676218.336558733484708, 3616562.850311184767634 ], [ 676264.570187751320191, 3616596.246535651385784 ], [ 676288.555589062278159, 3616597.315212375950068 ], [ 676306.127707548206672, 3616589.004219294060022 ], [ 676320.559365248540416, 3616562.004486772697419 ], [ 676311.748980247532018, 3616529.661135520320386 ], [ 676273.017806360614486, 3616501.02677561249584 ], [ 676230.439400168252178, 3616500.67426240304485 ] ] ] } },
{ "type": "Feature", "properties": { "depth_bin": "50-55" }, "geometry": { "type": "Polygon", "coordinates": [ [ [ 676200.141876097419299, 3616488.849140788894147 ], [ 676186.071217659278773, 3616512.300147224683315 ], [ 676188.318726128549315, 3616540.894239605870098 ], [ 676228.030424615484662, 3616585.268012000247836 ], [ 676271.419706058688462, 3616605.471478493884206 ], [ 676302.874459001352079, 3616602.723434361629188 ], [ 676323.745250321109779, 3616588.336378094740212 ], [ 676332.05624340265058, 3616570.764259608928114 ], [ 676331.217327146558091, 3616546.778757927473634 ], [ 676291.658893528743647, 3616496.311113298404962 ], [ 676246.096325971884653, 3616476.147189491428435 ], [ 676216.814760254696012, 3616478.855798607226461 ], [ 676200.141876097419299, 3616488.849140788894147 ] ] ] } },
{ "type": "Feature", "properties": { "depth_bin": "55-60" }, "geometry": { "type": "Polygon", "coordinates": [ [ [ 676209.427184938453138, 3616469.523436235263944 ], [ 676183.871115072048269, 3616488.36611437285319 ], [ 676174.79153320658952, 3616513.741845739539713 ], [ 676182.178689457126893, 3616547.908965797629207 ], [ 676205.469888173858635, 3616576.040187654085457 ], [ 676266.50985498726368, 3616610.873344098683447 ], [ 676304.283047050936148, 3616607.332129140850157 ], [ 676328.649953724467196, 3616594.483320271130651 ], [ 676339.597093693097122, 3616574.002661904320121 ], [ 676339.109122421243228, 3616543.95836270134896 ], [ 676320.198325307806954, 3616510.262506678234786 ], [ 676265.25358190224506, 3616473.096995256841183 ], [ 676209.427184938453138, 3616469.523436235263944 ] ] ] } },
{ "type": "Feature", "properties": { "depth_bin": "60-65" }, "geometry": { "type": "Polygon", "coordinates": [ [ [ 676180.96904921066016, 3616467.417705039959401 ], [ 676162.948016813024879, 3616486.847326430957764 ], [ 676158.340890831430443, 3616512.670914215501398 ], [ 676174.408186023589224, 3616553.811368210241199 ], [ 676196.228987815091386, 3616576.846524980850518 ], [ 676273.324837040738203, 3616616.096309461630881 ], [ 676316.47088543290738, 3616607.638476352673024 ], [ 676337.341676927637309, 3616593.251420005690306 ], [ 676347.635655795689672, 3616541.828660162165761 ], [ 676321.936872757039964, 3616504.694306129124016 ], [ 676251.123021478648297, 3616462.365612471941859 ], [ 676212.777241449686699, 3616458.737983861472458 ], [ 676180.96904921066016, 3616467.417705039959401 ] ] ] } },
{ "type": "Feature", "properties": { "depth_bin": "65-70" }, "geometry": { "type": "Polygon", "coordinates": [ [ [ 676164.038092994713224, 3616469.648420691955835 ], [ 676149.321182229090482, 3616492.300292729400098 ], [ 676149.20630228635855, 3616520.093565678689629 ], [ 676165.838572624023072, 3616553.863326076418161 ], [ 676194.696631556726061, 3616583.640412386041135 ], [ 676274.733424630132504, 3616620.705003949813545 ], [ 676304.625717667280696, 3616618.120848556514829 ], [ 676344.212152387597598, 3616591.736844609025866 ], [ 676355.099821206182241, 3616563.721220321953297 ], [ 676352.900177192525007, 3616537.563335217535496 ], [ 676326.483758184011094, 3616502.798343880102038 ], [ 676289.042070219176821, 3616472.644108859822154 ], [ 676223.021547563606873, 3616449.557742960751057 ], [ 676164.038092994713224, 3616469.648420691955835 ] ] ] } },
{ "type": "Feature", "properties": { "depth_bin": "70-75" }, "geometry": { "type": "Polygon", "coordinates": [ [ [ 676161.303388281259686, 3616450.732956982217729 ], [ 676141.885740804485977, 3616473.139925946015865 ], [ 676137.012263132375665, 3616512.134816728532314 ], [ 676153.689034845330752, 3616552.033515583723783 ], [ 676179.355977678555064, 3616580.995702873449773 ], [ 676276.142012101016007, 3616625.313698516227305 ], [ 676306.034305224660784, 3616622.729543425608426 ], [ 676343.282374109840021, 3616599.498462038580328 ], [ 676359.59363770368509, 3616566.883034237660468 ], [ 676357.508872588048689, 3616536.154746520332992 ], [ 676290.977864695596509, 3616462.756446726620197 ], [ 676219.631238465430215, 3616437.371159992646426 ], [ 676188.063583989045583, 3616438.97280552983284 ], [ 676161.303388281259686, 3616450.732956982217729 ] ] ] } },
{ "type": "Feature", "properties": { "depth_bin": "75-80" }, "geometry": { "type": "Polygon", "coordinates": [ [ [ 676136.115697238245048, 3616447.530532652977854 ], [ 676121.929625570657663, 3616494.119912006426603 ], [ 676139.444946455652826, 3616549.883700311649591 ], [ 676170.138593599549495, 3616583.812878202181309 ], [ 676213.053332878509536, 3616605.7891182792373 ], [ 676239.213644288363867, 3616632.016777681652457 ], [ 676279.103415231802501, 3616638.71224706294015 ], [ 676314.076752588152885, 3616624.213029474020004 ], [ 676350.191142819006927, 3616596.460419402457774 ], [ 676364.164040287374519, 3616566.997913227416575 ], [ 676362.040982248261571, 3616537.793092848267406 ], [ 676294.263441568473354, 3616446.860046291258186 ], [ 676202.267399668926373, 3616426.169654330704361 ], [ 676166.203867626725696, 3616430.326297182589769 ], [ 676136.115697238245048, 3616447.530532652977854 ] ] ] } },
{ "type": "Feature", "properties": { "depth_bin": "80-85" }, "geometry": { "type": "Polygon", "coordinates": [ [ [ 676121.819355369312689, 3616441.236321626231074 ], [ 676110.049385728430934, 3616485.322489795740694 ], [ 676116.907173500163481, 3616531.477151062805206 ], [ 676133.060530809103511, 3616559.182445348240435 ], [ 676167.120964599424042, 3616589.045002939645201 ], [ 676264.903342478326522, 3616647.897651155944914 ], [ 676295.297232814482413, 3616643.558579907286912 ], [ 676351.599730819696561, 3616601.06911499472335 ], [ 676369.310420851921663, 3616563.229864955414087 ], [ 676361.34926255105529, 3616522.14400131162256 ], [ 676367.987807627534494, 3616498.293790327385068 ], [ 676363.572690934292041, 3616476.854290304705501 ], [ 676319.098522459389642, 3616429.19111723639071 ], [ 676256.937403606018052, 3616399.091221799142659 ], [ 676246.013903319602832, 3616362.615937958005816 ], [ 676231.281531339976937, 3616344.664490760769695 ], [ 676207.535255535505712, 3616337.88498397776857 ], [ 676182.159524168935604, 3616346.964565843343735 ], [ 676168.303844319423661, 3616370.081371096894145 ], [ 676173.42130116361659, 3616398.681028550490737 ], [ 676121.819355369312689, 3616441.236321626231074 ] ], [ [ 676266.057947806199081, 3616544.4494643160142 ], [ 676221.338833496090956, 3616522.124998096376657 ], [ 676211.761083414196037, 3616512.018843007273972 ], [ 676249.434049357078038, 3616517.210065949242562 ], [ 676272.522218933096156, 3616545.500351297203451 ], [ 676266.057947806199081, 3616544.4494643160142 ] ] ] } },
{ "type": "Feature", "properties": { "depth_bin": "85-90" }, "geometry": { "type": "MultiPolygon", "coordinates": [ [ [ [ 676104.257687288103625, 3616443.615149923600256 ], [ 676084.19496951578185, 3616475.419058644212782 ], [ 676084.118384915520437, 3616501.68876414373517 ], [ 676106.652950972667895, 3616543.229110631160438 ], [ 676130.934815805638209, 3616569.593437023926526 ], [ 676180.45392613124568, 3616601.737581389956176 ], [ 676161.218130492256023, 3616632.954090393614024 ], [ 676162.594731187797152, 3616654.580028583295643 ], [ 676174.073245973791927, 3616672.814672887325287 ], [ 676211.004408842767589, 3616698.856516152154654 ], [ 676240.022946168901399, 3616702.245980392675847 ], [ 676275.713638443150558, 3616694.897133199498057 ], [ 676296.100823702756315, 3616673.760669541079551 ], [ 676327.933437066851184, 3616673.431515087839216 ], [ 676325.026860835496336, 3616700.612129161600024 ], [ 676337.420880159828812, 3616724.178017610218376 ], [ 676370.012693647062406, 3616738.478447959758341 ], [ 676399.331232160911895, 3616738.823099397588521 ], [ 676426.348166251671501, 3616720.329323663841933 ], [ 676434.573416146333329, 3616688.130250316578895 ], [ 676402.357865353231318, 3616640.865900027099997 ], [ 676358.46364461327903, 3616631.205550463404506 ], [ 676351.62806575151626, 3616605.049145645461977 ], [ 676370.952027383260429, 3616577.778430873062462 ], [ 676378.982097711763345, 3616538.789125084411353 ], [ 676415.207355423597619, 3616551.063010201323777 ], [ 676444.503772403346375, 3616542.176039268728346 ], [ 676456.083222337183543, 3616526.562958429101855 ], [ 676460.119280337588862, 3616500.336173492483795 ], [ 676480.739607774070464, 3616493.67368287127465 ], [ 676493.793649027240463, 3616479.270767852198333 ], [ 676497.546169648761861, 3616450.128357132896781 ], [ 676517.063615809660405, 3616406.985666162334383 ], [ 676550.087656067567877, 3616409.434899982996285 ], [ 676568.389779775170609, 3616402.886295408010483 ], [ 676583.122151754796505, 3616384.934848210774362 ], [ 676585.436672916635871, 3616360.300428374204785 ], [ 676561.512598995119333, 3616331.148859954439104 ], [ 676506.560702887712978, 3616329.012730771675706 ], [ 676483.640118387178518, 3616354.217646168079227 ], [ 676463.175929078599438, 3616356.886485970579088 ], [ 676447.562848238623701, 3616368.465935904532671 ], [ 676428.736014623427764, 3616420.09277786500752 ], [ 676378.628298169816844, 3616385.784203860443085 ], [ 676365.253366296412423, 3616356.962369150947779 ], [ 676413.284490967867896, 3616358.64946507057175 ], [ 676431.235938165453263, 3616343.917093090713024 ], [ 676437.91684600955341, 3616322.921874467283487 ], [ 676460.33163282496389, 3616332.678703994490206 ], [ 676487.998596670106053, 3616326.168389939237386 ], [ 676505.007198565406725, 3616300.713218328077346 ], [ 676501.052637923276052, 3616274.053735974244773 ], [ 676484.631656822399236, 3616257.632754873484373 ], [ 676460.33163282496389, 3616253.063925860449672 ], [ 676438.87658707157243, 3616261.950896793045104 ], [ 676425.13785850268323, 3616284.60080636292696 ], [ 676405.972220267402008, 3616274.845531167462468 ], [ 676384.867861294536851, 3616276.403791270684451 ], [ 676367.797458695829846, 3616250.531993158627301 ], [ 676336.247568712919019, 3616244.521076020784676 ], [ 676294.734279902535491, 3616262.487673768773675 ], [ 676286.42328682099469, 3616280.059792254585773 ], [ 676288.15574157924857, 3616306.54243956040591 ], [ 676279.370253138709813, 3616311.413206157274544 ], [ 676223.688910147408023, 3616301.704597728326917 ], [ 676198.313178780837916, 3616310.784179593902081 ], [ 676104.257687288103625, 3616443.615149923600256 ] ], [ [ 676265.68979513971135, 3616556.149825281463563 ], [ 676202.109027785481885, 3616515.922146521974355 ], [ 676191.890466284123249, 3616495.901349716354162 ], [ 676221.809600278618746, 3616509.137256841175258 ], [ 676259.479928468354046, 3616504.291586888954043 ], [ 676277.086991993710399, 3616510.280791591852903 ], [ 676285.866786715923809, 3616550.666600566823035 ], [ 676265.68979513971135, 3616556.149825281463563 ] ] ], [ [ [ 677238.710965218488127, 3616107.927833618596196 ], [ 677227.1878473990364, 3616132.291419253218919 ], [ 677221.199543524649926, 3616184.848582718055695 ], [ 677225.922692950698547, 3616203.704452191013843 ], [ 677284.120453254668973, 3616256.237512374762446 ], [ 677323.355669004493393, 3616256.275802358984947 ], [ 677342.405594463576563, 3616240.289677350316197 ], [ 677378.064831691794097, 3616174.724295677617192 ], [ 677375.092760017258115, 3616131.381936583667994 ], [ 677351.604114704532549, 3616107.570133964531124 ], [ 677319.132932224078104, 3616091.997075165621936 ], [ 677285.282173977582715, 3616090.01412627287209 ], [ 677238.710965218488127, 3616107.927833618596196 ] ] ], [ [ [ 677180.062024557497352, 3616197.595331001095474 ], [ 677153.143300172756426, 3616198.917763129808009 ], [ 677133.173786893370561, 3616217.017074957489967 ], [ 677130.173024038085714, 3616247.484331520739943 ], [ 677150.081886996864341, 3616271.38018513424322 ], [ 677123.906729636597447, 3616298.735118368174881 ], [ 677117.358125061844476, 3616317.037242075894028 ], [ 677123.632023146259598, 3616382.084500939585268 ], [ 677138.364395125885494, 3616400.035948136821389 ], [ 677156.666518833488226, 3616406.584552711807191 ], [ 677175.894541741232388, 3616403.73234494542703 ], [ 677193.845988938817754, 3616388.999972965568304 ], [ 677201.779232914443128, 3616333.675546305254102 ], [ 677221.961164285195991, 3616301.11565747205168 ], [ 677217.430625792243518, 3616278.3391023860313 ], [ 677199.429008124745451, 3616261.17053586570546 ], [ 677208.258026534225792, 3616239.793630043510348 ], [ 677205.405818767729215, 3616220.56560713564977 ], [ 677180.062024557497352, 3616197.595331001095474 ] ] ], [ [ [ 676721.777484265738167, 3616356.8139633317478 ], [ 676691.310227702488191, 3616359.814726187381893 ], [ 676671.888483746326528, 3616383.480189670808613 ], [ 676674.889246601611376, 3616413.947446234058589 ], [ 676698.554710085387342, 3616433.369190190453082 ], [ 676729.021966648637317, 3616430.368427334818989 ], [ 676748.44371060479898, 3616406.702963851392269 ], [ 676745.442947749514133, 3616376.235707288142294 ], [ 676721.777484265738167, 3616356.8139633317478 ] ] ], [ [ [ 677112.519537602784112, 3616458.426530098542571 ], [ 677100.765516388928518, 3616488.234276575036347 ], [ 677112.481245141476393, 3616516.518547822721303 ], [ 677140.765516388928518, 3616528.234276575036347 ], [ 677170.611555333249271, 3616515.033365048933774 ], [ 677182.327284085797146, 3616486.749093801248819 ], [ 677170.611555333249271, 3616458.464822553563863 ], [ 677140.803808850236237, 3616446.710801346227527 ], [ 677112.519537602784112, 3616458.426530098542571 ] ] ] ] } },
{ "type": "Feature", "properties": { "depth_bin": "90-95" }, "geometry": { "type": "Polygon", "coordinates": [ [ [ 676170.924695126712322, 3616348.866448363289237 ], [ 676155.003955968189985, 3616394.986494689248502 ], [ 676161.475977575522847, 3616424.176922329701483 ], [ 676177.364067447721027, 3616438.792721449397504 ], [ 676224.787505163694732, 3616457.400204312987626 ], [ 676241.992622646619566, 3616475.479102497920394 ], [ 676272.958500844659284, 3616479.587700210511684 ], [ 676295.498132142005488, 3616493.908971284050494 ], [ 676294.464158353162929, 3616546.650978013407439 ], [ 676268.025275221210904, 3616563.588133930694312 ], [ 676189.621241324115545, 3616515.284741059876978 ], [ 676149.15680394123774, 3616461.754813491366804 ], [ 676124.793218306964263, 3616450.231695672031492 ], [ 676105.565195399220102, 3616453.083903438411653 ], [ 676088.390356601914391, 3616466.148526687640697 ], [ 676071.270115450839512, 3616492.707095228135586 ], [ 676068.303030178532936, 3616516.505514700431377 ], [ 676088.67537985520903, 3616549.752279624342918 ], [ 676169.751322276424617, 3616602.993025847710669 ], [ 676153.60710815154016, 3616625.033626686315984 ], [ 676154.814659107476473, 3616656.522749928291887 ], [ 676172.258211545180529, 3616681.429803797975183 ], [ 676210.015077396179549, 3616704.634466128889471 ], [ 676264.54649999702815, 3616703.422094515524805 ], [ 676290.497761067235842, 3616690.215506240259856 ], [ 676310.128024323494174, 3616715.384002946782857 ], [ 676347.197701055672951, 3616738.866210606414825 ], [ 676384.330131207592785, 3616748.463294809218496 ], [ 676415.745999496197328, 3616745.917444876860827 ], [ 676441.506259966525249, 3616723.759203454013914 ], [ 676450.039003887330182, 3616690.910410210024565 ], [ 676443.297788379481062, 3616668.687600889243186 ], [ 676411.957819336093962, 3616636.48591391928494 ], [ 676468.776442770031281, 3616603.967314233537763 ], [ 676500.629443292389624, 3616601.462378494907171 ], [ 676516.049080294324085, 3616586.712039093486965 ], [ 676558.330175743321888, 3616592.865390826947987 ], [ 676577.186045216396451, 3616588.142241400666535 ], [ 676593.607026317273267, 3616571.721260299906135 ], [ 676598.077781104948372, 3616544.978436342440546 ], [ 676616.915359872858971, 3616561.189229530282319 ], [ 676662.577330587664619, 3616569.570317463018 ], [ 676691.71078328427393, 3616562.299721202813089 ], [ 676708.911698718671687, 3616548.579324157908559 ], [ 676753.066954522277229, 3616581.315500319004059 ], [ 676813.250126524129882, 3616600.891241774894297 ], [ 676847.459192119538784, 3616595.594390902202576 ], [ 676878.526535592973232, 3616616.06404095608741 ], [ 676908.876798360724933, 3616607.563662398606539 ], [ 676946.625202845665626, 3616611.369921780657023 ], [ 676971.002335392986424, 3616632.296363549306989 ], [ 677066.208303969469853, 3616650.399583253543824 ], [ 677091.663475580979139, 3616633.390981358010322 ], [ 677259.393837134353817, 3616389.123027191031724 ], [ 677344.540224459487945, 3616234.859392208978534 ], [ 677342.179058652720414, 3616196.382224386092275 ], [ 677364.932515679625794, 3616189.667077928315848 ], [ 677379.130313332891092, 3616174.137249895371497 ], [ 677393.749579393072054, 3616145.473738673143089 ], [ 677394.85653376346454, 3616119.964829477947205 ], [ 677370.932459841948003, 3616090.813261058181524 ], [ 677335.893676374806091, 3616093.016392262652516 ], [ 677286.951500533730723, 3616069.179782940540463 ], [ 677238.241703927051276, 3616062.045775860082358 ], [ 677174.604257357306778, 3616065.890357598662376 ], [ 677121.242456186213531, 3616090.716212265193462 ], [ 677096.060426434502006, 3616078.290080517530441 ], [ 677033.182425568229519, 3616084.52904663560912 ], [ 676981.128278591204435, 3616106.027380339801311 ], [ 676958.076894451398402, 3616162.588539951015264 ], [ 676928.800660099601373, 3616178.224888880271465 ], [ 676916.525750168133527, 3616195.781650204211473 ], [ 676882.5091231407132, 3616157.49266570340842 ], [ 676853.212706160964444, 3616148.605694770812988 ], [ 676822.857864834018983, 3616167.886606809683144 ], [ 676713.011732023209333, 3616181.757941397838295 ], [ 676670.171497460221872, 3616225.19920569518581 ], [ 676638.407041774247773, 3616221.022595631424338 ], [ 676623.056585397687741, 3616188.43552027689293 ], [ 676594.236735763493925, 3616157.134958864655346 ], [ 676575.934612055891193, 3616150.586354289669544 ], [ 676553.846780949621461, 3616154.791150600183755 ], [ 676528.325785869732499, 3616137.672728882171214 ], [ 676502.092563725775108, 3616135.88123347517103 ], [ 676423.306488842237741, 3616158.798785690683872 ], [ 676390.109276336152107, 3616144.391552622430027 ], [ 676341.668487490271218, 3616150.14245188375935 ], [ 676310.370396373327821, 3616166.915436140727252 ], [ 676249.719386251410469, 3616233.916448907461017 ], [ 676170.924695126712322, 3616348.866448363289237 ] ], [ [ 676586.691032917355187, 3616521.534180090762675 ], [ 676592.623739294009283, 3616518.908233645837754 ], [ 676592.551677732379176, 3616529.074063225649297 ], [ 676589.327179804444313, 3616524.442719971761107 ], [ 676586.691032917355187, 3616521.534180090762675 ] ] ] } },
{ "type": "Feature", "properties": { "depth_bin": "95-100" }, "geometry": { "type": "MultiPolygon", "coordinates": [ [ [ [ 676202.621040913742036, 3616303.388278737198561 ], [ 676198.052211656467989, 3616327.688300593756139 ], [ 676209.575329475919716, 3616352.051886228378862 ], [ 676266.228869903832674, 3616369.848857677076012 ], [ 676260.353217161376961, 3616396.329182279296219 ], [ 676273.361510898219422, 3616422.254526698961854 ], [ 676297.725096532492898, 3616433.777644518297166 ], [ 676325.639543298399076, 3616429.951568038668483 ], [ 676367.736915492918342, 3616467.513733522500843 ], [ 676328.304888080339879, 3616484.448388480581343 ], [ 676299.249580138013698, 3616547.771875015925616 ], [ 676269.467088744975626, 3616568.9931759997271 ], [ 676121.932583542540669, 3616474.067889756523073 ], [ 676095.013859157799743, 3616472.745457627810538 ], [ 676074.143070098361932, 3616487.132512675598264 ], [ 676056.34665107820183, 3616518.186064664274454 ], [ 676060.224626396899112, 3616547.892477818764746 ], [ 676115.117944876663387, 3616586.499360687099397 ], [ 676136.003606339800172, 3616649.152618663851172 ], [ 676184.20728424412664, 3616697.709230931475759 ], [ 676222.996754988678731, 3616712.489012983161956 ], [ 676286.356328877154738, 3616700.450302542652935 ], [ 676316.098116331035271, 3616726.939763586968184 ], [ 676356.796050974051468, 3616747.959159792400897 ], [ 676441.619944448349997, 3616757.601916855666786 ], [ 676506.282691280823201, 3616775.441371663473547 ], [ 676556.311447133426555, 3616759.982477603014559 ], [ 676560.349414059892297, 3616786.079680460505188 ], [ 676576.770395160769112, 3616802.500661561265588 ], [ 676609.299198212684132, 3616809.092036142479628 ], [ 676632.485010682605207, 3616801.636608822736889 ], [ 676647.594061428913847, 3616820.640802648384124 ], [ 676669.816870749695227, 3616827.382018156349659 ], [ 676703.075655241846107, 3616809.604827477131039 ], [ 676706.772052050102502, 3616772.074680861551315 ], [ 676681.428257839870639, 3616749.104404726997018 ], [ 676646.631058279774152, 3616754.837445476092398 ], [ 676629.03839730611071, 3616733.67294604703784 ], [ 676671.759325894876383, 3616722.957180600147694 ], [ 676698.733156173606403, 3616741.540082897059619 ], [ 676771.339228894445114, 3616770.468443109188229 ], [ 676793.050846952130087, 3616786.791129055898637 ], [ 676799.723019456374459, 3616807.60853575123474 ], [ 676817.674466653959826, 3616822.340907731093466 ], [ 676840.985501501942053, 3616824.567019045352936 ], [ 676869.812022255733609, 3616841.461815540213138 ], [ 676902.662495059543289, 3616830.772726685274392 ], [ 676945.637271363288164, 3616837.923828908242285 ], [ 676980.424759435467422, 3616813.527632349170744 ], [ 677173.48524870921392, 3616500.293789312709123 ], [ 677194.975143209449016, 3616481.650476385839283 ], [ 677199.993858677218668, 3616445.822719826828688 ], [ 677230.160798026132397, 3616431.235467232763767 ], [ 677253.633459995966405, 3616382.813993423711509 ], [ 677248.652922432054766, 3616347.456321065779775 ], [ 677213.638863744097762, 3616317.345612284727395 ], [ 677192.700387956458144, 3616316.353523264173418 ], [ 677172.219729589647613, 3616327.300663232803345 ], [ 677162.226387407863513, 3616343.973547390196472 ], [ 677160.927421743050218, 3616366.977216520346701 ], [ 677130.004748221370392, 3616348.080056992825121 ], [ 677131.979055264848284, 3616307.994350641034544 ], [ 677153.600911771995015, 3616291.948685210663825 ], [ 677168.334946014569141, 3616258.714878024533391 ], [ 677165.626414057216607, 3616222.145895760972053 ], [ 677176.761085129226558, 3616200.215056182816625 ], [ 677180.23129751405213, 3616156.654592888429761 ], [ 677264.193718953174539, 3616145.640334490220994 ], [ 677326.223495763493702, 3616179.613890832755715 ], [ 677357.71265172760468, 3616181.05119072785601 ], [ 677390.330806087818928, 3616153.076495436951518 ], [ 677408.389412867720239, 3616120.606509040109813 ], [ 677410.665642783395015, 3616097.495558864437044 ], [ 677399.422561470651999, 3616075.276430269703269 ], [ 677380.113530426286161, 3616062.374548207037151 ], [ 677340.055827646865509, 3616065.000322771724313 ], [ 677320.967636072193272, 3616077.322144036646932 ], [ 677229.065467155654915, 3616033.892320235725492 ], [ 677182.791925743338652, 3616024.065570658538491 ], [ 677024.279388331924565, 3616014.181108965538442 ], [ 676938.347836754051968, 3616044.020799634978175 ], [ 676876.608057414414361, 3616019.231388684827834 ], [ 676829.460123711382039, 3616010.612223660107702 ], [ 676783.725180841051042, 3616026.643221981823444 ], [ 676711.961154665332288, 3616015.281377447769046 ], [ 676688.431687596603297, 3616020.263194016646594 ], [ 676665.982834583497606, 3616008.350861359387636 ], [ 676646.956234284443781, 3615985.789750415831804 ], [ 676620.296751930727623, 3615981.83518977323547 ], [ 676599.816093563917093, 3615992.782329741865396 ], [ 676570.709617272019386, 3616035.374536182265729 ], [ 676502.561842886032537, 3616028.50904588168487 ], [ 676473.389457591809332, 3616044.974277273751795 ], [ 676438.154770234366879, 3616043.659084003418684 ], [ 676416.699724480975419, 3616052.546054936014116 ], [ 676266.975297259865329, 3616214.532565354835242 ], [ 676202.621040913742036, 3616303.388278737198561 ] ], [ [ 676592.936247103265487, 3616726.749978445004672 ], [ 676594.425399539642967, 3616727.282805706374347 ], [ 676590.385729799163528, 3616727.612203058321029 ], [ 676590.672451429883949, 3616725.679282831493765 ], [ 676592.936247103265487, 3616726.749978445004672 ] ] ], [ [ [ 677256.045438268803991, 3616254.769984156358987 ], [ 677229.045705747441389, 3616269.201641856692731 ], [ 677220.158734815078788, 3616298.498058836441487 ], [ 677234.590392515412532, 3616325.49779135780409 ], [ 677263.886809495161287, 3616334.384762290399522 ], [ 677290.88654201652389, 3616319.953104590065777 ], [ 677299.773512948886491, 3616290.656687610317022 ], [ 677285.341855248552747, 3616263.656955088954419 ], [ 677256.045438268803991, 3616254.769984156358987 ] ] ] ] } },
{ "type": "Feature", "properties": { "depth_bin": "100-105" }, "geometry": { "type": "MultiPolygon", "coordinates": [ [ [ [ 676065.693740331800655, 3616500.71404442191124 ], [ 676052.299163416493684, 3616519.669959199614823 ], [ 676049.408662911271676, 3616540.421447448432446 ], [ 676066.206490601296537, 3616569.636330266948789 ], [ 676071.604988711304031, 3616603.325392993167043 ], [ 676100.018350638099946, 3616624.300895124208182 ], [ 676119.587791253696196, 3616654.19059813208878 ], [ 676203.373199977912009, 3616712.494596630800515 ], [ 676207.86141275044065, 3616739.108571301680058 ], [ 676227.830926029826514, 3616757.207883129362017 ], [ 676281.221014499431476, 3616760.829234595876187 ], [ 676299.957618346321397, 3616746.27943973755464 ], [ 676308.48992341151461, 3616727.215357047040015 ], [ 676356.681165140122175, 3616752.529663553461432 ], [ 676624.970248950528912, 3616818.538888055365533 ], [ 676660.221720382105559, 3616837.23942932067439 ], [ 676718.884727675584145, 3616839.263944846112281 ], [ 676766.481952557340264, 3616855.154824106488377 ], [ 676908.57991193770431, 3616875.974004465155303 ], [ 676933.901827055378817, 3616873.274979498703033 ], [ 676951.07667667826172, 3616860.210352168884128 ], [ 677012.529787244508043, 3616756.339448147919029 ], [ 677007.510958307422698, 3616722.505251736845821 ], [ 676977.738735044957139, 3616704.899344827048481 ], [ 676985.429371588397771, 3616678.452710317447782 ], [ 676978.444317379384302, 3616650.508548921905458 ], [ 677009.865115077700466, 3616631.999497147276998 ], [ 677047.493901630165055, 3616628.34975355444476 ], [ 677068.202016533119604, 3616596.041293276008219 ], [ 677063.748064861632884, 3616570.217789880931377 ], [ 677047.327083760756068, 3616553.796808780170977 ], [ 677020.667601407039911, 3616549.842248137574643 ], [ 676999.956443155300803, 3616561.043705538846552 ], [ 676973.456282206112519, 3616535.580128815490752 ], [ 676955.154158498509787, 3616529.03152424050495 ], [ 676934.402662166743539, 3616531.84543881425634 ], [ 676917.116920927190222, 3616545.680210217367858 ], [ 676908.077905902522616, 3616518.734720132313669 ], [ 676884.96110064862296, 3616504.87904028268531 ], [ 676851.781756401411258, 3616513.190033364575356 ], [ 676838.640540779335424, 3616530.288293983321637 ], [ 676835.717829419067129, 3616550.384127314202487 ], [ 676828.27574241172988, 3616550.624237473122776 ], [ 676798.089708331273869, 3616523.141038489993662 ], [ 676768.779343868605793, 3616519.850489248987287 ], [ 676744.994079267256893, 3616491.253078698180616 ], [ 676724.24258500977885, 3616488.362578159663826 ], [ 676690.127180678187869, 3616497.94749290170148 ], [ 676667.679887884878553, 3616474.065339213702828 ], [ 676634.205456050112844, 3616475.417903658933938 ], [ 676605.808573380112648, 3616431.034384629689157 ], [ 676574.988686440978199, 3616422.109121570363641 ], [ 676542.527063408051617, 3616442.664056910201907 ], [ 676529.155874292948283, 3616486.062375641427934 ], [ 676558.088114907499403, 3616541.045517810154706 ], [ 676559.385256460052915, 3616572.176995461806655 ], [ 676576.313738348311745, 3616591.444740281905979 ], [ 676548.17092313116882, 3616604.89491309132427 ], [ 676513.605082830414176, 3616594.06072875065729 ], [ 676453.810691423015669, 3616608.182778086513281 ], [ 676416.409520645043813, 3616637.507738701999187 ], [ 676396.436802439391613, 3616673.967669845093042 ], [ 676357.503931575804017, 3616658.338744650129229 ], [ 676353.667266584583558, 3616631.902967042755336 ], [ 676434.716372979339212, 3616527.550330848433077 ], [ 676434.716372979339212, 3616496.935656258836389 ], [ 676413.64670980302617, 3616473.842621415387839 ], [ 676379.331494048470631, 3616471.220063716173172 ], [ 676349.409566229092889, 3616487.474140917416662 ], [ 676301.711813523899764, 3616551.420779045671225 ], [ 676271.983039591112174, 3616572.389052207116038 ], [ 676105.589398669428192, 3616490.720702240243554 ], [ 676086.174398698611185, 3616489.766904453281313 ], [ 676065.693740331800655, 3616500.71404442191124 ] ], [ [ 676685.485490089282393, 3616614.761049752589315 ], [ 676680.486699517467059, 3616613.112273100763559 ], [ 676693.274746039300226, 3616607.924746784381568 ], [ 676694.147897417773493, 3616611.410562484525144 ], [ 676685.485490089282393, 3616614.761049752589315 ] ], [ [ 676789.655910103814676, 3616665.747431970667094 ], [ 676787.969817860866897, 3616659.893031862098724 ], [ 676801.103259798255749, 3616665.448472674936056 ], [ 676807.279325318289921, 3616676.730710505973548 ], [ 676790.382488396251574, 3616672.695901651866734 ], [ 676789.655910103814676, 3616665.747431970667094 ] ] ], [ [ [ 676413.37337849708274, 3616051.164267064072192 ], [ 676345.8595651864307, 3616132.900703312829137 ], [ 676346.952262389706448, 3616168.960236737970263 ], [ 676372.296056599938311, 3616191.930512872524559 ], [ 676406.908700395259075, 3616187.752590249292552 ], [ 676444.055227035656571, 3616160.533987362403423 ], [ 676465.378969601355493, 3616166.73632299574092 ], [ 676497.424756723223254, 3616155.176811067853123 ], [ 676559.487534063518979, 3616157.940725259017199 ], [ 676591.725062850047834, 3616143.42554996162653 ], [ 676614.655914238072, 3616116.904473947361112 ], [ 676634.07179450627882, 3616155.60445234971121 ], [ 676657.188599760178477, 3616169.460132199339569 ], [ 676689.227323203464039, 3616161.995081159751862 ], [ 676718.576634487253614, 3616167.561863218434155 ], [ 676740.971732607693411, 3616154.502464483026415 ], [ 676764.286068991641514, 3616162.053211633581668 ], [ 676811.81482162734028, 3616157.709619782865047 ], [ 676846.708587014698423, 3616132.763815583195537 ], [ 676869.448114105965942, 3616157.462709419894964 ], [ 676941.84463807172142, 3616167.749027512036264 ], [ 677054.052157891332172, 3616106.327985682990402 ], [ 677138.954469704651274, 3616115.065259015653282 ], [ 677200.170542091480456, 3616111.876295420341194 ], [ 677241.877979334327392, 3616125.514112033881247 ], [ 677321.844512909883633, 3616171.88153745373711 ], [ 677342.596012955531478, 3616174.772034401074052 ], [ 677364.051058708922938, 3616165.88506346847862 ], [ 677377.791756581515074, 3616143.227291997987777 ], [ 677403.954704958247021, 3616127.666237073950469 ], [ 677422.596331302309409, 3616085.76188583439216 ], [ 677415.855115794460289, 3616063.53907651361078 ], [ 677397.903668596874923, 3616048.806704533752054 ], [ 677343.177262803073972, 3616037.148990647401661 ], [ 677287.490248152986169, 3616045.975298180710524 ], [ 677205.493809655192308, 3616001.286709894426167 ], [ 677110.961849738494493, 3615979.603675217367709 ], [ 677092.113594798371196, 3615963.37506991205737 ], [ 677070.001360101392493, 3615960.749831216409802 ], [ 677041.582703450578265, 3615933.205451154150069 ], [ 677008.630499268532731, 3615921.936427463311702 ], [ 676862.953258712776005, 3615916.844739804975688 ], [ 676790.855937312357128, 3615930.700270650908351 ], [ 676767.391412565018982, 3615903.383325373753905 ], [ 676707.569103129208088, 3615898.263542399276048 ], [ 676680.748832987854257, 3615887.874706904869527 ], [ 676650.855794940958731, 3615889.137648015283048 ], [ 676615.624513726332225, 3615905.252049980685115 ], [ 676578.866386761539616, 3615903.898579002358019 ], [ 676537.597351719276048, 3615914.443284363485873 ], [ 676413.37337849708274, 3616051.164267064072192 ] ] ] ] } },
{ "type": "Feature", "properties": { "depth_bin": "105-110" }, "geometry": { "type": "MultiPolygon", "coordinates": [ [ [ [ 676052.010308710974641, 3616518.58918589213863 ], [ 676024.082204510108568, 3616562.325125326402485 ], [ 676028.986154104699381, 3616600.729716977104545 ], [ 676052.41498036950361, 3616618.583912540692836 ], [ 676085.02603568485938, 3616628.92115295631811 ], [ 676120.843201765674166, 3616664.893152724020183 ], [ 676148.759734182036482, 3616677.002052834723145 ], [ 676189.905248345225118, 3616712.480162630323321 ], [ 676205.19409511750564, 3616746.931025280151516 ], [ 676227.639453363721259, 3616764.825216893106699 ], [ 676259.628336606547236, 3616771.338209702633321 ], [ 676282.591303217224777, 3616766.961397053673863 ], [ 676301.327907203231007, 3616752.411602291278541 ], [ 676309.803916887147352, 3616733.727032234426588 ], [ 676389.852912193746306, 3616767.083358563948423 ], [ 676653.290414110175334, 3616839.255982347298414 ], [ 676716.794110780465417, 3616846.840554835740477 ], [ 676767.813944172929041, 3616862.810578264296055 ], [ 676803.59400134650059, 3616862.000285476911813 ], [ 676913.794296128093265, 3616885.345749314874411 ], [ 676936.017105448874645, 3616878.604533806908876 ], [ 676952.311246249359101, 3616859.167909345589578 ], [ 676953.987902279593982, 3616822.497638267930597 ], [ 676928.644108069362119, 3616799.5273621333763 ], [ 676784.702488385140896, 3616777.72522476920858 ], [ 676735.244415586348623, 3616760.270126533228904 ], [ 676678.494099513627589, 3616759.828379645943642 ], [ 676654.15896726376377, 3616742.32120925327763 ], [ 676411.052841286640614, 3616684.819605775177479 ], [ 676354.335183841991238, 3616662.367137207183987 ], [ 676342.477972099441104, 3616650.98542835470289 ], [ 676352.395744028268382, 3616628.581295670475811 ], [ 676418.251370777958073, 3616537.868809902574867 ], [ 676414.2968101358274, 3616511.209327548742294 ], [ 676394.327296856441535, 3616493.110015721060336 ], [ 676356.797150241094641, 3616496.806412529665977 ], [ 676295.845381069229916, 3616566.628741330932826 ], [ 676274.242581029189751, 3616575.72587113827467 ], [ 676100.789146317052655, 3616499.746613743714988 ], [ 676072.346956600318663, 3616501.030753113795072 ], [ 676052.010308710974641, 3616518.58918589213863 ] ] ], [ [ [ 676526.31805235077627, 3615924.425630046986043 ], [ 676487.364195040310733, 3615968.702790177427232 ], [ 676480.622979532461613, 3615990.925599498208612 ], [ 676494.522089277277701, 3616031.62148190010339 ], [ 676525.080574238323607, 3616057.046930969227105 ], [ 676555.547830801573582, 3616054.046168113593012 ], [ 676648.789170168107376, 3615996.020704634487629 ], [ 676683.792927718255669, 3616020.734003698453307 ], [ 676727.18956439953763, 3616011.70490603428334 ], [ 676739.003048526006751, 3616027.972068624570966 ], [ 676760.45809427939821, 3616036.859039557166398 ], [ 676795.683671930222772, 3616039.071691897232085 ], [ 676849.669881467008963, 3616020.149314366281033 ], [ 676875.451921186060645, 3616021.054519353434443 ], [ 676914.024529762449674, 3616037.697000849060714 ], [ 676943.426571716321632, 3616062.32110140286386 ], [ 676987.105629256926477, 3616065.224605098366737 ], [ 677042.241382558015175, 3616056.906656089238822 ], [ 677175.400343400076963, 3616077.844493110198528 ], [ 677288.477354760747403, 3616143.53831675928086 ], [ 677313.388842835905962, 3616149.938098806887865 ], [ 677335.611652156687342, 3616143.19688329892233 ], [ 677351.616882437374443, 3616121.688035464379936 ], [ 677390.438232902553864, 3616123.469819483347237 ], [ 677415.11680443759542, 3616108.128950763493776 ], [ 677510.446354866260663, 3615926.37876287708059 ], [ 677505.723205440212041, 3615907.522893404122442 ], [ 677488.2135906573385, 3615888.434681524056941 ], [ 677412.131319073494524, 3615843.150673401076347 ], [ 677265.005332341766916, 3615731.905431798193604 ], [ 677112.099064152105711, 3615628.974220656789839 ], [ 677041.775803243392147, 3615595.108827218413353 ], [ 677019.552993922610767, 3615601.850042726378888 ], [ 677006.498952669440769, 3615616.252957745455205 ], [ 677001.968414176488295, 3615639.029512831475586 ], [ 677009.925639827270061, 3615661.940344335045666 ], [ 677064.077693595550954, 3615704.48612702684477 ], [ 677068.723888901877217, 3615725.652597234584391 ], [ 677093.385703013977036, 3615759.916125838179141 ], [ 677168.150001054862514, 3615819.547954619396478 ], [ 677225.927099763765, 3615881.667512063868344 ], [ 677246.11317947844509, 3615890.366249666083604 ], [ 677310.551523669157177, 3615963.243836756329983 ], [ 677343.624107504962012, 3616015.824691672343761 ], [ 677259.104041809681803, 3616004.304823632817715 ], [ 677188.885483707999811, 3615963.520048008766025 ], [ 677159.784761424991302, 3615915.242962075397372 ], [ 677123.960941074299626, 3615905.111864853650331 ], [ 677042.918908889172599, 3615858.47683165082708 ], [ 677000.988379645626992, 3615860.417517018504441 ], [ 676973.336638331762515, 3615836.910373966675252 ], [ 676925.501483934232965, 3615828.568866621702909 ], [ 676874.221075543318875, 3615834.414688896387815 ], [ 676824.231484456453472, 3615819.832019662950188 ], [ 676793.671682990971021, 3615827.777241866104305 ], [ 676760.535063935560174, 3615787.827582866884768 ], [ 676712.94537525321357, 3615782.04408100945875 ], [ 676698.608648734167218, 3615764.929155855439603 ], [ 676680.306525026564486, 3615758.380551280453801 ], [ 676651.436086135334335, 3615762.757946155034006 ], [ 676610.887304079253227, 3615794.883905712515116 ], [ 676526.31805235077627, 3615924.425630046986043 ] ] ] ] } },
{ "type": "Feature", "properties": { "depth_bin": "110-115" }, "geometry": { "type": "MultiPolygon", "coordinates": [ [ [ [ 676057.516702657449059, 3616514.567964402958751 ], [ 676023.929032025625929, 3616568.418985642492771 ], [ 676020.49285911268089, 3616599.147415802814066 ], [ 676028.411755467066541, 3616623.581693081650883 ], [ 676042.814670486142859, 3616636.635734334588051 ], [ 676090.71440817124676, 3616649.722346893977374 ], [ 676147.121306304936297, 3616681.534152858890593 ], [ 676199.876833564252593, 3616751.41594128170982 ], [ 676222.992364046163857, 3616767.757264093030244 ], [ 676275.73353524308186, 3616772.777640847954899 ], [ 676297.191803689231165, 3616762.564984690863639 ], [ 676311.98057427268941, 3616740.472801915835589 ], [ 676472.954481218126602, 3616796.612007627729326 ], [ 676767.584170571062714, 3616871.95140869403258 ], [ 676809.072821549489163, 3616871.087270874064416 ], [ 676913.641112872981466, 3616891.439641448669136 ], [ 676935.863922193762846, 3616884.698425940703601 ], [ 676950.596294173388742, 3616866.74697874346748 ], [ 676949.032850909396075, 3616828.013352876063436 ], [ 676920.835264179040678, 3616806.953248532954603 ], [ 676675.488969326484948, 3616762.841095288749784 ], [ 676373.218889687675983, 3616678.160523911006749 ], [ 676336.705032940721139, 3616654.45515556121245 ], [ 676352.735477082896978, 3616608.327124051749706 ], [ 676344.739994558272883, 3616586.939672058448195 ], [ 676325.303373410715722, 3616570.645539212040603 ], [ 676302.192423235508613, 3616568.369309296365827 ], [ 676276.939268019865267, 3616578.27489800285548 ], [ 676209.330194582347758, 3616548.207792283967137 ], [ 676144.382358203991316, 3616534.926737545058131 ], [ 676094.503821114194579, 3616507.210769108030945 ], [ 676057.516702657449059, 3616514.567964402958751 ] ] ], [ [ [ 676646.654668975505047, 3615766.818441264331341 ], [ 676620.844335540896282, 3615797.116001114249229 ], [ 676616.889774898765609, 3615823.775483468081802 ], [ 676671.118370485492051, 3615899.35700768372044 ], [ 676701.209225923987105, 3615902.452054113149643 ], [ 676728.404555286630057, 3615917.147443623747677 ], [ 676789.638502832036465, 3615912.623888920526952 ], [ 676816.574692163732834, 3615926.985437514726073 ], [ 676877.097909797681496, 3615917.003009392879903 ], [ 676893.70968021126464, 3615940.879638544749469 ], [ 676914.190338578075171, 3615951.826778513379395 ], [ 676951.474555643624626, 3615943.192237734328955 ], [ 677021.432149816420861, 3615952.780391827225685 ], [ 677078.112024885835126, 3615982.823116258252412 ], [ 677099.795565860695206, 3615985.311082327272743 ], [ 677121.922751900972798, 3616023.085902488790452 ], [ 677261.182646703906357, 3616096.22253875201568 ], [ 677305.424020634964108, 3616088.542330362368375 ], [ 677382.220353109529242, 3616105.840643559582531 ], [ 677414.457758571719751, 3616099.445193157996982 ], [ 677429.190130551345646, 3616081.493745960760862 ], [ 677442.179874347173609, 3616034.423007160890847 ], [ 677405.926588442292996, 3615954.446539608761668 ], [ 677406.662620889837854, 3615932.36558907199651 ], [ 677472.008120531216264, 3615964.893571686930954 ], [ 677497.383851897786371, 3615955.81398982135579 ], [ 677512.839584622532129, 3615929.688514901325107 ], [ 677511.924074031179771, 3615908.750036480370909 ], [ 677499.022191968513653, 3615889.441005436237901 ], [ 677409.352368638035841, 3615832.409755034837872 ], [ 677268.205427640350536, 3615725.888097833376378 ], [ 677070.360503663541749, 3615591.338759006001055 ], [ 676905.622677704785019, 3615500.793520499486476 ], [ 676871.025836256681941, 3615506.651296674739569 ], [ 676839.923141578794457, 3615546.996645960025489 ], [ 676847.948709832737222, 3615583.971987576689571 ], [ 676879.366004487150349, 3615640.366095247678459 ], [ 676893.768919506226666, 3615653.420136500615627 ], [ 676916.429435572470538, 3615658.220516267698258 ], [ 677012.17144157749135, 3615735.040870271157473 ], [ 677135.274369352846406, 3615845.872289475984871 ], [ 677143.5551569131203, 3615873.621947930660099 ], [ 676864.425973927718587, 3615759.678601479623467 ], [ 676824.496609750320204, 3615739.188045167829841 ], [ 676806.11871653329581, 3615718.439949062652886 ], [ 676773.85270936822053, 3615709.37897589802742 ], [ 676695.705155294504948, 3615717.89428136870265 ], [ 676646.654668975505047, 3615766.818441264331341 ] ] ] ] } },
{ "type": "Feature", "properties": { "depth_bin": "115-120" }, "geometry": { "type": "MultiPolygon", "coordinates": [ [ [ [ 676023.30677357991226, 3616581.442857949063182 ], [ 676018.241816431400366, 3616628.055058178957552 ], [ 676029.764934250852093, 3616652.418643813580275 ], [ 676147.352110086125322, 3616686.83701476175338 ], [ 676196.419114016927779, 3616754.171302969101816 ], [ 676228.096997077111155, 3616773.688393491320312 ], [ 676257.913396510179155, 3616778.917249555233866 ], [ 676284.874337192857638, 3616773.007408666890115 ], [ 676312.529503500903957, 3616747.341437303461134 ], [ 676495.538550838944502, 3616807.850818209350109 ], [ 676734.79214031889569, 3616871.793465260416269 ], [ 676860.681730751646683, 3616883.995123160071671 ], [ 676908.043770755059086, 3616897.302626740653068 ], [ 676937.340187734807841, 3616888.415655808057636 ], [ 676951.880430452991277, 3616864.57450157077983 ], [ 676948.87966759770643, 3616834.107245007529855 ], [ 676925.214204113930464, 3616814.685501051135361 ], [ 676830.457422649138607, 3616793.152281828224659 ], [ 676758.70565093064215, 3616787.799518580548465 ], [ 676366.496513691265136, 3616679.618432350456715 ], [ 676334.937198690371588, 3616660.428080986253917 ], [ 676347.967298974632286, 3616631.3999467571266 ], [ 676349.074270904995501, 3616605.891077196225524 ], [ 676338.127130936365575, 3616585.410418829414994 ], [ 676319.969072886626236, 3616573.855315756052732 ], [ 676277.500378472032025, 3616581.341945695690811 ], [ 676207.768434999627061, 3616549.69296538643539 ], [ 676167.325969805009663, 3616542.672606538981199 ], [ 676141.950238438439555, 3616551.752188404556364 ], [ 676127.542285614530556, 3616578.592115629930049 ], [ 676060.261954880319536, 3616556.750195243861526 ], [ 676038.039145559538156, 3616563.491410751827061 ], [ 676023.30677357991226, 3616581.442857949063182 ] ] ], [ [ [ 676702.933343537966721, 3615701.246321513317525 ], [ 676675.619068107102066, 3615738.056939551141113 ], [ 676675.58078260847833, 3615770.195085468702018 ], [ 676697.228626614320092, 3615791.84292947454378 ], [ 676727.262541994801722, 3615793.720285425893962 ], [ 676759.014759687590413, 3615844.752762599848211 ], [ 676777.316883395193145, 3615851.301367174834013 ], [ 676851.122099590138532, 3615849.580331542994827 ], [ 676898.470682064420544, 3615878.925056838430464 ], [ 676935.37411903438624, 3615881.973768580704927 ], [ 676972.585073780268431, 3615902.129727582912892 ], [ 677083.294689271133393, 3615932.202328206971288 ], [ 677147.872689742129296, 3615968.664066619705409 ], [ 677161.948536494979635, 3616004.0251678773202 ], [ 677210.116771634784527, 3616034.627842518966645 ], [ 677327.185941099305637, 3616060.051589515525848 ], [ 677354.18567362066824, 3616045.619931815192103 ], [ 677363.110932648298331, 3616014.800037813838571 ], [ 677344.310797799262218, 3615984.100147920660675 ], [ 677342.96278306201566, 3615959.383706590160728 ], [ 677325.400700679630972, 3615927.069627786055207 ], [ 677279.061938841594383, 3615885.818268437404186 ], [ 677234.128745145630091, 3615878.374457547906786 ], [ 677208.03226327826269, 3615805.213514386676252 ], [ 677096.388833044446073, 3615704.028338280506432 ], [ 677430.721134753432125, 3615942.837850907817483 ], [ 677460.549882248626091, 3615957.077271373476833 ], [ 677483.011839121580124, 3615958.107643508352339 ], [ 677503.492497488390654, 3615947.160503539722413 ], [ 677513.485839670174755, 3615930.487619382329285 ], [ 677513.562413989915513, 3615904.217888270039111 ], [ 677496.02241856046021, 3615881.00872527109459 ], [ 677429.907905893982388, 3615840.287981123663485 ], [ 677187.507326413062401, 3615661.358073255512863 ], [ 676911.145342434057966, 3615494.168236208613962 ], [ 676891.730342463240959, 3615493.214438421651721 ], [ 676871.249684096430428, 3615504.161578390281647 ], [ 676702.933343537966721, 3615701.246321513317525 ] ], [ [ 676893.540091942530125, 3615709.662859702017158 ], [ 676892.572103814338334, 3615707.616220760624856 ], [ 676896.814580485224724, 3615710.510344330687076 ], [ 676893.777224803110585, 3615710.325601649470627 ], [ 676893.540091942530125, 3615709.662859702017158 ] ] ] ] } },
{ "type": "Feature", "properties": { "depth_bin": "120-125" }, "geometry": { "type": "MultiPolygon", "coordinates": [ [ [ [ 676021.055730627384037, 3616610.350500301457942 ], [ 676018.588032644591294, 3616641.078775622881949 ], [ 676032.443712494103238, 3616664.195580876432359 ], [ 676145.481910916394554, 3616692.755902741104364 ], [ 676184.384559887694195, 3616747.771080741658807 ], [ 676232.514218622120097, 3616779.897144456394017 ], [ 676283.235986188403331, 3616777.539515087381005 ], [ 676311.984867437044159, 3616754.262973038479686 ], [ 676484.835971596301533, 3616809.10622231522575 ], [ 676768.801276706391945, 3616884.177478320896626 ], [ 676915.77025421988219, 3616901.873045781161636 ], [ 676937.22529997327365, 3616892.986074848566204 ], [ 676950.127182035939768, 3616873.677043804433197 ], [ 676947.203011035220698, 3616840.162841213867068 ], [ 676922.052370450110175, 3616819.179328344296664 ], [ 676878.902273912448436, 3616806.565526478923857 ], [ 676747.762670650263317, 3616792.550101799890399 ], [ 676519.096934522967786, 3616731.92248534783721 ], [ 676341.820240011205897, 3616673.141473789699376 ], [ 676332.051148673752323, 3616653.655787028837949 ], [ 676344.882070640684105, 3616632.846826996188611 ], [ 676345.950749095063657, 3616608.861424922011793 ], [ 676335.00360912643373, 3616588.380766555201262 ], [ 676318.330724969157018, 3616578.387424373533577 ], [ 676278.309310870245099, 3616584.81737790023908 ], [ 676206.206675419467501, 3616551.17813846282661 ], [ 676178.48677264910657, 3616549.342014250345528 ], [ 676149.148673770134337, 3616566.926593996584415 ], [ 676143.91378689778503, 3616599.898238779511303 ], [ 676108.433357638656162, 3616589.02211473416537 ], [ 676054.090226314612664, 3616585.850448529236019 ], [ 676035.788102607009932, 3616592.399053104221821 ], [ 676021.055730627384037, 3616610.350500301457942 ] ], [ [ 676228.29497777542565, 3616656.542305719107389 ], [ 676242.680500787799247, 3616664.054444417823106 ], [ 676241.122492542141117, 3616672.275791476480663 ], [ 676225.495795205584727, 3616655.40914207464084 ], [ 676228.29497777542565, 3616656.542305719107389 ] ] ], [ [ [ 676787.366135788033716, 3615627.057483172044158 ], [ 676767.764647151110694, 3615652.937802406027913 ], [ 676763.23410865815822, 3615675.714357492048293 ], [ 676776.614958998048678, 3615702.336076066363603 ], [ 676787.177382254158147, 3615757.755212784744799 ], [ 676804.841842728783377, 3615780.353648011106998 ], [ 676873.136921706260182, 3615801.919679447077215 ], [ 676918.660659801447764, 3615837.04304092284292 ], [ 676946.216900382074527, 3615838.137366109061986 ], [ 676999.479580374900252, 3615863.170172558631748 ], [ 677024.225928648840636, 3615863.208461284637451 ], [ 677046.727648806059733, 3615848.904820152558386 ], [ 677053.431809018715285, 3615871.881907335016876 ], [ 677075.079206420690753, 3615887.936711443588138 ], [ 677099.825455433689058, 3615887.974997902289033 ], [ 677121.472852835664526, 3615871.920193793717772 ], [ 677128.328927657217719, 3615845.126959948334843 ], [ 677119.249345791758969, 3615819.75122858164832 ], [ 677096.132540537859313, 3615805.895548732019961 ], [ 677070.227866775239818, 3615809.493111498653889 ], [ 677066.97709026618395, 3615774.541452426929027 ], [ 677024.197089081979357, 3615719.798361671157181 ], [ 676980.437152307014912, 3615688.511106935329735 ], [ 676970.615349810221232, 3615668.145358772948384 ], [ 676909.859476208686829, 3615608.647621346637607 ], [ 676864.629207188030705, 3615585.990047864615917 ], [ 676839.158603462623432, 3615583.359540300443769 ], [ 676813.815982341999188, 3615597.573102090042084 ], [ 676787.366135788033716, 3615627.057483172044158 ] ] ], [ [ [ 676909.701667237677611, 3615486.697701642289758 ], [ 676883.558172303717583, 3615493.24630621727556 ], [ 676864.140530612552539, 3615515.653322651982307 ], [ 676861.826017256942578, 3615540.287745965179056 ], [ 676875.681697106454521, 3615563.404551218729466 ], [ 677142.346745188930072, 3615726.926786814350635 ], [ 677429.38909167109523, 3615935.182172775734216 ], [ 677472.887593422201462, 3615955.674951572902501 ], [ 677507.728697169921361, 3615941.243293872568756 ], [ 677518.21572085598018, 3615908.938207047991455 ], [ 677502.298871776671149, 3615880.376708926633 ], [ 677196.686465227277949, 3615660.0643076794222 ], [ 676909.701667237677611, 3615486.697701642289758 ] ] ] ] } },
{ "type": "Feature", "properties": { "depth_bin": "125-130" }, "geometry": { "type": "MultiPolygon", "coordinates": [ [ [ [ 676024.52236571314279, 3616612.575818448793143 ], [ 676016.297121353214607, 3616644.774879765231162 ], [ 676032.213950343313627, 3616673.336371031589806 ], [ 676143.530167033197358, 3616701.587440494447947 ], [ 676185.716553756734356, 3616755.426707630045712 ], [ 676229.352400976000354, 3616784.39095525117591 ], [ 676280.035873347544111, 3616783.556793682742864 ], [ 676311.729677130933851, 3616761.842120092827827 ], [ 676774.092788385227323, 3616889.362167207058519 ], [ 676914.131893325364217, 3616906.405168836936355 ], [ 676935.586939078755677, 3616897.518197904340923 ], [ 676948.488821141421795, 3616878.209166860207915 ], [ 676945.564650226151571, 3616844.694964300841093 ], [ 676921.899186742375605, 3616825.273220344446599 ], [ 676753.658623688155785, 3616799.811487570405006 ], [ 676346.444737639511004, 3616682.838266834616661 ], [ 676332.173894359963015, 3616674.452044954523444 ], [ 676330.368267537793145, 3616658.042055618949234 ], [ 676342.788933720905334, 3616628.962465634103864 ], [ 676341.835135934059508, 3616609.547465662937611 ], [ 676315.168909594998695, 3616582.881239323876798 ], [ 676279.980654238839634, 3616588.858415730297565 ], [ 676214.358144797384739, 3616557.185849460307509 ], [ 676193.606655535870232, 3616554.295348388608545 ], [ 676162.250490575097501, 3616575.246867982670665 ], [ 676157.52734114904888, 3616594.102737455628812 ], [ 676163.459010798833333, 3616614.974901109933853 ], [ 676057.78115020529367, 3616594.798627769574523 ], [ 676024.52236571314279, 3616612.575818448793143 ] ], [ [ 676221.618025530246086, 3616658.496836966369301 ], [ 676210.371845228248276, 3616645.284250784665346 ], [ 676244.24458722572308, 3616661.888118590693921 ], [ 676241.974689370952547, 3616691.813072142191231 ], [ 676221.618025530246086, 3616658.496836966369301 ] ] ], [ [ [ 676872.065890134545043, 3615506.163931467570364 ], [ 676868.073043595999479, 3615534.346986982040107 ], [ 676881.928723445511423, 3615557.463792235590518 ], [ 677190.204631401458755, 3615752.217627325095236 ], [ 677409.685050799278542, 3615915.98459118232131 ], [ 677470.643006018945016, 3615950.566825381945819 ], [ 677493.753956194152124, 3615948.290595466271043 ], [ 677513.267168994061649, 3615932.073032078333199 ], [ 677521.41582624183502, 3615902.920867180917412 ], [ 677506.922325489576906, 3615875.43375042360276 ], [ 677252.289471650612541, 3615691.950379788409919 ], [ 676930.807313206139952, 3615488.334327265620232 ], [ 676897.293110193102621, 3615485.256997679360211 ], [ 676872.065890134545043, 3615506.163931467570364 ] ] ] ] } },
{ "type": "Feature", "properties": { "depth_bin": "130-135" }, "geometry": { "type": "MultiPolygon", "coordinates": [ [ [ [ 676033.843407372711226, 3616609.118874670937657 ], [ 676016.258827626588754, 3616638.45697354990989 ], [ 676027.667064178851433, 3616675.23232543328777 ], [ 676048.147722545661964, 3616686.179465401917696 ], [ 676101.77935546124354, 3616692.655532907228917 ], [ 676135.715314728906378, 3616709.010437513701618 ], [ 676154.379684239625931, 3616720.619125624652952 ], [ 676187.025038023362868, 3616761.071492889896035 ], [ 676229.275811467785388, 3616787.437888710293919 ], [ 676273.066280920989811, 3616789.004402870777994 ], [ 676310.530641293968074, 3616767.623159398790449 ], [ 676772.454429166973568, 3616893.89428663533181 ], [ 676914.01700530864764, 3616910.97558782575652 ], [ 676935.4720510620391, 3616902.088616893161088 ], [ 676948.373933124705218, 3616882.779585849028081 ], [ 676945.44976229488384, 3616849.265383291523904 ], [ 676918.775648836861365, 3616828.243574372027069 ], [ 676741.484299070434645, 3616801.047140224836767 ], [ 676344.899807354318909, 3616689.746581187006086 ], [ 676329.79925427865237, 3616682.578501055017114 ], [ 676320.585894189192913, 3616638.163352024741471 ], [ 676298.938496787217446, 3616622.10854791617021 ], [ 676272.019772402476519, 3616623.430980044882745 ], [ 676254.068325204891153, 3616638.163352024741471 ], [ 676243.365787510527298, 3616699.009613514877856 ], [ 676208.394103411468677, 3616652.273303223308176 ], [ 676169.939480930566788, 3616626.193268108181655 ], [ 676059.986902306671254, 3616602.570270095951855 ], [ 676033.843407372711226, 3616609.118874670937657 ] ] ], [ [ [ 676908.145608152146451, 3615479.233369050547481 ], [ 676886.690562398754992, 3615488.120339983142912 ], [ 676872.22692377329804, 3615508.914560931269079 ], [ 676872.188640429871157, 3615533.660808339715004 ], [ 676888.243444538326003, 3615555.308205741457641 ], [ 677207.132591256056912, 3615758.244913727976382 ], [ 677429.733676529256627, 3615921.4707688447088 ], [ 677477.726038616267033, 3615945.125463334377855 ], [ 677500.502593702520244, 3615940.594924841076136 ], [ 677516.46727429900784, 3615926.055692092049867 ], [ 677524.03995361411944, 3615893.020599809009582 ], [ 677505.546160166151822, 3615866.003662646748126 ], [ 677199.886556519893929, 3615654.046974861528724 ], [ 676930.922163238399662, 3615483.7639075438492 ], [ 676908.145608152146451, 3615479.233369050547481 ] ] ] ] } },
{ "type": "Feature", "properties": { "depth_bin": "135-140" }, "geometry": { "type": "MultiPolygon", "coordinates": [ [ [ [ 676065.741835461114533, 3616607.485309138894081 ], [ 676040.605704347603023, 3616611.516337893437594 ], [ 676022.654257150017656, 3616626.24870987329632 ], [ 676015.874747843132354, 3616649.994984202552587 ], [ 676024.954329708591104, 3616675.37071556923911 ], [ 676044.263360752956942, 3616688.272597631905228 ], [ 676101.897945811622776, 3616695.692975133657455 ], [ 676148.631145051331259, 3616720.629275612533092 ], [ 676180.96946685842704, 3616759.394848148338497 ], [ 676227.714049970847555, 3616788.923060656990856 ], [ 676277.636681855889037, 3616789.119287208653986 ], [ 676311.201443085214123, 3616770.083440722897649 ], [ 676775.424780959379859, 3616897.017821863293648 ], [ 676912.493532320018858, 3616910.937291797250509 ], [ 676933.948578073410317, 3616902.050320864655077 ], [ 676946.850460136076435, 3616882.74128982052207 ], [ 676943.849697280791588, 3616852.274033257272094 ], [ 676920.184233797015622, 3616832.852289300877601 ], [ 676759.48444149387069, 3616810.628971425816417 ], [ 676359.090269053471275, 3616701.285991045180708 ], [ 676328.224907029303722, 3616689.056326355785131 ], [ 676320.126365852658637, 3616656.444958133157343 ], [ 676294.671194241149351, 3616639.436356237623841 ], [ 676271.560244065942243, 3616641.712586153298616 ], [ 676255.947163225966506, 3616653.2920360872522 ], [ 676244.695249567041174, 3616704.571922 ], [ 676209.649510436225682, 3616662.975860605016351 ], [ 676173.219955136650242, 3616638.535860346630216 ], [ 676131.356893718009815, 3616617.896210455801338 ], [ 676065.741835461114533, 3616607.485309138894081 ] ] ], [ [ [ 676901.978379923384637, 3615480.801428009290248 ], [ 676885.305495766107924, 3615490.794770190957934 ], [ 676874.358355797477998, 3615511.275428557768464 ], [ 676875.312153584323823, 3615530.690428528934717 ], [ 676886.790685697691515, 3615548.925069281831384 ], [ 676983.74241577135399, 3615613.061544307041913 ], [ 677009.900314072845504, 3615615.414341970812529 ], [ 677030.380972439656034, 3615604.467202002182603 ], [ 677042.096701192203909, 3615576.182930754497647 ], [ 677030.380972439656034, 3615547.898659506812692 ], [ 676932.445636486634612, 3615483.802190864924341 ], [ 676901.978379923384637, 3615480.801428009290248 ] ] ], [ [ [ 677073.201411157031544, 3615583.994084689300507 ], [ 677051.746365403640084, 3615592.881055621895939 ], [ 677038.844483340973966, 3615612.190086666028947 ], [ 677038.844483340973966, 3615635.412860846612602 ], [ 677051.746365403640084, 3615654.72189189074561 ], [ 677456.964949726010673, 3615929.777427339926362 ], [ 677488.767515010084026, 3615939.10812319861725 ], [ 677517.329013084061444, 3615923.191273914650083 ], [ 677526.215984016424045, 3615893.894856934901327 ], [ 677508.813943122746423, 3615863.771593367215246 ], [ 677201.410032235085964, 3615654.085259810090065 ], [ 677095.977966243284754, 3615588.524623182602227 ], [ 677073.201411157031544, 3615583.994084689300507 ] ] ] ] } }
]
}
