{
"type": "FeatureCollection",
"name": "LM_15_CVB_20180731_CS_MB_5985_5990_depth",
"crs": { "type": "name", "properties": { "name": "urn:ogc:def:crs:EPSG::26915" } },
"features": [
{ "type": "Feature", "properties": { "depth_bin": "130-135" }, "geometry": { "type": "MultiPolygon", "coordinates": [ [ [ [ 677600.367729978868738, 3758583.02764994930476 ], [ 677576.181551075424068, 3758625.355754438322037 ], [ 677578.954522282350808, 3758647.630687945522368 ], [ 677594.605650231009349, 3758668.741641376633197 ], [ 677594.246639446471818, 3758704.434540504124016 ], [ 677617.378320060786791, 3758727.645458775572479 ], [ 677657.286899808212183, 3758728.834040339570493 ], [ 677709.327514164848253, 3758713.995555291417986 ], [ 677739.339895841781981, 3758695.096260610967875 ], [ 677751.055624594329856, 3758666.811989363282919 ], [ 677735.017798922373913, 3758634.174080175813287 ], [ 677738.095047507435083, 3758611.596084174700081 ], [ 677809.217340979143046, 3758593.806833525188267 ], [ 677827.115479695727117, 3758571.364250875543803 ], [ 677829.431327222846448, 3758546.72984377341345 ], [ 677818.484187254216522, 3758526.249185406602919 ], [ 677795.875945799518377, 3758510.003545331768692 ], [ 677678.403009392786771, 3758483.226490979082882 ], [ 677639.904230604646727, 3758484.155684765428305 ], [ 677610.752662184881046, 3758508.079758686944842 ], [ 677613.218818383757025, 3758545.14692592760548 ], [ 677608.525382806314155, 3758576.79672823054716 ], [ 677600.367729978868738, 3758583.02764994930476 ] ] ], [ [ [ 677939.752132424036972, 3758385.238797388970852 ], [ 677902.860829241573811, 3758416.04084880463779 ], [ 677902.702363039832562, 3758459.846421012189239 ], [ 677944.332391558215022, 3758491.931331765837967 ], [ 677997.651626836624928, 3758489.524822069332004 ], [ 678017.073370792786591, 3758465.859358585905284 ], [ 678017.594927447848022, 3758417.189730823971331 ], [ 677997.625414168462157, 3758399.090418996289372 ], [ 677939.752132424036972, 3758385.238797388970852 ] ] ] ] } },
{ "type": "Feature", "properties": { "depth_bin": "135-140" }, "geometry": { "type": "MultiPolygon", "coordinates": [ [ [ [ 677586.715236761956476, 3758564.542105976492167 ], [ 677567.126276487484574, 3758614.340812114533037 ], [ 677565.895148124312982, 3758644.420098452363163 ], [ 677584.468259821413085, 3758671.125980424229056 ], [ 677580.418776562670246, 3758693.420237462501973 ], [ 677586.586143575259484, 3758715.362636481411755 ], [ 677602.607857734314166, 3758732.891700019128621 ], [ 677620.909981441916898, 3758739.440304594114423 ], [ 677727.445312520605512, 3758727.609499918762594 ], [ 677774.253281039185822, 3758707.234303296543658 ], [ 677790.308085147640668, 3758685.586905894801021 ], [ 677791.856266762246378, 3758654.301935682538897 ], [ 677841.809436875744723, 3758631.87080942792818 ], [ 677868.824934642179869, 3758589.953348505310714 ], [ 677861.104110622545704, 3758519.378626394551247 ], [ 677845.049306514090858, 3758497.73122899280861 ], [ 677686.945432664477266, 3758473.82671580510214 ], [ 677625.743394988239743, 3758473.963566801976413 ], [ 677604.288349234848283, 3758482.850537734571844 ], [ 677590.432669385336339, 3758505.967342988122255 ], [ 677599.043352055829018, 3758540.689993356820196 ], [ 677586.715236761956476, 3758564.542105976492167 ] ] ], [ [ [ 677924.676014650729485, 3758378.748800080269575 ], [ 677892.141145176487043, 3758403.030989012680948 ], [ 677883.061563311028294, 3758428.406720379367471 ], [ 677887.705479788943194, 3758450.309506205841899 ], [ 677913.721427764277905, 3758482.898202910553664 ], [ 677918.491583208087832, 3758546.697154551744461 ], [ 677930.813800706993788, 3758573.655394685454667 ], [ 677949.66823851026129, 3758591.398664490319788 ], [ 677979.14870070014149, 3758597.922596154734492 ], [ 678009.809478404233232, 3758590.703577725682408 ], [ 678046.074191972846165, 3758565.868785514961928 ], [ 678058.624025930301286, 3758542.380826533772051 ], [ 678052.018721092026681, 3758500.407519003842026 ], [ 678026.980941275134683, 3758478.43048705207184 ], [ 678048.139743358246051, 3758455.15256996685639 ], [ 678049.900901593500748, 3758415.436757913324982 ], [ 678033.684687101747841, 3758395.922235222533345 ], [ 678001.942922502057627, 3758382.731481592636555 ], [ 677965.464871822507121, 3758374.355157672427595 ], [ 677924.676014650729485, 3758378.748800080269575 ] ] ], [ [ [ 678119.750678451964632, 3758397.832274499349296 ], [ 678116.740005135303363, 3758423.154138773214072 ], [ 678124.158998557366431, 3758444.262396936770529 ], [ 678141.66457148315385, 3758463.354542602784932 ], [ 678159.966695190756582, 3758469.903147177770734 ], [ 678187.633650539675727, 3758463.394159119576216 ], [ 678206.877205121563748, 3758438.529575924389064 ], [ 678228.845396387041546, 3758455.119592260103673 ], [ 678258.811043035821058, 3758453.87639294937253 ], [ 678275.987201431649737, 3758440.813098265789449 ], [ 678284.874172364012338, 3758419.358052512165159 ], [ 678275.987201431649737, 3758390.061635532416403 ], [ 678248.987468910287134, 3758375.629977832082659 ], [ 678223.163991530891508, 3758380.08128353394568 ], [ 678202.894463081494905, 3758403.231481634546071 ], [ 678186.651972212945111, 3758382.338042740244418 ], [ 678165.196926459553652, 3758373.451071807648987 ], [ 678137.849990279297344, 3758377.862761220429093 ], [ 678119.750678451964632, 3758397.832274499349296 ] ] ] ] } },
{ "type": "Feature", "properties": { "depth_bin": "140-145" }, "geometry": { "type": "Polygon", "coordinates": [ [ [ 677494.752049537142739, 3758658.029991975519806 ], [ 677483.804909568512812, 3758678.510650342330337 ], [ 677484.758707355358638, 3758697.92565031349659 ], [ 677512.073432151111774, 3758766.781938231084496 ], [ 677535.010616012383252, 3758788.007398108020425 ], [ 677617.011533819371834, 3758781.615399895701557 ], [ 677633.684417976648547, 3758771.622057714033872 ], [ 677650.231483137817122, 3758747.294749902095646 ], [ 677756.801091288682073, 3758739.721388064790517 ], [ 677793.81193880958017, 3758727.123981913551688 ], [ 677791.025159393087961, 3758754.645608571823686 ], [ 677799.912130325450562, 3758776.100654325447977 ], [ 677819.2211613698164, 3758789.002536388114095 ], [ 677842.443935550167225, 3758789.002536388114095 ], [ 677863.316043289494701, 3758774.616816471796483 ], [ 677880.289417129592039, 3758742.808600277639925 ], [ 677881.282834158279002, 3758721.870142928790301 ], [ 677870.386957463109866, 3758701.446044868323952 ], [ 677916.265215354855172, 3758705.550807764753699 ], [ 678016.346744023263454, 3758660.172921683173627 ], [ 678037.13039773190394, 3758632.550543833523989 ], [ 678033.641111413249746, 3758594.58850898547098 ], [ 678099.744682757183909, 3758560.200707130134106 ], [ 678136.53806041914504, 3758527.131949849426746 ], [ 678144.550129732699133, 3758510.753201939631253 ], [ 678171.329393478110433, 3758504.131521260365844 ], [ 678187.640803919173777, 3758481.459693954326212 ], [ 678218.668759058578871, 3758498.870594121981412 ], [ 678248.674589908448979, 3758498.770017866976559 ], [ 678269.333247448666953, 3758489.014797249808908 ], [ 678282.475775317405351, 3758471.917872043792158 ], [ 678295.571702857734635, 3758425.842223903629929 ], [ 678294.167090686503798, 3758398.009449552744627 ], [ 678282.689903585705906, 3758379.773487804923207 ], [ 678263.009713281411678, 3758368.177451744209975 ], [ 678237.50086853839457, 3758367.065188707318157 ], [ 678215.059646909474395, 3758377.2975456956774 ], [ 678161.632790125906467, 3758359.547217415645719 ], [ 678136.643460361286998, 3758365.635462206788361 ], [ 678117.431219605728984, 3758387.380124419461936 ], [ 678063.965807559899986, 3758409.434355997946113 ], [ 678031.537674371735193, 3758384.727392666507512 ], [ 677975.560582261299714, 3758370.519227685406804 ], [ 677937.897773438948207, 3758370.793228667695075 ], [ 677912.179532497539185, 3758379.61682785442099 ], [ 677887.65000359469559, 3758399.865223365835845 ], [ 677877.120625216746703, 3758425.851024453993887 ], [ 677885.670597500400618, 3758460.472197555936873 ], [ 677900.013217804022133, 3758481.028408726677299 ], [ 677903.988068647217005, 3758540.399949154350907 ], [ 677921.295824904809706, 3758587.094500387087464 ], [ 677900.669905384187587, 3758603.145838635507971 ], [ 677888.509957186179236, 3758596.494601018726826 ], [ 677878.261253112345003, 3758508.540797926485538 ], [ 677849.656208988046274, 3758482.200134134385735 ], [ 677603.174593944102526, 3758461.386070103850216 ], [ 677577.123275546939112, 3758480.282441252842546 ], [ 677566.176135578309186, 3758500.763099619653076 ], [ 677570.130696220439859, 3758527.422581973485649 ], [ 677587.097658299142495, 3758544.844505547080189 ], [ 677558.396729831933044, 3758624.044315691106021 ], [ 677564.334045203053392, 3758660.330726481974125 ], [ 677523.036320784594864, 3758646.314263223204762 ], [ 677494.752049537142739, 3758658.029991975519806 ] ], [ [ 677836.216513903695159, 3758688.005361684598029 ], [ 677838.772813703631982, 3758682.003070326056331 ], [ 677846.168647338054143, 3758688.5525505207479 ], [ 677835.978517163079232, 3758688.40243525756523 ], [ 677836.216513903695159, 3758688.005361684598029 ] ], [ [ 677731.214956809999421, 3758580.371631609275937 ], [ 677699.402898703119718, 3758589.036738662514836 ], [ 677657.833959110896103, 3758618.35225208196789 ], [ 677664.4253470369149, 3758585.820441361982375 ], [ 677681.477066112682223, 3758554.543960084673017 ], [ 677741.018815373419784, 3758558.177540186326951 ], [ 677760.747909506433643, 3758566.251809282228351 ], [ 677751.838718523853458, 3758582.712276266887784 ], [ 677731.214956809999421, 3758580.371631609275937 ] ] ] } },
{ "type": "Feature", "properties": { "depth_bin": "145-150" }, "geometry": { "type": "MultiPolygon", "coordinates": [ [ [ [ 677467.928036598488688, 3758486.900021753273904 ], [ 677437.901614397065714, 3758492.872648477554321 ], [ 677420.893012501765043, 3758518.327820088714361 ], [ 677426.865639225696214, 3758548.354242290370166 ], [ 677452.320810837205499, 3758565.362844185903668 ], [ 677482.347233038628474, 3758559.390217461623251 ], [ 677499.355834933929145, 3758533.935045850463212 ], [ 677493.383208209997974, 3758503.908623648807406 ], [ 677467.928036598488688, 3758486.900021753273904 ] ] ], [ [ [ 677480.383511521155015, 3758655.613807095680386 ], [ 677477.491685113636777, 3758676.365284382831305 ], [ 677486.315255913184956, 3758702.083505121525377 ], [ 677516.815545034245588, 3758725.594101808033884 ], [ 677508.947490189224482, 3758756.45673769665882 ], [ 677525.015920346952043, 3758794.867882389109582 ], [ 677552.015652868314646, 3758809.299540089443326 ], [ 677596.7776120074559, 3758802.515403936617076 ], [ 677618.267178478417918, 3758830.622812936082482 ], [ 677638.747836845228449, 3758841.569952904712409 ], [ 677664.905698152957484, 3758839.37296273605898 ], [ 677682.857145350542851, 3758824.640590756200254 ], [ 677701.770294900052249, 3758781.592597668524832 ], [ 677696.023745762766339, 3758751.943363132886589 ], [ 677768.852362385485321, 3758756.908481509890407 ], [ 677777.782555945334025, 3758762.177027090452611 ], [ 677779.772984420647845, 3758784.871211904101074 ], [ 677792.674866483313963, 3758804.180242948234081 ], [ 677830.424582230625674, 3758812.610094933304936 ], [ 677860.316068849060684, 3758797.892920612357557 ], [ 677881.597531693405472, 3758775.092249483801425 ], [ 677895.717447962146252, 3758729.1124616866 ], [ 677966.871519277920015, 3758717.644224439747632 ], [ 677999.531114534940571, 3758690.145959082525223 ], [ 678020.19729250157252, 3758684.315720472950488 ], [ 678038.41717313148547, 3758682.921236254274845 ], [ 678072.597131485817954, 3758770.787158138118684 ], [ 678095.284616002580151, 3758783.985897565726191 ], [ 678114.699615973397158, 3758784.939695352688432 ], [ 678145.259492731071077, 3758763.119935219176114 ], [ 678158.949102458893321, 3758729.453496003057808 ], [ 678159.186817456735298, 3758704.705510548315942 ], [ 678140.64731716667302, 3758670.097897237632424 ], [ 678105.346574891358614, 3758636.33855881402269 ], [ 678065.82378876733128, 3758628.774064293596894 ], [ 678077.593608786468394, 3758594.271752304397523 ], [ 678131.219229971175082, 3758570.747273119632155 ], [ 678216.628503743559122, 3758513.674959174823016 ], [ 678258.027410513837822, 3758517.984081823378801 ], [ 678311.247314374311827, 3758506.826662651728839 ], [ 678329.34662620164454, 3758486.857149372808635 ], [ 678331.702089936938137, 3758460.699276016093791 ], [ 678293.91672975209076, 3758379.899469865020365 ], [ 678257.916178083047271, 3758358.043170426506549 ], [ 678222.370173880597576, 3758365.012848504818976 ], [ 678149.377644768101163, 3758355.626576447859406 ], [ 678118.975427800905891, 3758376.810710766818374 ], [ 678065.894575871294364, 3758397.21812108438462 ], [ 678046.123333642724901, 3758383.880360149312764 ], [ 677977.163273425772786, 3758367.511926761362702 ], [ 677934.094078739639372, 3758368.322289808653295 ], [ 677894.876614115317352, 3758388.266320419032127 ], [ 677875.682717554504052, 3758415.034173846710473 ], [ 677874.530837381375022, 3758442.066464279778302 ], [ 677890.708463259157725, 3758498.188940580934286 ], [ 677875.954244568478316, 3758481.765544267371297 ], [ 677847.106770233483985, 3758470.369246695190668 ], [ 677770.959036371088587, 3758471.369978822302073 ], [ 677749.724175459472463, 3758463.263372244313359 ], [ 677622.601442900020629, 3758452.244494550861418 ], [ 677583.541291219880804, 3758461.596830976661295 ], [ 677558.638093897141516, 3758497.518103589769453 ], [ 677559.393805932835676, 3758524.55037932517007 ], [ 677576.676826388575137, 3758548.703042970970273 ], [ 677552.821390301338397, 3758640.842889684252441 ], [ 677509.535079940920696, 3758631.689733174163848 ], [ 677480.383511521155015, 3758655.613807095680386 ] ], [ [ 677984.467713912134059, 3758528.072059967555106 ], [ 677983.962924967054278, 3758527.004773415159434 ], [ 677985.559139294666238, 3758527.759726567193866 ], [ 677984.467713912134059, 3758528.072059967555106 ] ], [ [ 677784.787681716959924, 3758599.211130502168089 ], [ 677743.191299633937888, 3758620.208773599471897 ], [ 677734.880306552397087, 3758637.780892085283995 ], [ 677736.066977772163227, 3758659.480912613682449 ], [ 677665.776144770439714, 3758662.462293649557978 ], [ 677661.177225888008252, 3758639.643650881014764 ], [ 677644.476885494543239, 3758621.707835633307695 ], [ 677673.350794381112792, 3758545.500513025559485 ], [ 677803.799821523833089, 3758556.840756015852094 ], [ 677808.874498503515497, 3758585.276426163036376 ], [ 677784.787681716959924, 3758599.211130502168089 ] ], [ [ 677894.144404694903642, 3758557.028199253603816 ], [ 677894.108652179944329, 3758535.297600470017642 ], [ 677909.021911777206697, 3758588.713405437301844 ], [ 677901.942600022652186, 3758595.398319817148149 ], [ 677894.144404694903642, 3758557.028199253603816 ] ] ] ] } },
{ "type": "Feature", "properties": { "depth_bin": "150-155" }, "geometry": { "type": "MultiPolygon", "coordinates": [ [ [ [ 677421.84946739836596, 3758471.67112645925954 ], [ 677410.902327429736033, 3758507.759010587818921 ], [ 677443.354385344311595, 3758580.631462773773819 ], [ 677475.559342204942368, 3758592.154580593109131 ], [ 677502.220151890185662, 3758588.175094022415578 ], [ 677521.409754937747493, 3758575.092291530221701 ], [ 677538.210874967509881, 3758527.12186785787344 ], [ 677519.11557877692394, 3758489.498785165604204 ], [ 677457.937351526459679, 3758460.723986490629613 ], [ 677421.84946739836596, 3758471.67112645925954 ] ] ], [ [ [ 677484.821012323489413, 3758621.521178738214076 ], [ 677471.919130260823295, 3758640.830209782347083 ], [ 677471.879511791630648, 3758665.576438279822469 ], [ 677489.094040201511234, 3758697.68196125747636 ], [ 677541.153189308359288, 3758730.586984494235367 ], [ 677520.619868348352611, 3758752.159736265428364 ], [ 677516.089329855400138, 3758774.936291351448745 ], [ 677531.224084987072274, 3758814.804602228105068 ], [ 677552.871482389047742, 3758830.859406336676329 ], [ 677576.094256569398567, 3758830.859406336676329 ], [ 677595.858410718617961, 3758817.343861805740744 ], [ 677632.529848496429622, 3758848.474076252896339 ], [ 677670.722181107616052, 3758850.19563168194145 ], [ 677704.799094724701717, 3758817.218344629276544 ], [ 677717.954823998734355, 3758766.191169060766697 ], [ 677730.655234449193813, 3758765.869743193034083 ], [ 677775.209866686258465, 3758777.19276726199314 ], [ 677787.767432852298953, 3758819.785961957182735 ], [ 677825.378774112206884, 3758830.772721728309989 ], [ 677896.905916412826627, 3758799.473102553747594 ], [ 677913.214217626606114, 3758777.885049775242805 ], [ 677916.488814573967829, 3758752.164593033492565 ], [ 678019.553579139988869, 3758750.451032179407775 ], [ 678037.125697625917383, 3758742.140039097517729 ], [ 678049.439176804269664, 3758724.475483950227499 ], [ 678066.517867813934572, 3758783.034076800569892 ], [ 678085.82689885830041, 3758795.93595886323601 ], [ 678112.819578128866851, 3758798.611314151901752 ], [ 678153.343032232951373, 3758779.03847112134099 ], [ 678184.887542803538963, 3758728.603562455158681 ], [ 678176.026472437777556, 3758692.404061204288155 ], [ 678132.36073200404644, 3758643.694857484661043 ], [ 678142.567195091047324, 3758600.490006921812892 ], [ 678156.65511087467894, 3758581.428269722498953 ], [ 678201.947140246396884, 3758560.985324291978031 ], [ 678321.317290334729478, 3758529.95590637717396 ], [ 678339.41660216206219, 3758509.986393098253757 ], [ 678341.692832077736966, 3758486.875442922580987 ], [ 678299.100567243178375, 3758378.775258253328502 ], [ 678269.499723338871263, 3758353.101204234641045 ], [ 678228.577526253531687, 3758357.214796880725771 ], [ 678208.719647791818716, 3758345.422712235245854 ], [ 678172.625812873011455, 3758340.986216316465288 ], [ 678137.00000860390719, 3758351.924219208303839 ], [ 678111.287992656696588, 3758374.734259166754782 ], [ 678066.746321114711463, 3758388.752271267119795 ], [ 678039.427106607472524, 3758376.75349278608337 ], [ 677951.010586500749923, 3758362.664234769064933 ], [ 677907.688390439725481, 3758376.451062422245741 ], [ 677877.278871582238935, 3758403.179700783453882 ], [ 677869.463718315237202, 3758435.017771381419152 ], [ 677882.491853296756744, 3758478.684878636617213 ], [ 677856.366366586880758, 3758466.036577392369509 ], [ 677793.196064790477976, 3758467.112243950832635 ], [ 677774.793617021408863, 3758444.071583386976272 ], [ 677750.437283935840242, 3758435.841054749209434 ], [ 677728.162347986246459, 3758438.614028785377741 ], [ 677705.205020713154227, 3758453.89263735152781 ], [ 677600.900610204902478, 3758441.099328007549047 ], [ 677575.037527951761149, 3758447.074087842367589 ], [ 677560.634612932684831, 3758460.128129095304757 ], [ 677550.880627830396406, 3758484.444939333945513 ], [ 677549.220043103792705, 3758523.551812143065035 ], [ 677567.608643220853992, 3758553.598717774730176 ], [ 677548.924886718392372, 3758624.782415416091681 ], [ 677514.117429303238168, 3758612.634207805618644 ], [ 677484.821012323489413, 3758621.521178738214076 ] ], [ [ 677988.391484989551827, 3758554.816041441168636 ], [ 677978.284305437584408, 3758545.639354781713337 ], [ 677962.764881596202031, 3758446.331612305250019 ], [ 677981.056624555960298, 3758452.205054349731654 ], [ 677973.161824607872404, 3758481.057959099300206 ], [ 677979.903040115721524, 3758503.280768420081586 ], [ 678021.247362352325581, 3758531.730861507821828 ], [ 677988.391484989551827, 3758554.816041441168636 ] ], [ [ 677795.618722201790661, 3758681.321126403287053 ], [ 677697.718927052803338, 3758670.675363204907626 ], [ 677654.699365914682858, 3758677.88118173321709 ], [ 677654.958019580342807, 3758649.697332649026066 ], [ 677636.315752541064285, 3758622.535231790971011 ], [ 677664.413483639829792, 3758539.413878378458321 ], [ 677813.580864984542131, 3758552.442317493259907 ], [ 677822.37597371218726, 3758612.187244194559753 ], [ 677848.657007981906645, 3758655.378759785555303 ], [ 677833.449988681008108, 3758666.766156914643943 ], [ 677820.329456155421212, 3758692.112998140975833 ], [ 677795.618722201790661, 3758681.321126403287053 ] ] ] ] } },
{ "type": "Feature", "properties": { "depth_bin": "155-160" }, "geometry": { "type": "Polygon", "coordinates": [ [ [ 677417.596041950630024, 3758459.364645362365991 ], [ 677406.648901982000098, 3758479.845303729176521 ], [ 677407.563082835986279, 3758500.783757450524718 ], [ 677435.579196088481694, 3758536.585701459553093 ], [ 677433.281808077241294, 3758567.005486571229994 ], [ 677473.475675699301064, 3758668.210939277894795 ], [ 677513.316755743697286, 3758696.580372245516628 ], [ 677553.548677614657208, 3758745.041338655631989 ], [ 677538.410156439174898, 3758756.660637008026242 ], [ 677526.893772309296764, 3758780.24743536580354 ], [ 677536.347854783874936, 3758829.917219565249979 ], [ 677563.02060806110967, 3758850.941658291500062 ], [ 677599.802009369828738, 3758844.015158487018198 ], [ 677649.73298247193452, 3758862.14895317517221 ], [ 677695.8271320926724, 3758852.174349763896316 ], [ 677725.672486563446, 3758819.656126172747463 ], [ 677735.676099717966281, 3758786.673405094537884 ], [ 677773.005785399582237, 3758791.442715361248702 ], [ 677779.310184126254171, 3758830.403388401959091 ], [ 677795.196936277439818, 3758845.020506713073701 ], [ 677815.576262858696282, 3758849.783276110421866 ], [ 677893.820895277429372, 3758830.081287032458931 ], [ 677948.637198164127767, 3758801.714319354388863 ], [ 677966.791877026087604, 3758780.722843294031918 ], [ 677990.480151368654333, 3758775.03909369930625 ], [ 678046.420207779854536, 3758771.147430822253227 ], [ 678056.782815061626025, 3758805.648254258092493 ], [ 678085.266387477284297, 3758821.642991357948631 ], [ 678192.705079450272024, 3758785.775316293817014 ], [ 678221.670319385943003, 3758755.960146069992334 ], [ 678226.710423268959858, 3758724.916592084802687 ], [ 678220.543051754124463, 3758702.974182255100459 ], [ 678191.612673009512946, 3758664.370081550441682 ], [ 678224.511656050104648, 3758665.835997940972447 ], [ 678251.215449655079283, 3758647.767549986019731 ], [ 678288.263126044534147, 3758640.432022666092962 ], [ 678302.887394677964039, 3758609.511604531668127 ], [ 678287.606061740545556, 3758565.052272270899266 ], [ 678333.230739168589935, 3758551.027569479309022 ], [ 678350.815318914712407, 3758521.68947060033679 ], [ 678339.182498812442645, 3758478.909726852551103 ], [ 678314.03319080453366, 3758457.924904052168131 ], [ 678251.881935123354197, 3758458.908746173605323 ], [ 678191.151359225739725, 3758479.72525726351887 ], [ 678103.349610759760253, 3758520.220499970018864 ], [ 678057.298636123421602, 3758579.488857108168304 ], [ 678018.087760820868425, 3758601.441208676900715 ], [ 678009.569574194960296, 3758635.014311871025711 ], [ 677978.96280841040425, 3758663.387521957047284 ], [ 677939.51810457452666, 3758666.823515878990293 ], [ 677974.695460633723997, 3758623.374970457516611 ], [ 677982.846759629552253, 3758602.065548147074878 ], [ 677953.778896587202325, 3758443.206691042054445 ], [ 678013.170883037731983, 3758453.78465709509328 ], [ 678031.154584579984657, 3758468.570842198096216 ], [ 678068.584887270350009, 3758474.945367119740695 ], [ 678168.652611379162408, 3758442.027345082722604 ], [ 678241.681257568881847, 3758444.178050270304084 ], [ 678281.235357252298854, 3758429.82143942033872 ], [ 678295.638272271375172, 3758416.767398167401552 ], [ 678301.650515194050968, 3758385.217514638788998 ], [ 678281.753455324564129, 3758353.589265450835228 ], [ 678169.471950322040357, 3758326.302931438200176 ], [ 678142.125013999058865, 3758330.714622158091515 ], [ 678116.476133329211734, 3758364.531667731702328 ], [ 678073.468294988386333, 3758380.14030408160761 ], [ 677967.344876813120209, 3758360.683647028170526 ], [ 677920.575753522454761, 3758367.393138049170375 ], [ 677874.271571838646196, 3758401.577009932603687 ], [ 677866.535651623504236, 3758422.52679312415421 ], [ 677868.25149871094618, 3758461.457511448767036 ], [ 677832.698338662739843, 3758442.358977243304253 ], [ 677785.259745773626491, 3758445.896036281716079 ], [ 677749.072294755955227, 3758429.707611793186516 ], [ 677703.980292000225745, 3758441.226719738915563 ], [ 677655.029797971365042, 3758436.31833915784955 ], [ 677628.335758496308699, 3758443.239412761759013 ], [ 677585.600430833990686, 3758434.807423247024417 ], [ 677552.388027554028668, 3758453.650978709571064 ], [ 677542.319369170698337, 3758492.373910320922732 ], [ 677512.019208356854506, 3758462.985149526968598 ], [ 677445.880313198082149, 3758447.648916610050946 ], [ 677417.596041950630024, 3758459.364645362365991 ] ], [ [ 677738.682104246225208, 3758686.026680623181164 ], [ 677701.058949928963557, 3758684.777174304705113 ], [ 677661.589993431931362, 3758694.767629786394536 ], [ 677645.169012331054546, 3758711.188610887154937 ], [ 677633.988537681987509, 3758745.786154318135232 ], [ 677627.351395953679457, 3758742.630063819698989 ], [ 677648.6327073170105, 3758674.17204132117331 ], [ 677644.573993024299853, 3758642.716758051887155 ], [ 677630.786709522246383, 3758624.391127133276314 ], [ 677651.634963976801373, 3758530.793171564117074 ], [ 677730.317867882200517, 3758535.406344499904662 ], [ 677755.475062077399343, 3758547.805074433330446 ], [ 677821.646156597416848, 3758548.050974434707314 ], [ 677835.529603815637529, 3758629.911260477267206 ], [ 677872.29914406419266, 3758675.176326605025679 ], [ 677849.574116236297414, 3758691.577388529200107 ], [ 677833.189152278588153, 3758721.741019811015576 ], [ 677791.731148486724123, 3758695.585315721109509 ], [ 677738.682104246225208, 3758686.026680623181164 ] ] ] } },
{ "type": "Feature", "properties": { "depth_bin": "160-165" }, "geometry": { "type": "MultiPolygon", "coordinates": [ [ [ [ 677404.793496182654053, 3758466.817473363131285 ], [ 677403.800081550143659, 3758487.755927059799433 ], [ 677416.151822027284652, 3758512.846663458272815 ], [ 677477.953171632951126, 3758545.951265561394393 ], [ 677480.4086536122486, 3758559.424993601627648 ], [ 677460.447299066465348, 3758570.242054734844714 ], [ 677450.453956884681247, 3758586.914938892237842 ], [ 677455.472785821766593, 3758620.74913530331105 ], [ 677491.468372170929797, 3758650.396097497548908 ], [ 677546.19303849642165, 3758729.656670020427555 ], [ 677566.628771313931793, 3758744.619494597893208 ], [ 677588.90370419237297, 3758747.550940335262567 ], [ 677625.281880651949905, 3758724.216266053263098 ], [ 677641.804433995625004, 3758683.990314694587141 ], [ 677641.207203915459104, 3758650.864218189381063 ], [ 677625.572331044590101, 3758625.304814355447888 ], [ 677639.297576596494764, 3758564.166122429538518 ], [ 677632.311278096633032, 3758524.84782040072605 ], [ 677684.595178666641004, 3758519.606476007495075 ], [ 677704.80067328736186, 3758529.242943712044507 ], [ 677731.369625168968923, 3758527.089684437029064 ], [ 677760.8122092357371, 3758544.41988873295486 ], [ 677826.759335239650682, 3758543.409608150366694 ], [ 677845.16135862225201, 3758643.079036135226488 ], [ 677877.370347519521601, 3758674.889990991447121 ], [ 677913.170577480690554, 3758679.082262105774134 ], [ 677948.831712165498175, 3758651.832409356255084 ], [ 677972.063697490259074, 3758606.358596618752927 ], [ 677947.532202781410888, 3758443.002521325834095 ], [ 678021.791761310072616, 3758451.137044297996908 ], [ 678060.371138728805818, 3758464.354912284761667 ], [ 678138.576305569265969, 3758446.176313274074346 ], [ 678180.595053322380409, 3758415.589958192314953 ], [ 678205.819851225824095, 3758435.000515654217452 ], [ 678228.930801401031204, 3758437.276745569892228 ], [ 678283.422532204189338, 3758416.205390660092235 ], [ 678297.893806017120369, 3758379.840825625695288 ], [ 678289.006835084757768, 3758358.385779872070998 ], [ 678273.393754244782031, 3758346.806329938117415 ], [ 678155.695201053051278, 3758320.050626226235181 ], [ 678131.153618696844205, 3758330.381825778167695 ], [ 678110.748234594706446, 3758362.695303518790752 ], [ 678097.817059995490126, 3758368.784094752278179 ], [ 678016.365369685459882, 3758369.50383770512417 ], [ 677945.182305733673275, 3758358.492183252237737 ], [ 677922.178444281918928, 3758364.385837657377124 ], [ 677874.845412610564381, 3758395.123537618666887 ], [ 677862.462022565770894, 3758421.571932504419237 ], [ 677862.782397532253526, 3758446.19956512702629 ], [ 677839.752849844750017, 3758434.065211325883865 ], [ 677789.031226796098053, 3758435.243197028525174 ], [ 677749.191145121119916, 3758425.137242219876498 ], [ 677705.163723424659111, 3758435.07975910929963 ], [ 677653.704426393378526, 3758428.661443923600018 ], [ 677615.910014220513403, 3758434.000058869365603 ], [ 677565.423054362996481, 3758423.316756517160684 ], [ 677540.047322996426374, 3758432.396338382735848 ], [ 677526.006208114675246, 3758456.763245080597699 ], [ 677492.816006847773679, 3758457.447201542090625 ], [ 677439.150423998711631, 3758438.621471386402845 ], [ 677417.695378245320171, 3758447.508442318998277 ], [ 677404.793496182654053, 3758466.817473363131285 ] ] ], [ [ [ 677539.849755782517605, 3758790.401615586597472 ], [ 677533.068920311750844, 3758814.147879776544869 ], [ 677542.085094268084504, 3758843.786793534643948 ], [ 677556.398097864701413, 3758862.064022207632661 ], [ 677582.344268237589858, 3758874.116763507481664 ], [ 677695.496549573377706, 3758870.552316819317639 ], [ 677744.81554411794059, 3758844.301457015797496 ], [ 677769.29578781593591, 3758813.481973478104919 ], [ 677770.808620686177164, 3758836.470753888133913 ], [ 677783.710502748843282, 3758855.779784932266921 ], [ 677804.289915251545608, 3758865.69347531395033 ], [ 677830.600961047108285, 3758864.447359026875347 ], [ 677869.380862299236469, 3758848.072477078996599 ], [ 677917.269844162627123, 3758842.781181805767119 ], [ 677993.254658131394535, 3758801.700324217323214 ], [ 678035.624666310613975, 3758791.503234959207475 ], [ 678068.170764891197905, 3758827.321683866437525 ], [ 678098.197187092620879, 3758833.294310590717942 ], [ 678137.392530716606416, 3758816.929711923934519 ], [ 678182.46840918622911, 3758810.147174776066095 ], [ 678224.978148151771165, 3758786.033581220079213 ], [ 678253.663094246760011, 3758756.792155440896749 ], [ 678261.417401043465361, 3758712.247953331563622 ], [ 678278.380485448520631, 3758704.318671361077577 ], [ 678280.97129904513713, 3758736.013886178843677 ], [ 678298.631736845592968, 3758758.614957273006439 ], [ 678329.995317268418148, 3758765.593888462521136 ], [ 678352.218126589199528, 3758758.852672954555601 ], [ 678391.149478908278979, 3758689.697703190613538 ], [ 678395.424595697433688, 3758648.344826105050743 ], [ 678374.178954401868396, 3758598.730496217031032 ], [ 678351.988638932700269, 3758575.403809856623411 ], [ 678362.289998592576012, 3758541.587354320567101 ], [ 678345.750558736501262, 3758497.109054788947105 ], [ 678324.103161334525794, 3758481.054250680375844 ], [ 678286.406621178844944, 3758479.625044503249228 ], [ 678229.755858772201464, 3758495.868127991911024 ], [ 678204.241913826204836, 3758511.276802803855389 ], [ 678171.733666097279638, 3758562.470792036503553 ], [ 678132.451712293084711, 3758581.619828485883772 ], [ 678086.148059766041115, 3758634.779446210246533 ], [ 678083.79259272897616, 3758660.937316367402673 ], [ 678094.903349439846352, 3758684.103542795870453 ], [ 678065.601973442593589, 3758677.488138950429857 ], [ 678011.996331799542531, 3758692.657847686205059 ], [ 677970.751120752771385, 3758690.266333131119609 ], [ 677923.173065347713418, 3758701.430213227402419 ], [ 677906.500181190436706, 3758711.423555409070104 ], [ 677877.896360498969443, 3758748.63079578243196 ], [ 677846.155221124296077, 3758756.754079547710717 ], [ 677826.945538547937758, 3758731.239389198832214 ], [ 677788.288039192790166, 3758710.740744546521455 ], [ 677708.848718952969648, 3758705.475138853769749 ], [ 677673.425306389573961, 3758723.584229602012783 ], [ 677652.781571064144373, 3758776.975737881381065 ], [ 677626.977792354766279, 3758758.378282557241619 ], [ 677595.64126765076071, 3758752.16220355918631 ], [ 677561.946114289341494, 3758764.408430386334658 ], [ 677539.849755782517605, 3758790.401615586597472 ] ], [ [ 678119.792783916229382, 3758717.579359250608832 ], [ 678117.964543385081924, 3758713.780717673245817 ], [ 678117.053245087619871, 3758709.733101465273649 ], [ 678125.98048570251558, 3758716.96156402816996 ], [ 678119.792783916229382, 3758717.579359250608832 ] ] ] ] } },
{ "type": "Feature", "properties": { "depth_bin": "165-170" }, "geometry": { "type": "MultiPolygon", "coordinates": [ [ [ [ 677401.82288471411448, 3758452.338496847078204 ], [ 677399.546654798439704, 3758475.449447022750974 ], [ 677414.826455196365714, 3758505.189677977468818 ], [ 677486.195723465410993, 3758537.830795615911484 ], [ 677504.387194668175653, 3758646.603518997319043 ], [ 677533.878583024838008, 3758712.732929627876729 ], [ 677560.191805044538341, 3758736.768106126692146 ], [ 677589.062180026201531, 3758741.457120335195214 ], [ 677619.188060413463973, 3758724.057790434919298 ], [ 677637.77042770513799, 3758681.511986463330686 ], [ 677635.113383334479295, 3758650.70574391214177 ], [ 677621.29880552215036, 3758626.904704313725233 ], [ 677631.991764708422124, 3758555.476983434055001 ], [ 677619.94291224447079, 3758518.385174435097724 ], [ 677682.929471607203595, 3758512.443464566022158 ], [ 677715.199602955603041, 3758522.161923574283719 ], [ 677742.276689952006564, 3758507.885664503555745 ], [ 677811.351676406338811, 3758514.244736543856561 ], [ 677831.691070383763872, 3758528.506562624126673 ], [ 677837.445859848172404, 3758611.026174719445407 ], [ 677848.208274112083018, 3758643.158272603526711 ], [ 677875.965744798770174, 3758670.279998941347003 ], [ 677913.28943265916314, 3758674.511888170614839 ], [ 677947.387490631896071, 3758648.745874900370836 ], [ 677965.969864673912525, 3758606.200124333612621 ], [ 677942.834067064453848, 3758442.944099010434002 ], [ 677958.62718754785601, 3758437.574198121204972 ], [ 678063.723222593893297, 3758458.897095940075815 ], [ 678157.214375949115492, 3758432.940467305481434 ], [ 678180.726891949656419, 3758409.552413427270949 ], [ 678246.548425077460706, 3758423.3708197879605 ], [ 678269.73742013797164, 3758420.515663380734622 ], [ 678291.384817539947107, 3758404.460859272163361 ], [ 678297.933422114700079, 3758378.317364338319749 ], [ 678284.926459098234773, 3758352.390701339114457 ], [ 678257.454219208564609, 3758335.781962500885129 ], [ 678160.463661422254518, 3758312.552171713206917 ], [ 678122.052472715848126, 3758328.620670246426016 ], [ 678098.473086736281402, 3758362.535443260334432 ], [ 678063.075051343650557, 3758368.199463012628257 ], [ 677962.019581210450269, 3758355.8810442565009 ], [ 677923.781135002383962, 3758361.378537208773196 ], [ 677876.812626148341224, 3758387.459384972695261 ], [ 677858.71220937371254, 3758430.110268430784345 ], [ 677789.993897847714834, 3758430.974750397261232 ], [ 677742.342396718915552, 3758420.295028261374682 ], [ 677703.744085509213619, 3758430.476883058901876 ], [ 677649.292526445351541, 3758422.448771025054157 ], [ 677612.610290328622796, 3758429.483442216645926 ], [ 677562.494994763866998, 3758418.667158575262874 ], [ 677491.422459983965382, 3758451.194883472286165 ], [ 677455.608857002807781, 3758430.730269580613822 ], [ 677430.974453133880161, 3758428.414422925561666 ], [ 677401.82288471411448, 3758452.338496847078204 ] ] ], [ [ [ 677556.583350267261267, 3758794.758669482078403 ], [ 677541.850978287635371, 3758812.710116679314524 ], [ 677539.535128266434185, 3758837.344521777238697 ], [ 677552.649584762868471, 3758870.243378601502627 ], [ 677578.748486254131421, 3758890.987408643122762 ], [ 677626.233597179292701, 3758894.872669255826622 ], [ 677695.94217878812924, 3758883.812722506932914 ], [ 677764.511383140226826, 3758848.436970072798431 ], [ 677789.913403312442824, 3758872.32387377647683 ], [ 677821.830700942897238, 3758877.092133616097271 ], [ 677871.357320164097473, 3758859.778665971476585 ], [ 677915.270945952739567, 3758861.023057062644511 ], [ 678032.618663729634136, 3758813.083228388801217 ], [ 678050.169650970259681, 3758830.308531240094453 ], [ 678091.639691814081743, 3758844.76683693472296 ], [ 678147.695344366133213, 3758828.421372785698622 ], [ 678210.527411508955993, 3758821.442384647205472 ], [ 678255.090888848761097, 3758800.537123076152056 ], [ 678277.13385769049637, 3758776.233792179729789 ], [ 678313.516708775772713, 3758787.738152486272156 ], [ 678368.738492272910662, 3758768.429257369600236 ], [ 678412.718137263902463, 3758721.662095478270203 ], [ 678419.266741838655435, 3758695.51860054442659 ], [ 678359.203686704509892, 3758529.738711810205132 ], [ 678339.234173425124027, 3758511.639399982523173 ], [ 678309.341817826381885, 3758508.509866134263575 ], [ 678274.083524583373219, 3758522.240084754303098 ], [ 678259.351152603747323, 3758540.191531951539218 ], [ 678254.460451930062845, 3758579.184937859419733 ], [ 678264.300043421681039, 3758609.37119260802865 ], [ 678222.122712802607566, 3758628.124662359710783 ], [ 678167.384559385944158, 3758631.556585443206131 ], [ 678145.73716198396869, 3758647.611389551777393 ], [ 678135.785067214630544, 3758687.386791269294918 ], [ 678156.502486640587449, 3758728.200344341341406 ], [ 678141.028011085349135, 3758735.687448554672301 ], [ 678110.33285981870722, 3758740.808334207162261 ], [ 678088.409888820024207, 3758718.545792095828801 ], [ 678032.777219663956203, 3758708.648876887280494 ], [ 677965.354565377114341, 3758720.821161126717925 ], [ 677899.917072191368788, 3758758.895930958446115 ], [ 677839.128514308016747, 3758770.71880721161142 ], [ 677824.98626590531785, 3758747.957796419039369 ], [ 677798.357944177580066, 3758733.869932682719082 ], [ 677747.176850740564987, 3758728.66225422360003 ], [ 677708.884544879780151, 3758740.160322583280504 ], [ 677664.445490032085218, 3758792.716954266652465 ], [ 677594.238809854723513, 3758780.796379676088691 ], [ 677556.583350267261267, 3758794.758669482078403 ] ] ] ] } },
{ "type": "Feature", "properties": { "depth_bin": "170-175" }, "geometry": { "type": "MultiPolygon", "coordinates": [ [ [ [ 677400.497514546383172, 3758444.681611732579768 ], [ 677398.142051267321222, 3758470.83946925913915 ], [ 677410.533411498763599, 3758494.40665170038119 ], [ 677439.370544382720254, 3758517.148787181824446 ], [ 677492.140843296307139, 3758533.40575739229098 ], [ 677510.93181516835466, 3758647.564200392924249 ], [ 677528.817209166008979, 3758699.683919516392052 ], [ 677550.929139976738952, 3758726.974289887119085 ], [ 677586.134126772754826, 3758736.807517552748322 ], [ 677616.220388154615648, 3758720.931642623618245 ], [ 677633.120824949233793, 3758684.440040502231568 ], [ 677631.94761736493092, 3758655.196872041095048 ], [ 677616.956760109169409, 3758628.604928177315742 ], [ 677627.144076119293459, 3758566.022316028829664 ], [ 677613.267699020565487, 3758512.166992472019047 ], [ 677656.900440071127377, 3758504.503436055965722 ], [ 677713.953464860329404, 3758511.458113279659301 ], [ 677737.469367771525867, 3758502.906649135053158 ], [ 677820.639606692828238, 3758508.376160353887826 ], [ 677834.909709806670435, 3758522.222163024824113 ], [ 677847.792902239249088, 3758636.784035443328321 ], [ 677876.044981505256146, 3758667.233083181083202 ], [ 677911.8055930507835, 3758672.948811835609376 ], [ 677940.386917309602723, 3758652.972530666738749 ], [ 677959.836414008866996, 3758607.565110179595649 ], [ 677939.827944600023329, 3758442.034495388157666 ], [ 677960.507787253241986, 3758435.77154802903533 ], [ 678054.554615804227069, 3758453.532230736687779 ], [ 678109.783658393076621, 3758446.374452372547239 ], [ 678151.981782938237302, 3758427.403680835384876 ], [ 678175.350179261062294, 3758403.25907939998433 ], [ 678261.39887821150478, 3758419.827151651494205 ], [ 678287.602222054614685, 3758404.527242677751929 ], [ 678296.489192986977287, 3758375.230825698003173 ], [ 678287.602222054614685, 3758353.775779944378883 ], [ 678259.096528215217404, 3758331.251195116899908 ], [ 678159.059050932643004, 3758307.942074714228511 ], [ 678114.474787410115823, 3758326.89913074998185 ], [ 678091.897428833995946, 3758359.864971189759672 ], [ 677925.383825680823065, 3758358.371236700098962 ], [ 677873.765710149658844, 3758387.380152294877917 ], [ 677857.373754388769157, 3758426.200828289147466 ], [ 677737.85126069933176, 3758417.129265178926289 ], [ 677693.211737502831966, 3758426.653506007045507 ], [ 677652.577137866057456, 3758413.387270475737751 ], [ 677612.020590330008417, 3758426.000023344531655 ], [ 677555.036187350051478, 3758412.375256136525422 ], [ 677487.381167641142383, 3758445.157397370785475 ], [ 677460.87892641313374, 3758424.830948459915817 ], [ 677437.452695846790448, 3758419.988949027378112 ], [ 677415.229886526009068, 3758426.730164535343647 ], [ 677400.497514546383172, 3758444.681611732579768 ] ] ], [ [ [ 677582.714741667965427, 3758807.384563896339387 ], [ 677562.234083301154897, 3758818.331703864969313 ], [ 677548.12117242871318, 3758843.303486677818 ], [ 677553.246210612938739, 3758874.110952598042786 ], [ 677568.104740592301823, 3758896.604709822684526 ], [ 677595.104473113664426, 3758911.036367523018271 ], [ 677662.519285915535875, 3758906.48775018658489 ], [ 677771.741881214431487, 3758872.847291229758412 ], [ 677803.881836924585514, 3758889.115915930364281 ], [ 677865.948657880770043, 3758873.941399831790477 ], [ 677905.052378853550181, 3758874.006037389859557 ], [ 678018.848858384066261, 3758838.284065617714077 ], [ 678102.939955852576531, 3758853.913084321655333 ], [ 678138.459557940601371, 3758844.235152217559516 ], [ 678204.720738125382923, 3758840.638090457767248 ], [ 678262.763323592720553, 3758813.916820564772934 ], [ 678295.159819378517568, 3758821.647213657852262 ], [ 678325.32482935313601, 3758801.385509069543332 ], [ 678362.103161419625394, 3758796.418975615408272 ], [ 678389.856104323756881, 3758778.75402382388711 ], [ 678418.514204046106897, 3758748.883360562846065 ], [ 678426.329383084783331, 3758717.045269656460732 ], [ 678409.869307641987689, 3758669.519927097950131 ], [ 678386.738066886435263, 3758651.902041697409004 ], [ 678350.09772322291974, 3758657.79125322913751 ], [ 678330.448808497050777, 3758679.055155565962195 ], [ 678303.353500407654792, 3758662.599207763094455 ], [ 678251.979486641124822, 3758662.516593282110989 ], [ 678207.089820930035785, 3758691.89277102611959 ], [ 678199.837071684305556, 3758733.848993437364697 ], [ 678163.074793870910071, 3758745.370616662316024 ], [ 678098.164813802577555, 3758759.130230739712715 ], [ 678071.295158971799538, 3758731.821109044365585 ], [ 678018.511414177366532, 3758729.620728525798768 ], [ 677954.891246800427325, 3758747.883910610806197 ], [ 677893.165270865778439, 3758779.791124238632619 ], [ 677864.81820481934119, 3758777.456419462803751 ], [ 677834.659265045658685, 3758785.339584298431873 ], [ 677816.388267518603243, 3758764.890241633169353 ], [ 677770.918339124065824, 3758753.671578063629568 ], [ 677714.374289837549441, 3758775.413855516351759 ], [ 677678.186384155065753, 3758803.619824153371155 ], [ 677582.714741667965427, 3758807.384563896339387 ] ] ] ] } },
{ "type": "Feature", "properties": { "depth_bin": "175-180" }, "geometry": { "type": "MultiPolygon", "coordinates": [ [ [ [ 677511.511486447299831, 3758410.218784937635064 ], [ 677484.30791547219269, 3758435.502135885413736 ], [ 677449.985136385424994, 3758414.782572931610048 ], [ 677417.192222639801912, 3758420.102120793424547 ], [ 677399.092910812469199, 3758440.07163407234475 ], [ 677396.737447620369494, 3758466.229491576552391 ], [ 677407.68458758899942, 3758486.710149943362921 ], [ 677440.613583063124679, 3758513.72611781489104 ], [ 677496.334218118805438, 3758528.947443911805749 ], [ 677528.97568412066903, 3758693.590100209694356 ], [ 677547.855455611948855, 3758721.589013742282987 ], [ 677580.769223936018534, 3758733.913599675521255 ], [ 677610.616569002857432, 3758720.714034804143012 ], [ 677628.510841028532013, 3758685.844639334362 ], [ 677625.9330343141919, 3758651.99148754728958 ], [ 677612.963898298912682, 3758628.246048235800117 ], [ 677622.494475675048307, 3758568.950373008847237 ], [ 677608.819638452725485, 3758507.40749438572675 ], [ 677656.095356032368727, 3758498.105182018131018 ], [ 677704.01818817993626, 3758508.445344642270356 ], [ 677739.686398443882354, 3758497.966795559041202 ], [ 677785.490502233384177, 3758507.424366396851838 ], [ 677831.532604355015792, 3758505.41801884630695 ], [ 677853.807497002882883, 3758639.98942393809557 ], [ 677877.647676044725813, 3758664.225785728543997 ], [ 677910.361371777253225, 3758669.862277574837208 ], [ 677938.942695953417569, 3758649.885996372904629 ], [ 677953.66334545915015, 3758610.453553983010352 ], [ 677936.796784186037257, 3758441.254166841972619 ], [ 677953.691194354207255, 3758432.597120140213519 ], [ 678060.806918784743175, 3758447.596858301199973 ], [ 678114.51250304072164, 3758440.399461734574288 ], [ 678147.517404675716534, 3758424.867233592551202 ], [ 678167.519647703506052, 3758395.998286732938141 ], [ 678263.0411876271246, 3758415.296383945271373 ], [ 678286.157992881024256, 3758401.440704095643014 ], [ 678295.237574746483006, 3758376.064972728956491 ], [ 678287.665582809830084, 3758349.512565014883876 ], [ 678268.276911156484857, 3758329.96542957238853 ], [ 678224.786190716433339, 3758313.826194934081286 ], [ 678161.575123339658603, 3758303.13946682959795 ], [ 678119.309632926713675, 3758318.506539387628436 ], [ 678074.815521504846402, 3758360.560150022618473 ], [ 678015.527851587976329, 3758361.589065389242023 ], [ 677948.427305900491774, 3758350.954023575410247 ], [ 677922.37652776367031, 3758356.768446106929332 ], [ 677872.321484817075543, 3758384.293620012234896 ], [ 677856.197071444708854, 3758420.690440787468106 ], [ 677736.407037605647929, 3758414.04273559525609 ], [ 677692.967328581376933, 3758422.08264808030799 ], [ 677655.861748849856667, 3758404.325769568793476 ], [ 677611.72278178203851, 3758422.594440926332027 ], [ 677556.108046362525783, 3758404.871360136661679 ], [ 677511.511486447299831, 3758410.218784937635064 ] ] ], [ [ [ 677566.027754357084632, 3758835.584662724751979 ], [ 677553.242810806259513, 3758870.420816930010915 ], [ 677570.503164211055264, 3758908.653980297967792 ], [ 677595.474946727510542, 3758922.766892306040972 ], [ 677645.364969279034995, 3758921.286477397661656 ], [ 677766.780469258432277, 3758892.714787287637591 ], [ 677805.962102430057712, 3758901.071340539492667 ], [ 678008.009633751120418, 3758860.830030274577439 ], [ 678086.514631880447268, 3758865.976411777082831 ], [ 678208.098531428026035, 3758855.123414518777281 ], [ 678264.26730210299138, 3758833.942678725346923 ], [ 678360.420305140898563, 3758814.547819155268371 ], [ 678397.350830103154294, 3758819.731359618250281 ], [ 678429.687649797764607, 3758803.066473545972258 ], [ 678441.819644510280341, 3758766.231983369681984 ], [ 678421.185383121483028, 3758703.353152488358319 ], [ 678403.233935923897661, 3758688.620780508499593 ], [ 678382.482450593844987, 3758685.728953449986875 ], [ 678356.483776383684017, 3758695.126386261545122 ], [ 678333.432269888347946, 3758717.725962138269097 ], [ 678293.143009046209045, 3758703.495053493417799 ], [ 678268.508597403182648, 3758705.731663977261633 ], [ 678189.311680741724558, 3758760.037489349022508 ], [ 678096.748441734351218, 3758772.988711536396295 ], [ 678030.263270049472339, 3758746.695736236404628 ], [ 677893.734324558638036, 3758793.064453666564077 ], [ 677869.071616838802584, 3758789.762940786313266 ], [ 677826.882366819307208, 3758801.932955676689744 ], [ 677805.462951412075199, 3758786.185549702960998 ], [ 677765.595190001069568, 3758782.498395801987499 ], [ 677694.882449835655279, 3758812.904706364031881 ], [ 677610.802280347561464, 3758826.935919036623091 ], [ 677586.849282932817005, 3758824.261430436745286 ], [ 677566.027754357084632, 3758835.584662724751979 ] ] ] ] } },
{ "type": "Feature", "properties": { "depth_bin": "180-185" }, "geometry": { "type": "MultiPolygon", "coordinates": [ [ [ [ 677488.824017633451149, 3758417.006751989014447 ], [ 677479.568739908281714, 3758427.962091581895947 ], [ 677449.460248905816115, 3758406.476798795629293 ], [ 677419.4946171825286, 3758407.719997872132808 ], [ 677396.283702997723594, 3758430.851678995415568 ], [ 677394.882037763134576, 3758460.817310659214854 ], [ 677406.279983825283125, 3758482.100172340404242 ], [ 677444.218223825679161, 3758506.603460435755551 ], [ 677498.507379055023193, 3758522.869011072907597 ], [ 677530.578376351040788, 3758690.582809233106673 ], [ 677552.571451378753409, 3758722.443544016685337 ], [ 677583.285311101120897, 3758729.111005034763366 ], [ 677611.848117387853563, 3758713.195511186961085 ], [ 677625.582787156919949, 3758681.195036805700511 ], [ 677609.188342180103064, 3758625.261004469357431 ], [ 677617.844875309849158, 3758571.878429819829762 ], [ 677604.532893378287554, 3758502.796824641060084 ], [ 677655.343324116896838, 3758492.441993669606745 ], [ 677698.043214025907218, 3758503.716509216930717 ], [ 677741.33944921172224, 3758494.243210338056087 ], [ 677832.678836664767005, 3758501.094010944012552 ], [ 677852.248020926374011, 3758631.870518269483 ], [ 677876.243073024321347, 3758659.615793766453862 ], [ 677908.95676875137724, 3758665.252285429742187 ], [ 677935.975016588927247, 3758646.759843864943832 ], [ 677949.132489471579902, 3758608.811239045578986 ], [ 677948.063121795770712, 3758557.437314137816429 ], [ 677936.052308835205622, 3758524.790376742370427 ], [ 677933.770386556978337, 3758440.420617110095918 ], [ 677952.211295713554136, 3758430.599720103666186 ], [ 678070.106240808963776, 3758441.740720492321998 ], [ 678122.288270087330602, 3758434.503603160846978 ], [ 678151.657479884917848, 3758414.712550607509911 ], [ 678162.292518342845142, 3758387.29101941967383 ], [ 678258.748115780530497, 3758404.513307294808328 ], [ 678281.864921034430154, 3758390.657627445179969 ], [ 678290.751891966792755, 3758361.361210465431213 ], [ 678279.989449190557934, 3758329.228988336864859 ], [ 678262.038001992972568, 3758314.496616357006133 ], [ 678154.647132658283226, 3758301.729385967832059 ], [ 678089.928017055033706, 3758334.511896285228431 ], [ 678070.34505254519172, 3758356.874749406706542 ], [ 678014.15279760141857, 3758359.369259612634778 ], [ 677937.616392319905572, 3758350.119921733159572 ], [ 677876.938721368904226, 3758376.232574541121721 ], [ 677860.442316708620638, 3758397.15114566590637 ], [ 677820.56567180051934, 3758395.859828483313322 ], [ 677791.85705804056488, 3758409.611551512498409 ], [ 677696.22443428542465, 3758419.121403083205223 ], [ 677672.811391473282129, 3758402.839837678708136 ], [ 677649.886775766382925, 3758399.596936393994838 ], [ 677626.92254389426671, 3758403.96712809568271 ], [ 677609.959052721853368, 3758417.367395582143217 ], [ 677561.633277954068035, 3758400.916590261738747 ], [ 677523.360572739038616, 3758399.355671525001526 ], [ 677488.824017633451149, 3758417.006751989014447 ] ] ], [ [ [ 677607.92826625937596, 3758840.607435182202607 ], [ 677576.418993720901199, 3758851.051987216342241 ], [ 677560.23164936050307, 3758883.456239857245237 ], [ 677575.048563008080237, 3758922.701652727089822 ], [ 677605.968981142621487, 3758937.325921360403299 ], [ 677735.462787072989158, 3758913.201113001443446 ], [ 677813.341764533775859, 3758910.410187677945942 ], [ 677839.571817058254965, 3758900.631296370644122 ], [ 677921.943275938858278, 3758896.465213754214346 ], [ 678057.608756062341854, 3758874.389714941382408 ], [ 678184.771180343697779, 3758872.810639197938144 ], [ 678345.616981325089, 3758837.932078018784523 ], [ 678418.203966800472699, 3758838.567591025028378 ], [ 678443.659138411981985, 3758821.558989129494876 ], [ 678450.247362958500162, 3758793.892031569499522 ], [ 678428.792590182041749, 3758743.842258251737803 ], [ 678363.091554561513476, 3758727.910564591642469 ], [ 678238.825069151469506, 3758756.898461705539376 ], [ 678195.136471608071588, 3758775.302348031662405 ], [ 678098.192746705957688, 3758784.778156409040093 ], [ 678069.344604883226566, 3758776.473583856597543 ], [ 678000.525047840201296, 3758776.412235020659864 ], [ 677897.842001037555747, 3758803.956195649690926 ], [ 677809.439507687580772, 3758816.824382131919265 ], [ 677763.437807658920065, 3758806.834182381629944 ], [ 677607.92826625937596, 3758840.607435182202607 ] ] ] ] } },
{ "type": "Feature", "properties": { "depth_bin": "185-190" }, "geometry": { "type": "MultiPolygon", "coordinates": [ [ [ [ 677482.80933317146264, 3758413.801374491304159 ], [ 677475.610742646153085, 3758420.982886016834527 ], [ 677443.411850637639873, 3758400.416278589516878 ], [ 677414.541480865795165, 3758404.788351148366928 ], [ 677394.879098914563656, 3758426.241701575927436 ], [ 677393.477433766005561, 3758456.207333214581013 ], [ 677403.470775947789662, 3758472.88021737197414 ], [ 677439.845945850946009, 3758498.867340752854943 ], [ 677501.392515432788059, 3758517.945101267192513 ], [ 677532.141449878108688, 3758689.098973060958087 ], [ 677551.021221846691333, 3758717.097886629402637 ], [ 677581.841093756607734, 3758726.024476347491145 ], [ 677608.840826277970336, 3758711.592818647157401 ], [ 677621.012422185158357, 3758681.076180695090443 ], [ 677619.680739884148352, 3758657.926833134610206 ], [ 677604.830200451076962, 3758624.583663556259125 ], [ 677610.346453811507672, 3758567.109976530075073 ], [ 677598.982959282584488, 3758499.25032985303551 ], [ 677655.047456355649047, 3758488.06777390325442 ], [ 677699.68552030203864, 3758499.185757654719055 ], [ 677741.326405310304835, 3758490.798189162742347 ], [ 677835.608685301616788, 3758495.087631080299616 ], [ 677858.222997705917805, 3758636.599364715628326 ], [ 677876.322309533250518, 3758656.568877994548529 ], [ 677906.028707687510177, 3758660.602675120346248 ], [ 677931.483879299019463, 3758643.594073224812746 ], [ 677944.601733558462001, 3758607.168926798738539 ], [ 677943.413512319792062, 3758560.365376926958561 ], [ 677930.663391533074901, 3758522.628769472241402 ], [ 677932.309732311870903, 3758438.086417574901134 ], [ 677953.769607881316915, 3758428.024758277460933 ], [ 678003.763142033712938, 3758438.400380140636116 ], [ 678076.42601038410794, 3758439.409055940341204 ], [ 678138.468623360386118, 3758419.429832792375237 ], [ 678161.186355058685876, 3758384.051627322100103 ], [ 678255.820041092461906, 3758399.86369183845818 ], [ 678281.275212703971192, 3758382.855089942924678 ], [ 678287.903049029177055, 3758353.664672615006566 ], [ 678278.58483535668347, 3758324.618989009410143 ], [ 678260.633388159098104, 3758309.886617029551417 ], [ 678156.24982440425083, 3758298.722080887760967 ], [ 678085.397253224975429, 3758332.869588595815003 ], [ 678066.523743153666146, 3758354.113730064593256 ], [ 678014.897991572739556, 3758356.489055790472776 ], [ 677944.625468576210551, 3758346.576259248889983 ], [ 677860.192659388878383, 3758383.288181625306606 ], [ 677784.477997560868971, 3758376.627546360250562 ], [ 677744.268969463882968, 3758400.848759072832763 ], [ 677717.766806207713671, 3758394.034147940576077 ], [ 677692.631135386414826, 3758406.409130490384996 ], [ 677649.131853563361801, 3758395.298313366714865 ], [ 677608.326361638028175, 3758409.237117654643953 ], [ 677536.316736643901095, 3758395.413700006902218 ], [ 677505.694984341040254, 3758399.396137714385986 ], [ 677482.80933317146264, 3758413.801374491304159 ] ] ], [ [ [ 677590.680572653887793, 3758858.269928521942347 ], [ 677569.208196187973954, 3758876.906973395962268 ], [ 677566.207433332689106, 3758907.374229959212244 ], [ 677584.886269746930338, 3758939.02938813669607 ], [ 677618.753052385291085, 3758948.035221608821303 ], [ 677750.837647133972496, 3758921.231225558556616 ], [ 677813.900433663278818, 3758920.419167888816446 ], [ 677842.568947136052884, 3758909.731094238348305 ], [ 677924.673228233121336, 3758908.732119255233556 ], [ 678050.574684973340482, 3758888.166064103133976 ], [ 678182.891137039870955, 3758886.482163234148175 ], [ 678289.133560990449041, 3758859.987956224940717 ], [ 678411.634573122253641, 3758856.690759242977947 ], [ 678445.494956877082586, 3758840.065497709438205 ], [ 678454.461168024456128, 3758807.722155408002436 ], [ 678445.10336105490569, 3758780.199915739707649 ], [ 678421.718050406896509, 3758760.814301639329642 ], [ 678344.136372435023077, 3758753.333980804309249 ], [ 678320.73627052991651, 3758761.259302622638643 ], [ 678288.257544098654762, 3758760.180187301244587 ], [ 678193.948289069347084, 3758790.314108937513083 ], [ 678155.720224253833294, 3758788.070796732325107 ], [ 678085.648395896074362, 3758798.172327107749879 ], [ 678053.529355475562625, 3758789.986617677845061 ], [ 678024.379660871694796, 3758799.657322411425412 ], [ 677996.923447883338667, 3758797.661418523639441 ], [ 677801.233432571170852, 3758828.911197948269546 ], [ 677755.305459414608777, 3758826.441016522236168 ], [ 677590.680572653887793, 3758858.269928521942347 ] ] ] ] } },
{ "type": "Feature", "properties": { "depth_bin": "190-195" }, "geometry": { "type": "MultiPolygon", "coordinates": [ [ [ [ 677400.661567604634911, 3758407.091720226220787 ], [ 677388.945838852087036, 3758435.375991473905742 ], [ 677402.066171835176647, 3758468.27024000743404 ], [ 677444.997165292035788, 3758497.5383804095909 ], [ 677502.832701351493597, 3758511.395559506025165 ], [ 677523.000697962706909, 3758652.4515142259188 ], [ 677535.148740945151076, 3758690.701665285043418 ], [ 677552.848785323207267, 3758711.779259679839015 ], [ 677578.992280257167295, 3758718.327864254824817 ], [ 677605.992012778529897, 3758703.896206554491073 ], [ 677616.560913378139958, 3758676.386959806084633 ], [ 677600.547923388658091, 3758622.678903359919786 ], [ 677603.901552605791949, 3758569.124639514833689 ], [ 677592.582262020907365, 3758494.635936581064016 ], [ 677623.698868825449608, 3758496.238245816435665 ], [ 677656.134753782302141, 3758484.353972308337688 ], [ 677698.280914256582037, 3758494.575772673822939 ], [ 677774.041951608611271, 3758487.104410248808563 ], [ 677824.32990261609666, 3758466.040314868558198 ], [ 677836.441632871283218, 3758486.333374254405499 ], [ 677858.500325043336488, 3758625.935159498825669 ], [ 677876.599636870669201, 3758645.904672777745873 ], [ 677904.78257712291088, 3758649.898851563688368 ], [ 677927.899382376810536, 3758636.043171714060009 ], [ 677938.468283680151217, 3758608.533912423998117 ], [ 677923.608907777816057, 3758500.31082795932889 ], [ 677926.012033714912832, 3758438.523095095530152 ], [ 677950.99745443277061, 3758426.363166423514485 ], [ 678006.849676188081503, 3758436.956153544131666 ], [ 678078.028704941854812, 3758436.401653109584004 ], [ 678120.226720782113262, 3758417.430979803670198 ], [ 678162.69120430375915, 3758381.41917957412079 ], [ 678246.035512680886313, 3758393.982967860065401 ], [ 678277.06137418828439, 3758369.024991889949888 ], [ 678283.64959451649338, 3758341.358035797253251 ], [ 678274.762623584130779, 3758319.902990043628961 ], [ 678255.453592539764941, 3758307.001107980962843 ], [ 678154.765979684656486, 3758297.159004843328148 ], [ 678078.099974139709957, 3758330.574211121536791 ], [ 678055.880432658363134, 3758350.71617949847132 ], [ 678013.250393677502871, 3758354.441638537216932 ], [ 677943.141626230557449, 3758345.01318476581946 ], [ 677861.620360888191499, 3758374.674661600962281 ], [ 677788.440157441538759, 3758373.004654569551349 ], [ 677744.015082544530742, 3758390.21480744658038 ], [ 677701.127536998712458, 3758389.02799567906186 ], [ 677680.374299429706298, 3758397.394470188301057 ], [ 677634.095379662699997, 3758387.284870962612331 ], [ 677607.438942335429601, 3758401.020415000151843 ], [ 677534.872517500421964, 3758392.32707434752956 ], [ 677501.203754097688943, 3758396.230376937892288 ], [ 677475.064888427616097, 3758412.352083798032254 ], [ 677455.036203572992235, 3758394.127664186060429 ], [ 677429.714365965686738, 3758391.116990822833031 ], [ 677400.661567604634911, 3758407.091720226220787 ] ] ], [ [ [ 677579.301962126395665, 3758884.256693833973259 ], [ 677570.222380260936916, 3758909.632425200659782 ], [ 677579.238548965775408, 3758939.2713439213112 ], [ 677595.659530066652223, 3758955.6923250220716 ], [ 677621.482995652477257, 3758960.302105436101556 ], [ 677847.190866936929524, 3758920.36586613021791 ], [ 677921.309347363887355, 3758920.840542571153492 ], [ 678049.249598851543851, 3758899.553383585531265 ], [ 678133.70448177261278, 3758901.972469086293131 ], [ 678288.790712814545259, 3758876.08534845104441 ], [ 678428.03618015802931, 3758870.837747890967876 ], [ 678453.491351769538596, 3758853.829145995434374 ], [ 678460.07957661699038, 3758826.16218835208565 ], [ 678449.317165773129091, 3758794.030039815232158 ], [ 678423.861994161619805, 3758777.021437919698656 ], [ 678274.827711681020446, 3758780.496949585154653 ], [ 678190.688106907880865, 3758803.953054608777165 ], [ 678043.992297001066618, 3758804.983486534096301 ], [ 677918.620941282715648, 3758828.065195808652788 ], [ 677829.915328424656764, 3758829.905880882870406 ], [ 677801.177952506230213, 3758841.086007847916335 ], [ 677731.181671686004847, 3758843.259945909958333 ], [ 677609.394042428233661, 3758867.061791912652552 ], [ 677579.301962126395665, 3758884.256693833973259 ] ] ] ] } },
{ "type": "Feature", "properties": { "depth_bin": "195-200" }, "geometry": { "type": "MultiPolygon", "coordinates": [ [ [ [ 677424.424236284801736, 3758387.504863745067269 ], [ 677390.586055804044008, 3758415.45857700984925 ], [ 677387.694229036336765, 3758436.210153473541141 ], [ 677396.581199968699366, 3758457.665199227165431 ], [ 677446.599852512474172, 3758494.531089279800653 ], [ 677506.739979093079455, 3758500.668411437887698 ], [ 677514.953434283612296, 3758536.967737060505897 ], [ 677549.794538031332195, 3758551.399394760839641 ], [ 677568.096661738934927, 3758544.850790185853839 ], [ 677582.829033718560822, 3758526.899342988617718 ], [ 677585.760475785355084, 3758504.624410735908896 ], [ 677576.874488420318812, 3758483.170691169332713 ], [ 677599.866161452024244, 3758493.450379885267466 ], [ 677658.193635095842183, 3758479.276566075626761 ], [ 677708.414274284034036, 3758489.971259948797524 ], [ 677771.836242811055854, 3758479.325280538760126 ], [ 677804.716126583283767, 3758453.641563491430134 ], [ 677833.452507617301308, 3758458.032794270198792 ], [ 677840.53941413690336, 3758495.886299496982247 ], [ 677855.046928720432334, 3758516.148987529333681 ], [ 677892.034047177177854, 3758523.506182824261487 ], [ 677920.263348268577829, 3758495.356115674134344 ], [ 677918.571479795034975, 3758438.502861435059458 ], [ 677955.124182848492637, 3758423.566072232555598 ], [ 678005.405452140141279, 3758433.869519430678338 ], [ 678079.631396859069355, 3758433.394350185524672 ], [ 678161.88893636490684, 3758379.584469149820507 ], [ 678244.630901673808694, 3758389.37286887736991 ], [ 678274.80223932408262, 3758369.130991614423692 ], [ 678283.728825981495902, 3758338.311113472562283 ], [ 678274.841855049133301, 3758316.856067718937993 ], [ 678255.532824004767463, 3758303.954185656271875 ], [ 678154.805595332756639, 3758295.635544467717409 ], [ 678073.569210709887557, 3758328.931903635617346 ], [ 678051.44886684906669, 3758349.078744937665761 ], [ 678014.035501920967363, 3758352.767096916213632 ], [ 677947.791233613854274, 3758342.08511604834348 ], [ 677855.732689773896709, 3758371.430212606675923 ], [ 677793.089760977192782, 3758370.076589422766119 ], [ 677679.69300746137742, 3758392.572624534834176 ], [ 677632.001475994009525, 3758383.88688347581774 ], [ 677605.619907001382671, 3758393.878103426191956 ], [ 677508.973691034712829, 3758391.653592576738447 ], [ 677480.571124937036075, 3758407.392293699085712 ], [ 677449.975265157874674, 3758386.67180089559406 ], [ 677424.424236284801736, 3758387.504863745067269 ] ] ], [ [ [ 677582.780070290551521, 3758898.23228608770296 ], [ 677575.919991836184636, 3758925.025461154524237 ], [ 677584.026178471278399, 3758953.381712521892041 ], [ 677601.977625668863766, 3758968.114084501750767 ], [ 677628.822925049578771, 3758971.164397578220814 ], [ 677852.723075920483097, 3758929.066562667023391 ], [ 677910.367796532111242, 3758931.227403663564473 ], [ 678077.774768640985712, 3758906.676106077153236 ], [ 678139.560598612180911, 3758911.271711556240916 ], [ 678265.015271218377165, 3758891.909794444218278 ], [ 678432.289605649886653, 3758883.144310723058879 ], [ 678455.406410903786309, 3758869.28863087343052 ], [ 678464.29338183614891, 3758839.992213893681765 ], [ 678452.597207541461103, 3758809.317151032853872 ], [ 678426.51271745597478, 3758792.335305179934949 ], [ 678279.041514014359564, 3758794.326963007915765 ], [ 678183.486773163429461, 3758816.846308768726885 ], [ 678065.043482635053806, 3758816.202490053605288 ], [ 677907.698644350282848, 3758840.803667795844376 ], [ 677834.247976871090941, 3758839.16548636322841 ], [ 677799.962870315648615, 3758850.369460033718497 ], [ 677733.951237132539973, 3758854.003482080996037 ], [ 677616.733972976217046, 3758877.924083597492427 ], [ 677582.780070290551521, 3758898.23228608770296 ] ] ] ] } },
{ "type": "Feature", "properties": { "depth_bin": "200-205" }, "geometry": { "type": "MultiPolygon", "coordinates": [ [ [ [ 677399.114138409611769, 3758395.24051048932597 ], [ 677386.944837771472521, 3758416.828870718833059 ], [ 677390.820165709126741, 3758446.535260230768472 ], [ 677453.421943825669587, 3758492.885846842080355 ], [ 677508.597737032105215, 3758495.241252881009132 ], [ 677540.007112281396985, 3758470.039333626162261 ], [ 677574.515338483965024, 3758474.569351874757558 ], [ 677601.508466528379358, 3758488.919630822725594 ], [ 677628.353765781736001, 3758486.265506043098867 ], [ 677655.425394155783579, 3758468.611119833774865 ], [ 677705.486211813404225, 3758485.321658332832158 ], [ 677725.785695957252756, 3758477.291710298974067 ], [ 677770.39202187419869, 3758476.238650773651898 ], [ 677793.23451726778876, 3758451.251979810651392 ], [ 677865.752451274427585, 3758450.700043463613838 ], [ 677951.044214057619683, 3758421.810848618857563 ], [ 678010.889212893904187, 3758432.578287525102496 ], [ 678088.12839826347772, 3758427.989022095687687 ], [ 678119.569365839590319, 3758399.757222853600979 ], [ 678162.469286119681783, 3758377.555445004720241 ], [ 678251.492621361976489, 3758383.559285074938089 ], [ 678275.696375961997546, 3758362.891531538683921 ], [ 678282.244980536750518, 3758336.748036604840308 ], [ 678273.358009604387917, 3758315.292990851216018 ], [ 678254.048978560022078, 3758302.3911087885499 ], [ 678156.408286967664026, 3758292.628239330369979 ], [ 678070.561907110852189, 3758327.32921211887151 ], [ 678052.27742649812717, 3758346.068638300523162 ], [ 678014.188438062439673, 3758349.992777873296291 ], [ 677941.737015945487656, 3758340.403193522244692 ], [ 677859.224582211580127, 3758366.880735617130995 ], [ 677791.605920227826573, 3758368.513516156934202 ], [ 677681.689080403652042, 3758388.133636678569019 ], [ 677623.589656694093719, 3758380.913734425324947 ], [ 677602.295260965707712, 3758389.681559178978205 ], [ 677505.130380177637562, 3758390.70611604815349 ], [ 677478.504200215218589, 3758402.918988054152578 ], [ 677458.281192838330753, 3758386.589628322981298 ], [ 677429.302388822427019, 3758381.664809062611312 ], [ 677399.114138409611769, 3758395.24051048932597 ] ] ], [ [ [ 677599.952548756496981, 3758895.921673688106239 ], [ 677580.290160595206544, 3758917.375021166633815 ], [ 677578.769620319479145, 3758951.911121799144894 ], [ 677594.824424427933991, 3758973.558519200887531 ], [ 677624.014829899999313, 3758980.186366066802293 ], [ 677861.277901316178031, 3758937.849552329163998 ], [ 677969.703522828524001, 3758935.819632665719837 ], [ 678063.008133756113239, 3758917.178626618348062 ], [ 678145.495956479688175, 3758917.524034447502345 ], [ 678435.059188060695305, 3758893.887790919281542 ], [ 678460.514359672204591, 3758876.87918902374804 ], [ 678467.102584732929245, 3758849.212231319863349 ], [ 678457.705156860989518, 3758823.213552932720631 ], [ 678439.753709663404152, 3758808.481180952861905 ], [ 678345.836208813590929, 3758805.211030814331025 ], [ 678182.33318096131552, 3758826.599919734988362 ], [ 678069.33651759638451, 3758826.98556784261018 ], [ 677904.518749689334072, 3758851.309531429316849 ], [ 677843.150997032644227, 3758848.543954445049167 ], [ 677812.505828815861605, 3758859.666665197815746 ], [ 677736.720804525888525, 3758864.746918650344014 ], [ 677599.952548756496981, 3758895.921673688106239 ] ] ] ] } },
{ "type": "Feature", "properties": { "depth_bin": "205-210" }, "geometry": { "type": "MultiPolygon", "coordinates": [ [ [ [ 677402.660420063184574, 3758388.849793256726116 ], [ 677386.984454102697782, 3758415.305417140480131 ], [ 677392.957080826628953, 3758445.331839342135936 ], [ 677447.780248564784415, 3758486.877795313950628 ], [ 677473.603711576783098, 3758491.487566998694092 ], [ 677510.319274343783036, 3758487.663598309736699 ], [ 677541.07146297453437, 3758467.564506168942899 ], [ 677631.07448031695094, 3758474.239611522760242 ], [ 677654.238865048042499, 3758463.803386047016829 ], [ 677684.593611476710066, 3758468.008911082521081 ], [ 677803.876200214261189, 3758446.994332833215594 ], [ 677848.994418770889752, 3758450.264264293015003 ], [ 677953.719573464826681, 3758418.956080808769912 ], [ 678005.524300548131578, 3758429.299142479896545 ], [ 678082.876396683743224, 3758425.856284571345896 ], [ 678161.036881174193695, 3758375.457696951460093 ], [ 678250.048391763470136, 3758380.472747165709734 ], [ 678275.735991658759303, 3758361.368070386350155 ], [ 678282.324211915372871, 3758333.701114302966744 ], [ 678273.43724098301027, 3758312.246068549342453 ], [ 678254.128209938644432, 3758299.344186486676335 ], [ 678154.92444218962919, 3758291.065163340885192 ], [ 678070.641138841281645, 3758324.282292657997459 ], [ 678049.945057200617157, 3758344.463877446483821 ], [ 678015.776022926555015, 3758348.326202994212508 ], [ 677946.386623205849901, 3758337.475124701391906 ], [ 677860.501234472263604, 3758363.931777968537062 ], [ 677686.249646200216375, 3758383.828829791396856 ], [ 677626.066119516035542, 3758377.634596298448741 ], [ 677602.282835249556229, 3758384.905354100745171 ], [ 677510.615994610241614, 3758387.122845807578415 ], [ 677482.043815825600177, 3758398.428952302783728 ], [ 677442.522261485690251, 3758376.001303097233176 ], [ 677402.660420063184574, 3758388.849793256726116 ] ] ], [ [ [ 677577.657337839948013, 3758954.197168609593064 ], [ 677598.032879582955502, 3758981.670406302437186 ], [ 677634.520532518276013, 3758986.557535632047802 ], [ 677769.353370134951547, 3758958.29273193795234 ], [ 677977.201953001669608, 3758940.588112334255129 ], [ 678072.584121578023769, 3758924.875032885931432 ], [ 678145.258232283289544, 3758926.664795166812837 ], [ 678435.469302752520889, 3758905.246969891246408 ], [ 678462.469035273883492, 3758890.815312190912664 ], [ 678471.356006206246093, 3758861.518895211163908 ], [ 678449.438764000078663, 3758822.921057982370257 ], [ 678402.840452203992754, 3758815.545911829918623 ], [ 678135.830691286362708, 3758838.169464639853686 ], [ 678061.441876183263958, 3758837.451681061647832 ], [ 677907.945548672112636, 3758859.459195687901229 ], [ 677849.007099626585841, 3758857.843281918670982 ], [ 677606.959301921306178, 3758902.061742425430566 ], [ 677581.730762022547424, 3758922.967320492956787 ], [ 677577.657337839948013, 3758954.197168609593064 ] ] ] ] } },
{ "type": "Feature", "properties": { "depth_bin": "210-215" }, "geometry": { "type": "MultiPolygon", "coordinates": [ [ [ [ 677404.302722440450452, 3758384.319048610981554 ], [ 677390.984307572711259, 3758415.610610879957676 ], [ 677402.700036325259134, 3758443.894882127642632 ], [ 677446.996018301229924, 3758479.296550211962312 ], [ 677501.263584832311608, 3758483.059940436854959 ], [ 677542.730888118036091, 3758464.595226714387536 ], [ 677629.669874212355353, 3758469.629628786351532 ], [ 677650.75485455757007, 3758461.017117065843195 ], [ 677690.806284516933374, 3758463.597008775919676 ], [ 677802.392359756282531, 3758445.431259539444 ], [ 677866.637978095794097, 3758443.777582083828747 ], [ 677954.680172195308842, 3758417.201928264927119 ], [ 678012.531520267482847, 3758428.047526633366942 ], [ 678082.955628854804672, 3758422.809365386608988 ], [ 678115.64578982105013, 3758395.42687433026731 ], [ 678161.435954377404414, 3758373.038449116051197 ], [ 678251.651084279059432, 3758377.465440708678216 ], [ 678275.815223008627072, 3758358.321148087270558 ], [ 678282.363827583380044, 3758332.177653153426945 ], [ 678273.476856651017442, 3758310.722607399802655 ], [ 678252.683980115340091, 3758296.257648538332433 ], [ 678154.964057781733572, 3758289.541702961083502 ], [ 678067.633835252607241, 3758322.679601253475994 ], [ 678049.272549547138624, 3758341.382010052911937 ], [ 678016.606663342448883, 3758346.183379847090691 ], [ 677943.379322340362705, 3758335.87243430968374 ], [ 677864.419398430967703, 3758361.186927714385092 ], [ 677683.185611525317654, 3758382.188127460423857 ], [ 677559.643956890096888, 3758377.726388776674867 ], [ 677482.836085010319948, 3758393.683732705656439 ], [ 677434.150063557550311, 3758371.119482432026416 ], [ 677404.302722440450452, 3758384.319048610981554 ] ] ], [ [ [ 677618.014109660754912, 3758907.974242866039276 ], [ 677585.928709713509306, 3758922.541279613040388 ], [ 677576.690642873989418, 3758954.010831987019628 ], [ 677588.406371626537293, 3758982.295103234704584 ], [ 677616.690642873989418, 3758994.010831987019628 ], [ 677771.292640591855161, 3758965.795857171528041 ], [ 678072.040997700067237, 3758932.489499968942255 ], [ 678151.153968970524147, 3758934.440579002257437 ], [ 678248.949913773685694, 3758918.965439101681113 ], [ 678436.755041744676419, 3758914.427367408759892 ], [ 678463.754774266039021, 3758899.995709708426148 ], [ 678472.953218106878921, 3758870.049589885398746 ], [ 678453.731805859017186, 3758833.704259141348302 ], [ 678411.743601825088263, 3758824.924513150472194 ], [ 678141.560840833350085, 3758846.245756240561604 ], [ 678053.586855205823667, 3758846.394333936274052 ], [ 677905.318692580214702, 3758868.179351391736418 ], [ 677760.052178571582772, 3758878.397123857401311 ], [ 677618.014109660754912, 3758907.974242866039276 ] ] ] ] } },
{ "type": "Feature", "properties": { "depth_bin": "215-220" }, "geometry": { "type": "MultiPolygon", "coordinates": [ [ [ [ 677423.492319695302285, 3758371.236242380924523 ], [ 677397.435519998543896, 3758398.024257887154818 ], [ 677402.454348935629241, 3758431.858454298228025 ], [ 677449.699867771239951, 3758471.682872250210494 ], [ 677497.50136519712396, 3758477.158734425902367 ], [ 677548.027683665743098, 3758460.796178325079381 ], [ 677695.455885283765383, 3758460.668945835437626 ], [ 677869.764125791029073, 3758440.809899223968387 ], [ 677954.169113079668023, 3758414.824663553852588 ], [ 678015.618054417194799, 3758426.603299796115607 ], [ 678083.034860969870351, 3758419.762446197681129 ], [ 678114.259567594504915, 3758393.657395588699728 ], [ 678161.657787278061733, 3758370.793901632539928 ], [ 678225.719135366147384, 3758378.70948852179572 ], [ 678251.730315651744604, 3758374.418518521357328 ], [ 678274.370993157033809, 3758355.234610149636865 ], [ 678281.151824289700016, 3758331.488339688628912 ], [ 678274.410608781850897, 3758309.265530367847532 ], [ 678254.975316063151695, 3758292.970081644132733 ], [ 678162.010895320912823, 3758286.38140238635242 ], [ 678077.434669597889297, 3758315.065894833765924 ], [ 678052.444957536412403, 3758332.346152968239039 ], [ 678018.914531314745545, 3758330.89115323452279 ], [ 677999.536800844362006, 3758340.838657626882195 ], [ 677946.505471116979606, 3758332.90474938089028 ], [ 677866.753528592642397, 3758357.996412193868309 ], [ 677791.764385121176019, 3758362.419688148424029 ], [ 677726.000949089881033, 3758377.20356300054118 ], [ 677560.676197895780206, 3758371.360725954174995 ], [ 677483.699926731409505, 3758388.229233237914741 ], [ 677450.411044080043212, 3758369.913810252211988 ], [ 677423.492319695302285, 3758371.236242380924523 ] ] ], [ [ [ 677629.533784121507779, 3758913.320248028729111 ], [ 677599.358228657743894, 3758918.773602683562785 ], [ 677578.373408166226, 3758943.922900145407766 ], [ 677578.013899798854254, 3758976.895824179518968 ], [ 677603.357694009086117, 3758999.866100314073265 ], [ 678105.229269279981963, 3758935.046064833644778 ], [ 678144.067500539938919, 3758939.12432873249054 ], [ 678243.120688458089717, 3758924.721693036146462 ], [ 678347.124053324689157, 3758927.635836341418326 ], [ 678438.120021735667251, 3758920.560839412733912 ], [ 678465.119754257029854, 3758906.129181712400168 ], [ 678474.357818955671974, 3758874.659599022008479 ], [ 678462.642090203124098, 3758846.375327774323523 ], [ 678438.278504568850622, 3758834.852209954988211 ], [ 678240.600408492609859, 3758840.291994634550065 ], [ 677765.947900143335573, 3758886.172891098540276 ], [ 677629.533784121507779, 3758913.320248028729111 ] ] ] ] } },
{ "type": "Feature", "properties": { "depth_bin": "220-225" }, "geometry": { "type": "MultiPolygon", "coordinates": [ [ [ [ 677425.055389582412317, 3758369.752404857426882 ], [ 677401.13131566089578, 3758398.903973277192563 ], [ 677409.402692560455762, 3758433.606771235819906 ], [ 677454.969938624533825, 3758465.783449546899647 ], [ 677500.096681334194727, 3758469.309135942254215 ], [ 677571.810548317385837, 3758454.676711140666157 ], [ 677738.271225130883977, 3758455.684380743652582 ], [ 677804.034666422288865, 3758440.900504552293569 ], [ 677882.906747729284689, 3758435.901247947942466 ], [ 677955.63249003328383, 3758412.791775377467275 ], [ 677991.361559725599363, 3758421.39906599977985 ], [ 678078.504098283359781, 3758418.12013851897791 ], [ 678099.16275192424655, 3758408.364917909726501 ], [ 678113.998014884418808, 3758389.421769336331636 ], [ 678161.234961130074225, 3758367.840394954197109 ], [ 678250.325701517402194, 3758369.808519606012851 ], [ 678270.295214796788059, 3758351.709207778330892 ], [ 678274.904984521097504, 3758325.885730524547398 ], [ 678266.018013588734902, 3758304.430684770923108 ], [ 678246.708982544369064, 3758291.52880270825699 ], [ 678156.606364856241271, 3758285.010937368497252 ], [ 678085.250049933907576, 3758307.646574619226158 ], [ 678051.75099921785295, 3758329.911573132965714 ], [ 677941.97471179778222, 3758331.262443138286471 ], [ 677872.234235587879084, 3758353.76775366673246 ], [ 677787.352478836080991, 3758356.207011719699949 ], [ 677726.119796976447105, 3758372.633193903136998 ], [ 677559.192359308013692, 3758369.797654903493822 ], [ 677477.230089860735461, 3758381.031597663648427 ], [ 677448.166339757619426, 3758367.476174941752106 ], [ 677425.055389582412317, 3758369.752404857426882 ] ] ], [ [ [ 677610.20993963861838, 3758922.858156330883503 ], [ 677581.670675258850679, 3758940.889132797252387 ], [ 677574.963585148798302, 3758973.126448651775718 ], [ 677589.395242849132046, 3759000.12618117313832 ], [ 677620.215115066035651, 3759009.052773518487811 ], [ 677774.898339899256825, 3758981.291777542792261 ], [ 678115.526608522515744, 3758938.44250651076436 ], [ 678441.923707501613535, 3758923.031787222716957 ], [ 678467.378879113122821, 3758906.023185327183455 ], [ 678473.96710444544442, 3758878.356227564159781 ], [ 678462.443986625992693, 3758853.992641929537058 ], [ 678438.080400991719216, 3758842.469524110201746 ], [ 678338.774547205655836, 3758848.962392419576645 ], [ 678235.037399690481834, 3758845.015367934480309 ], [ 677770.320164844975807, 3758893.90903778327629 ], [ 677610.20993963861838, 3758922.858156330883503 ] ] ] ] } },
{ "type": "Feature", "properties": { "depth_bin": "225-230" }, "geometry": { "type": "MultiPolygon", "coordinates": [ [ [ [ 677550.680743835750036, 3758376.895419052802026 ], [ 677535.94837185612414, 3758394.846866250038147 ], [ 677533.096164089627564, 3758414.074889157898724 ], [ 677541.983135021990165, 3758435.529934911523014 ], [ 677561.292166066356003, 3758448.431816974189132 ], [ 677610.340250848443247, 3758450.833149816840887 ], [ 677632.267851553042419, 3758441.517880042083561 ], [ 677669.028059925651178, 3758453.206815503071994 ], [ 677689.508718292461708, 3758442.259675534442067 ], [ 677699.502060474245809, 3758425.586791377048939 ], [ 677696.501297618960962, 3758395.119534813798964 ], [ 677672.835834135184996, 3758375.69779085740447 ], [ 677635.376160727231763, 3758383.48328499449417 ], [ 677610.340250848443247, 3758371.218371682800353 ], [ 677550.680743835750036, 3758376.895419052802026 ] ] ], [ [ [ 677642.204942297423258, 3758923.268366690259427 ], [ 677602.510547409299761, 3758932.32982456497848 ], [ 677582.541034129913896, 3758950.429136392660439 ], [ 677579.540271274629049, 3758980.896392955910414 ], [ 677598.962015230790712, 3759004.561856439337134 ], [ 677624.78548085980583, 3759009.171637759078294 ], [ 677709.847493113251403, 3758993.937581967096776 ], [ 677737.320730806561187, 3758973.562040223740041 ], [ 677740.321493661846034, 3758943.094783660490066 ], [ 677720.899749705684371, 3758919.429320177063346 ], [ 677698.996968181221746, 3758914.626928167417645 ], [ 677642.204942297423258, 3758923.268366690259427 ] ] ], [ [ [ 677888.556812525144778, 3758350.037161341868341 ], [ 677872.590823407634161, 3758364.575044560711831 ], [ 677865.849607899785042, 3758386.797853881493211 ], [ 677872.590823407634161, 3758409.020663202274591 ], [ 677890.542270605219528, 3758423.753035182133317 ], [ 677922.68040322791785, 3758423.792651252821088 ], [ 677958.937840654980391, 3758405.614379425533116 ], [ 677973.984894150751643, 3758386.783456307835877 ], [ 678002.72090456832666, 3758415.70054295938462 ], [ 678039.634935233159922, 3758408.397553265094757 ], [ 678070.090308474027552, 3758417.053806178737432 ], [ 678094.453894108301029, 3758405.53068835940212 ], [ 678105.679616664070636, 3758383.171978740487248 ], [ 678147.420120419934392, 3758369.982956590596586 ], [ 678162.125721761956811, 3758351.402186958584934 ], [ 678164.977929528453387, 3758332.174164050724357 ], [ 678150.546271828119643, 3758305.174431529361755 ], [ 678121.249854848370887, 3758296.287460596766323 ], [ 678082.944573187967762, 3758309.93835869897157 ], [ 678065.659612690331414, 3758337.256588674150407 ], [ 678048.020659494446591, 3758340.875066155567765 ], [ 678012.82069483702071, 3758330.732689485419542 ], [ 677989.181412247940898, 3758339.514536018483341 ], [ 677974.134358752169646, 3758358.34545913618058 ], [ 677962.090762700769119, 3758341.435176799073815 ], [ 677940.635716947377659, 3758332.548205866478384 ], [ 677888.556812525144778, 3758350.037161341868341 ] ] ], [ [ [ 677761.673864285461605, 3758363.507150995079428 ], [ 677741.298322542454116, 3758390.980388687923551 ], [ 677747.270949266385287, 3758421.006810889579356 ], [ 677772.726120877894573, 3758438.015412785112858 ], [ 677805.799456833978184, 3758432.122018383815885 ], [ 677822.808058729278855, 3758406.666846772655845 ], [ 677816.835432005347684, 3758376.64042457100004 ], [ 677791.380260393838398, 3758359.631822675466537 ], [ 677761.673864285461605, 3758363.507150995079428 ] ] ], [ [ [ 678069.031002391595393, 3758866.188835727516562 ], [ 678045.101736124721356, 3758882.815218231640756 ], [ 678038.553131549968384, 3758908.958713165484369 ], [ 678050.076249369420111, 3758933.322298800107092 ], [ 678074.439835003693588, 3758944.845416619442403 ], [ 678126.693524040165357, 3758938.172705853823572 ], [ 678148.893505110172555, 3758921.195971592329443 ], [ 678176.789204051718116, 3758936.835700162220746 ], [ 678258.830524513265118, 3758928.941517563071102 ], [ 678279.311182880075648, 3758917.994377594441175 ], [ 678290.834300699527375, 3758893.630791959818453 ], [ 678281.947329767164774, 3758864.334374980069697 ], [ 678254.947597245802172, 3758849.902717279735953 ], [ 678172.906276784255169, 3758857.796899878885597 ], [ 678146.898521504714154, 3758875.727431927341968 ], [ 678119.002822563168593, 3758860.087703357450664 ], [ 678069.031002391595393, 3758866.188835727516562 ] ] ] ] } }
]
}
