{
"type": "FeatureCollection",
"name": "LM_09_LPM_20250607_CS_5176_5142_transects",
"crs": { "type": "name", "properties": { "name": "urn:ogc:def:crs:OGC:1.3:CRS84" } },
"features": [
{ "type": "Feature", "properties": { "station_id": 0, "station_ft": -8008.3, "width_ft": 2705.2, "flag": "ok", "lon": -91.106933, "lat": 33.115097, "survey_id": "LM_09_LPM_20250607_CS_5176_5142", "date": "2025-06-07 00:00:00+00:00", "method": "lines" }, "geometry": { "type": "LineString", "coordinates": [ [ -91.106497598230618, 33.114356545995911 ], [ -91.106600680190937, 33.114469988670287 ], [ -91.106639246056574, 33.114603756774073 ], [ -91.106696883052024, 33.114733751130771 ], [ -91.106753557075066, 33.114861800214918 ], [ -91.106828480130346, 33.114985420596284 ], [ -91.106933015021312, 33.115096654778178 ], [ -91.107005250255213, 33.115219055538113 ], [ -91.107054819768791, 33.115348769783083 ], [ -91.107109656028172, 33.115483288771841 ], [ -91.107202392121934, 33.115597125162758 ], [ -91.107272768549322, 33.115719701398938 ], [ -91.10735402906549, 33.115843365029072 ], [ -91.107409939099341, 33.115966086937739 ], [ -91.107489324685716, 33.116091795387952 ], [ -91.107518541414535, 33.116231859915843 ], [ -91.107569342961497, 33.11636030212609 ], [ -91.10763311114566, 33.116489048756733 ], [ -91.107715103877922, 33.11660663391546 ], [ -91.10778904859724, 33.116730040634629 ], [ -91.107864814713906, 33.116845108145 ], [ -91.107928575850252, 33.116980285374233 ], [ -91.107992267517986, 33.117103864795538 ], [ -91.108077989540789, 33.117225658958418 ], [ -91.108126676250649, 33.117358731518394 ], [ -91.108191687452731, 33.117483649718636 ], [ -91.108320498210801, 33.11758448059453 ], [ -91.108380907341839, 33.11771349474953 ], [ -91.108413848005895, 33.117849605466965 ], [ -91.108458827173735, 33.117984268042783 ], [ -91.108515218516175, 33.118113142106729 ], [ -91.108591068432077, 33.118233842254185 ], [ -91.108662425331104, 33.118359737786186 ], [ -91.108730048782718, 33.118484474413677 ], [ -91.108809762757417, 33.118602567984283 ], [ -91.108894746455476, 33.11872552026864 ], [ -91.108949764586725, 33.118850417270927 ], [ -91.109005109890944, 33.118982650911342 ], [ -91.109085024033547, 33.119104892534835 ], [ -91.109115294340199, 33.119241651719257 ], [ -91.109185385879073, 33.119364696498479 ], [ -91.109257650788493, 33.119489706869125 ], [ -91.10931184647194, 33.119621122482094 ], [ -91.10939941508407, 33.119737105504541 ], [ -91.109495534064621, 33.119848636850655 ], [ -91.109568091569216, 33.119973315190421 ], [ -91.109627145804239, 33.120103821254119 ], [ -91.109686399181612, 33.120231000682018 ], [ -91.109770629991885, 33.120349779562503 ], [ -91.10983635499808, 33.120477358600624 ], [ -91.109899120485309, 33.120602728916829 ], [ -91.109976355652606, 33.120724519544723 ], [ -91.110022506480291, 33.120854528750783 ], [ -91.11006608552637, 33.120992908850184 ], [ -91.110131580669986, 33.121116668765161 ], [ -91.110224924741374, 33.121231735122507 ], [ -91.110322019125405, 33.121346035945038 ], [ -91.110396105671882, 33.121469824187457 ], [ -91.110470283941666, 33.121589160260761 ], [ -91.110510674587275, 33.121728934211475 ], [ -91.110554342481436, 33.121855001242352 ], [ -91.110829729707646, 33.122210012080295 ], [ -91.110866317077466, 33.122344175988097 ], [ -91.110944711980707, 33.122467496971133 ], [ -91.110991995128217, 33.122599752872446 ], [ -91.111026869515982, 33.122739753106146 ], [ -91.111083755605677, 33.122868292753836 ], [ -91.11116020585078, 33.122989483353692 ], [ -91.111250278706123, 33.123107234639306 ], [ -91.11128216945886, 33.123234721996077 ], [ -91.111377995437834, 33.123360435078396 ], [ -91.111468914951757, 33.123474114372783 ], [ -91.111536355414799, 33.123599427521313 ], [ -91.11158752100539, 33.1237273985193 ], [ -91.111642414699858, 33.123863261067605 ], [ -91.111715070697244, 33.123983677016504 ], [ -91.111792320133745, 33.124102690976756 ], [ -91.111857991157692, 33.124230900330694 ], [ -91.11191989666608, 33.124354351618145 ], [ -91.111983507753507, 33.124482354663847 ], [ -91.112055215704032, 33.124606212584247 ], [ -91.112135424614863, 33.124731033506393 ], [ -91.112193395601366, 33.124856377495369 ], [ -91.112265522353084, 33.124990703760091 ], [ -91.112331025677989, 33.125114571440214 ], [ -91.112419683545596, 33.125223344611371 ], [ -91.112484929459711, 33.12534762677717 ], [ -91.112526951304233, 33.125482855250148 ], [ -91.112603757424949, 33.125606845042981 ], [ -91.112655249297404, 33.125730801066517 ] ] } },
{ "type": "Feature", "properties": { "station_id": 1, "station_ft": -7082.7, "width_ft": 2495.7, "flag": "ok", "lon": -91.110357, "lat": 33.114002, "survey_id": "LM_09_LPM_20250607_CS_5176_5142", "date": "2025-06-07 00:00:00+00:00", "method": "lines" }, "geometry": { "type": "LineString", "coordinates": [ [ -91.109901466192383, 33.11300154836804 ], [ -91.1099399043364, 33.113105579095524 ], [ -91.110002361303117, 33.113233507711605 ], [ -91.110051954742161, 33.113369349292576 ], [ -91.110117765514204, 33.11348873794212 ], [ -91.110165626654833, 33.113620550777043 ], [ -91.110220587771479, 33.113753995535966 ], [ -91.110310213820995, 33.113870431402894 ], [ -91.110356503563466, 33.114001868935915 ], [ -91.110398259088456, 33.114137567169152 ], [ -91.110450035327275, 33.114268805441981 ], [ -91.110480377431017, 33.11440273359959 ], [ -91.110514816994637, 33.114538257398188 ], [ -91.110566765844268, 33.114670676625934 ], [ -91.110620438967374, 33.114802260043291 ], [ -91.110668417255582, 33.114928712377832 ], [ -91.110747750811171, 33.115055519105091 ], [ -91.110825081900671, 33.115177445800356 ], [ -91.110868706344633, 33.115310108874432 ], [ -91.110915230103288, 33.11544566713917 ], [ -91.110969637653284, 33.115571474198809 ], [ -91.111027849511032, 33.115699154606126 ], [ -91.111076755640596, 33.115827057165561 ], [ -91.111133140940282, 33.115958624300049 ], [ -91.111167626413433, 33.116095521732092 ], [ -91.111203228065577, 33.11622933387676 ], [ -91.11127277833863, 33.116353892115832 ], [ -91.111323659230322, 33.116483294334003 ], [ -91.111361976481405, 33.116617721539285 ], [ -91.1114189485194, 33.11674900984697 ], [ -91.111455948103711, 33.116882099047686 ], [ -91.111497160502338, 33.117015023970353 ], [ -91.111551233734261, 33.117147181485251 ], [ -91.111615389033872, 33.117274632396679 ], [ -91.111676959186454, 33.117397729017355 ], [ -91.111738454552352, 33.117527146786564 ], [ -91.111781759032155, 33.117660168530762 ], [ -91.11183412484344, 33.117791320385273 ], [ -91.11189296807207, 33.117916165128541 ], [ -91.111929688030571, 33.118054339523049 ], [ -91.111980490527642, 33.118185803131851 ], [ -91.112050827430764, 33.118306673535336 ], [ -91.112322756170784, 33.118958602464346 ], [ -91.11237841187679, 33.119084758062463 ], [ -91.112426829741523, 33.119216016358003 ], [ -91.11249418683677, 33.119343281727161 ], [ -91.112547922667318, 33.119473901693567 ], [ -91.11259888005894, 33.119600499522811 ], [ -91.112646283393147, 33.119735227379707 ], [ -91.112705392010213, 33.11986023502616 ], [ -91.112766541681978, 33.119990781460956 ], [ -91.112820410165028, 33.120121648419421 ], [ -91.112859254940631, 33.120252389330737 ], [ -91.112902653958514, 33.120384722937807 ], [ -91.112936451019436, 33.120520799926453 ], [ -91.112975612414687, 33.12065398414034 ], [ -91.113033323378531, 33.12078719022383 ], [ -91.113112793248035, 33.120909871962908 ], [ -91.113170286041765, 33.121033020301887 ], [ -91.113198176647231, 33.121173366607287 ], [ -91.11322464469346, 33.121307812257157 ], [ -91.113281822522353, 33.121439647395853 ], [ -91.113323909442897, 33.121574930283366 ], [ -91.11338235819106, 33.121698979601831 ], [ -91.113479100046831, 33.121821002931163 ], [ -91.113541580688391, 33.121942911603966 ], [ -91.113584472895255, 33.122080606723486 ], [ -91.113625522933788, 33.122209300262419 ], [ -91.113666711917347, 33.122342664468533 ], [ -91.113704365931468, 33.12248256446339 ], [ -91.113744669836848, 33.122611783790269 ], [ -91.113834917579197, 33.122730550078558 ], [ -91.113922513276492, 33.122855955680009 ], [ -91.113959025419391, 33.122988441988078 ], [ -91.114001748705945, 33.123121686443397 ], [ -91.114038553950678, 33.12325408883229 ], [ -91.114084107302091, 33.123385859321942 ], [ -91.11413434600864, 33.123515731268199 ] ] } },
{ "type": "Feature", "properties": { "station_id": 2, "station_ft": -6019.9, "width_ft": 2354.9, "flag": "ok", "lon": -91.114187, "lat": 33.113503, "survey_id": "LM_09_LPM_20250607_CS_5176_5142", "date": "2025-06-07 00:00:00+00:00", "method": "lines" }, "geometry": { "type": "LineString", "coordinates": [ [ -91.113844214582429, 33.112446054870361 ], [ -91.113893577249414, 33.112569969023362 ], [ -91.113939751504674, 33.112706242503208 ], [ -91.113981252300007, 33.112838395744056 ], [ -91.114034053894798, 33.112970698180163 ], [ -91.114104373621089, 33.11309706423355 ], [ -91.114146095374053, 33.113232101372674 ], [ -91.114136286554469, 33.11337103469419 ], [ -91.114186605688175, 33.113503159645987 ], [ -91.114251185493998, 33.113634151074727 ], [ -91.114278547183332, 33.113770158171434 ], [ -91.114305189185401, 33.113905949760841 ], [ -91.114368676228437, 33.114031451374835 ], [ -91.114395169225816, 33.114168783024724 ], [ -91.114447466345965, 33.114299246292802 ], [ -91.114445405067414, 33.114442720557449 ], [ -91.114493172182094, 33.114574257230359 ], [ -91.114564369952717, 33.114700095403869 ], [ -91.114580863004946, 33.114836637605997 ], [ -91.114611609993503, 33.114974903699945 ], [ -91.114644650059674, 33.115110270958745 ], [ -91.114695904906014, 33.115237388216023 ], [ -91.114724517608323, 33.115374293505866 ], [ -91.114740433807071, 33.115512076379304 ], [ -91.114773849602443, 33.11564917154012 ], [ -91.114834303484983, 33.115778704323553 ], [ -91.114893844972016, 33.115904643324292 ], [ -91.11495415252223, 33.116035881117689 ], [ -91.115004102797428, 33.116166688829047 ], [ -91.115029691515616, 33.116301414716432 ], [ -91.115022361101481, 33.116443492841881 ], [ -91.115072092278268, 33.116575291923986 ], [ -91.115108464002546, 33.116710554258439 ], [ -91.115157271221321, 33.116841314960091 ], [ -91.115200915537201, 33.116971640065586 ], [ -91.115259775984796, 33.117101705569489 ], [ -91.115284288121885, 33.117236383132578 ], [ -91.11530616901031, 33.117376408779734 ], [ -91.115353714277987, 33.117508331442984 ], [ -91.115424638705647, 33.117636039013561 ], [ -91.115474589415115, 33.117766709432857 ], [ -91.115521058267305, 33.117898748780355 ], [ -91.115620924664924, 33.118303385956636 ], [ -91.115661998441553, 33.118434634076948 ], [ -91.11568561461803, 33.118571350417021 ], [ -91.115720556073271, 33.118703407038716 ], [ -91.115770627535483, 33.11883657778489 ], [ -91.115787516723245, 33.118973254282217 ], [ -91.115818274706669, 33.119108744548249 ], [ -91.115886765696644, 33.119238034191319 ], [ -91.115938826968005, 33.119370779392497 ], [ -91.116006350217532, 33.119497711760495 ], [ -91.116036223024423, 33.119632767501692 ], [ -91.116064470646563, 33.119764948094989 ], [ -91.116094870272164, 33.119900303466963 ], [ -91.11611846214916, 33.120037899867391 ], [ -91.116159145608748, 33.120169177276743 ], [ -91.116193144638203, 33.120305362079364 ], [ -91.116220303661009, 33.120439912737069 ], [ -91.116286432982335, 33.120567925765471 ], [ -91.116329517360995, 33.120704657550739 ], [ -91.116344907486734, 33.120841673352949 ], [ -91.116377759917199, 33.120977425276081 ], [ -91.116421802800858, 33.121108022340749 ], [ -91.11647672143674, 33.121238688085889 ], [ -91.116502143080254, 33.121376245826148 ], [ -91.116541708207009, 33.121506458917437 ], [ -91.116614174265251, 33.121630665632431 ], [ -91.116641369212616, 33.12176551889663 ], [ -91.116692484775953, 33.121898132598758 ], [ -91.116743954072149, 33.122030139031082 ], [ -91.116787130623607, 33.122162363487284 ] ] } },
{ "type": "Feature", "properties": { "station_id": 3, "station_ft": -5060.3, "width_ft": 2514.2, "flag": "ok", "lon": -91.117401, "lat": 33.112812, "survey_id": "LM_09_LPM_20250607_CS_5176_5142", "date": "2025-06-07 00:00:00+00:00", "method": "lines" }, "geometry": { "type": "LineString", "coordinates": [ [ -91.117226871569684, 33.111860541750687 ], [ -91.117242612449331, 33.111996566294394 ], [ -91.1172516701413, 33.11213395201824 ], [ -91.117320411432317, 33.112262387389698 ], [ -91.117331709424931, 33.112398301905884 ], [ -91.117357290878502, 33.112539184032968 ], [ -91.117381231266577, 33.112671775688078 ], [ -91.117400633286422, 33.112811981651078 ], [ -91.117434248566084, 33.112941765024758 ], [ -91.117465755209039, 33.113080575662941 ], [ -91.117491477389308, 33.113215300246061 ], [ -91.11752117361668, 33.113348818623578 ], [ -91.117539882869295, 33.113488066822732 ], [ -91.117572687361559, 33.113622169740708 ], [ -91.117596767572138, 33.113755833435448 ], [ -91.117617323728282, 33.113893338780258 ], [ -91.117663338810686, 33.114025682315052 ], [ -91.117712310828665, 33.11415641306246 ], [ -91.117753434734794, 33.114293183891327 ], [ -91.117766489034793, 33.114431781454826 ], [ -91.11774786214076, 33.114570082518952 ], [ -91.117783193923231, 33.114705516540823 ], [ -91.11784466824929, 33.114839136817238 ], [ -91.117860506626712, 33.114971367262122 ], [ -91.117880564021505, 33.115107886538027 ], [ -91.117877323235589, 33.115250269082402 ], [ -91.117987057342305, 33.115790415786094 ], [ -91.117997975658042, 33.115931170008956 ], [ -91.118029417657127, 33.116066215451667 ], [ -91.118101041158539, 33.116191388817171 ], [ -91.118123431500933, 33.116333170809831 ], [ -91.118148480998457, 33.116465398172892 ], [ -91.118189712759317, 33.116599392770802 ], [ -91.118213856003749, 33.116732587904359 ], [ -91.118242368659679, 33.116872269177769 ], [ -91.118268498321683, 33.1170047106082 ], [ -91.118288750769281, 33.1171447180024 ], [ -91.118317520233902, 33.117283848512194 ], [ -91.118353619877638, 33.117413587918243 ], [ -91.118372693632097, 33.117545853755324 ], [ -91.118376251791304, 33.11768890754211 ], [ -91.118413663648198, 33.117819298676331 ], [ -91.118448704688618, 33.117962126147759 ], [ -91.118488098548696, 33.118091377676066 ], [ -91.118528184161619, 33.118225022276874 ], [ -91.118572284372775, 33.118358256549314 ], [ -91.118594036492397, 33.11849776029144 ], [ -91.118587210029133, 33.118637197066121 ], [ -91.118626537288392, 33.118773594691007 ], [ -91.118658890452906, 33.118904237609875 ], [ -91.118716976764617, 33.119034607422925 ], [ -91.118748410253019, 33.119164706088782 ], [ -91.118767053745756, 33.119303652303714 ], [ -91.118772606263477, 33.119443038992394 ], [ -91.118771517631501, 33.119581230447174 ], [ -91.118781708564867, 33.119720834047669 ], [ -91.118823495234366, 33.119854522788359 ] ] } },
{ "type": "Feature", "properties": { "station_id": 4, "station_ft": -4034.7, "width_ft": 2387.8, "flag": "ok", "lon": -91.120891, "lat": 33.112065, "survey_id": "LM_09_LPM_20250607_CS_5176_5142", "date": "2025-06-07 00:00:00+00:00", "method": "lines" }, "geometry": { "type": "LineString", "coordinates": [ [ -91.12069108238363, 33.110980986469684 ], [ -91.120692923772822, 33.111117867492261 ], [ -91.120695515949294, 33.111254716718207 ], [ -91.120736997257865, 33.111390962271074 ], [ -91.120779491249593, 33.111523491931393 ], [ -91.120779228494271, 33.111662529507747 ], [ -91.120786370734223, 33.111800532059476 ], [ -91.120813893114388, 33.111931397137226 ], [ -91.120891370770579, 33.112064913918843 ], [ -91.120902225184423, 33.112201655900911 ], [ -91.120883577253451, 33.112344327969566 ], [ -91.120906385614163, 33.1124775869853 ], [ -91.120899268422733, 33.112620625292308 ], [ -91.120921826994262, 33.112755177070291 ], [ -91.120996729583766, 33.112881702247584 ], [ -91.120974515365106, 33.113027310154585 ], [ -91.121012067867738, 33.113162344207225 ], [ -91.121037052390108, 33.113294242326937 ], [ -91.121042681604479, 33.113434562665432 ], [ -91.121077735165343, 33.113567605363173 ], [ -91.121097367156551, 33.113707205105293 ], [ -91.121117150136101, 33.113841746413677 ], [ -91.121156809446759, 33.113978553292299 ], [ -91.121170597504729, 33.114111017164369 ], [ -91.121172400455976, 33.114250811647075 ], [ -91.12118576896772, 33.114387399701286 ], [ -91.121214017191917, 33.114526312858914 ], [ -91.121252280812627, 33.114660352268032 ], [ -91.121285746912505, 33.114791069584292 ], [ -91.121286435212511, 33.114930321979124 ], [ -91.121283015383852, 33.115070396522036 ], [ -91.121301772050145, 33.115206923423877 ], [ -91.121353620189069, 33.115340849835327 ], [ -91.121376421535345, 33.1154767461205 ], [ -91.121395285766184, 33.115614372355587 ], [ -91.121408441873342, 33.11574906548158 ], [ -91.121406681809034, 33.115888525392528 ], [ -91.1214446320962, 33.116023968785555 ], [ -91.121494910131375, 33.116157410027789 ], [ -91.12150647880992, 33.116293570269818 ], [ -91.121544957683369, 33.116429614396829 ], [ -91.121510420981394, 33.116570353695543 ], [ -91.121544237535858, 33.116707307335318 ], [ -91.121573292499519, 33.116841377784233 ], [ -91.121646739211286, 33.116972584117015 ], [ -91.121624652928006, 33.117114260854699 ], [ -91.121634259646186, 33.117253731783357 ], [ -91.121673496132303, 33.117390431074796 ], [ -91.121708679598797, 33.117519488186986 ], [ -91.121701316429395, 33.117656702282268 ], [ -91.121735265670097, 33.117793792055011 ], [ -91.121751680501148, 33.11793129571835 ], [ -91.121759388630281, 33.118066545287171 ], [ -91.121806315332762, 33.118197672224881 ], [ -91.121808925965084, 33.118336224396643 ], [ -91.121821799085311, 33.118468500923235 ], [ -91.121809689950325, 33.118615502008161 ], [ -91.121871238538716, 33.118749119669729 ], [ -91.121927524328797, 33.118882165581816 ], [ -91.121914602312089, 33.119018644811383 ], [ -91.121938569679642, 33.119153270280243 ], [ -91.121946823890568, 33.1192947820578 ], [ -91.121934142606435, 33.11943266185429 ], [ -91.121961545162961, 33.119567979691126 ] ] } },
{ "type": "Feature", "properties": { "station_id": 5, "station_ft": -3059.9, "width_ft": 1924.6, "flag": "ok", "lon": -91.124359, "lat": 33.112135, "survey_id": "LM_09_LPM_20250607_CS_5176_5142", "date": "2025-06-07 00:00:00+00:00", "method": "lines" }, "geometry": { "type": "LineString", "coordinates": [ [ -91.124248148191029, 33.111459174980496 ], [ -91.124266859910733, 33.11158668685912 ], [ -91.1242745309425, 33.111728451187624 ], [ -91.124255747259539, 33.111869942494657 ], [ -91.124305149855402, 33.112000310827021 ], [ -91.124358705384708, 33.112134857267101 ], [ -91.124354436631549, 33.112270759860181 ], [ -91.124341383873158, 33.112410319478975 ], [ -91.124353859239804, 33.112548837027731 ], [ -91.124389861409938, 33.112685116061066 ], [ -91.124426867440675, 33.112820537530297 ], [ -91.124442633259065, 33.112954498767373 ], [ -91.124435484839651, 33.113093415877564 ], [ -91.124448668528444, 33.113230719762768 ], [ -91.124474273471904, 33.113365635609149 ], [ -91.124512644652413, 33.113500306293112 ], [ -91.124534646649764, 33.113637746228711 ], [ -91.124527004861747, 33.113776116441684 ], [ -91.124531606433138, 33.113914244815078 ], [ -91.124578905112202, 33.114050094973692 ], [ -91.124621324998927, 33.114180974522291 ], [ -91.124635963894747, 33.11432027533715 ], [ -91.124621612868538, 33.114460804363674 ], [ -91.124618343538629, 33.114598789738011 ], [ -91.124650524566135, 33.114731300478162 ], [ -91.124718954338448, 33.114871001759639 ], [ -91.124757455128602, 33.114998140752292 ], [ -91.124752836546577, 33.115138580016136 ], [ -91.124729141026705, 33.115278591312858 ], [ -91.124737344073807, 33.115417657951191 ], [ -91.124788056154486, 33.115551673051449 ], [ -91.124826100166018, 33.115686015646688 ], [ -91.124828554518473, 33.11582132635575 ], [ -91.124819987059595, 33.115962175697966 ], [ -91.124838234135908, 33.116095846941079 ], [ -91.124867577968089, 33.116232443042001 ], [ -91.124886642650608, 33.116369929454862 ], [ -91.12489819529381, 33.116507298573694 ], [ -91.124908131743794, 33.116642945846138 ], [ -91.124919468578781, 33.116781690472784 ], [ -91.124940415977775, 33.116921555231777 ], [ -91.124976972373517, 33.117053845976926 ], [ -91.12500858593468, 33.117188504337591 ], [ -91.125035453040411, 33.117321982801272 ], [ -91.125043091632207, 33.117463499186123 ], [ -91.125047142698023, 33.117598304688094 ], [ -91.125055248460797, 33.117737426868437 ], [ -91.12506750431946, 33.117876687682354 ], [ -91.125116705473474, 33.118005929722393 ], [ -91.125145622609892, 33.118145716723902 ], [ -91.125157517361032, 33.118288415175549 ], [ -91.125164554978355, 33.118421195460741 ], [ -91.12517374745164, 33.118557562417543 ], [ -91.125194322916627, 33.118692180830351 ], [ -91.125228368596026, 33.118828499841321 ], [ -91.125263186350622, 33.118963439787414 ], [ -91.125272470963708, 33.119099064063576 ], [ -91.125259862238295, 33.119237163704057 ] ] } },
{ "type": "Feature", "properties": { "station_id": 6, "station_ft": -2349.4, "width_ft": 1733.3, "flag": "ok", "lon": -91.127904, "lat": 33.112524, "survey_id": "LM_09_LPM_20250607_CS_5176_5142", "date": "2025-06-07 00:00:00+00:00", "method": "lines" }, "geometry": { "type": "LineString", "coordinates": [ [ -91.127848391581622, 33.111977413611548 ], [ -91.127826944250174, 33.112116119991747 ], [ -91.127886972271114, 33.112250898611201 ], [ -91.127908580664268, 33.112383942997312 ], [ -91.127904288971393, 33.112523831189598 ], [ -91.127935254155432, 33.112658768022705 ], [ -91.12795778529491, 33.112796341007694 ], [ -91.127937802357877, 33.112934543034662 ], [ -91.127943392219052, 33.113072967012549 ], [ -91.127987999639984, 33.113206881798732 ], [ -91.127972679817148, 33.113347967384769 ], [ -91.128017385501749, 33.113481826524577 ], [ -91.128064743163335, 33.113616520810417 ], [ -91.128021026178217, 33.113755616265159 ], [ -91.128037645461617, 33.113893061902303 ], [ -91.128080225090102, 33.11402660545324 ], [ -91.128068863003762, 33.114168379915249 ], [ -91.128101689152089, 33.114303083887457 ], [ -91.128083390226521, 33.114443281382258 ], [ -91.128082145522001, 33.114577049400374 ], [ -91.128116472914456, 33.114715317103396 ], [ -91.128162088255422, 33.114848593283931 ], [ -91.128182341450099, 33.114987005730349 ], [ -91.128185920357993, 33.115123243301177 ], [ -91.128189426455464, 33.115262339627726 ], [ -91.128183479246488, 33.115399792092106 ], [ -91.128208726183303, 33.115537788556914 ], [ -91.128243398328621, 33.115667039102419 ], [ -91.128256669811066, 33.115809811444947 ], [ -91.128289988028641, 33.115944677191592 ], [ -91.128288031965823, 33.11608281920855 ], [ -91.128274570334469, 33.116219880482291 ], [ -91.128324694831448, 33.116353319853395 ], [ -91.128332832625674, 33.116491754527175 ], [ -91.12830615733715, 33.11663021923772 ], [ -91.128325460623941, 33.116768252663412 ], [ -91.12837166438068, 33.116901387904363 ], [ -91.128400386639427, 33.11704090036725 ], [ -91.128398147295471, 33.117176597937863 ], [ -91.12842549285692, 33.117311831731492 ], [ -91.128421697994256, 33.117452431682011 ], [ -91.128456575471489, 33.11758627030909 ], [ -91.128468960449524, 33.117724760797188 ], [ -91.128504037160141, 33.117858928143477 ], [ -91.128499142189909, 33.117997171827078 ], [ -91.128500458181406, 33.118132269621839 ], [ -91.12854523281969, 33.118269838374083 ], [ -91.128563121313164, 33.118399415874684 ], [ -91.128573666999927, 33.118536735981181 ], [ -91.130924810396124, 33.140313224361101 ], [ -91.13096821740352, 33.140445962947652 ], [ -91.130969407594776, 33.140584744314886 ], [ -91.13096687708348, 33.140723933613536 ], [ -91.130983359696941, 33.140863111165437 ], [ -91.130997929751757, 33.140996776449633 ], [ -91.131018141156162, 33.141136425127293 ] ] } },
{ "type": "Feature", "properties": { "station_id": 7, "station_ft": -1090.4, "width_ft": 1493.2, "flag": "ok", "lon": -91.131248, "lat": 33.112444, "survey_id": "LM_09_LPM_20250607_CS_5176_5142", "date": "2025-06-07 00:00:00+00:00", "method": "lines" }, "geometry": { "type": "LineString", "coordinates": [ [ -91.131216128111163, 33.111762609926629 ], [ -91.131230516516837, 33.111894793750743 ], [ -91.131233101716262, 33.1120290584565 ], [ -91.131223172476354, 33.112169697844287 ], [ -91.131237417576045, 33.112307708267863 ], [ -91.131248155511187, 33.112444366996414 ], [ -91.131275139689379, 33.11257902638674 ], [ -91.13129767972471, 33.112717010730691 ], [ -91.131303984701248, 33.112854550809317 ], [ -91.131328908494382, 33.112992382822945 ], [ -91.131327111551514, 33.113129588859067 ], [ -91.131329846573038, 33.113273170435136 ], [ -91.131333714578645, 33.113401161187674 ], [ -91.13137420533829, 33.113537904361934 ], [ -91.131404083884419, 33.113674797533221 ], [ -91.131429972353743, 33.11381108507836 ], [ -91.131420059681517, 33.113946309806614 ], [ -91.131421004062446, 33.114086878627106 ], [ -91.13144603993085, 33.114222704554031 ], [ -91.131458194758906, 33.114360646236975 ], [ -91.131481807033552, 33.114494364146182 ], [ -91.131495864210379, 33.114633062758948 ], [ -91.131506100859312, 33.114768351376632 ], [ -91.131540777502863, 33.114904828737949 ], [ -91.131581606864145, 33.115039206357942 ], [ -91.131583294404876, 33.115178864211977 ], [ -91.131563757372476, 33.115318877125645 ], [ -91.131578790051009, 33.115460675712669 ], [ -91.131605500971645, 33.115590306289555 ], [ -91.131612832029504, 33.115725585536843 ], [ -91.13161726419257, 33.11586541784834 ], [ -91.131633633242984, 33.115999760061996 ], [ -91.131678450590826, 33.116134414132908 ], [ -91.131705296858456, 33.11627173955533 ], [ -91.131720833723676, 33.116407872384713 ], [ -91.131702201831544, 33.116550463679516 ], [ -91.131713630476156, 33.116683847484758 ], [ -91.131723446138992, 33.116822985255702 ], [ -91.131769060213983, 33.116959064215038 ], [ -91.131767345168413, 33.117094345478812 ], [ -91.131764700936145, 33.117238840542917 ], [ -91.131778023819862, 33.117372185138969 ], [ -91.131808222250811, 33.117508086932737 ], [ -91.131825845341183, 33.117643822239984 ], [ -91.13184798312929, 33.117780435690435 ], [ -91.131848314972572, 33.117921778367375 ], [ -91.13185116962859, 33.118056783270241 ], [ -91.131892720266549, 33.11818763867025 ], [ -91.131927473026678, 33.118325077426938 ], [ -91.131950102248126, 33.118465398061637 ], [ -91.131944311409924, 33.118605048756443 ], [ -91.131997808974646, 33.118735111613447 ], [ -91.132004760544334, 33.118871685287502 ] ] } },
{ "type": "Feature", "properties": { "station_id": 8, "station_ft": -30.7, "width_ft": 1730.6, "flag": "ok", "lon": -91.13458, "lat": 33.11196, "survey_id": "LM_09_LPM_20250607_CS_5176_5142", "date": "2025-06-07 00:00:00+00:00", "method": "lines" }, "geometry": { "type": "LineString", "coordinates": [ [ -91.134467395257161, 33.110864495904742 ], [ -91.134469626878428, 33.111002473168192 ], [ -91.134432259191314, 33.111141750021567 ], [ -91.134482687940476, 33.111275680027177 ], [ -91.134521643271498, 33.11141199204588 ], [ -91.134543485163334, 33.111548084963992 ], [ -91.134579528997094, 33.111680073232002 ], [ -91.134593467413694, 33.11181618989864 ], [ -91.134580048317304, 33.111960341412953 ], [ -91.134617193291717, 33.112087788081197 ], [ -91.134644050280343, 33.112229482352731 ], [ -91.134672900754268, 33.112364156016881 ], [ -91.134683112506607, 33.112503401971225 ], [ -91.134719859360501, 33.112637226862915 ], [ -91.13472734968893, 33.112775281167856 ], [ -91.134751285286029, 33.112908007240165 ], [ -91.134754576532757, 33.113047571787718 ], [ -91.134776551693136, 33.11318385582188 ], [ -91.134819373367577, 33.113317724551592 ], [ -91.134837759822545, 33.11345087129564 ], [ -91.134847627554407, 33.113591712672495 ], [ -91.13485731752148, 33.113727251566822 ], [ -91.134887285794008, 33.113862687077194 ], [ -91.134900259400979, 33.114000183104267 ], [ -91.134929140104347, 33.114138071822786 ], [ -91.134952420615875, 33.114274210347354 ], [ -91.134967032108293, 33.114412354941699 ], [ -91.134977591321501, 33.114546596122452 ], [ -91.135007440682728, 33.114683159434371 ], [ -91.135048073382364, 33.114816905072601 ], [ -91.135068662448091, 33.114955012086007 ], [ -91.135090584693515, 33.115089015131851 ], [ -91.135065465142375, 33.115228625351712 ], [ -91.135120490517181, 33.115364778682974 ], [ -91.135157075645836, 33.115498632361451 ], [ -91.135152286404235, 33.115632972258304 ], [ -91.135153498550977, 33.115777112554198 ], [ -91.135195280697289, 33.115911455739173 ], [ -91.135219438661409, 33.116043355183976 ], [ -91.135224477753027, 33.116184612550477 ], [ -91.135238421585541, 33.116321003106037 ], [ -91.13527365032391, 33.116452914241187 ], [ -91.135294277993012, 33.116591763000706 ], [ -91.135289663180885, 33.116730774206225 ], [ -91.135309601239214, 33.11686553201249 ], [ -91.135343823403858, 33.117001599975374 ], [ -91.135345290956749, 33.117137960792654 ], [ -91.135396504741522, 33.117271418142472 ], [ -91.135397709288384, 33.117411133051526 ], [ -91.135405346262417, 33.117550642450851 ], [ -91.135428708776601, 33.117684883159122 ], [ -91.135445670487584, 33.117822683374435 ], [ -91.13547646244109, 33.11795852629804 ], [ -91.135495135401129, 33.11809054389991 ], [ -91.135491566284941, 33.118233285764802 ], [ -91.135518909395429, 33.118370552062416 ], [ -91.135557095871476, 33.118504367283201 ], [ -91.135540577349119, 33.118645296296236 ] ] } },
{ "type": "Feature", "properties": { "station_id": 9, "station_ft": 930.2, "width_ft": 1896.1, "flag": "ok", "lon": -91.138051, "lat": 33.11185, "survey_id": "LM_09_LPM_20250607_CS_5176_5142", "date": "2025-06-07 00:00:00+00:00", "method": "lines" }, "geometry": { "type": "LineString", "coordinates": [ [ -91.137343204545957, 33.109047683164732 ], [ -91.137375113597457, 33.10915930514971 ], [ -91.137407064752026, 33.109297063565876 ], [ -91.137475660574523, 33.109420926127235 ], [ -91.137514993554618, 33.109558884836126 ], [ -91.137521450909418, 33.109697658890553 ], [ -91.13754580108062, 33.109832608009128 ], [ -91.137593053948336, 33.109961610680649 ], [ -91.137609291662244, 33.110098673350279 ], [ -91.137671508799784, 33.110232003905473 ], [ -91.137711595034787, 33.110362838982546 ], [ -91.137729879387024, 33.110502251692665 ], [ -91.137756862742535, 33.110635809607011 ], [ -91.137785650768521, 33.110770344994684 ], [ -91.137815065210219, 33.110905536350764 ], [ -91.137845878018524, 33.111040031596566 ], [ -91.137871295457884, 33.111177364954074 ], [ -91.137902977571244, 33.111313997835559 ], [ -91.137938327799489, 33.111444698380318 ], [ -91.137977957083336, 33.111582654070077 ], [ -91.13801772643491, 33.111714453139129 ], [ -91.13805103314597, 33.111850251351505 ], [ -91.138081394278814, 33.111985188542747 ], [ -91.138082507160675, 33.11212157964124 ], [ -91.138109211252029, 33.112256705439769 ], [ -91.138140144635528, 33.112393508071783 ], [ -91.138163893740057, 33.112530495045888 ], [ -91.138220733688357, 33.112661221695149 ], [ -91.138275689277037, 33.112789376300675 ], [ -91.138271967105013, 33.112932696380199 ], [ -91.138305289876286, 33.113066516124334 ], [ -91.138359282093461, 33.113196491063434 ], [ -91.138386173200786, 33.113334061794461 ], [ -91.138404553894347, 33.113473034590093 ], [ -91.138417109071682, 33.113610697920528 ], [ -91.138436063258808, 33.113744637487301 ], [ -91.138483689841863, 33.113878280894852 ], [ -91.138508528888792, 33.11401284244355 ], [ -91.138559148292288, 33.114145312340391 ], [ -91.138617981618324, 33.114276025880464 ], [ -91.138649756436905, 33.114408233394897 ], [ -91.138682861593438, 33.114546725952046 ], [ -91.13870441999812, 33.114679603588087 ], [ -91.138715939023783, 33.114818125630528 ], [ -91.138750397279225, 33.114954576149351 ], [ -91.138780317643722, 33.115091220089113 ], [ -91.138776596169265, 33.115227367342293 ], [ -91.138840450647095, 33.115360576572215 ], [ -91.138884077706436, 33.115488914062581 ], [ -91.138943555187652, 33.11562195946987 ], [ -91.138939542678244, 33.115769156747795 ], [ -91.138959901141021, 33.115899266727894 ], [ -91.139013014282483, 33.11603287530157 ], [ -91.139060718463853, 33.116164099643704 ], [ -91.13908806464589, 33.116301173084274 ], [ -91.139097524938336, 33.116435915039219 ], [ -91.139115891125101, 33.116573211537577 ], [ -91.139161145263671, 33.116704314615191 ], [ -91.139197898586559, 33.116845173703545 ], [ -91.139226008929, 33.116976470570762 ], [ -91.139268192260602, 33.117107538455684 ], [ -91.139324369797578, 33.117240302916066 ], [ -91.139349066902525, 33.117373380075797 ], [ -91.139372243865481, 33.117508006208844 ], [ -91.139418955937529, 33.117644954270965 ], [ -91.142935856272757, 33.13272174226357 ], [ -91.142973580751189, 33.132856629838344 ], [ -91.142991514403207, 33.132991948980269 ], [ -91.143032260104988, 33.133128466042301 ], [ -91.143074745702179, 33.133258844054168 ], [ -91.14306842255543, 33.133402729774126 ], [ -91.143544496954235, 33.135470136612938 ], [ -91.143574887796944, 33.135570966111914 ], [ -91.143623546085934, 33.135701082813625 ], [ -91.143664094283778, 33.135833698465838 ], [ -91.14368761858421, 33.135972856423393 ], [ -91.14371277791291, 33.13611219488989 ] ] } },
{ "type": "Feature", "properties": { "station_id": 10, "station_ft": 2181.6, "width_ft": 2064.8, "flag": "ok", "lon": -91.14137, "lat": 33.111543, "survey_id": "LM_09_LPM_20250607_CS_5176_5142", "date": "2025-06-07 00:00:00+00:00", "method": "lines" }, "geometry": { "type": "LineString", "coordinates": [ [ -91.140134906462663, 33.107695481100819 ], [ -91.140166309656749, 33.107833599416587 ], [ -91.140247171263752, 33.107955842799711 ], [ -91.140303190621509, 33.108082478519343 ], [ -91.140358893194389, 33.108210188346874 ], [ -91.140397228992271, 33.108349388784156 ], [ -91.140436751835153, 33.108478962502296 ], [ -91.140449176377274, 33.108612751182889 ], [ -91.140480997358068, 33.108757215344831 ], [ -91.140533719278935, 33.108887418561117 ], [ -91.140582401059902, 33.109018664102365 ], [ -91.14061383559789, 33.109149416321671 ], [ -91.140639884557487, 33.109287569157729 ], [ -91.1406675369618, 33.109422386238933 ], [ -91.140737703998525, 33.109549783049957 ], [ -91.140791885813897, 33.109682422003644 ], [ -91.140810691090735, 33.109817598421856 ], [ -91.140903953605218, 33.109942179245934 ], [ -91.140910192092321, 33.110081504505985 ], [ -91.140952177194308, 33.110215843610746 ], [ -91.141004189098084, 33.110343329946247 ], [ -91.141015153534127, 33.110485208747683 ], [ -91.141053219288366, 33.11061949115583 ], [ -91.141119693380546, 33.110746388680901 ], [ -91.141137673238731, 33.110884126604205 ], [ -91.141171746978884, 33.111017554811085 ], [ -91.141228087900245, 33.111146882129169 ], [ -91.141279829675028, 33.111280333716124 ], [ -91.141316326233309, 33.111414461188296 ], [ -91.141370014153424, 33.111542897649429 ], [ -91.141379436383033, 33.111683824303675 ], [ -91.141445043382689, 33.111812183441039 ], [ -91.141462881785529, 33.111948548060965 ], [ -91.141514113847563, 33.112079831611858 ], [ -91.141569067847541, 33.112210843941469 ], [ -91.141577731274438, 33.112347488045828 ], [ -91.141652180035862, 33.112474745575874 ], [ -91.141694065835622, 33.112608865898437 ], [ -91.141701137333143, 33.112749834797455 ], [ -91.141717313206129, 33.112886402195471 ], [ -91.141776017563174, 33.113013267650238 ], [ -91.141836443310126, 33.113142760189511 ], [ -91.141848883704128, 33.113281468012168 ], [ -91.141923540910028, 33.113406552779146 ], [ -91.141973812938801, 33.113539766488515 ], [ -91.142010464236904, 33.113676173910903 ], [ -91.142025923157675, 33.113812883851082 ], [ -91.142066967708502, 33.113947668588665 ], [ -91.142102426736884, 33.114078806240869 ], [ -91.142148847753234, 33.114212154856475 ], [ -91.142203796614353, 33.114338961491022 ], [ -91.142251053077743, 33.114467220126222 ], [ -91.142293827678685, 33.11460540094636 ], [ -91.142304303477829, 33.114747090632683 ], [ -91.142345507697286, 33.114877806785984 ], [ -91.142400618172118, 33.11500428225424 ], [ -91.142434008993931, 33.115144750154663 ], [ -91.142469593760708, 33.115275228633841 ], [ -91.14251353003084, 33.115408207297421 ], [ -91.142555431532926, 33.115543618332374 ], [ -91.142570128794745, 33.115679041910759 ], [ -91.142606095337698, 33.115811963182807 ] ] } },
{ "type": "Feature", "properties": { "station_id": 11, "station_ft": 3182.4, "width_ft": 2057.1, "flag": "ok", "lon": -91.144405, "lat": 33.109967, "survey_id": "LM_09_LPM_20250607_CS_5176_5142", "date": "2025-06-07 00:00:00+00:00", "method": "lines" }, "geometry": { "type": "LineString", "coordinates": [ [ -91.143029709325376, 33.106442640678523 ], [ -91.143078830011973, 33.106568110832569 ], [ -91.14314947870254, 33.106694403165193 ], [ -91.143176100804652, 33.106830573507672 ], [ -91.143218405037629, 33.106964002747091 ], [ -91.143293067968784, 33.107090104796185 ], [ -91.143364857444084, 33.107216059564898 ], [ -91.143419475427947, 33.10734984870512 ], [ -91.143440235916927, 33.107480560491908 ], [ -91.14346254415679, 33.107619863240089 ], [ -91.143496575624539, 33.107755573261052 ], [ -91.143551225244437, 33.107892632478276 ], [ -91.14360939384666, 33.10801106283202 ], [ -91.143665376651398, 33.108140308469359 ], [ -91.143724053332491, 33.108267833306513 ], [ -91.14379633132009, 33.10839710997076 ], [ -91.143842037298967, 33.108527329426344 ], [ -91.143895198770949, 33.108658791562981 ], [ -91.143963478374303, 33.108782872553185 ], [ -91.143983840156608, 33.108926971187316 ], [ -91.144049985699283, 33.10904974686045 ], [ -91.144096308180295, 33.109186584955822 ], [ -91.144142613642515, 33.109311056742278 ], [ -91.144196406401733, 33.109439876333852 ], [ -91.144247948206441, 33.109572530918477 ], [ -91.14429749283876, 33.109701076040679 ], [ -91.144353053968203, 33.109830489065644 ], [ -91.144405024656095, 33.109967208212929 ], [ -91.144458759502967, 33.110093252709341 ], [ -91.144510531681902, 33.110222442353226 ], [ -91.144553935868487, 33.110357870992154 ], [ -91.144609446404417, 33.110485305047504 ], [ -91.144672462262577, 33.110611921088548 ], [ -91.144700991241834, 33.110749067706756 ], [ -91.144736634772229, 33.110885782980425 ], [ -91.144791665981771, 33.111014155090558 ], [ -91.144855481751691, 33.111142634073047 ], [ -91.144932769847443, 33.111265776664915 ], [ -91.144974092755774, 33.111394952078207 ], [ -91.145005442724568, 33.111529799007798 ], [ -91.145040289145584, 33.111668525576327 ], [ -91.145089741452765, 33.111797372980902 ], [ -91.145146636985018, 33.11192597981978 ], [ -91.145214222051393, 33.112052235766235 ], [ -91.145255203452223, 33.112186827810959 ], [ -91.14528089315715, 33.11232404774988 ], [ -91.145312753539812, 33.11246106246881 ], [ -91.145369672349219, 33.112592115262018 ], [ -91.145438242378916, 33.112715286350344 ], [ -91.145501531087518, 33.112842834253925 ], [ -91.145545998780491, 33.112972896015265 ], [ -91.145585785790914, 33.113108924853194 ], [ -91.145635861833654, 33.113237959987579 ], [ -91.145673573860165, 33.113372023151683 ], [ -91.145737824108181, 33.113497668437368 ], [ -91.145812713209907, 33.113622420198325 ], [ -91.145860501040204, 33.113754686397606 ], [ -91.145880059769723, 33.113892660263147 ], [ -91.145935628508923, 33.114022347412337 ], [ -91.146020961257378, 33.114142742593785 ], [ -91.146038964294547, 33.114281963657781 ], [ -91.146092429336449, 33.114413643607101 ], [ -91.146147184102901, 33.114543528009847 ], [ -91.146194999023251, 33.114675133854625 ], [ -91.146236612207559, 33.114807055141725 ], [ -91.146277964566778, 33.114946123836084 ], [ -91.146300924916304, 33.115077452655044 ], [ -91.15111030621091, 33.127691265806831 ], [ -91.151174016922795, 33.127788383564884 ], [ -91.151259725623603, 33.127908361087123 ], [ -91.151275760166683, 33.128048886004713 ], [ -91.151335788234391, 33.128178595130272 ], [ -91.151389496769696, 33.128309995765896 ], [ -91.1514263236906, 33.128442028387902 ], [ -91.151486748018527, 33.128572119837791 ], [ -91.151553993050797, 33.128701480292534 ], [ -91.15161202647036, 33.128827244950934 ], [ -91.151655422999923, 33.128956156954914 ], [ -91.151697132939702, 33.12908980655201 ], [ -91.151777941639409, 33.129212976200712 ], [ -91.151839632457254, 33.129342125008485 ], [ -91.15187928380611, 33.129482768754841 ], [ -91.151913661751692, 33.129607590434432 ], [ -91.151969277769197, 33.129736834080589 ], [ -91.152037618239774, 33.129864426986487 ], [ -91.152091392671707, 33.129999234228556 ], [ -91.152140682994116, 33.13012948143416 ], [ -91.152185851982253, 33.13025557828616 ], [ -91.152226814194321, 33.130393024986901 ], [ -91.152265659099427, 33.130527600256997 ], [ -91.152290167153765, 33.130662352707617 ], [ -91.152315057483406, 33.130799602956102 ], [ -91.152367186109728, 33.130929364327763 ] ] } },
{ "type": "Feature", "properties": { "station_id": 12, "station_ft": 4281.5, "width_ft": 2177.5, "flag": "ok", "lon": -91.148051, "lat": 33.110363, "survey_id": "LM_09_LPM_20250607_CS_5176_5142", "date": "2025-06-07 00:00:00+00:00", "method": "lines" }, "geometry": { "type": "LineString", "coordinates": [ [ -91.145303435372099, 33.104333619506804 ], [ -91.145393516403672, 33.104453078280024 ], [ -91.145494261420879, 33.104567382976711 ], [ -91.145574793231262, 33.104688717995543 ], [ -91.145611271878821, 33.104817017839942 ], [ -91.145658496823216, 33.104952613372738 ], [ -91.145721504734297, 33.105078651096569 ], [ -91.145751378974907, 33.10521661385458 ], [ -91.145771210143209, 33.105356042362196 ], [ -91.145827464261203, 33.105486330335928 ], [ -91.145908291418678, 33.105607717284947 ], [ -91.145967799272498, 33.105736691880438 ], [ -91.146020182625492, 33.105864942873787 ], [ -91.146086181884471, 33.105993078 ], [ -91.146161721140203, 33.106118127570412 ], [ -91.146230076067326, 33.10623967858394 ], [ -91.14628644771787, 33.106371888816405 ], [ -91.146368675930376, 33.106492854235107 ], [ -91.146424361111798, 33.106621330552024 ], [ -91.146490153603068, 33.106748175596685 ], [ -91.146487362674719, 33.106891928975045 ], [ -91.146586809330657, 33.107006599141215 ], [ -91.146610460436989, 33.107145892530589 ], [ -91.147026527467631, 33.108046541482736 ], [ -91.147102705339947, 33.108166144670051 ], [ -91.147144679788369, 33.108298530510169 ], [ -91.147209137529529, 33.108429093305155 ], [ -91.147277298173648, 33.108550479934479 ], [ -91.147328050472282, 33.108678521836147 ], [ -91.147370384444642, 33.108817995963946 ], [ -91.147421803465519, 33.108947434658717 ], [ -91.147456069985608, 33.109083168124265 ], [ -91.147545736669571, 33.109202847897251 ], [ -91.147634235395572, 33.109319813994837 ], [ -91.147683033841943, 33.109451852970551 ], [ -91.147711902893192, 33.109590095798815 ], [ -91.147782350359478, 33.109711358070065 ], [ -91.147824601198465, 33.10984517097269 ], [ -91.147908056798798, 33.109967474333871 ], [ -91.147953928907867, 33.110097416092884 ], [ -91.148016489507597, 33.110227385791752 ], [ -91.148050525996922, 33.11036276439836 ], [ -91.148116394132614, 33.110490157085913 ], [ -91.148187574439561, 33.11061278755021 ], [ -91.148217338386061, 33.110752205560729 ], [ -91.148267178220465, 33.110883825390943 ], [ -91.148336128844306, 33.111005344153831 ], [ -91.148405722743306, 33.111129441047133 ], [ -91.148461376462137, 33.111261050714369 ], [ -91.148522511287908, 33.111388556169281 ], [ -91.148581358316932, 33.111515774497221 ], [ -91.148647587475651, 33.111639619142757 ], [ -91.148702203661614, 33.111771921643609 ], [ -91.148772372960451, 33.111898103709017 ], [ -91.148818949625465, 33.112029716681874 ], [ -91.148874460730198, 33.112152834250779 ], [ -91.148922493287515, 33.112289962173691 ], [ -91.149006761869742, 33.112408109016101 ], [ -91.149050140403901, 33.112543371133775 ], [ -91.149115941878151, 33.112666806234486 ], [ -91.149139521814277, 33.112808215652763 ], [ -91.149195394181547, 33.112934959004725 ], [ -91.149263851777931, 33.113059502810131 ], [ -91.149329683471606, 33.113186014978744 ], [ -91.149373671738076, 33.113320145881218 ], [ -91.149436547820571, 33.113448409444452 ], [ -91.149510356628156, 33.113572340985655 ], [ -91.149573882426964, 33.113696669843037 ], [ -91.149608305217299, 33.113831001254631 ], [ -91.149675302715551, 33.113959951805825 ], [ -91.149759623694877, 33.114072821178134 ], [ -91.149795364375322, 33.114208380079447 ], [ -91.152516422091637, 33.120264487982944 ], [ -91.15257426111134, 33.120390913695935 ], [ -91.152612934347744, 33.120524995217664 ], [ -91.152666911966762, 33.120657657853691 ], [ -91.152719138653111, 33.12078464245625 ], [ -91.152775317585764, 33.120918581748711 ], [ -91.152838744932666, 33.121041837274447 ], [ -91.152886415246485, 33.121173936262394 ], [ -91.152945330991002, 33.121296644332986 ], [ -91.153006569416362, 33.121430248165602 ], [ -91.15307165362438, 33.121555993881685 ], [ -91.153148220092405, 33.121680069866166 ], [ -91.153176467673816, 33.12181680394503 ], [ -91.15324125554784, 33.121945656850876 ], [ -91.153304230920924, 33.122072818397463 ], [ -91.153344180567174, 33.122203373837877 ], [ -91.153414478974042, 33.122331201247199 ], [ -91.153485570505268, 33.122453031815688 ], [ -91.153511183147884, 33.122590717265638 ], [ -91.153594955334768, 33.122713426371817 ], [ -91.153631747306719, 33.12284507456954 ], [ -91.153680951135229, 33.122976833090753 ], [ -91.153761815253233, 33.123102831563337 ] ] } },
{ "type": "Feature", "properties": { "station_id": 13, "station_ft": 5355.3, "width_ft": 2220.0, "flag": "ok", "lon": -91.151372, "lat": 33.10915, "survey_id": "LM_09_LPM_20250607_CS_5176_5142", "date": "2025-06-07 00:00:00+00:00", "method": "lines" }, "geometry": { "type": "LineString", "coordinates": [ [ -91.14682976425226, 33.101240902817025 ], [ -91.14691890499158, 33.101347037298119 ], [ -91.147000265116347, 33.101466303938906 ], [ -91.147089260969835, 33.10158491655141 ], [ -91.147150930069117, 33.101711155320785 ], [ -91.147218771535535, 33.101837326700974 ], [ -91.147287918994806, 33.101959999145436 ], [ -91.147346470216519, 33.102091479739542 ], [ -91.147421565018831, 33.102214635326959 ], [ -91.14749668381765, 33.102333283258503 ], [ -91.147572129332403, 33.102458991789305 ], [ -91.147640456933573, 33.102581174356459 ], [ -91.147717198891669, 33.102705693132812 ], [ -91.147787229943916, 33.102835505233891 ], [ -91.147861557759654, 33.102949705646346 ], [ -91.147935626551131, 33.103074708809935 ], [ -91.148001067101006, 33.103195288824935 ], [ -91.148094915346277, 33.103312329791905 ], [ -91.148187785024774, 33.103429294127864 ], [ -91.148236686959763, 33.103562267386039 ], [ -91.148274158620509, 33.103695067399173 ], [ -91.148348605262925, 33.103821991083294 ], [ -91.14842798851501, 33.103938907259668 ], [ -91.148502415123389, 33.104067095115433 ], [ -91.148583209819932, 33.104184716075849 ], [ -91.148657282339997, 33.10430282006719 ], [ -91.148722645172853, 33.104432524168622 ], [ -91.148770051558245, 33.104562565721565 ], [ -91.148832309635395, 33.104691878007003 ], [ -91.148906321442027, 33.104813995563582 ], [ -91.149010411535457, 33.104925719243852 ], [ -91.149076851120881, 33.105048133304791 ], [ -91.14912562971611, 33.105181656084419 ], [ -91.14916677341904, 33.105315915890053 ], [ -91.149250064246843, 33.10543481122847 ], [ -91.149325337109758, 33.105559008522505 ], [ -91.149435518020397, 33.105665388323771 ], [ -91.149505718428614, 33.105788299572168 ], [ -91.149547077731867, 33.105928054397523 ], [ -91.149613694184154, 33.106051704071817 ], [ -91.149653320480681, 33.106187649830112 ], [ -91.149747135156389, 33.106303947595563 ], [ -91.149784736029829, 33.106439796567848 ], [ -91.14986012450639, 33.106562069486515 ], [ -91.149981485989073, 33.106666148397437 ], [ -91.150074063513586, 33.106779129551008 ], [ -91.150136386595506, 33.106908137721838 ], [ -91.150190203549457, 33.107038796661634 ], [ -91.150255880688576, 33.107166683646064 ], [ -91.15033080308902, 33.107287887224814 ], [ -91.150393734120641, 33.107411889705219 ], [ -91.150463958917527, 33.10753713642081 ], [ -91.150545265087473, 33.10765648384448 ], [ -91.150620250606181, 33.107777356807773 ], [ -91.15069568097401, 33.107907488750136 ], [ -91.150757104005777, 33.108027158477775 ], [ -91.150811104767584, 33.108159904172204 ], [ -91.150870795875633, 33.108290001277844 ], [ -91.150938017927487, 33.108411777033034 ], [ -91.151021833818618, 33.108530447629924 ], [ -91.151112513026746, 33.108649679052391 ], [ -91.151189105622308, 33.108767599850339 ], [ -91.151264320872826, 33.108891906239826 ], [ -91.151318845550321, 33.109021157885564 ], [ -91.151371900541051, 33.109150419150289 ], [ -91.151421459720254, 33.109283028691067 ], [ -91.151484139440683, 33.109411264638858 ], [ -91.15156219482904, 33.109531869766542 ], [ -91.151629909433623, 33.109657104282142 ], [ -91.151704110912291, 33.109777651663904 ], [ -91.151790269944016, 33.109898725488314 ], [ -91.151870237962797, 33.110017640741312 ], [ -91.151934491364614, 33.110142953711211 ], [ -91.152000274783205, 33.110271141031362 ], [ -91.152054167818676, 33.110399077317986 ], [ -91.152112801891292, 33.110534513165604 ], [ -91.152181383734529, 33.110654547137031 ], [ -91.152248811360693, 33.110780416135576 ], [ -91.152323754940724, 33.11090326650617 ], [ -91.152399840531487, 33.111026082271671 ], [ -91.152482781001424, 33.111144950507793 ], [ -91.152562327116428, 33.111263895999741 ], [ -91.152633762796214, 33.111385258030303 ], [ -91.152684104058679, 33.111517284784561 ], [ -91.152734384209779, 33.111653214337231 ], [ -91.152830564555913, 33.111766471645645 ], [ -91.152941596052074, 33.111875342868721 ], [ -91.152985291995122, 33.112005516980574 ], [ -91.153049168912489, 33.11213206797283 ], [ -91.153111815795398, 33.11225986320688 ], [ -91.153192653922474, 33.112380668918206 ], [ -91.15325564177401, 33.11250637356455 ], [ -91.153313235526483, 33.112634999005842 ], [ -91.153390730137062, 33.112754397431623 ], [ -91.154612148343077, 33.114871304040001 ], [ -91.154650974660768, 33.114986668111989 ], [ -91.154755517126688, 33.115099428692908 ], [ -91.154841072853756, 33.115214292609714 ], [ -91.154895002371831, 33.115345250555464 ], [ -91.154959301733328, 33.11547449095201 ], [ -91.155026692130846, 33.115599093488889 ], [ -91.155108128045811, 33.115720305963343 ], [ -91.155184736934643, 33.115842291386258 ], [ -91.155257312833086, 33.115965980460352 ], [ -91.155321563739975, 33.116090026461102 ], [ -91.155388913526195, 33.116213612869714 ], [ -91.155469154448426, 33.116332606752941 ], [ -91.155525490178718, 33.116465883832014 ], [ -91.155592777619091, 33.116593180891059 ], [ -91.155663672980367, 33.116711631284204 ], [ -91.155731628837842, 33.116837026740612 ], [ -91.155802019238095, 33.116960921942564 ], [ -91.155872894028619, 33.117087563087068 ], [ -91.155940583929691, 33.117212410155204 ], [ -91.15602384575817, 33.117329542500656 ], [ -91.15608305311477, 33.117458870868461 ] ] } },
{ "type": "Feature", "properties": { "station_id": 14, "station_ft": 6188.7, "width_ft": 2551.2, "flag": "ok", "lon": -91.154794, "lat": 33.10838, "survey_id": "LM_09_LPM_20250607_CS_5176_5142", "date": "2025-06-07 00:00:00+00:00", "method": "lines" }, "geometry": { "type": "LineString", "coordinates": [ [ -91.147951011148066, 33.098254644991442 ], [ -91.148043670398593, 33.098363696086231 ], [ -91.148123118729828, 33.098488142031698 ], [ -91.148185680973782, 33.098608630875866 ], [ -91.14825416238412, 33.098737160857461 ], [ -91.148326140171008, 33.098858797205693 ], [ -91.148404072590907, 33.098985231131934 ], [ -91.148480045974438, 33.099094033925631 ], [ -91.148577374848983, 33.099217071428626 ], [ -91.148668826490095, 33.099332972702577 ], [ -91.148744990164005, 33.099451641059368 ], [ -91.148814267963573, 33.099574256846132 ], [ -91.148894601817048, 33.09969899852279 ], [ -91.148984390038351, 33.099807985602808 ], [ -91.14908194035057, 33.099922940464914 ], [ -91.149160335816973, 33.100042803081131 ], [ -91.149232663677836, 33.100166826897059 ], [ -91.149311165684452, 33.100283913371165 ], [ -91.149406937287878, 33.100400692865158 ], [ -91.149490280568173, 33.100518791655205 ], [ -91.149573377736857, 33.100638403196427 ], [ -91.149651479731133, 33.100758129444813 ], [ -91.149736859762456, 33.100870388124854 ], [ -91.14982483725656, 33.100991615772926 ], [ -91.149896847669453, 33.101112865908135 ], [ -91.149964191898306, 33.101227413798426 ], [ -91.150043123647123, 33.101362607004475 ], [ -91.150117306155622, 33.101482001556761 ], [ -91.150195775734559, 33.101606095421076 ], [ -91.150274348310873, 33.101719992471146 ], [ -91.150353481334051, 33.101841525644552 ], [ -91.150426210054221, 33.101966151097407 ], [ -91.150495164637547, 33.102092148342528 ], [ -91.150559259202154, 33.1022187535781 ], [ -91.150626751140749, 33.102342012041966 ], [ -91.150718637619804, 33.102458294765029 ], [ -91.150817321114474, 33.102571729544188 ], [ -91.150925752823369, 33.10267638745983 ], [ -91.151025624316489, 33.10278756009798 ], [ -91.151090802611265, 33.102907618113733 ], [ -91.151144533471864, 33.103043333862068 ], [ -91.151198043819051, 33.103176274788538 ], [ -91.151281113835694, 33.103288959550511 ], [ -91.151385850464436, 33.103403508262602 ], [ -91.151475133921821, 33.103520631600496 ], [ -91.151553659255313, 33.103636231343764 ], [ -91.151627804777576, 33.103761836763987 ], [ -91.151698509501045, 33.103886062631773 ], [ -91.151782837013172, 33.104007477760298 ], [ -91.151868996075862, 33.104122120981849 ], [ -91.151960589465631, 33.104234721329917 ], [ -91.152051076073803, 33.104347631837882 ], [ -91.152121421392138, 33.104475267214774 ], [ -91.152205060378762, 33.10459624744626 ], [ -91.152282822649425, 33.10471380291952 ], [ -91.152358451151727, 33.104837144849967 ], [ -91.152431043116167, 33.104960422831077 ], [ -91.152518003128876, 33.105076791512232 ], [ -91.152619885466052, 33.105185943357242 ], [ -91.152690767322966, 33.105311431587481 ], [ -91.152751127188026, 33.105439628137674 ], [ -91.152828718119281, 33.105559685598642 ], [ -91.152928663217764, 33.105671131135587 ], [ -91.153040716778364, 33.10577125674272 ], [ -91.153105050039613, 33.105901762295154 ], [ -91.153173220282781, 33.106026993052026 ], [ -91.153279648160961, 33.106136609439574 ], [ -91.153354489246439, 33.106259322923066 ], [ -91.153371490067116, 33.106402177020655 ], [ -91.153419192644819, 33.106542026708325 ], [ -91.153457162181908, 33.106650169208578 ], [ -91.153540111179879, 33.106724597128469 ], [ -91.15363426371438, 33.106799280360889 ], [ -91.153715962520565, 33.106876106712562 ], [ -91.153809811866253, 33.106956866347751 ], [ -91.153881547633759, 33.107036836473156 ], [ -91.153960184011197, 33.107117943206418 ], [ -91.15402938712478, 33.107202959428029 ], [ -91.154090620341449, 33.107294870860912 ], [ -91.154130354195217, 33.107430979399204 ], [ -91.154208072663607, 33.107557328740135 ], [ -91.154283751000762, 33.107678442852134 ], [ -91.154403515818572, 33.107778653423736 ], [ -91.154437363798564, 33.107920929267195 ], [ -91.154495437067666, 33.108048506974527 ], [ -91.154595514757432, 33.108159620202272 ], [ -91.154709688277734, 33.10826250649221 ], [ -91.15479447671116, 33.108379931912452 ], [ -91.154862154575497, 33.108504395779761 ], [ -91.154935639979669, 33.108631788712003 ], [ -91.155012485511079, 33.10875182256494 ], [ -91.155094253300419, 33.108870833878115 ], [ -91.155177137080855, 33.108990469843761 ], [ -91.155254771301657, 33.109110910396339 ], [ -91.155331017555326, 33.109229545893825 ], [ -91.1554009700547, 33.109356165654198 ], [ -91.155481697940004, 33.109475678567534 ], [ -91.15558213836465, 33.10958332615224 ], [ -91.155619716523248, 33.109719063346937 ], [ -91.155940558926247, 33.110205866672082 ], [ -91.156058731382373, 33.110306279032834 ], [ -91.156136182552501, 33.110424411025924 ], [ -91.156221403751218, 33.110545762914349 ], [ -91.156315938967751, 33.110657241278908 ], [ -91.156376802859441, 33.11078600872235 ], [ -91.156437053554868, 33.110915523156471 ], [ -91.156535655829074, 33.11102543533223 ], [ -91.156654028679966, 33.111126119882876 ], [ -91.156713201990257, 33.111255613336823 ], [ -91.156818185976348, 33.111363421899149 ], [ -91.156908845742564, 33.111475970426525 ] ] } },
{ "type": "Feature", "properties": { "station_id": 15, "station_ft": 6944.5, "width_ft": 2476.2, "flag": "ok", "lon": -91.158392, "lat": 33.107452, "survey_id": "LM_09_LPM_20250607_CS_5176_5142", "date": "2025-06-07 00:00:00+00:00", "method": "lines" }, "geometry": { "type": "LineString", "coordinates": [ [ -91.148319797511704, 33.097223325977033 ], [ -91.148419123877517, 33.097301195823903 ], [ -91.148528161105176, 33.097391121439315 ], [ -91.148645079693466, 33.097475361766037 ], [ -91.148727620852227, 33.097591816343225 ], [ -91.14881702947153, 33.097709490977216 ], [ -91.148914824462253, 33.097815842490874 ], [ -91.149038276203157, 33.097910840801568 ], [ -91.149150934578458, 33.098010855292891 ], [ -91.149258257968071, 33.098116622094494 ], [ -91.149349173073261, 33.098227470736042 ], [ -91.149440327043507, 33.098343044300933 ], [ -91.149539422856932, 33.09845576249689 ], [ -91.14966121102654, 33.098550716058348 ], [ -91.149763920829002, 33.098655220525146 ], [ -91.14986946451539, 33.098759047217996 ], [ -91.149974570415495, 33.098864854950939 ], [ -91.150079224254526, 33.098971215572341 ], [ -91.150177321874722, 33.099081823556432 ], [ -91.150275800006696, 33.099187564453146 ], [ -91.150381134822851, 33.099293343276663 ], [ -91.150483917539532, 33.099398478715486 ], [ -91.150586991381601, 33.099506800463281 ], [ -91.150697327997634, 33.099616668649119 ], [ -91.150801952016735, 33.099712557733277 ], [ -91.150914611017797, 33.099815759767182 ], [ -91.151017200912307, 33.099924578432621 ], [ -91.151113272750962, 33.100031241502009 ], [ -91.151210737748087, 33.100143831948785 ], [ -91.151310662448751, 33.100250387524625 ], [ -91.151415997484207, 33.100355917472534 ], [ -91.15152015154365, 33.100460795958718 ], [ -91.151624403798593, 33.1005691920261 ], [ -91.15172962550966, 33.100676398645568 ], [ -91.151849914103266, 33.10077460223809 ], [ -91.151952968600284, 33.10087701428634 ], [ -91.152062575006497, 33.100974655752637 ], [ -91.152169825611779, 33.101082316624101 ], [ -91.152260152961944, 33.101195942231705 ], [ -91.152358477105565, 33.101305805752453 ], [ -91.152461105281631, 33.101411325513716 ], [ -91.152575469611619, 33.101511408521652 ], [ -91.152686850175158, 33.101610054838304 ], [ -91.152791750511611, 33.101717565594441 ], [ -91.15289534726692, 33.101825414840832 ], [ -91.152993952179855, 33.101933625934009 ], [ -91.153092080288602, 33.102043187175752 ], [ -91.153193047500196, 33.102149047241717 ], [ -91.15329282266768, 33.10226368199887 ], [ -91.153380419740103, 33.102374878481058 ], [ -91.153486140625674, 33.10248276823819 ], [ -91.153594078858291, 33.102583222567624 ], [ -91.153691214758467, 33.102694796057968 ], [ -91.15378642582148, 33.102810064557723 ], [ -91.153895452479986, 33.102915046847542 ], [ -91.154017443440978, 33.103013127052897 ], [ -91.154117900532995, 33.103113081051831 ], [ -91.154226801867651, 33.103222130394705 ], [ -91.154327996832208, 33.103320622258984 ], [ -91.154441674592633, 33.103419993883193 ], [ -91.154565996271785, 33.10351569490166 ], [ -91.154681425866116, 33.103620908394475 ], [ -91.154761056846013, 33.10373190929289 ], [ -91.154841131316857, 33.103855549519793 ], [ -91.154925695312812, 33.103973828525497 ], [ -91.155034101480808, 33.104082056267885 ], [ -91.155147116901176, 33.104183739860758 ], [ -91.15525473698851, 33.104284689803364 ], [ -91.155356815870547, 33.104390182738769 ], [ -91.155463467812339, 33.104492265965256 ], [ -91.155564091089005, 33.104602687831736 ], [ -91.155660618309042, 33.104711433385091 ], [ -91.15576514997673, 33.104820785160875 ], [ -91.155860966922035, 33.10493384972461 ], [ -91.155971097626477, 33.105034204482237 ], [ -91.156088292706812, 33.105132232183315 ], [ -91.156197310501554, 33.105232209969031 ], [ -91.156309113312886, 33.105336593755617 ], [ -91.156415964685351, 33.105435349459313 ], [ -91.156501846660021, 33.105554524806742 ], [ -91.156578550992222, 33.105676949915598 ], [ -91.156691862646639, 33.105781955445778 ], [ -91.156812610502683, 33.105875561528059 ], [ -91.156920047122185, 33.105973872898872 ], [ -91.157024848119292, 33.106083743855166 ], [ -91.157129552238914, 33.106200541077698 ], [ -91.157228322881082, 33.106300970666169 ], [ -91.157330578665835, 33.106403905410218 ], [ -91.157436376424499, 33.10651187320429 ], [ -91.157537963749917, 33.106616598396137 ], [ -91.157628615557599, 33.106728733607888 ], [ -91.157713403684369, 33.106849317399323 ], [ -91.158162156571692, 33.107259059138855 ], [ -91.158282210947462, 33.107344451427004 ], [ -91.158392218935688, 33.107452033443707 ], [ -91.158497191465656, 33.107551787952517 ], [ -91.158596177586119, 33.107660954853692 ], [ -91.158697336298744, 33.107775465899692 ], [ -91.158787592043694, 33.10788677782012 ], [ -91.158881039217889, 33.108000680664396 ], [ -91.158972837242914, 33.108116242609476 ], [ -91.159068051612181, 33.108230490658343 ], [ -91.15918556005019, 33.108326259080748 ], [ -91.159302980037651, 33.108415982288747 ], [ -91.15940918985828, 33.108522241446018 ], [ -91.159506738784188, 33.108631004149331 ], [ -91.159607842411091, 33.108742931503606 ], [ -91.159710498230808, 33.108853089324604 ], [ -91.159810877426736, 33.108957161467565 ], [ -91.159917578634548, 33.109059926554863 ], [ -91.160025550567028, 33.109169306771911 ], [ -91.160125421557694, 33.109271430810963 ], [ -91.160231770885275, 33.109381728683744 ], [ -91.160329625022655, 33.109488207465034 ], [ -91.160435445569291, 33.109590840879413 ], [ -91.16055247163456, 33.109690459482891 ] ] } },
{ "type": "Feature", "properties": { "station_id": 16, "station_ft": 7672.0, "width_ft": 1896.7, "flag": "ok", "lon": -91.161762, "lat": 33.106075, "survey_id": "LM_09_LPM_20250607_CS_5176_5142", "date": "2025-06-07 00:00:00+00:00", "method": "lines" }, "geometry": { "type": "LineString", "coordinates": [ [ -91.149656216305644, 33.096057107908535 ], [ -91.149781043732588, 33.096142119526611 ], [ -91.149895730598928, 33.096239235653535 ], [ -91.150009198145256, 33.096338612935327 ], [ -91.150114660614904, 33.096444473280457 ], [ -91.150217250814109, 33.096553979777191 ], [ -91.150319773193758, 33.096656011778805 ], [ -91.150440799311397, 33.096757125321062 ], [ -91.150559847252637, 33.096848990650621 ], [ -91.15067583935803, 33.096945849516132 ], [ -91.150797228667287, 33.097033108853502 ], [ -91.150918927287506, 33.097121932242466 ], [ -91.151036961789345, 33.09721715616088 ], [ -91.151157869884088, 33.097315879428962 ], [ -91.151290730425913, 33.097400643825985 ], [ -91.151407785793396, 33.097488728067809 ], [ -91.15151818298223, 33.097594665697365 ], [ -91.151628174114904, 33.097699065837375 ], [ -91.151744501835594, 33.097796635594584 ], [ -91.151863883518985, 33.097889074516551 ], [ -91.151972307899342, 33.097986393892924 ], [ -91.152078756110498, 33.098092383991379 ], [ -91.152183335716558, 33.098197616243809 ], [ -91.15229600118775, 33.098305021502867 ], [ -91.152408146941795, 33.098395171198447 ], [ -91.152537496364332, 33.09848834012783 ], [ -91.152668052387483, 33.098574245246837 ], [ -91.152799949701475, 33.098656899001142 ], [ -91.152919810179299, 33.098751394949183 ], [ -91.153022770082202, 33.098854245890827 ], [ -91.153137294541921, 33.098954218292278 ], [ -91.153259660479932, 33.099047569434155 ], [ -91.153368835131218, 33.099148070921643 ], [ -91.153470358250203, 33.099254367195648 ], [ -91.153582496254273, 33.099357377273051 ], [ -91.153703768710784, 33.099445458586082 ], [ -91.153828242146886, 33.099540665343838 ], [ -91.153942321434286, 33.099634730363412 ], [ -91.154048099108053, 33.099738413950746 ], [ -91.154160666382026, 33.09983837031232 ], [ -91.15427794768533, 33.099932468928998 ], [ -91.154398045324854, 33.100031029277673 ], [ -91.154500043948076, 33.100139024800036 ], [ -91.154619800990972, 33.100229012290136 ], [ -91.15474782479501, 33.100315948934025 ], [ -91.154872761766853, 33.10041167272469 ], [ -91.154985944639989, 33.100507364768319 ], [ -91.155094771625173, 33.100608664054718 ], [ -91.155212128332565, 33.100696604664215 ], [ -91.155342847104393, 33.100792455751026 ], [ -91.155443047697503, 33.10089650489973 ], [ -91.155558661695977, 33.101000617293046 ], [ -91.15567612216617, 33.101096142513896 ], [ -91.15580469030958, 33.101181810307232 ], [ -91.155949014939978, 33.101248245955404 ], [ -91.15607504196737, 33.101337998567701 ], [ -91.156171409807996, 33.101451004346885 ], [ -91.156265491342111, 33.10156408014435 ], [ -91.156379771128627, 33.101664957252034 ], [ -91.156506132822585, 33.101755448375577 ], [ -91.156637873579797, 33.101837878977925 ], [ -91.156763587709833, 33.101921943404143 ], [ -91.15688516668844, 33.102014142834733 ], [ -91.157000026086038, 33.102114081395527 ], [ -91.157105896016631, 33.102216497537668 ], [ -91.1572167305481, 33.102318907819509 ], [ -91.157324440094655, 33.102422438694724 ], [ -91.157441524864197, 33.102519311773591 ], [ -91.157566499657676, 33.102611323058468 ], [ -91.157686055005854, 33.102703452110141 ], [ -91.157795662964404, 33.102803781704139 ], [ -91.157911031173185, 33.102905557237115 ], [ -91.158024957258746, 33.103003274771602 ], [ -91.158132402159197, 33.103102711290887 ], [ -91.158245133008791, 33.103201673616155 ], [ -91.158366294589399, 33.10329780378985 ], [ -91.158489061054553, 33.103387492512816 ], [ -91.158623347283637, 33.1034727903468 ], [ -91.158707386458445, 33.103590355202485 ], [ -91.158826375195247, 33.103687955498124 ], [ -91.158959008800451, 33.103771037684126 ], [ -91.159073573609049, 33.103870481199408 ], [ -91.159186989833358, 33.103965645681917 ], [ -91.15932413220267, 33.104045509291815 ], [ -91.159450014862813, 33.104136440527355 ], [ -91.159534127806651, 33.104254718430347 ], [ -91.159641822659623, 33.104363001822392 ], [ -91.159763136821397, 33.104450720617052 ], [ -91.159885312320711, 33.104543104222479 ], [ -91.159996948174083, 33.104643364259246 ], [ -91.160129507368282, 33.104728753929535 ], [ -91.160259018749571, 33.104816416947195 ], [ -91.160365539916313, 33.10491783676153 ], [ -91.160477599764349, 33.105021390941488 ], [ -91.160590215500406, 33.105118042659932 ], [ -91.160696639680154, 33.105222980232789 ], [ -91.160807766677678, 33.105324424080152 ], [ -91.16095253457776, 33.105395193287755 ], [ -91.161065374180211, 33.105498246725659 ], [ -91.161174717984963, 33.10559395844858 ], [ -91.161287562743766, 33.105697506659176 ], [ -91.161401385921721, 33.105800828255724 ], [ -91.161524697653945, 33.105888668161747 ], [ -91.161634762261201, 33.105984594683534 ], [ -91.161761522948069, 33.106074582644098 ], [ -91.162235050393392, 33.106471200601234 ], [ -91.162341935147097, 33.106569125884846 ], [ -91.162460557252345, 33.106665158832641 ], [ -91.162579126057892, 33.106758911699345 ], [ -91.16268576734862, 33.106855134143963 ] ] } }
]
}
