{
"type": "FeatureCollection",
"name": "LM_01_GCB_20250723_CS_MB_3308_3303_transects",
"crs": { "type": "name", "properties": { "name": "urn:ogc:def:crs:OGC:1.3:CRS84" } },
"features": [
{ "type": "Feature", "properties": { "station_id": 0, "station_ft": 380.8, "width_ft": 721.8, "flag": "ok", "lon": -91.645948, "lat": 31.267922, "survey_id": "LM_01_GCB_20250723_CS_MB_3308_3303", "date": "2025-07-23 00:00:00+00:00", "method": "blob" }, "geometry": { "type": "LineString", "coordinates": [ [ -91.647888764531061, 31.267231187976233 ], [ -91.645754091046683, 31.267990546040252 ] ] } },
{ "type": "Feature", "properties": { "station_id": 1, "station_ft": 973.7, "width_ft": 984.3, "flag": "ok", "lon": -91.644996, "lat": 31.267362, "survey_id": "LM_01_GCB_20250723_CS_MB_3308_3303", "date": "2025-07-23 00:00:00+00:00", "method": "blob" }, "geometry": { "type": "LineString", "coordinates": [ [ -91.643382205103038, 31.265941044087121 ], [ -91.645582518170386, 31.267878043010381 ] ] } },
{ "type": "Feature", "properties": { "station_id": 2, "station_ft": 1398.0, "width_ft": 1115.5, "flag": "ok", "lon": -91.644024, "lat": 31.268176, "survey_id": "LM_01_GCB_20250723_CS_MB_3308_3303", "date": "2025-07-23 00:00:00+00:00", "method": "blob" }, "geometry": { "type": "LineString", "coordinates": [ [ -91.642043451600401, 31.266432880322565 ], [ -91.644537127009244, 31.268628168378733 ] ] } },
{ "type": "Feature", "properties": { "station_id": 3, "station_ft": 1777.8, "width_ft": 951.4, "flag": "ok", "lon": -91.643055, "lat": 31.268785, "survey_id": "LM_01_GCB_20250723_CS_MB_3308_3303", "date": "2025-07-23 00:00:00+00:00", "method": "blob" }, "geometry": { "type": "LineString", "coordinates": [ [ -91.64213842884395, 31.267161151764952 ], [ -91.643466891851361, 31.269515260601928 ] ] } }
]
}
