{
"type": "FeatureCollection",
"name": "LM_02_GCG_20210802_CS_3468_3454_transects",
"crs": { "type": "name", "properties": { "name": "urn:ogc:def:crs:OGC:1.3:CRS84" } },
"features": [
{ "type": "Feature", "properties": { "station_id": 0, "station_ft": -3809.1, "width_ft": 1473.9, "flag": "ok", "lon": -91.472859, "lat": 31.362582, "survey_id": "LM_02_GCG_20210802_CS_3468_3454", "date": "2021-08-02 00:00:00+00:00", "method": "lines" }, "geometry": { "type": "LineString", "coordinates": [ [ -91.471978879812966, 31.361483250015326 ], [ -91.472050169139166, 31.361569207917043 ], [ -91.472143031662853, 31.361669626101659 ], [ -91.472251489026874, 31.361772104526612 ], [ -91.472357031986348, 31.361877358545023 ], [ -91.47242533537873, 31.362002569728759 ], [ -91.47252586440456, 31.362111661400586 ], [ -91.472594863417868, 31.362236041993693 ], [ -91.472683486746703, 31.362351396357582 ], [ -91.472759848775681, 31.362472742486631 ], [ -91.472858617025864, 31.362581821558411 ], [ -91.472955365367412, 31.362690808465185 ], [ -91.473048940594751, 31.362802298226814 ], [ -91.473130725784145, 31.362921644276526 ], [ -91.47323396961697, 31.363027275091277 ], [ -91.473315619724815, 31.363146017055914 ], [ -91.47340487326619, 31.363260320909244 ], [ -91.473468735219299, 31.363389007085956 ], [ -91.473561636837161, 31.36350030942836 ], [ -91.473657108201138, 31.363612111940668 ], [ -91.473744413183695, 31.363726872070973 ], [ -91.473855043963979, 31.363828560425642 ], [ -91.473940920196895, 31.363944296315523 ], [ -91.474031282283491, 31.364057490455902 ], [ -91.474113183767003, 31.364175652431467 ], [ -91.474231177246935, 31.364274140953132 ], [ -91.474321943558138, 31.364386286908751 ], [ -91.474402638682534, 31.36450528462807 ], [ -91.474484205570846, 31.364624823776605 ], [ -91.474550324927819, 31.364751894758189 ], [ -91.474651351320091, 31.364859248616138 ], [ -91.474739693717495, 31.364974768980435 ], [ -91.474835241690585, 31.365084754395355 ], [ -91.474940964998993, 31.365188465033061 ], [ -91.475011707355804, 31.365313487939389 ], [ -91.475093774593333, 31.365431950785197 ], [ -91.475197442896487, 31.365537850295336 ], [ -91.475295488768623, 31.365647703978453 ], [ -91.475375410668107, 31.365766102755348 ], [ -91.475483187744061, 31.365869959671965 ], [ -91.475563123309229, 31.365989539652933 ], [ -91.475661600559661, 31.366097877655257 ], [ -91.475734951966814, 31.366221310332669 ], [ -91.475825355330628, 31.366334859878233 ], [ -91.47590478386455, 31.366454857199027 ], [ -91.475998310246666, 31.366567004339817 ], [ -91.47610363301726, 31.366671678915374 ], [ -91.47619423990362, 31.366786078636089 ], [ -91.476287369334585, 31.366897156760785 ], [ -91.476372609317224, 31.36701281357842 ], [ -91.476446961883326, 31.367136759970922 ], [ -91.476554754662985, 31.367238993315638 ], [ -91.476644690033325, 31.367353398676823 ], [ -91.476732383184952, 31.36746785101349 ], [ -91.476813506225852, 31.367587337485887 ], [ -91.476908805207273, 31.367697516456069 ], [ -91.476998786592546, 31.367810354585696 ], [ -91.477087259857242, 31.367925706986444 ], [ -91.477186483967927, 31.368034559253019 ], [ -91.477266001732659, 31.368153674629077 ], [ -91.477346551791456, 31.368273303829277 ], [ -91.477452354565983, 31.368377752880502 ], [ -91.477540089582789, 31.368492809400525 ], [ -91.47762216683293, 31.368611600477191 ], [ -91.477701453800478, 31.368730058347804 ], [ -91.477799385728986, 31.368840570254005 ], [ -91.477884759583702, 31.368956389825851 ], [ -91.477979112356579, 31.369070232569804 ], [ -91.478072346465453, 31.369178916595562 ], [ -91.47815871682019, 31.369294947132389 ], [ -91.478243430898061, 31.369411761686813 ], [ -91.478327696471339, 31.3695284981135 ], [ -91.47841715086426, 31.369642576334986 ], [ -91.478521447506822, 31.369749320524733 ], [ -91.478612613942047, 31.369861870874519 ], [ -91.478694339680516, 31.369980499298059 ], [ -91.478800262828614, 31.370083929674255 ], [ -91.478885998817148, 31.370200377499874 ], [ -91.478962670066579, 31.370322183982307 ], [ -91.479050786054515, 31.370436713793048 ] ] } },
{ "type": "Feature", "properties": { "station_id": 1, "station_ft": -2658.7, "width_ft": 1345.4, "flag": "ok", "lon": -91.470126, "lat": 31.365079, "survey_id": "LM_02_GCG_20210802_CS_3468_3454", "date": "2021-08-02 00:00:00+00:00", "method": "lines" }, "geometry": { "type": "LineString", "coordinates": [ [ -91.469519910368561, 31.364440016459479 ], [ -91.469628084524331, 31.364542939678746 ], [ -91.469724740297352, 31.364652314937221 ], [ -91.469829086182742, 31.364756481304234 ], [ -91.469921992601954, 31.364868418476355 ], [ -91.470026018082947, 31.364972560455659 ], [ -91.470126422860972, 31.36507931830101 ], [ -91.470239752647799, 31.365179172202296 ], [ -91.470352313132537, 31.36527639303387 ], [ -91.470447320911489, 31.365387211789013 ], [ -91.470536111504572, 31.365503061223311 ], [ -91.470629366614119, 31.365614582599097 ], [ -91.470733785630074, 31.365719324734215 ], [ -91.470840932281703, 31.365821788809065 ], [ -91.470943255787489, 31.36592808884409 ], [ -91.471033913952766, 31.366041997648495 ], [ -91.471131774022794, 31.366150041651768 ], [ -91.471229550600697, 31.366259075670797 ], [ -91.47132635948762, 31.366367596010765 ], [ -91.471429677958255, 31.366473941818722 ], [ -91.471519046454105, 31.36658714651146 ], [ -91.471611357147268, 31.366699829898934 ], [ -91.471717908302665, 31.366803205763468 ], [ -91.47182376415644, 31.366907301989155 ], [ -91.471921571879065, 31.367016171026812 ], [ -91.472028179832904, 31.367118968915157 ], [ -91.472134938917975, 31.367220857181948 ], [ -91.472236591141382, 31.367327024992758 ], [ -91.472340893270285, 31.367432399889168 ], [ -91.472434059126954, 31.367544112750554 ], [ -91.472525786927577, 31.367656141340284 ], [ -91.472629109502222, 31.367762596111412 ], [ -91.472730381522652, 31.367869041051289 ], [ -91.472828085378723, 31.367977058003724 ], [ -91.472939716782705, 31.368076484353654 ], [ -91.473041282833222, 31.368183284463569 ], [ -91.473127875988197, 31.368299810760949 ], [ -91.473215560891759, 31.368416465278781 ], [ -91.473306748055577, 31.368528662213699 ], [ -91.473404109143274, 31.368637341011446 ], [ -91.473500218797938, 31.368748560606857 ], [ -91.473585356828409, 31.368866528971829 ], [ -91.473686758029601, 31.368972862829395 ], [ -91.473798953296665, 31.369070935974243 ], [ -91.473911076341423, 31.369171016324298 ], [ -91.474023969932944, 31.36926856086825 ], [ -91.474118674178655, 31.369380093692925 ], [ -91.474201054658664, 31.369497646931784 ], [ -91.474296910690683, 31.369608950214428 ], [ -91.474397676708335, 31.36971564626543 ], [ -91.474492119158541, 31.36982657686794 ], [ -91.474588639916433, 31.369937075845659 ], [ -91.474688000892854, 31.370044087183924 ], [ -91.474797267071153, 31.370146170842464 ], [ -91.474912942699291, 31.370243085544512 ], [ -91.475029603393551, 31.370339386212528 ], [ -91.475117843650537, 31.370453889734147 ], [ -91.475202172119623, 31.370570847738389 ], [ -91.475286583190552, 31.370689316483997 ], [ -91.475387892974396, 31.370795676778407 ], [ -91.475493101993152, 31.370901287982054 ], [ -91.475598211936457, 31.371003903056003 ], [ -91.475686367800478, 31.371119314189787 ], [ -91.47577997182168, 31.371232202894358 ], [ -91.475880885117348, 31.371337494881239 ], [ -91.475989900310623, 31.371439799753851 ], [ -91.476093372442278, 31.37154473868128 ], [ -91.476196581418407, 31.371649019694861 ], [ -91.476301555128956, 31.3717535329085 ], [ -91.476404498167113, 31.371859685694446 ], [ -91.476503281953399, 31.371966259661956 ], [ -91.476593824171545, 31.372080137317802 ], [ -91.476699443202449, 31.372185001573772 ], [ -91.476804046998041, 31.372287950194952 ], [ -91.476898159442698, 31.372400256294764 ], [ -91.47700058430199, 31.372505863049486 ], [ -91.477100181317539, 31.372613336557318 ], [ -91.477202003808159, 31.372719333611798 ], [ -91.477290068244471, 31.37283488236082 ], [ -91.477380461383589, 31.372946891169459 ], [ -91.477490679637071, 31.373050339254064 ] ] } },
{ "type": "Feature", "properties": { "station_id": 2, "station_ft": -1552.2, "width_ft": 1463.2, "flag": "ok", "lon": -91.468173, "lat": 31.368269, "survey_id": "LM_02_GCG_20210802_CS_3468_3454", "date": "2021-08-02 00:00:00+00:00", "method": "lines" }, "geometry": { "type": "LineString", "coordinates": [ [ -91.467215556336924, 31.367345806684192 ], [ -91.467344515011135, 31.367429251548437 ], [ -91.467454370270644, 31.367530622178784 ], [ -91.467549290672579, 31.36764221313177 ], [ -91.467661722277782, 31.36773935535625 ], [ -91.467796994131291, 31.367820214160258 ], [ -91.46789111736723, 31.367932059910682 ], [ -91.468005249696517, 31.368029323860348 ], [ -91.468077244172136, 31.368157913693938 ], [ -91.468173281732547, 31.368269027100133 ], [ -91.468276136632525, 31.368374170130583 ], [ -91.468381369802273, 31.36847734037368 ], [ -91.4684971538573, 31.368573407789402 ], [ -91.468618428167304, 31.368665028064886 ], [ -91.468737065186545, 31.368758457275369 ], [ -91.468832780955168, 31.368869353849952 ], [ -91.46892896474732, 31.36897911886274 ], [ -91.469042179593544, 31.369077159259714 ], [ -91.469132844547204, 31.36919164648225 ], [ -91.469246184122809, 31.369289356400746 ], [ -91.469359683683905, 31.369387064797074 ], [ -91.469468003471633, 31.369488254204263 ], [ -91.469566644083841, 31.369597062605038 ], [ -91.469677240789963, 31.369695785775288 ], [ -91.469778947758925, 31.369803879608622 ], [ -91.469881187011225, 31.369908146501974 ], [ -91.470001535231972, 31.36999985568136 ], [ -91.470094215324067, 31.370113747120193 ], [ -91.470208751882936, 31.370209603007616 ], [ -91.47032184391368, 31.370307946332012 ], [ -91.470412452197863, 31.370422735217012 ], [ -91.470511054681154, 31.370530910068133 ], [ -91.470627941596732, 31.37062765290808 ], [ -91.470734648547577, 31.370727701990365 ], [ -91.470830071352012, 31.37084044029563 ], [ -91.470935886370995, 31.370943631117996 ], [ -91.471046612390822, 31.371042104781516 ], [ -91.471157706903682, 31.371142004543444 ], [ -91.471262019936844, 31.371245317532651 ], [ -91.471370380090477, 31.371346890884649 ], [ -91.471476134525631, 31.371450190899925 ], [ -91.471579927624418, 31.371555569909482 ], [ -91.471688388814059, 31.371657444208044 ], [ -91.471793550041696, 31.371759347701506 ], [ -91.471906935668173, 31.371857686945791 ], [ -91.472014434222856, 31.371959432414275 ], [ -91.472137013760118, 31.372049772282836 ], [ -91.472220854435292, 31.372168908294086 ], [ -91.472322819802145, 31.372276694661387 ], [ -91.472429291881866, 31.372378228820544 ], [ -91.472546193081257, 31.372473100112611 ], [ -91.472649855309953, 31.372578067211627 ], [ -91.472757203025921, 31.372680417616053 ], [ -91.472852102085227, 31.372791894545259 ], [ -91.472959482460553, 31.372894299494064 ], [ -91.473078370960565, 31.372986513739725 ], [ -91.473179972504127, 31.373093176178937 ], [ -91.473285982028173, 31.373196032234063 ], [ -91.473395803240081, 31.373296189282335 ], [ -91.473511284108909, 31.373392693840604 ], [ -91.473610581599061, 31.373499458471553 ], [ -91.473713490065563, 31.373605530742754 ], [ -91.473833881684939, 31.373697345788692 ], [ -91.473926236178499, 31.373810219853404 ], [ -91.474016523403833, 31.373926932561574 ], [ -91.474125088907286, 31.374026467003915 ], [ -91.474229185498373, 31.374132556225039 ], [ -91.474331827332847, 31.374237585973354 ], [ -91.474439619215289, 31.374339326681795 ], [ -91.4745523998197, 31.374437475842267 ], [ -91.474669867400181, 31.374531158605965 ], [ -91.4747701907948, 31.374637885194687 ], [ -91.47487161471966, 31.374745372102339 ], [ -91.474976925033857, 31.374848425901803 ], [ -91.475108560874773, 31.374932002913095 ], [ -91.475217999415435, 31.375031913706621 ], [ -91.475303515209447, 31.375151334761846 ], [ -91.475412636957373, 31.375251522368661 ], [ -91.475509738190709, 31.375361824096675 ], [ -91.475636652250813, 31.375449565948887 ] ] } },
{ "type": "Feature", "properties": { "station_id": 3, "station_ft": -331.0, "width_ft": 1459.2, "flag": "ok", "lon": -91.466166, "lat": 31.371284, "survey_id": "LM_02_GCG_20210802_CS_3468_3454", "date": "2021-08-02 00:00:00+00:00", "method": "lines" }, "geometry": { "type": "LineString", "coordinates": [ [ -91.465080525425222, 31.370469179790121 ], [ -91.46519875232994, 31.370560582162184 ], [ -91.465305950484179, 31.370664644853868 ], [ -91.465439555085013, 31.370742578880485 ], [ -91.465589787996421, 31.370804505626804 ], [ -91.465698276490826, 31.370906631987229 ], [ -91.465800911754172, 31.371014912909086 ], [ -91.465938990003608, 31.371089096590406 ], [ -91.466051056301026, 31.371184923925583 ], [ -91.466165688615774, 31.371283641544487 ], [ -91.466284462345826, 31.371375066001306 ], [ -91.466418576371666, 31.371452555259932 ], [ -91.466538647834653, 31.371542593552626 ], [ -91.466645635535656, 31.371647646284075 ], [ -91.466749023897961, 31.371754408212542 ], [ -91.466861758272216, 31.371852427667971 ], [ -91.466989446281531, 31.37193635024348 ], [ -91.4671179116921, 31.372018204133422 ], [ -91.46723587855827, 31.372111696485252 ], [ -91.467347163169123, 31.372211542880162 ], [ -91.467467721086649, 31.37230193310517 ], [ -91.467593316446695, 31.372387523988472 ], [ -91.46771294934382, 31.372478224281551 ], [ -91.467824410986111, 31.372576804251121 ], [ -91.467944011614748, 31.372670116428154 ], [ -91.468063169512007, 31.372761205681918 ], [ -91.468183283717622, 31.37285181918833 ], [ -91.468307012430699, 31.372939321597908 ], [ -91.46843414110154, 31.373024402928067 ], [ -91.468555858173261, 31.373112500090595 ], [ -91.468666066395983, 31.373213179125937 ], [ -91.468774174658762, 31.373315169036072 ], [ -91.468887673427574, 31.373412437618907 ], [ -91.469007499887496, 31.373503025811363 ], [ -91.469122322511637, 31.373601079709303 ], [ -91.469225256112324, 31.373706936278698 ], [ -91.469344909492406, 31.373798981296268 ], [ -91.469467542651955, 31.373885832973667 ], [ -91.469587928325907, 31.373977460014071 ], [ -91.469710752847448, 31.374066810646301 ], [ -91.469832771417202, 31.374155729086258 ], [ -91.469959758976813, 31.374239490653828 ], [ -91.470075065549096, 31.37433506463266 ], [ -91.470191069681022, 31.374429973952772 ], [ -91.470309588554002, 31.374520791621766 ], [ -91.470431084679944, 31.374611445695031 ], [ -91.470542282229573, 31.374711565026502 ], [ -91.470655441403878, 31.374806965401373 ], [ -91.47077412944131, 31.374901190198269 ], [ -91.470888600190634, 31.374998971391957 ], [ -91.471007117743142, 31.375089651314589 ], [ -91.471135690836945, 31.375171857208546 ], [ -91.471267305974123, 31.375253953907254 ], [ -91.471386921111815, 31.375345200924286 ], [ -91.47150691448482, 31.375435977298569 ], [ -91.471630192613219, 31.375522711071405 ], [ -91.47174479956449, 31.37561840062066 ], [ -91.471856724218426, 31.375717494992212 ], [ -91.471975748459272, 31.375810203204665 ], [ -91.472090337511148, 31.375906964914748 ], [ -91.472199069830367, 31.376006966643324 ], [ -91.472322627299491, 31.376095566821427 ], [ -91.472443056704506, 31.376187739917338 ], [ -91.472559305023637, 31.376281242418312 ], [ -91.472677222499314, 31.376374977093128 ], [ -91.472792127494515, 31.376471322282423 ], [ -91.472908753181528, 31.376564243901377 ], [ -91.473036804059902, 31.376647992851904 ], [ -91.473178454561307, 31.376719744953636 ], [ -91.473287623173206, 31.376818532427698 ], [ -91.473401234462088, 31.376916373026987 ], [ -91.473522999716195, 31.377004959975267 ], [ -91.473641243286139, 31.377098993854563 ], [ -91.473752539492011, 31.377198834320314 ], [ -91.473866616123161, 31.377295350911506 ], [ -91.473982381186957, 31.377391083082586 ], [ -91.474102938747862, 31.377480367423725 ], [ -91.474223339757756, 31.377569900152306 ], [ -91.474348784682121, 31.377657958420343 ], [ -91.474477053215836, 31.377740961700155 ], [ -91.474592027150393, 31.377837414618227 ], [ -91.474703713595929, 31.377934858983661 ], [ -91.474822423229625, 31.378027513125303 ], [ -91.474935133945067, 31.378124865190106 ], [ -91.475041280396397, 31.378230495243585 ], [ -91.475159049930113, 31.378322195131879 ], [ -91.475281631255328, 31.378411652396689 ], [ -91.475404102156759, 31.37849995703003 ], [ -91.47553876051478, 31.378578668016036 ], [ -91.4756700722386, 31.378658784020278 ], [ -91.47577955366036, 31.378759216005346 ], [ -91.475919276002557, 31.378832685787302 ] ] } },
{ "type": "Feature", "properties": { "station_id": 4, "station_ft": 749.0, "width_ft": 1463.0, "flag": "ok", "lon": -91.465079, "lat": 31.374786, "survey_id": "LM_02_GCG_20210802_CS_3468_3454", "date": "2021-08-02 00:00:00+00:00", "method": "lines" }, "geometry": { "type": "LineString", "coordinates": [ [ -91.463253394487893, 31.373703527467583 ], [ -91.463361727898402, 31.373776546448251 ], [ -91.463504751143873, 31.373840737848656 ], [ -91.463634908736566, 31.373919529263105 ], [ -91.463766198537968, 31.373999189888096 ], [ -91.463896873091471, 31.374078278599061 ], [ -91.464015503355412, 31.37417366468593 ], [ -91.464157035316433, 31.374239023785918 ], [ -91.4642999219393, 31.374302500295382 ], [ -91.464412190883493, 31.374404347200503 ], [ -91.464538928886341, 31.374489050743477 ], [ -91.464662635210757, 31.374577409134933 ], [ -91.464796878754171, 31.374652094938877 ], [ -91.464932660198798, 31.374726767028807 ], [ -91.465078639132713, 31.374786174971398 ], [ -91.465208221395969, 31.37486752572276 ], [ -91.465332302653024, 31.374954973754903 ], [ -91.465461161105779, 31.375037375901115 ], [ -91.46559420329865, 31.375113280862053 ], [ -91.465734239182908, 31.375182003643353 ], [ -91.465864463914556, 31.375260738017332 ], [ -91.465995634140825, 31.375340809498553 ], [ -91.466126600373116, 31.375419893288779 ], [ -91.466256489145081, 31.375499921700964 ], [ -91.466398234420055, 31.37556673290036 ], [ -91.466525147946911, 31.375649755380863 ], [ -91.466653773872537, 31.375731361089006 ], [ -91.466768117982667, 31.37583225316725 ], [ -91.466903494915002, 31.375904920016172 ], [ -91.467043270894862, 31.375973094384282 ], [ -91.467183894598847, 31.376039803675507 ], [ -91.467311252419847, 31.376125049048781 ], [ -91.46744349629482, 31.376201014105675 ], [ -91.467575144528212, 31.376280667536872 ], [ -91.467697091222533, 31.376371485240533 ], [ -91.467833406516505, 31.376442163169418 ], [ -91.467965200701997, 31.376520523414904 ], [ -91.468099500593198, 31.37659682762737 ], [ -91.468238807017116, 31.376665747052048 ], [ -91.46835617121549, 31.376761772386597 ], [ -91.46848751249658, 31.376839723028979 ], [ -91.468617913752183, 31.376919469364722 ], [ -91.468746526533863, 31.377002310389088 ], [ -91.468880639521842, 31.37707625070399 ], [ -91.469015587210265, 31.377150265553222 ], [ -91.469155939922288, 31.377218130319825 ], [ -91.469292608456612, 31.377291415345908 ], [ -91.469428173064117, 31.377363445577284 ], [ -91.469558784763862, 31.377444480543076 ], [ -91.469686898209105, 31.377525620480377 ], [ -91.46980654354617, 31.377619342487574 ], [ -91.469927327337302, 31.377711735751713 ], [ -91.470076034105233, 31.377768144721859 ], [ -91.470213505202949, 31.377838727732382 ], [ -91.470350831303961, 31.377910521287195 ], [ -91.470481373742984, 31.377991088727448 ], [ -91.47061376989366, 31.378068533545296 ], [ -91.47074138936685, 31.378151106241866 ], [ -91.470885691783977, 31.378214150505261 ], [ -91.471011892446867, 31.378298632145523 ], [ -91.471138648122775, 31.378383878029226 ], [ -91.471270999853473, 31.378460251117939 ], [ -91.471402099661589, 31.378539053093515 ], [ -91.471533373769731, 31.378618953666962 ], [ -91.47166433175893, 31.378699296119123 ], [ -91.471799772969462, 31.378771324864694 ], [ -91.471934391377076, 31.378846933983105 ], [ -91.472069745252341, 31.378919705451089 ], [ -91.472199248374579, 31.379001544738919 ], [ -91.47232338997226, 31.379087692852934 ], [ -91.472453556962648, 31.379168756682482 ], [ -91.472584747140829, 31.379246870283577 ], [ -91.472716588257256, 31.379325856385382 ], [ -91.472863322473543, 31.379385798671859 ], [ -91.472998403427241, 31.379459698894966 ], [ -91.47313922975674, 31.379526482647801 ], [ -91.47325638254766, 31.379622835289599 ], [ -91.473373257807168, 31.379720124624999 ], [ -91.473508064227531, 31.379792459282761 ], [ -91.473641420731212, 31.37986945222525 ], [ -91.473767411779832, 31.379954730178802 ], [ -91.473896438413405, 31.38003665490513 ], [ -91.474028864782824, 31.38011343564791 ], [ -91.474177497260072, 31.380171187801356 ], [ -91.474313653999516, 31.380243811701799 ], [ -91.474441483579554, 31.380327341021061 ], [ -91.474570881709198, 31.380408079388996 ], [ -91.474699679772527, 31.380489510188355 ], [ -91.474839776630844, 31.380556683612564 ], [ -91.474976367952877, 31.380630732385352 ], [ -91.475095869969493, 31.380722361816503 ], [ -91.47523086615243, 31.380796947597005 ], [ -91.475365447903556, 31.380871756076608 ], [ -91.475495917606423, 31.380950834416407 ], [ -91.475628824182095, 31.381027472095187 ], [ -91.47576581879207, 31.381100252888778 ], [ -91.47589459354073, 31.381182286910025 ], [ -91.476022548676056, 31.38126537336888 ], [ -91.476161295541786, 31.381334701986752 ], [ -91.476288523252876, 31.381418535991781 ] ] } },
{ "type": "Feature", "properties": { "station_id": 5, "station_ft": 1638.1, "width_ft": 2172.7, "flag": "ok", "lon": -91.462701, "lat": 31.377317, "survey_id": "LM_02_GCG_20210802_CS_3468_3454", "date": "2021-08-02 00:00:00+00:00", "method": "lines" }, "geometry": { "type": "LineString", "coordinates": [ [ -91.461830892840979, 31.376966122025443 ], [ -91.461980532919227, 31.377015357870548 ], [ -91.462130004135844, 31.377066546677877 ], [ -91.462275972311232, 31.377124802558697 ], [ -91.462416890825608, 31.377189481675686 ], [ -91.462568597326609, 31.377234602322758 ], [ -91.46270133566037, 31.377317193097859 ], [ -91.462840480895053, 31.377386311943226 ], [ -91.462992118530124, 31.37743099347442 ], [ -91.463143318995819, 31.377476640071599 ], [ -91.463281908860139, 31.37754744080399 ], [ -91.4634231574654, 31.377612802207675 ], [ -91.463571809426568, 31.377664958820848 ], [ -91.463719456743519, 31.377718882765915 ], [ -91.463858623701896, 31.37778698387989 ], [ -91.463999991749063, 31.377854268177618 ], [ -91.464149149998491, 31.377903175609273 ], [ -91.46429471225305, 31.377959454016779 ], [ -91.464443700862759, 31.378010232178056 ], [ -91.464590723658731, 31.378068008899753 ], [ -91.464733857101834, 31.378130164082805 ], [ -91.464877567011996, 31.378189619221171 ], [ -91.465014238486972, 31.378263211830067 ], [ -91.46514734648251, 31.378341617466766 ], [ -91.46529730634667, 31.378390462351302 ], [ -91.465448885025936, 31.378440693374696 ], [ -91.465590344805037, 31.378504758993575 ], [ -91.465734309696117, 31.378563908772961 ], [ -91.46588292551418, 31.378615540792048 ], [ -91.466026451821179, 31.378675518421637 ], [ -91.466168494921362, 31.378740127477059 ], [ -91.466314352895807, 31.378796841047972 ], [ -91.466463051371022, 31.378849873161531 ], [ -91.466612878920216, 31.378900971428568 ], [ -91.46675996725476, 31.378953302236255 ], [ -91.466905108221724, 31.379011615969858 ], [ -91.467049419627543, 31.379072877874499 ], [ -91.467192343982205, 31.37913338258031 ], [ -91.467330695952612, 31.379205280320928 ], [ -91.467469153243229, 31.379275252382023 ], [ -91.467617558755435, 31.379327846510662 ], [ -91.467770079102536, 31.379370837006554 ], [ -91.467915895661719, 31.379429280681038 ], [ -91.468057244310288, 31.379491887078867 ], [ -91.468205875734668, 31.37954450557179 ], [ -91.468357970804419, 31.379592117606578 ], [ -91.468510110965752, 31.379638134549779 ], [ -91.468648095008078, 31.379708577570828 ], [ -91.468770805254437, 31.379806479683584 ], [ -91.468920894124039, 31.379855043140058 ], [ -91.469073607728504, 31.379900697182929 ], [ -91.469214467257842, 31.379967787108207 ], [ -91.469357616585569, 31.380028067300959 ], [ -91.469503740804882, 31.380085269941876 ], [ -91.469652590622246, 31.380134667815625 ], [ -91.469793153541147, 31.380203602242979 ], [ -91.469936074004991, 31.380263498705666 ], [ -91.470082796591996, 31.380319788087522 ], [ -91.470229798467457, 31.380375249609887 ], [ -91.470373359186169, 31.380437724662617 ], [ -91.470510210610158, 31.380507047433625 ], [ -91.470661953154234, 31.380557024519643 ], [ -91.470801604910449, 31.38062211671042 ], [ -91.470948570712466, 31.38067983239069 ], [ -91.471095090230762, 31.380735132138216 ], [ -91.471232677791008, 31.380804311406479 ], [ -91.471374089270483, 31.38087177910726 ], [ -91.471514541654045, 31.380936671300013 ], [ -91.471662546271403, 31.380990143541585 ], [ -91.471808647676852, 31.381047920001325 ], [ -91.471958465946216, 31.381095025719215 ], [ -91.472111559011267, 31.381139957528742 ], [ -91.472256673246264, 31.381198210306351 ], [ -91.472401742502399, 31.381257947795667 ], [ -91.472546443887438, 31.381316368948333 ], [ -91.472684702642184, 31.38138795857633 ], [ -91.472822701879636, 31.3814591941183 ], [ -91.472968267244724, 31.381514858204625 ], [ -91.473113138359111, 31.381574128561745 ], [ -91.47325620880072, 31.381635394365151 ], [ -91.473392765619082, 31.381709253016933 ], [ -91.473535170362709, 31.381771074561406 ], [ -91.473684510846581, 31.381820931376676 ], [ -91.473836126828743, 31.381868128903385 ], [ -91.47398204487375, 31.381926344581252 ], [ -91.474120515247307, 31.381996667220843 ], [ -91.474266528283493, 31.382052187835434 ], [ -91.474414428156734, 31.382107334349918 ], [ -91.474552777847578, 31.382178234782771 ], [ -91.474689616521744, 31.382251347271822 ], [ -91.4748388895636, 31.38230081821937 ], [ -91.474988841801476, 31.382348111239324 ], [ -91.475136492378738, 31.38240378130725 ], [ -91.475283324596973, 31.382457919898794 ], [ -91.475433351735148, 31.382508757877861 ], [ -91.475576876476026, 31.382570319118482 ], [ -91.475723828717719, 31.3826238230142 ], [ -91.475864328842746, 31.382692201053544 ], [ -91.476001223713553, 31.382764514356008 ], [ -91.476137880625004, 31.382838342065376 ], [ -91.476289300708899, 31.382885016202774 ], [ -91.476436066496163, 31.38294162696868 ], [ -91.476569812376511, 31.38298667171782 ] ] } },
{ "type": "Feature", "properties": { "station_id": 6, "station_ft": 2592.0, "width_ft": 2440.7, "flag": "ok", "lon": -91.462217, "lat": 31.380738, "survey_id": "LM_02_GCG_20210802_CS_3468_3454", "date": "2021-08-02 00:00:00+00:00", "method": "lines" }, "geometry": { "type": "LineString", "coordinates": [ [ -91.460243286501679, 31.380162006143614 ], [ -91.460397433323976, 31.380204551931779 ], [ -91.460539493768593, 31.380276011393871 ], [ -91.460688858009448, 31.380325966263708 ], [ -91.460844512942401, 31.380360607763166 ], [ -91.461003273033, 31.380384227035453 ], [ -91.461151748543557, 31.380440181216439 ], [ -91.461288674924504, 31.380521692164166 ], [ -91.461445804770619, 31.380551015136142 ], [ -91.46160468001986, 31.3805762271536 ], [ -91.461757547739168, 31.380616225729277 ], [ -91.461909903983781, 31.380661616408659 ], [ -91.462060285187547, 31.380708068657025 ], [ -91.462216722153954, 31.380738304057342 ], [ -91.462365663189829, 31.380790184365178 ], [ -91.46251527088198, 31.380838814591566 ], [ -91.46267302828673, 31.380869642958309 ], [ -91.462819751056131, 31.380926215769133 ], [ -91.46296704250544, 31.380982068214593 ], [ -91.463124345524662, 31.381012404894168 ], [ -91.463275828346056, 31.381054365489359 ], [ -91.463426130023038, 31.381104693061072 ], [ -91.463578557388047, 31.381145270516392 ], [ -91.463727935760417, 31.381196073036588 ], [ -91.463883179535571, 31.381230935386405 ], [ -91.464043828032032, 31.381254231178737 ], [ -91.464199320840862, 31.381288540804302 ], [ -91.464343365789077, 31.381348818704762 ], [ -91.464492497692177, 31.381400310623654 ], [ -91.464649968856349, 31.381431248182349 ], [ -91.464798167598431, 31.38148511177971 ], [ -91.464940766648752, 31.381550294410307 ], [ -91.465092493199606, 31.381596401094313 ], [ -91.465247949455872, 31.381630215528606 ], [ -91.465406769806918, 31.381656055483766 ], [ -91.465558353010096, 31.381700871394511 ], [ -91.465703868872751, 31.381760694639173 ], [ -91.465850493552381, 31.381819518569191 ], [ -91.465995671106754, 31.381880553873941 ], [ -91.466156112887703, 31.381899808432337 ], [ -91.466329371055181, 31.38188706207093 ], [ -91.466489694919488, 31.381909973440539 ], [ -91.466635999764833, 31.38196871721582 ], [ -91.466786104464461, 31.382015770542292 ], [ -91.466930794442547, 31.382078761634304 ], [ -91.467079011212618, 31.382134023903703 ], [ -91.467222648396074, 31.382197380206833 ], [ -91.467384468242543, 31.382216648987523 ], [ -91.46754065835718, 31.382247347172765 ], [ -91.467691698426279, 31.38229483216525 ], [ -91.46784733977114, 31.382327871576525 ], [ -91.468001894684491, 31.382363834357104 ], [ -91.46815305611959, 31.382410712569126 ], [ -91.468301911505762, 31.382462943776623 ], [ -91.468450449101027, 31.382515397678038 ], [ -91.468599625015699, 31.382567680710821 ], [ -91.468752350665298, 31.382605940504295 ], [ -91.468907772422838, 31.382641976573915 ], [ -91.469063771269745, 31.38267275754912 ], [ -91.469209981442305, 31.382731443260216 ], [ -91.469371496055317, 31.382754505485078 ], [ -91.469527128762849, 31.382786718600318 ], [ -91.469674493966423, 31.382842809678461 ], [ -91.469821614545737, 31.382897254131688 ], [ -91.469977417326561, 31.382930289496514 ], [ -91.470131355659774, 31.382968068807198 ], [ -91.47027050531652, 31.383044354568568 ], [ -91.470423946759084, 31.383086152156199 ], [ -91.470575654094276, 31.383130245768925 ], [ -91.470727560892044, 31.383174915529747 ], [ -91.470884099724657, 31.38320511137589 ], [ -91.471042243313747, 31.383232901931386 ], [ -91.471193171727663, 31.383278789223326 ], [ -91.471344663056655, 31.383323571958709 ], [ -91.471501045414996, 31.383356709433485 ], [ -91.471650613480861, 31.383403955648966 ], [ -91.471799720385306, 31.383455575345661 ], [ -91.471953884146217, 31.383493351340974 ], [ -91.472106419069078, 31.383536831516565 ], [ -91.472254201852053, 31.383590194929351 ], [ -91.472405091497137, 31.383635475963334 ], [ -91.472559289675772, 31.383673360042028 ], [ -91.472716267023628, 31.383705282224518 ], [ -91.472871486993228, 31.383740270858574 ], [ -91.473019293134698, 31.383792808858935 ], [ -91.473166393065441, 31.383850575695782 ], [ -91.473314362670493, 31.38390330309344 ], [ -91.473468748244429, 31.383943494088694 ], [ -91.47362274599827, 31.383980637316711 ], [ -91.473774352476141, 31.384024150793028 ], [ -91.47392669833954, 31.38406776844084 ], [ -91.474078784832642, 31.384113834085063 ], [ -91.474229307377513, 31.384157741757445 ], [ -91.474383824306187, 31.384195428679771 ], [ -91.474539162584165, 31.384229479879693 ], [ -91.474693729623937, 31.384265901556248 ], [ -91.474847356191603, 31.384304173035709 ], [ -91.47500270277348, 31.384338882861261 ], [ -91.475149990746658, 31.384393429642319 ], [ -91.475296366356289, 31.384454663626741 ], [ -91.475451550568721, 31.384489127234851 ], [ -91.475606544466331, 31.384523839460911 ], [ -91.475758912472585, 31.384566547424122 ], [ -91.475909413686196, 31.384616473270274 ], [ -91.476065831138513, 31.384646911815931 ], [ -91.47622508042727, 31.384673064495065 ], [ -91.476368982161134, 31.384736270931072 ], [ -91.476524585776062, 31.384770921585268 ], [ -91.476679767147075, 31.384802469773632 ], [ -91.476828136770223, 31.384856262713281 ] ] } },
{ "type": "Feature", "properties": { "station_id": 7, "station_ft": 3372.0, "width_ft": 2709.3, "flag": "ok", "lon": -91.462944, "lat": 31.384078, "survey_id": "LM_02_GCG_20210802_CS_3468_3454", "date": "2021-08-02 00:00:00+00:00", "method": "lines" }, "geometry": { "type": "LineString", "coordinates": [ [ -91.461838924177229, 31.383911565507393 ], [ -91.461997338930374, 31.383935323566554 ], [ -91.462155565360575, 31.383954053345686 ], [ -91.462311965637767, 31.383988851427905 ], [ -91.462469129512883, 31.384009788936741 ], [ -91.462630600840413, 31.384018455324433 ], [ -91.462788094250271, 31.384040214750996 ], [ -91.462944369654934, 31.38407790004759 ], [ -91.463102148649625, 31.384102074488407 ], [ -91.463261298395693, 31.384109551122307 ], [ -91.463421851635417, 31.384121770759716 ], [ -91.463580890852, 31.384146786672531 ], [ -91.463735645769702, 31.384175275384848 ], [ -91.463894796255332, 31.38419885955572 ], [ -91.464050521140891, 31.384230638380036 ], [ -91.464206228057222, 31.384266348430941 ], [ -91.464362110071164, 31.384303238198342 ], [ -91.464520227705236, 31.384323505495711 ], [ -91.464681410606204, 31.384332171832913 ], [ -91.464842141676968, 31.384337872992415 ], [ -91.465000493469972, 31.384353546199996 ], [ -91.465160111395434, 31.384375998226844 ], [ -91.465317347319271, 31.384402841551509 ], [ -91.465476777076987, 31.384417570312568 ], [ -91.465634985730475, 31.384434700518806 ], [ -91.465792199111718, 31.38445964682046 ], [ -91.465952963428037, 31.384476067737371 ], [ -91.466106948218155, 31.384507034202187 ], [ -91.466266594814485, 31.384534460214198 ], [ -91.466425783265876, 31.384550426386685 ], [ -91.466584457637737, 31.384568926653191 ], [ -91.466740104972985, 31.384594214807951 ], [ -91.46689751975039, 31.384625205913956 ], [ -91.467054995666118, 31.384647976629203 ], [ -91.467211196346042, 31.384679225193949 ], [ -91.467367203664367, 31.384715808041463 ], [ -91.467524115493617, 31.384747517101232 ], [ -91.467681731900868, 31.384765942386267 ], [ -91.467843704954433, 31.384770996568779 ], [ -91.468004837090746, 31.384783315344766 ], [ -91.468162885097229, 31.384797667875809 ], [ -91.468320196180017, 31.38483063684437 ], [ -91.468477631603022, 31.384852608905078 ], [ -91.468638502803088, 31.38485921223025 ], [ -91.468795646617536, 31.384880966423694 ], [ -91.468952758899803, 31.384910665284302 ], [ -91.469110083539135, 31.384934067010281 ], [ -91.469267227368647, 31.384966459091466 ], [ -91.469425320569414, 31.384989853619221 ], [ -91.469582438179501, 31.38501201922876 ], [ -91.469742617581147, 31.385027670352223 ], [ -91.469899801227726, 31.38503933450292 ], [ -91.470060260162413, 31.385062213048595 ], [ -91.470215523334105, 31.38510600043611 ], [ -91.470370042707501, 31.385143885171363 ], [ -91.470525902448784, 31.385170679250777 ], [ -91.470689192907244, 31.385175856126882 ], [ -91.470850179250178, 31.38518402129138 ], [ -91.471007164702485, 31.385203108231657 ], [ -91.471167146658914, 31.385215680331314 ], [ -91.471329150315213, 31.385225815471244 ], [ -91.47148470521941, 31.385261820084271 ], [ -91.471638973519788, 31.385300007632509 ], [ -91.471797570138435, 31.385322515422907 ], [ -91.471954255086871, 31.38534864025819 ], [ -91.472112434821128, 31.385376402048287 ], [ -91.47226882888819, 31.385407504698826 ], [ -91.472426461336696, 31.385429800213313 ], [ -91.472584107770061, 31.385455860717439 ], [ -91.472741267606196, 31.385481404069015 ], [ -91.472901544918571, 31.385491827622282 ], [ -91.473062199686112, 31.385504254281074 ], [ -91.473221269760089, 31.385515512473329 ], [ -91.473380021889923, 31.385534909968079 ], [ -91.473536412563121, 31.385565764880464 ], [ -91.473693991436619, 31.385591412456911 ], [ -91.473849255054475, 31.385624419851307 ], [ -91.474008391819623, 31.385649173857882 ], [ -91.474163932715371, 31.385673273335172 ], [ -91.474320279386973, 31.385710971065087 ], [ -91.474474753698189, 31.385747613843641 ], [ -91.474636274169626, 31.385757336928908 ], [ -91.474795378037996, 31.385774035642761 ], [ -91.474954340473062, 31.385789553967694 ], [ -91.475115755363149, 31.385801229033493 ], [ -91.47527645029723, 31.385806313128313 ], [ -91.47543507729219, 31.385825984247777 ], [ -91.475589537340085, 31.385863918179354 ], [ -91.475746081638903, 31.385894162949668 ], [ -91.475904252684288, 31.385923651694661 ], [ -91.476057907675767, 31.385961316257383 ], [ -91.476213397966163, 31.385997040587274 ], [ -91.476367226530257, 31.386043721023988 ], [ -91.476527381226418, 31.3860571091681 ], [ -91.476688635958013, 31.386058118159049 ], [ -91.476850757018227, 31.38606720087558 ], [ -91.477009601949391, 31.386083541994935 ], [ -91.477166390112359, 31.386109989578149 ], [ -91.477331415018142, 31.3861021672903 ] ] } }
]
}
