{
"type": "FeatureCollection",
"name": "LM_05_VGG_20240801_CS_4414_4374_transects",
"crs": { "type": "name", "properties": { "name": "urn:ogc:def:crs:OGC:1.3:CRS84" } },
"features": [
{ "type": "Feature", "properties": { "station_id": 0, "station_ft": -10036.2, "width_ft": 1720.2, "flag": "ok", "lon": -90.901483, "lat": 32.338141, "survey_id": "LM_05_VGG_20240801_CS_4414_4374", "date": "2024-08-01 00:00:00+00:00", "method": "lines" }, "geometry": { "type": "LineString", "coordinates": [ [ -90.90057775063805, 32.338930699723775 ], [ -90.900696467600213, 32.338830690339833 ], [ -90.900815448328615, 32.338736562989318 ], [ -90.900908343712103, 32.338623393277601 ], [ -90.9010172552846, 32.33851892051662 ], [ -90.901128636812899, 32.33842133620368 ], [ -90.901250623965595, 32.338331839173662 ], [ -90.901368452246544, 32.338234857789843 ], [ -90.901482934578283, 32.338141326313568 ], [ -90.901632675654014, 32.338073721331497 ], [ -90.901770164587916, 32.337998942561455 ], [ -90.901879510515656, 32.337896940733131 ], [ -90.901976211705957, 32.33778171952919 ], [ -90.902073779698682, 32.337670618266628 ], [ -90.902184833190745, 32.337572731497417 ], [ -90.902315521488333, 32.337487400195357 ], [ -90.902454181482312, 32.337408519433701 ], [ -90.902581919173642, 32.33732262401589 ], [ -90.902686278349023, 32.337220781964184 ], [ -90.902794992700166, 32.33711136039345 ], [ -90.902915755901233, 32.337028464838674 ], [ -90.903043477463186, 32.336940149502958 ], [ -90.903158496663409, 32.336845020607953 ], [ -90.903263639559739, 32.336739270654562 ], [ -90.903351440629336, 32.33661996647993 ], [ -90.903456707088324, 32.336513501582644 ], [ -90.903591519680106, 32.336430596002984 ], [ -90.903725083101008, 32.336355008610013 ], [ -90.90386946332417, 32.336280195504017 ], [ -90.903998225647328, 32.33619808788891 ], [ -90.904114430164725, 32.336101220408509 ], [ -90.904225659049629, 32.335995717169624 ], [ -90.90433667489954, 32.335892359273345 ], [ -90.904447675241514, 32.33579688937985 ], [ -90.904560981304115, 32.335702591207365 ], [ -90.904683289445956, 32.335608664289644 ], [ -90.904802167732541, 32.335515110802966 ], [ -90.904919523374062, 32.335421344063882 ], [ -90.905039026205813, 32.335329215973822 ], [ -90.905156512670089, 32.335235722568747 ], [ -90.905278270152166, 32.335147157861158 ], [ -90.905398006013101, 32.335050988318827 ], [ -90.905507789892198, 32.334947882072214 ], [ -90.905603634571364, 32.334841925244604 ], [ -90.905711941682952, 32.334735636759248 ], [ -90.905847506260514, 32.334654650705879 ], [ -90.905972347954943, 32.334572667990699 ], [ -90.906096755160021, 32.334478400121164 ], [ -90.906211303806472, 32.33437634387132 ], [ -90.906320781041629, 32.334281319326429 ], [ -90.906435562533019, 32.334185446349601 ], [ -90.906559053200226, 32.33409472806008 ], [ -90.906676107209208, 32.334000025896309 ], [ -90.906790646830544, 32.333901790082493 ], [ -90.906907965928013, 32.333808103727897 ], [ -90.907025063555295, 32.33370999224455 ], [ -90.907143171643128, 32.333623421783386 ], [ -90.907264159791922, 32.333526364623523 ], [ -90.9073809667278, 32.333433642378942 ], [ -90.907489866220189, 32.333329412087416 ], [ -90.907606916537148, 32.333234434030281 ], [ -90.907722273135207, 32.333142927383385 ], [ -90.907842063524427, 32.333045958088761 ], [ -90.907955514184806, 32.332950089791822 ], [ -90.908072172896553, 32.33285464595582 ], [ -90.908198991721733, 32.332763526739235 ], [ -90.90832841368973, 32.332684846665096 ], [ -90.908471847794814, 32.332610252664985 ], [ -90.908589995454122, 32.332519969772214 ], [ -90.908659877632829, 32.332379523372602 ], [ -90.908739808683322, 32.332256374496453 ], [ -90.908870624375453, 32.332173042347634 ], [ -90.909016104339031, 32.332099676568745 ], [ -90.909146323215921, 32.332019122594339 ], [ -90.909240295928967, 32.331925485607961 ] ] } },
{ "type": "Feature", "properties": { "station_id": 1, "station_ft": -9151.1, "width_ft": 1537.4, "flag": "ok", "lon": -90.904635, "lat": 32.340337, "survey_id": "LM_05_VGG_20240801_CS_4414_4374", "date": "2024-08-01 00:00:00+00:00", "method": "lines" }, "geometry": { "type": "LineString", "coordinates": [ [ -90.910780784060321, 32.333600339425772 ], [ -90.910673099023199, 32.333701406169915 ], [ -90.910576580604996, 32.33381740240678 ], [ -90.910488408488519, 32.333927368843163 ], [ -90.910400032415595, 32.334040881119094 ], [ -90.910318080182563, 32.334161593672384 ], [ -90.910235697542547, 32.334286156112498 ], [ -90.910136347824135, 32.3343898509018 ], [ -90.910027364291878, 32.334490593873497 ], [ -90.909924639101646, 32.334598069833511 ], [ -90.909847100569309, 32.33472588070213 ], [ -90.909751994248836, 32.334835245242715 ], [ -90.909636787054609, 32.334934917017996 ], [ -90.90952637655451, 32.335035611064875 ], [ -90.909420655501961, 32.335135486413698 ], [ -90.909302824040978, 32.335235003935999 ], [ -90.909202963988946, 32.335340294698014 ], [ -90.909121470713089, 32.335462460777471 ], [ -90.909036402602027, 32.335577359292266 ], [ -90.908952076899112, 32.33569714751836 ], [ -90.908839591196326, 32.335802522647235 ], [ -90.908719653300324, 32.335891852602487 ], [ -90.908584595556633, 32.335981140461868 ], [ -90.908486326306772, 32.336087303557306 ], [ -90.908415685332031, 32.336215906338296 ], [ -90.908341470438529, 32.33633737951935 ], [ -90.90825723214968, 32.336455791637448 ], [ -90.908146153278565, 32.336558659050766 ], [ -90.908049198356679, 32.336668085735283 ], [ -90.90795580007277, 32.336781977180493 ], [ -90.907833987205521, 32.33687716930686 ], [ -90.907714631831752, 32.336971992114101 ], [ -90.90762095665545, 32.337083025872026 ], [ -90.907529775631502, 32.337199490559371 ], [ -90.90743418045102, 32.337309158575962 ], [ -90.907323374335533, 32.337409439470505 ], [ -90.907210684833586, 32.337508905493209 ], [ -90.907120469188783, 32.337624650366493 ], [ -90.907024370677675, 32.33773146166142 ], [ -90.906912568860477, 32.337838399285921 ], [ -90.906819926558484, 32.337944232493228 ], [ -90.906727181515777, 32.338059411430692 ], [ -90.906628150977369, 32.338168681424335 ], [ -90.90652474162637, 32.338276927854118 ], [ -90.90642380943369, 32.338382523384176 ], [ -90.906323269732923, 32.338488914240038 ], [ -90.906220053022238, 32.338596829486676 ], [ -90.906116248238177, 32.338704004237158 ], [ -90.906016415864826, 32.338809814486048 ], [ -90.905925164913754, 32.338925893257674 ], [ -90.905836019863514, 32.339037372255568 ], [ -90.905731650676785, 32.339152741181124 ], [ -90.905629482788953, 32.339252679292152 ], [ -90.905524732427921, 32.339353976318968 ], [ -90.905421318716719, 32.339461781784721 ], [ -90.905333670241987, 32.339574434994695 ], [ -90.905230160407527, 32.339682570797024 ], [ -90.905115447500847, 32.339780338820241 ], [ -90.905005959877613, 32.339885257764621 ], [ -90.904919333461521, 32.340000957737729 ], [ -90.904825937814067, 32.3401111909563 ], [ -90.904723166544073, 32.34021855286089 ], [ -90.904635292361931, 32.340336786929598 ], [ -90.90456064000243, 32.340456912560526 ], [ -90.904452045778484, 32.340560039614672 ], [ -90.904333036590231, 32.340659723757803 ], [ -90.904221937746698, 32.340755853178592 ], [ -90.904129368537838, 32.340869050857506 ], [ -90.904022914159043, 32.340972745010994 ] ] } },
{ "type": "Feature", "properties": { "station_id": 2, "station_ft": -8242.1, "width_ft": 1441.3, "flag": "ok", "lon": -90.907575, "lat": 32.34219, "survey_id": "LM_05_VGG_20240801_CS_4414_4374", "date": "2024-08-01 00:00:00+00:00", "method": "lines" }, "geometry": { "type": "LineString", "coordinates": [ [ -90.9132898696501, 32.334364895142727 ], [ -90.913206288958236, 32.334483527561162 ], [ -90.913146235369936, 32.33461098501737 ], [ -90.91305613208975, 32.334727393715973 ], [ -90.912971930513734, 32.334845369615358 ], [ -90.912883066738004, 32.334958171615739 ], [ -90.912784542033179, 32.335068956412798 ], [ -90.912688232759251, 32.335177064343284 ], [ -90.912616501583202, 32.33529588994827 ], [ -90.912544350955912, 32.33542543620657 ], [ -90.912453778225114, 32.335539428004324 ], [ -90.912350906784098, 32.335649188130517 ], [ -90.912272310898118, 32.335768182113782 ], [ -90.91220414659989, 32.33589317474064 ], [ -90.912144081931146, 32.336024260592922 ], [ -90.912067795182836, 32.336145002357966 ], [ -90.911964730332357, 32.336254928082965 ], [ -90.911862714880982, 32.33636204522233 ], [ -90.91176031643171, 32.336464930094394 ], [ -90.911665788606214, 32.336583667580115 ], [ -90.911585512382899, 32.33670327303679 ], [ -90.911508972752088, 32.336820030574913 ], [ -90.911422845496219, 32.336941312127905 ], [ -90.911343082434016, 32.337060365881868 ], [ -90.91127031554133, 32.337179854667795 ], [ -90.911203306974002, 32.337308910359944 ], [ -90.911132376780756, 32.337432156558727 ], [ -90.91105078439125, 32.337548798979007 ], [ -90.91095025814333, 32.337661323851826 ], [ -90.910850233850852, 32.337766286576894 ], [ -90.910743712124045, 32.337872818328016 ], [ -90.910669955273761, 32.337999898116514 ], [ -90.910592106237871, 32.338119903946456 ], [ -90.910516303587585, 32.338240863485296 ], [ -90.91043299703837, 32.338357953420989 ], [ -90.910336774569302, 32.338470512223175 ], [ -90.910241002473512, 32.338582436732061 ], [ -90.910159273111447, 32.338698255854801 ], [ -90.91009386567103, 32.33882493911166 ], [ -90.910034152277291, 32.338955912308109 ], [ -90.909962409818192, 32.339079325677091 ], [ -90.909886986651173, 32.339204268139547 ], [ -90.909819642664829, 32.339326865036846 ], [ -90.90973045591609, 32.339441123574815 ], [ -90.909624205943132, 32.339550318846925 ], [ -90.909501181521463, 32.339648733899388 ], [ -90.909395067959068, 32.339748858978346 ], [ -90.909317258447004, 32.339870403198248 ], [ -90.909255354350393, 32.340003447527636 ], [ -90.909184156093858, 32.340126033719471 ], [ -90.909101154579517, 32.340245870050836 ], [ -90.909019241825874, 32.340363887844006 ], [ -90.90891908378606, 32.340474044894187 ], [ -90.908823715779604, 32.340584125004426 ], [ -90.908743898818656, 32.340700730761803 ], [ -90.90866948606579, 32.340822149965163 ], [ -90.908598337582887, 32.340947622246716 ], [ -90.908506727991664, 32.34106323734327 ], [ -90.908415536775351, 32.341173490182307 ], [ -90.908337591342033, 32.341294430203455 ], [ -90.908248018649459, 32.341409733724419 ], [ -90.908140262695795, 32.34151676307598 ], [ -90.908071485261715, 32.341643790674013 ], [ -90.907971581061318, 32.341753670762643 ], [ -90.907862438127651, 32.341856667043864 ], [ -90.907783359206078, 32.341977638934637 ], [ -90.907701672235206, 32.342096094009698 ], [ -90.907574857572158, 32.342189989300273 ], [ -90.90748833975087, 32.342307229861902 ], [ -90.90742935005936, 32.342435999017979 ], [ -90.907361425809214, 32.34256500178428 ], [ -90.907291094311418, 32.342687115814627 ], [ -90.907203173831036, 32.342803070283594 ], [ -90.907128282808941, 32.342926222189803 ], [ -90.907046355250472, 32.343042507303046 ], [ -90.906974509777427, 32.343166057386867 ], [ -90.906911745051417, 32.34327150675189 ] ] } },
{ "type": "Feature", "properties": { "station_id": 3, "station_ft": -7209.4, "width_ft": 1359.8, "flag": "ok", "lon": -90.911056, "lat": 32.34384, "survey_id": "LM_05_VGG_20240801_CS_4414_4374", "date": "2024-08-01 00:00:00+00:00", "method": "lines" }, "geometry": { "type": "LineString", "coordinates": [ [ -90.915898191980617, 32.335169292436376 ], [ -90.915825003174888, 32.335277461907971 ], [ -90.915725127488187, 32.335373989673734 ], [ -90.915635247746337, 32.335494549223732 ], [ -90.915586411713747, 32.335623852509769 ], [ -90.915530417633562, 32.335752859649986 ], [ -90.915466012789622, 32.335877864616201 ], [ -90.915411559296061, 32.336009805354479 ], [ -90.915370934860434, 32.336147454677736 ], [ -90.915289491123673, 32.336271025838712 ], [ -90.915196164939772, 32.336379424895661 ], [ -90.915115287359228, 32.336500574710705 ], [ -90.915040738650745, 32.336619139598767 ], [ -90.914957191989103, 32.336743050295851 ], [ -90.914905204702436, 32.336870994393941 ], [ -90.914870349543222, 32.337009881271101 ], [ -90.914820156958911, 32.33714012475798 ], [ -90.914742222954871, 32.33726098661424 ], [ -90.914655137310305, 32.337378454741291 ], [ -90.914561862125268, 32.337495126177949 ], [ -90.914470648128741, 32.33761024868268 ], [ -90.914402783249088, 32.337736286254028 ], [ -90.914348344258826, 32.337865752816221 ], [ -90.914292466127904, 32.337993108560163 ], [ -90.914237272923145, 32.338121287170573 ], [ -90.914181525218666, 32.338253810462504 ], [ -90.914113402396239, 32.338380178215147 ], [ -90.914040298453102, 32.33850219874752 ], [ -90.913972046470022, 32.338623702721357 ], [ -90.913893081814933, 32.338745723085466 ], [ -90.913807275860222, 32.338861205283422 ], [ -90.913723110588748, 32.338980142776208 ], [ -90.91365012019331, 32.339105131272191 ], [ -90.913579569867423, 32.339226672654824 ], [ -90.913513084594825, 32.339351219028963 ], [ -90.91345318669299, 32.339483018892579 ], [ -90.913395390006841, 32.339609366719017 ], [ -90.913336538077957, 32.339737835886908 ], [ -90.913268372926112, 32.339868080190314 ], [ -90.913206726382228, 32.339989964593201 ], [ -90.913151752352206, 32.340117289501734 ], [ -90.913086401026263, 32.340247107747466 ], [ -90.91301613206771, 32.340367383191904 ], [ -90.912928747077416, 32.340494690989779 ], [ -90.912849865571815, 32.340609893619579 ], [ -90.912762898996149, 32.34072675476488 ], [ -90.912691324413174, 32.340845469599962 ], [ -90.912629326204026, 32.34097340277804 ], [ -90.912570015626244, 32.341101214466867 ], [ -90.912501482892978, 32.341229946814877 ], [ -90.9124331461026, 32.341359119203709 ], [ -90.91237132164224, 32.341478750410495 ], [ -90.912308847113593, 32.341608087905023 ], [ -90.912237852633751, 32.341731857090451 ], [ -90.912167149027113, 32.341855459871425 ], [ -90.912092962552165, 32.341976137830159 ], [ -90.912014663074658, 32.342096696636226 ], [ -90.911947034952547, 32.342220423158111 ], [ -90.911888264815488, 32.3423469668137 ], [ -90.911829779066295, 32.342477495078796 ], [ -90.911766274605981, 32.342603126123052 ], [ -90.91169343433549, 32.34273204369871 ], [ -90.911623389484163, 32.342852564411267 ], [ -90.91154966993048, 32.342975576457476 ], [ -90.911481462964915, 32.343100019597777 ], [ -90.911409603767652, 32.34322046644008 ], [ -90.911337293703667, 32.343346384703999 ], [ -90.911261873951887, 32.34346709486627 ], [ -90.911192024814355, 32.34358799950386 ], [ -90.91112406257885, 32.343715327975957 ], [ -90.911056373378955, 32.343840015600634 ], [ -90.910994856176643, 32.343967753659626 ], [ -90.910945620368821, 32.344097056884735 ], [ -90.910895537770799, 32.344230707018966 ], [ -90.910855193362266, 32.34436824348164 ], [ -90.910813963683182, 32.344499050265895 ], [ -90.910748946620103, 32.344626474161068 ] ] } },
{ "type": "Feature", "properties": { "station_id": 4, "station_ft": -6190.3, "width_ft": 1006.4, "flag": "ok", "lon": -90.914759, "lat": 32.344147, "survey_id": "LM_05_VGG_20240801_CS_4414_4374", "date": "2024-08-01 00:00:00+00:00", "method": "lines" }, "geometry": { "type": "LineString", "coordinates": [ [ -90.918481707727423, 32.335819660311408 ], [ -90.918399092768539, 32.335911547021098 ], [ -90.918316450665074, 32.336034411444281 ], [ -90.91826047565597, 32.336160698049817 ], [ -90.91823803203404, 32.336300517564553 ], [ -90.918173997880899, 32.336427309523131 ], [ -90.918103652816342, 32.336554404845117 ], [ -90.918050647002218, 32.336684305520038 ], [ -90.918011786582255, 32.336813893526383 ], [ -90.91796531426057, 32.336947942812756 ], [ -90.917928221045557, 32.337080326288273 ], [ -90.917877430016745, 32.337212471114249 ], [ -90.91780322716528, 32.337338924018454 ], [ -90.917723142918021, 32.337457158988713 ], [ -90.917643839159453, 32.337575884477531 ], [ -90.91758795764197, 32.337706925510844 ], [ -90.917543934391617, 32.337839423019595 ], [ -90.917493876577126, 32.337969777826821 ], [ -90.917451500279029, 32.3381066936943 ], [ -90.91740495525643, 32.338234612677084 ], [ -90.9173382934068, 32.338360838303572 ], [ -90.917271298659529, 32.338490831339122 ], [ -90.917206530922698, 32.338614657462507 ], [ -90.917133815928878, 32.33874121309303 ], [ -90.917061322506299, 32.338862106173366 ], [ -90.916986819568166, 32.338982568430751 ], [ -90.91691753843206, 32.339109493114798 ], [ -90.916866050035978, 32.339239304179308 ], [ -90.916822272444819, 32.339374934025166 ], [ -90.916799563364222, 32.33951423232164 ], [ -90.916778104136966, 32.339651491279142 ], [ -90.91672879186207, 32.339782473570239 ], [ -90.916663527230796, 32.339909902574249 ], [ -90.916590689124916, 32.340032610480165 ], [ -90.916524345483111, 32.340158477075178 ], [ -90.916456452921565, 32.340285175035895 ], [ -90.916395694522564, 32.34041357233891 ], [ -90.91635857726645, 32.340547906906146 ], [ -90.916306178916187, 32.340677363916001 ], [ -90.916236205884587, 32.340802752939481 ], [ -90.916173983644697, 32.340930248784055 ], [ -90.916112855185347, 32.341056723218912 ], [ -90.916053923631779, 32.341182253213709 ], [ -90.915987554843269, 32.341309411905655 ], [ -90.915930781633435, 32.341433474568262 ], [ -90.915866911537677, 32.341566695256212 ], [ -90.91582061948202, 32.341699395574594 ], [ -90.915795762149415, 32.341837137152282 ], [ -90.915750432996532, 32.34196862368578 ], [ -90.915685497899048, 32.342092228824676 ], [ -90.915607567076947, 32.342214053345401 ], [ -90.915541702436116, 32.342344342306461 ], [ -90.915271370773752, 32.342990897264059 ], [ -90.915222280855886, 32.343121713772511 ], [ -90.915152435841662, 32.343247375725795 ], [ -90.915094854925997, 32.343372073875329 ], [ -90.915043072301074, 32.34350216054851 ], [ -90.915007153202836, 32.343642124477128 ], [ -90.914953709879455, 32.343770706454677 ], [ -90.91488370042596, 32.343896203981785 ], [ -90.914817378793728, 32.344021327358696 ], [ -90.914759318352864, 32.344146934764083 ], [ -90.914709141878106, 32.344280312659436 ], [ -90.914671812527359, 32.344412503182539 ], [ -90.914602428152548, 32.344539702061702 ] ] } },
{ "type": "Feature", "properties": { "station_id": 5, "station_ft": -5222.5, "width_ft": 1460.0, "flag": "ok", "lon": -90.918057, "lat": 32.345445, "survey_id": "LM_05_VGG_20240801_CS_4414_4374", "date": "2024-08-01 00:00:00+00:00", "method": "lines" }, "geometry": { "type": "LineString", "coordinates": [ [ -90.921341865583614, 32.336107178913473 ], [ -90.921305154043097, 32.336227796738221 ], [ -90.92121184071631, 32.336347084827374 ], [ -90.921167534316567, 32.336479887910599 ], [ -90.921128103826291, 32.336610633805755 ], [ -90.921076522908621, 32.336744873038974 ], [ -90.921031860714649, 32.336872811629469 ], [ -90.92101827682373, 32.337015256937903 ], [ -90.921016540798135, 32.337157372006146 ], [ -90.920970632804526, 32.337288010941222 ], [ -90.920881636668383, 32.33740923015732 ], [ -90.920719646933847, 32.33794386088141 ], [ -90.920711947112977, 32.338085151496138 ], [ -90.920640223642224, 32.338208983783773 ], [ -90.920552972420111, 32.3383298645793 ], [ -90.920479630549764, 32.338458926612319 ], [ -90.920432626671769, 32.338585392410167 ], [ -90.92038319367127, 32.338716844705289 ], [ -90.920375035817926, 32.33885736818506 ], [ -90.920325060172502, 32.338990031386153 ], [ -90.920286116414218, 32.339121324814116 ], [ -90.920216655542688, 32.339249819434912 ], [ -90.920162953946388, 32.339382115734061 ], [ -90.920123421320511, 32.3395124225746 ], [ -90.920080176005825, 32.339644533127398 ], [ -90.920031386516328, 32.339775459235419 ], [ -90.919989736053623, 32.339908991684574 ], [ -90.919958778082133, 32.340043518679913 ], [ -90.919923341707459, 32.340176747159937 ], [ -90.919861167945911, 32.340305784840076 ], [ -90.919824432581848, 32.340438249193411 ], [ -90.919776813247353, 32.340570049905814 ], [ -90.919714799584668, 32.34069894879007 ], [ -90.919688869534767, 32.340835101723115 ], [ -90.919640434009892, 32.340965916901339 ], [ -90.919592293647028, 32.341097224872108 ], [ -90.919548918313239, 32.341229500853551 ], [ -90.91950771813049, 32.341362563899722 ], [ -90.919448431552453, 32.341492796354359 ], [ -90.919403080609712, 32.341624999395407 ], [ -90.919360429388306, 32.341759113409275 ], [ -90.919324066640002, 32.341889432294707 ], [ -90.919279947693539, 32.342021985772838 ], [ -90.919237126859812, 32.342154891217973 ], [ -90.91919700700565, 32.342290064746422 ], [ -90.919156870393778, 32.342422655592934 ], [ -90.919095138951747, 32.342550343530512 ], [ -90.919025200787644, 32.342675815948994 ], [ -90.918965183278488, 32.342803302878622 ], [ -90.918936699859188, 32.342940594722926 ], [ -90.918915802230359, 32.343079224782201 ], [ -90.918868313922786, 32.343211492539936 ], [ -90.918803228909567, 32.343336529279298 ], [ -90.91871287500345, 32.343459567627384 ], [ -90.918645244097945, 32.343581428246921 ], [ -90.91862821869401, 32.343723146068754 ], [ -90.918608306752958, 32.34385905077206 ], [ -90.918557742891366, 32.343991579763824 ], [ -90.918484721990708, 32.344116351043908 ], [ -90.918427200181597, 32.34424448623902 ], [ -90.918395180314761, 32.344380804168921 ], [ -90.918384590324038, 32.344521283690312 ], [ -90.918353176691625, 32.344656252411475 ], [ -90.918274461923659, 32.344781819200037 ], [ -90.918199138433977, 32.344906161808673 ], [ -90.91815542102168, 32.345036047281361 ], [ -90.918130890352174, 32.345178899996384 ], [ -90.918096619013582, 32.345307669418531 ], [ -90.9180566089059, 32.345445179485559 ], [ -90.91801797899501, 32.345575810552916 ], [ -90.917970232992246, 32.345708875419199 ], [ -90.91791700089891, 32.345839767110483 ], [ -90.917860286815994, 32.345972873490958 ], [ -90.91781546513117, 32.346097541647381 ], [ -90.917792883538738, 32.346236509328655 ], [ -90.917750753754405, 32.346366826461256 ] ] } },
{ "type": "Feature", "properties": { "station_id": 6, "station_ft": -4180.8, "width_ft": 1517.3, "flag": "ok", "lon": -90.921445, "lat": 32.346251, "survey_id": "LM_05_VGG_20240801_CS_4414_4374", "date": "2024-08-01 00:00:00+00:00", "method": "lines" }, "geometry": { "type": "LineString", "coordinates": [ [ -90.924828990678833, 32.334954380933773 ], [ -90.924801985742192, 32.335063327386287 ], [ -90.924781824673389, 32.335199097265495 ], [ -90.924746841168968, 32.335335595833726 ], [ -90.924680419315337, 32.335462209253379 ], [ -90.924634899373629, 32.335591638385019 ], [ -90.924597147723176, 32.335725895386823 ], [ -90.924569239179974, 32.335865192384389 ], [ -90.924562617983895, 32.336002025109003 ], [ -90.924170413114894, 32.33733691840014 ], [ -90.924131882938937, 32.337471234793128 ], [ -90.924100063319202, 32.337601725891055 ], [ -90.924067271455968, 32.337737087626472 ], [ -90.924029430932805, 32.337872802144958 ], [ -90.923992626737729, 32.338003729570239 ], [ -90.923939676854175, 32.338136161013026 ], [ -90.923889859517558, 32.33826731435154 ], [ -90.923831153278542, 32.338395842660631 ], [ -90.923778473896718, 32.338530087179606 ], [ -90.923728186852657, 32.33865882312724 ], [ -90.923698714657107, 32.338796972901562 ], [ -90.923682355879848, 32.338930415249067 ], [ -90.923663908256586, 32.339071151177095 ], [ -90.923580700496018, 32.339190970827275 ], [ -90.923493177129771, 32.339314301464221 ], [ -90.923424700270218, 32.339444139595933 ], [ -90.923392687530679, 32.339580156697629 ], [ -90.923398090298264, 32.339719159593301 ], [ -90.923386334672514, 32.339858490731764 ], [ -90.923368698148977, 32.339999579918526 ], [ -90.923340438641077, 32.340135195278037 ], [ -90.923294501050663, 32.340265889231013 ], [ -90.92323495215858, 32.340394531197042 ], [ -90.923181776614157, 32.340527431377069 ], [ -90.923142876083929, 32.340659934737758 ], [ -90.923095170334776, 32.340792589266911 ], [ -90.923036371817304, 32.340917296694762 ], [ -90.922979588097476, 32.341048042123163 ], [ -90.922955029111307, 32.341185371533228 ], [ -90.922928000118659, 32.34132103513867 ], [ -90.922908547807026, 32.341461885629663 ], [ -90.922882212549709, 32.341594962332017 ], [ -90.922851913971471, 32.341730834177866 ], [ -90.922808286597657, 32.341863524534453 ], [ -90.922747309224434, 32.341991814911893 ], [ -90.922680901232681, 32.342121560877331 ], [ -90.922628239759533, 32.342249153132151 ], [ -90.92259304932108, 32.342384772709245 ], [ -90.922559873718669, 32.342521509207074 ], [ -90.922547362437044, 32.342659386444531 ], [ -90.922536471402097, 32.342797311120144 ], [ -90.922508176737125, 32.342932898456986 ], [ -90.922465964762623, 32.34306417977438 ], [ -90.922409222907604, 32.343196794144887 ], [ -90.922361269501209, 32.34332667288691 ], [ -90.922313069943627, 32.343458422181413 ], [ -90.922262644879822, 32.343591666201725 ], [ -90.922216717955408, 32.343719419809631 ], [ -90.922177713069956, 32.343856073378113 ], [ -90.922138241496157, 32.343990723516434 ], [ -90.922115129926539, 32.344121888495323 ], [ -90.922085117984338, 32.34425737371236 ], [ -90.922054467930721, 32.344394235333176 ], [ -90.922016063000882, 32.344523713156271 ], [ -90.921958423281936, 32.34465800703137 ], [ -90.921910893955058, 32.344788461654652 ], [ -90.921878216923531, 32.344922419881009 ], [ -90.921841663615794, 32.345057880536515 ], [ -90.92179077415976, 32.345189532137248 ], [ -90.921734190628271, 32.34531692223613 ], [ -90.921680556880929, 32.345449878862979 ], [ -90.921639919328712, 32.345579723179185 ], [ -90.921621226513125, 32.345718371277734 ], [ -90.921563220547057, 32.345851101147005 ], [ -90.921502350112604, 32.345976724666485 ], [ -90.92147838082731, 32.346115589421764 ], [ -90.921444511564076, 32.346250652363366 ], [ -90.921366770684131, 32.346376052362785 ], [ -90.921308993805056, 32.346504410035394 ], [ -90.921264837015599, 32.346636085032713 ], [ -90.92122666148056, 32.346766193674007 ], [ -90.921213256356722, 32.346901435315417 ], [ -90.921191195626221, 32.347029984483974 ], [ -90.921179444526544, 32.347155543945419 ] ] } },
{ "type": "Feature", "properties": { "station_id": 7, "station_ft": -3086.9, "width_ft": 1732.3, "flag": "ok", "lon": -90.925048, "lat": 32.346705, "survey_id": "LM_05_VGG_20240801_CS_4414_4374", "date": "2024-08-01 00:00:00+00:00", "method": "lines" }, "geometry": { "type": "LineString", "coordinates": [ [ -90.928465324688162, 32.334125594304481 ], [ -90.928462490467311, 32.33424663242873 ], [ -90.928418766709711, 32.334382458997162 ], [ -90.928346189345504, 32.334507508980373 ], [ -90.928303322175552, 32.334640691906252 ], [ -90.92827608502283, 32.334777787958231 ], [ -90.928248659739054, 32.334910980108717 ], [ -90.928223160665851, 32.335046528581977 ], [ -90.928187990199092, 32.335183524038726 ], [ -90.928152394364872, 32.335314776141487 ], [ -90.92809771490289, 32.3354489218815 ], [ -90.928053515622494, 32.335586592016362 ], [ -90.928035617749501, 32.3357162221902 ], [ -90.928027160232801, 32.335853750887637 ], [ -90.928001697642273, 32.335989930386006 ], [ -90.927965772214733, 32.33612544496652 ], [ -90.927926225469946, 32.336261745833767 ], [ -90.9278842759106, 32.336391873488218 ], [ -90.927849285704667, 32.336526861481893 ], [ -90.927811333700248, 32.336654496642865 ], [ -90.927504374152647, 32.33775423346296 ], [ -90.927476937576543, 32.33788599700538 ], [ -90.927445340701126, 32.338010358346139 ], [ -90.92738376933616, 32.338135603899545 ], [ -90.927334139985376, 32.338270055547547 ], [ -90.9272810025127, 32.338397762020328 ], [ -90.927246890614541, 32.338533624932822 ], [ -90.927207788538084, 32.33866887916485 ], [ -90.927180301367173, 32.338802759383086 ], [ -90.927152187718889, 32.338939941312894 ], [ -90.92710779467572, 32.339073130949124 ], [ -90.927067220016767, 32.339211003662136 ], [ -90.927046484469059, 32.339337787395493 ], [ -90.927020094366313, 32.339476253449895 ], [ -90.926980847260722, 32.33960925378863 ], [ -90.926925479380131, 32.339737685713615 ], [ -90.926856848459579, 32.339872995786493 ], [ -90.926835348030437, 32.340001625443278 ], [ -90.926798934475912, 32.340137223989508 ], [ -90.926760926874067, 32.340271758687408 ], [ -90.926723339426971, 32.340406071357322 ], [ -90.926686408802553, 32.340541919389032 ], [ -90.926659996649136, 32.340676976662571 ], [ -90.926629036147176, 32.340809800828261 ], [ -90.926594135911216, 32.340944292896282 ], [ -90.926560614760007, 32.341081610107331 ], [ -90.926530055075403, 32.341211435689146 ], [ -90.926488818831757, 32.341347332753031 ], [ -90.926444818389214, 32.341481427481739 ], [ -90.926417671182904, 32.341613326448034 ], [ -90.926393673578445, 32.341751423072637 ], [ -90.926359494918955, 32.34188736897098 ], [ -90.926320113938615, 32.342020012586126 ], [ -90.926277593054621, 32.342152698900797 ], [ -90.926243778301128, 32.342284877151258 ], [ -90.926203279389512, 32.342424837739614 ], [ -90.926168415663383, 32.342555014399579 ], [ -90.92612653064846, 32.34268607533653 ], [ -90.926080338489811, 32.342821939620919 ], [ -90.926042851229326, 32.34295221063087 ], [ -90.925997158764602, 32.343090134038498 ], [ -90.925960603684445, 32.343219384316818 ], [ -90.925931974070636, 32.343352362350437 ], [ -90.925908653542535, 32.343490208580874 ], [ -90.925892799558, 32.343626067344829 ], [ -90.925861365178179, 32.343761147990918 ], [ -90.925820347179965, 32.343896135663734 ], [ -90.925782405907242, 32.344031191836955 ], [ -90.925753845619454, 32.344165103751585 ], [ -90.925712766587012, 32.34429566655843 ], [ -90.925656089608424, 32.344427676926365 ], [ -90.925604926812156, 32.344561310762522 ], [ -90.925577290635175, 32.344692826728298 ], [ -90.925545222307889, 32.344830026769493 ], [ -90.925516483324955, 32.344966276009181 ], [ -90.925488030311129, 32.345101754666004 ], [ -90.925445732205688, 32.345234301634335 ], [ -90.925404178106177, 32.345366763933008 ], [ -90.9253610728138, 32.345499699724392 ], [ -90.925314361720879, 32.345635868223397 ], [ -90.925278240026842, 32.345767204791024 ], [ -90.925254892526482, 32.345901147113516 ], [ -90.925232886418925, 32.346037172595508 ], [ -90.925188826483165, 32.346167804201016 ], [ -90.92513732337882, 32.346299020804025 ], [ -90.925111717744358, 32.34643943324587 ], [ -90.925074843811672, 32.346569701037183 ], [ -90.925047715572319, 32.346704871252797 ], [ -90.925016570709758, 32.346839894370049 ], [ -90.924983028142307, 32.346974599568036 ], [ -90.92493360275013, 32.347106877664331 ], [ -90.924889236303997, 32.347240177196262 ], [ -90.924861238497755, 32.347381205893967 ], [ -90.924818298176334, 32.347509879713776 ] ] } },
{ "type": "Feature", "properties": { "station_id": 8, "station_ft": -2091.8, "width_ft": 1474.6, "flag": "ok", "lon": -90.928315, "lat": 32.347351, "survey_id": "LM_05_VGG_20240801_CS_4414_4374", "date": "2024-08-01 00:00:00+00:00", "method": "lines" }, "geometry": { "type": "LineString", "coordinates": [ [ -90.931746834463482, 32.333524274070342 ], [ -90.931734844170379, 32.333660281312319 ], [ -90.931689524820484, 32.333793999138763 ], [ -90.931649237741354, 32.333924945308908 ], [ -90.931621803146186, 32.334060777776678 ], [ -90.93158024409027, 32.334195385836324 ], [ -90.931540418892808, 32.334327648202581 ], [ -90.931487743986153, 32.334460494515859 ], [ -90.931440552555358, 32.334590209023446 ], [ -90.93140414178059, 32.334724874675423 ], [ -90.931380407172838, 32.33486231096942 ], [ -90.931360065943181, 32.334998741901401 ], [ -90.931331613871848, 32.335132600569565 ], [ -90.931292486860954, 32.335267773239188 ], [ -90.931219057042668, 32.335395467531512 ], [ -90.931183959989497, 32.335528258359616 ], [ -90.931153988471237, 32.335662425379638 ], [ -90.93113201547844, 32.335801805653475 ], [ -90.931137284770074, 32.335943475462514 ], [ -90.930333586033967, 32.339148778785969 ], [ -90.930308801205982, 32.339284406260511 ], [ -90.930287379346396, 32.339419385656136 ], [ -90.930277822556391, 32.339556617502524 ], [ -90.930257053478769, 32.339697200265171 ], [ -90.930219752555104, 32.339830000283044 ], [ -90.930192049054483, 32.339964927309168 ], [ -90.93015824437542, 32.340097655754285 ], [ -90.930094544805627, 32.340228932129349 ], [ -90.930035858227498, 32.340359139578901 ], [ -90.929985191787168, 32.340488099760954 ], [ -90.92995254816789, 32.340625275720676 ], [ -90.929920672422369, 32.340760826609426 ], [ -90.929887158301369, 32.340893581551882 ], [ -90.929852723651251, 32.341029171573219 ], [ -90.929825429083223, 32.341162446279903 ], [ -90.9297910705627, 32.341299630295133 ], [ -90.9297565269719, 32.341423676910523 ], [ -90.92971882207938, 32.341564092526319 ], [ -90.929679502001122, 32.341700393655216 ], [ -90.929645312779769, 32.34183397595141 ], [ -90.929620421839758, 32.341968421493398 ], [ -90.929598069985943, 32.342104861522699 ], [ -90.929569011379087, 32.342240728138776 ], [ -90.929541244501209, 32.342376122412723 ], [ -90.929499766021522, 32.342509134002945 ], [ -90.929475576345538, 32.342646902915128 ], [ -90.92944395930212, 32.342777889341995 ], [ -90.929412267341121, 32.342917067122627 ], [ -90.929371173620325, 32.343049527650784 ], [ -90.929336022639333, 32.343179788563603 ], [ -90.929317656813836, 32.343317034833355 ], [ -90.929291647626727, 32.343453931238059 ], [ -90.929257195849715, 32.343587020457427 ], [ -90.929223546582278, 32.343719225722111 ], [ -90.929198203525686, 32.343859088566767 ], [ -90.929175743700441, 32.343994126706598 ], [ -90.929128425983492, 32.34412557225761 ], [ -90.92909466025506, 32.344259839533954 ], [ -90.929084403067193, 32.344399136014182 ], [ -90.929034871082962, 32.344533807783762 ], [ -90.928990330251224, 32.344664195883126 ], [ -90.928961498207812, 32.344800199221815 ], [ -90.928940001197958, 32.344939108674296 ], [ -90.928901581586032, 32.345069742882515 ], [ -90.928831473185213, 32.345197116984444 ], [ -90.928786670576187, 32.345332069322829 ], [ -90.928767058473611, 32.345467038913881 ], [ -90.928737265932142, 32.345594993690042 ], [ -90.928726531987465, 32.345740751024977 ], [ -90.928715063810841, 32.34587837672629 ], [ -90.92871211875358, 32.34602187166125 ], [ -90.928669969147691, 32.346151780307693 ], [ -90.928615525578877, 32.346283204255336 ], [ -90.928577368837296, 32.3464145513259 ], [ -90.928523443757939, 32.34654619282184 ], [ -90.928475971355411, 32.346679013157249 ], [ -90.928442891557182, 32.346814486289965 ], [ -90.92842460274646, 32.34695390262371 ], [ -90.928399036052838, 32.347089451217307 ], [ -90.928368356682995, 32.347220514945185 ], [ -90.928315170293388, 32.347351355669616 ], [ -90.928272349568161, 32.347477749427426 ], [ -90.928228383307285, 32.347617094741153 ], [ -90.928183395411693, 32.347753751193423 ], [ -90.928160679093423, 32.347879665033233 ], [ -90.928149584829626, 32.348010307184836 ], [ -90.928129401799509, 32.348132443173249 ] ] } },
{ "type": "Feature", "properties": { "station_id": 9, "station_ft": -1065.5, "width_ft": 3266.7, "flag": "ok", "lon": -90.931818, "lat": 32.34765, "survey_id": "LM_05_VGG_20240801_CS_4414_4374", "date": "2024-08-01 00:00:00+00:00", "method": "lines" }, "geometry": { "type": "LineString", "coordinates": [ [ -90.933490403038689, 32.339668363896713 ], [ -90.933446933393029, 32.339802816511707 ], [ -90.933403983527668, 32.339932511468405 ], [ -90.933402197758156, 32.340074131655882 ], [ -90.93339596563446, 32.340214013585687 ], [ -90.933367662607282, 32.340350592602469 ], [ -90.933337664334402, 32.340490258403648 ], [ -90.933315989999826, 32.340620621363058 ], [ -90.933282271721154, 32.340756126818803 ], [ -90.933255309122586, 32.34088967570581 ], [ -90.933224160279494, 32.34102695538013 ], [ -90.933188879142165, 32.341161011836036 ], [ -90.933118239022747, 32.341284845904198 ], [ -90.933049095997646, 32.341414884382893 ], [ -90.933060419097075, 32.341555865070021 ], [ -90.933060278408803, 32.341696543139903 ], [ -90.933050432580686, 32.341833474391656 ], [ -90.933020355541757, 32.341971326053738 ], [ -90.932991806335025, 32.342105047434998 ], [ -90.932961981785454, 32.342241908608749 ], [ -90.932954715528169, 32.342377315270639 ], [ -90.932955358964804, 32.342519006821647 ], [ -90.932893565720889, 32.342649203247767 ], [ -90.932855142081578, 32.342783218608069 ], [ -90.932849684029236, 32.342922712615227 ], [ -90.932825046993457, 32.343055838201664 ], [ -90.932792632867788, 32.343192821644024 ], [ -90.932763695275938, 32.343326709827252 ], [ -90.932721245873779, 32.34345906782751 ], [ -90.93268778687883, 32.343594708918815 ], [ -90.932653733736501, 32.343728703438146 ], [ -90.932618704008746, 32.343862016319335 ], [ -90.932636797717421, 32.344003459913985 ], [ -90.932614270823464, 32.344147212992794 ], [ -90.932584388918357, 32.344275553251762 ], [ -90.932550853584615, 32.344409517316492 ], [ -90.932524158640362, 32.344544824117094 ], [ -90.932506638524274, 32.344682038816728 ], [ -90.932463853301314, 32.344817587052155 ], [ -90.932420108466673, 32.34495019907439 ], [ -90.932402487847384, 32.345091702265577 ], [ -90.932373232881034, 32.345221770929143 ], [ -90.932325147947211, 32.345354182582483 ], [ -90.932291359733867, 32.345489220897989 ], [ -90.932274765462125, 32.345624342595578 ], [ -90.932271017313454, 32.345763278309491 ], [ -90.93222244342212, 32.345900063237522 ], [ -90.932142202927054, 32.346027185135775 ], [ -90.932095963882077, 32.346164646096142 ], [ -90.932073038861745, 32.346292348978842 ], [ -90.932052098738339, 32.346431586311546 ], [ -90.932063746855803, 32.346572840488527 ], [ -90.932049564528853, 32.346710369303175 ], [ -90.932037713930768, 32.346853054331483 ], [ -90.932024403085236, 32.346985328751934 ], [ -90.931984116023941, 32.347117044027073 ], [ -90.931943481692144, 32.34725024528975 ], [ -90.931899080426206, 32.347386543139599 ], [ -90.931853865973963, 32.347517621634715 ], [ -90.931818410832662, 32.347650441166302 ], [ -90.931794517578595, 32.347788675218247 ], [ -90.931764863815346, 32.347922484431095 ], [ -90.931727650588272, 32.348063750364723 ], [ -90.931713003114155, 32.348194793810016 ], [ -90.931686141177124, 32.348329606978361 ], [ -90.931662512942026, 32.348463936768724 ], [ -90.931639710563815, 32.348600599185133 ], [ -90.931627509606926, 32.348739409887315 ] ] } },
{ "type": "Feature", "properties": { "station_id": 10, "station_ft": -92.0, "width_ft": 2388.6, "flag": "ok", "lon": -90.935243, "lat": 32.348417, "survey_id": "LM_05_VGG_20240801_CS_4414_4374", "date": "2024-08-01 00:00:00+00:00", "method": "lines" }, "geometry": { "type": "LineString", "coordinates": [ [ -90.937476372780495, 32.333204372778475 ], [ -90.937462737192206, 32.333344840556805 ], [ -90.937422865276744, 32.333478480196767 ], [ -90.937412111426596, 32.333614178994814 ], [ -90.93740425336901, 32.333752008396829 ], [ -90.937367536758401, 32.333888023568051 ], [ -90.937312885361663, 32.334019260292287 ], [ -90.937274882630632, 32.334151818691439 ], [ -90.937258073804671, 32.334292273663699 ], [ -90.937258814200646, 32.334428082443637 ], [ -90.937274932108807, 32.334568737813619 ], [ -90.937265143631336, 32.334703662725246 ], [ -90.937210548996717, 32.334838582057024 ], [ -90.937185996529394, 32.334978221871694 ], [ -90.936534775486933, 32.339431422157077 ], [ -90.936525061408318, 32.339553289465741 ], [ -90.936516208612289, 32.339692744881866 ], [ -90.93649817305139, 32.339824245271032 ], [ -90.936479301717739, 32.339961549999963 ], [ -90.936467398838658, 32.340100002761197 ], [ -90.936460755134433, 32.340235736712735 ], [ -90.936458885747228, 32.340368837138563 ], [ -90.936446103592985, 32.340516309342441 ], [ -90.936424224967908, 32.340649312433563 ], [ -90.936391804314667, 32.340784372407242 ], [ -90.936355448299395, 32.340921732723771 ], [ -90.936330871343202, 32.341058102466903 ], [ -90.936304377505991, 32.341193436183907 ], [ -90.936271669246025, 32.341324265366815 ], [ -90.936251131979631, 32.341454568340765 ], [ -90.936224842237536, 32.34160117079518 ], [ -90.93621248483197, 32.341734760487526 ], [ -90.93619094167137, 32.34187455153095 ], [ -90.936161799053778, 32.342006021945572 ], [ -90.936134088860683, 32.342143505891947 ], [ -90.936108269722354, 32.342278150059002 ], [ -90.936083280319139, 32.342411057905395 ], [ -90.936057962692701, 32.342548145329964 ], [ -90.936045674858278, 32.342687314965062 ], [ -90.936029973774268, 32.34282438348805 ], [ -90.936014507291475, 32.342962716104275 ], [ -90.936006401147949, 32.343097659777058 ], [ -90.935993928207935, 32.343233284422112 ], [ -90.935973883669604, 32.34336976947472 ], [ -90.935957170580878, 32.343510608706318 ], [ -90.935942488136789, 32.343640169401674 ], [ -90.935821529637352, 32.344188502864313 ], [ -90.935805745196646, 32.344323016042523 ], [ -90.935798294290777, 32.34445911174619 ], [ -90.935794142185898, 32.344599753872949 ], [ -90.935789816948031, 32.344738637421464 ], [ -90.935773072543853, 32.344874666577837 ], [ -90.935744494718776, 32.345008553663789 ], [ -90.935714997436577, 32.345145413840385 ], [ -90.935689716229263, 32.34528321609109 ], [ -90.935663610918368, 32.34540920244438 ], [ -90.935636714483508, 32.345552399714514 ], [ -90.935625921175358, 32.345687686200741 ], [ -90.935614197308695, 32.345824103468011 ], [ -90.935593821142248, 32.345964410900692 ], [ -90.93556391303116, 32.346097864202576 ], [ -90.935549518752495, 32.3462369058024 ], [ -90.935545777765569, 32.34637119728766 ], [ -90.935529435219649, 32.346509450994198 ], [ -90.935506337511086, 32.346644686171793 ], [ -90.935480216485146, 32.346782986545819 ], [ -90.935453762799753, 32.346919832101584 ], [ -90.9354218322907, 32.347051316469575 ], [ -90.935394460126659, 32.347191299226672 ], [ -90.935379104346239, 32.347327019556985 ], [ -90.935377413983261, 32.347463004719238 ], [ -90.935369393615076, 32.347601301629929 ], [ -90.93534725469604, 32.347739582953778 ], [ -90.935325264228638, 32.347875747051042 ], [ -90.935305358284239, 32.348008905433034 ], [ -90.935283251597184, 32.348147269549486 ], [ -90.935266320045727, 32.34828459174026 ], [ -90.935242779933191, 32.348416668159501 ], [ -90.935219297647535, 32.348552674316316 ], [ -90.935215125080305, 32.34868540048776 ], [ -90.935204934043185, 32.348833328063911 ], [ -90.935182858153851, 32.348966606782 ], [ -90.935160943988009, 32.34910458487446 ], [ -90.935130866291018, 32.349237214588953 ], [ -90.935104453665502, 32.349375626248431 ], [ -90.935083888732379, 32.349492460726907 ] ] } },
{ "type": "Feature", "properties": { "station_id": 11, "station_ft": 942.2, "width_ft": 2718.9, "flag": "ok", "lon": -90.938681, "lat": 32.348936, "survey_id": "LM_05_VGG_20240801_CS_4414_4374", "date": "2024-08-01 00:00:00+00:00", "method": "lines" }, "geometry": { "type": "LineString", "coordinates": [ [ -90.940837906847122, 32.333096288640284 ], [ -90.940791605975619, 32.333206953643554 ], [ -90.940773311038683, 32.333327626302292 ], [ -90.940767378459995, 32.333467040988531 ], [ -90.940768226962888, 32.333603783467879 ], [ -90.940758700049713, 32.333743049521786 ], [ -90.940719726835681, 32.333879819576467 ], [ -90.940678759415945, 32.334008737358182 ], [ -90.940662364555877, 32.334147404298264 ], [ -90.940669830365877, 32.334286067300141 ], [ -90.940662809686572, 32.334427355721196 ], [ -90.940634612865395, 32.33455854856016 ], [ -90.940609562534192, 32.334695525696148 ], [ -90.940586602303, 32.33483040420559 ], [ -90.94057305545644, 32.33496883737245 ], [ -90.940560492897561, 32.335104518025673 ], [ -90.940539305395419, 32.335243070921834 ], [ -90.940512376490673, 32.335380002057612 ], [ -90.940484820225265, 32.33551509473714 ], [ -90.940465614133188, 32.335649763061539 ], [ -90.939915288827478, 32.339677684887441 ], [ -90.93989603841635, 32.339791462272245 ], [ -90.939890528647496, 32.339926504655736 ], [ -90.93989291543717, 32.340065823259025 ], [ -90.939877636271973, 32.340202313094672 ], [ -90.939858489897674, 32.340336485868534 ], [ -90.939839547203192, 32.34047205904767 ], [ -90.939820784619485, 32.340610435938764 ], [ -90.939801676325231, 32.340745404798731 ], [ -90.939791418738878, 32.340887230741544 ], [ -90.939796619292068, 32.341021286450591 ], [ -90.939781027203026, 32.341159318026698 ], [ -90.939740191563288, 32.341294007146857 ], [ -90.939682356442987, 32.341428694993652 ], [ -90.9396409282527, 32.341562177618727 ], [ -90.939628221705817, 32.341700799501155 ], [ -90.939619180718125, 32.341835555803819 ], [ -90.939602101918354, 32.341974033662289 ], [ -90.939584594888359, 32.342106604110981 ], [ -90.939553868538667, 32.34224740112824 ], [ -90.939532186401593, 32.342389969087684 ], [ -90.939539194418003, 32.342518408731401 ], [ -90.939529264005373, 32.342655697918865 ], [ -90.939519877610763, 32.342792214355832 ], [ -90.939504132357712, 32.342931592980342 ], [ -90.939483758548917, 32.343066486669315 ], [ -90.939460858449721, 32.343205981724878 ], [ -90.939437220595309, 32.343341742378705 ], [ -90.93941041920975, 32.34347400032285 ], [ -90.939409414341043, 32.343614709492456 ], [ -90.939396174717132, 32.3437512173602 ], [ -90.939378111908994, 32.343887831360448 ], [ -90.939359875157223, 32.344022740897302 ], [ -90.939350684830202, 32.3441643424757 ], [ -90.939326156037637, 32.344297660802198 ], [ -90.939299820495677, 32.344431977971126 ], [ -90.93927175229031, 32.344568529084221 ], [ -90.939243436761402, 32.344707033762155 ], [ -90.93920974108849, 32.344839873947429 ], [ -90.939178386343457, 32.344974105169655 ], [ -90.939155215710713, 32.345112035016847 ], [ -90.939155342043492, 32.345247516426099 ], [ -90.939155033877498, 32.345386023636379 ], [ -90.939163862890169, 32.345525367113417 ], [ -90.939138435059832, 32.345659843994305 ], [ -90.939102277243819, 32.345797424067591 ], [ -90.93907677529613, 32.345930526952571 ], [ -90.939052724726537, 32.346067664703988 ], [ -90.939027196478534, 32.346206567140953 ], [ -90.93900373628631, 32.346340018213056 ], [ -90.938987193078134, 32.346476541848475 ], [ -90.938985815984921, 32.346614889137363 ], [ -90.938978173885005, 32.346750930855457 ], [ -90.938802675834395, 32.347990435645158 ], [ -90.938779149378391, 32.348118994728203 ], [ -90.938758665778508, 32.34825702066459 ], [ -90.938738827773804, 32.348389905073361 ], [ -90.938720053466128, 32.348526988536094 ], [ -90.938705592675475, 32.348665096471549 ], [ -90.93869372119417, 32.348798161768613 ], [ -90.938681167803963, 32.348935875476066 ], [ -90.938650497964247, 32.349075957657014 ], [ -90.938603335565801, 32.34920479423748 ], [ -90.938605717591315, 32.349348566658456 ], [ -90.938604012461994, 32.34948639332061 ], [ -90.938598299420988, 32.349620445364053 ], [ -90.938569376236131, 32.349740976353559 ], [ -90.938551452872588, 32.349855160035219 ] ] } },
{ "type": "Feature", "properties": { "station_id": 12, "station_ft": 1976.6, "width_ft": 2811.2, "flag": "ok", "lon": -90.941995, "lat": 32.349021, "survey_id": "LM_05_VGG_20240801_CS_4414_4374", "date": "2024-08-01 00:00:00+00:00", "method": "lines" }, "geometry": { "type": "LineString", "coordinates": [ [ -90.944274270730844, 32.333367043542346 ], [ -90.944268441710236, 32.333501784745543 ], [ -90.944216833154201, 32.333636362537909 ], [ -90.94417603916429, 32.333771052979074 ], [ -90.944155103143231, 32.333907598755836 ], [ -90.944135803483888, 32.334046775259488 ], [ -90.944116379653053, 32.334182021430777 ], [ -90.944092841588258, 32.334316738319089 ], [ -90.944088979286278, 32.334455097900232 ], [ -90.944088837768021, 32.334593137365438 ], [ -90.944084322010212, 32.334730675862509 ], [ -90.944067241648497, 32.334862832840358 ], [ -90.943812987016202, 32.336057346398036 ], [ -90.94379077571304, 32.336187301609399 ], [ -90.943774247672224, 32.336329681309635 ], [ -90.943764157787143, 32.336466393633138 ], [ -90.943750849191247, 32.336591523534153 ], [ -90.943733494860609, 32.336735994875319 ], [ -90.943721187973182, 32.336875385424548 ], [ -90.943713904617951, 32.337015465888136 ], [ -90.94370513750907, 32.337151457571842 ], [ -90.943693839913763, 32.337286775228065 ], [ -90.943681246009291, 32.337421878212005 ], [ -90.943671327123113, 32.337560046980613 ], [ -90.943657201697036, 32.337698512044604 ], [ -90.943637339701169, 32.337836261775415 ], [ -90.943615149014633, 32.337974132784119 ], [ -90.94358899613789, 32.338105508382704 ], [ -90.94356459076586, 32.338246413809863 ], [ -90.943545784089864, 32.338377314687591 ], [ -90.943525145144278, 32.338515040190636 ], [ -90.94350889782379, 32.338650930937625 ], [ -90.943480703629106, 32.33878698947791 ], [ -90.943449197802892, 32.338926444854977 ], [ -90.94342578482987, 32.339060803818832 ], [ -90.943400029009283, 32.339193496766292 ], [ -90.943369227410003, 32.339331876476606 ], [ -90.943343615224123, 32.339466685226654 ], [ -90.943325113358156, 32.339594808851373 ], [ -90.943301718555702, 32.339736835656502 ], [ -90.94328464586971, 32.3398705867763 ], [ -90.943275653985708, 32.340016584878775 ], [ -90.943275199343987, 32.340151657036259 ], [ -90.94326995726, 32.340287219466738 ], [ -90.943257725636713, 32.340428175955786 ], [ -90.943242628857121, 32.340561971611663 ], [ -90.943229585401454, 32.340702739934947 ], [ -90.943218455712838, 32.340839017983249 ], [ -90.943203562466621, 32.340974352006704 ], [ -90.94318802556225, 32.341110019194325 ], [ -90.943173916312247, 32.341251232729071 ], [ -90.943160667808954, 32.341380621371528 ], [ -90.943144539235192, 32.34152470244674 ], [ -90.943136206690269, 32.341658191226401 ], [ -90.943115984159604, 32.341795475414592 ], [ -90.943084108241408, 32.341933035960743 ], [ -90.943044082411717, 32.342067255057316 ], [ -90.943013441251296, 32.342195875532845 ], [ -90.942983064074397, 32.342334886104048 ], [ -90.942965461812562, 32.342471854590535 ], [ -90.942943547798521, 32.342607882594613 ], [ -90.94290930864976, 32.342745729550302 ], [ -90.942859986916773, 32.342879416345347 ], [ -90.942813972203894, 32.343013938436229 ], [ -90.942766297182544, 32.343142146948942 ], [ -90.942767229905684, 32.343286200528702 ], [ -90.942776371778848, 32.343423095679945 ], [ -90.942763970256266, 32.343563117720159 ], [ -90.942748182151931, 32.343695378138356 ], [ -90.942740931513015, 32.343835705344382 ], [ -90.942725300053766, 32.343972170065825 ], [ -90.942722560460595, 32.344109259674276 ], [ -90.942736732086544, 32.344247861958706 ], [ -90.942720479211587, 32.344387985548003 ], [ -90.942679422610851, 32.344523336711354 ], [ -90.94265236312377, 32.344655101449732 ], [ -90.942626416961161, 32.344793539492329 ], [ -90.942601616552238, 32.344929224225879 ], [ -90.942594414947152, 32.345067242568234 ], [ -90.942579859053851, 32.345204636312644 ], [ -90.942538171918784, 32.345337763931838 ], [ -90.942495031049774, 32.345471310675478 ], [ -90.942475642178067, 32.345607545486729 ], [ -90.942428068672029, 32.345741498674045 ], [ -90.942405240988407, 32.345876788761345 ], [ -90.942393321322839, 32.346016396271274 ], [ -90.942397878321103, 32.346150481896252 ], [ -90.94239916621143, 32.3462943416177 ], [ -90.942384628101379, 32.346429701684876 ], [ -90.942381006356101, 32.34656569620941 ], [ -90.942364265312776, 32.346705712046891 ], [ -90.942351583154263, 32.346842684567626 ], [ -90.942332078363748, 32.346976117114671 ], [ -90.942301428781207, 32.347113533477952 ], [ -90.942265503309457, 32.347246468133079 ], [ -90.942239334052132, 32.347380812079415 ], [ -90.942227440646207, 32.347519485158557 ], [ -90.942203107661371, 32.347657421092443 ], [ -90.942184523184721, 32.34779302068025 ], [ -90.942175135596045, 32.347928822964569 ], [ -90.942160171817889, 32.348068280076539 ], [ -90.942127196853065, 32.348201832593361 ], [ -90.942098586206569, 32.348339239045671 ], [ -90.94208570114661, 32.34847503113825 ], [ -90.942075264697834, 32.348603993848123 ], [ -90.942049399304281, 32.348750018103104 ], [ -90.942014058457261, 32.34888330694897 ], [ -90.941995066280214, 32.349021079973582 ], [ -90.941986711817691, 32.34915638215071 ], [ -90.941972089839282, 32.349293804022714 ], [ -90.941939513891072, 32.34942914099824 ], [ -90.941897259863779, 32.349564964731528 ], [ -90.941890705179816, 32.34970317190465 ], [ -90.941892140990632, 32.349840186228235 ], [ -90.941888010898879, 32.349977804549845 ], [ -90.941867214880787, 32.350097554871773 ], [ -90.941837925657921, 32.350211023685553 ] ] } },
{ "type": "Feature", "properties": { "station_id": 13, "station_ft": 2999.7, "width_ft": 2770.7, "flag": "ok", "lon": -90.945461, "lat": 32.348959, "survey_id": "LM_05_VGG_20240801_CS_4414_4374", "date": "2024-08-01 00:00:00+00:00", "method": "lines" }, "geometry": { "type": "LineString", "coordinates": [ [ -90.947322852782946, 32.333765344142535 ], [ -90.947312815911914, 32.33390436600439 ], [ -90.947281117602458, 32.334042998183676 ], [ -90.947277534674427, 32.334178910803793 ], [ -90.947301887583563, 32.334319002574269 ], [ -90.947304236681958, 32.334455819680805 ], [ -90.947275749812476, 32.334590616214719 ], [ -90.947227002581542, 32.334731200749189 ], [ -90.947198328521566, 32.334862370248786 ], [ -90.947182113690815, 32.334997299127998 ], [ -90.947141226928395, 32.335132155951541 ], [ -90.947137337250666, 32.335270652780721 ], [ -90.947136851051809, 32.335409656090434 ], [ -90.947137192769674, 32.335551404041638 ], [ -90.947136916204812, 32.335683066612766 ], [ -90.947135320946202, 32.335820948064828 ], [ -90.946935165734686, 32.337619062526066 ], [ -90.946915413815503, 32.33775774646265 ], [ -90.946875064938041, 32.337891006163815 ], [ -90.946840261275824, 32.338025448191949 ], [ -90.946851397499188, 32.338164449934702 ], [ -90.946803908105665, 32.338299915852851 ], [ -90.946771754151399, 32.338433684856952 ], [ -90.946761234331859, 32.338573259026226 ], [ -90.946768602309106, 32.338710299646955 ], [ -90.946769097401514, 32.338850919540427 ], [ -90.946753902948771, 32.338988647009067 ], [ -90.946722533164461, 32.339128322539608 ], [ -90.946688790335614, 32.339256986957977 ], [ -90.946655528488648, 32.339394610162984 ], [ -90.94662136824725, 32.339528663911167 ], [ -90.946633849151993, 32.339665460528764 ], [ -90.946639146060733, 32.339807596423576 ], [ -90.946615172359714, 32.339939731220795 ], [ -90.946590900627669, 32.340075881348596 ], [ -90.946575419879537, 32.340214380297219 ], [ -90.946580271821588, 32.340352917479152 ], [ -90.946555989926537, 32.340487583287853 ], [ -90.946544334769399, 32.340617184558241 ], [ -90.946423541404002, 32.341597729362121 ], [ -90.946406110789482, 32.341720927068231 ], [ -90.946387327594408, 32.341854796867175 ], [ -90.946376514341992, 32.341994152324794 ], [ -90.946369253820208, 32.342127443080315 ], [ -90.946334913007945, 32.342263752067829 ], [ -90.946293264305837, 32.342401415877355 ], [ -90.946268091885869, 32.342533804381397 ], [ -90.946254478876313, 32.342670891878711 ], [ -90.94624229571906, 32.342808934639685 ], [ -90.946234301259992, 32.342948578472686 ], [ -90.946219466083136, 32.343082291068761 ], [ -90.946198817656324, 32.343222876521857 ], [ -90.946179288687659, 32.343356666920819 ], [ -90.946156887549463, 32.343491762636489 ], [ -90.946129409648819, 32.343627956142342 ], [ -90.946102816454612, 32.343765710857397 ], [ -90.946078369155174, 32.343900020206824 ], [ -90.946055767848591, 32.344034457655745 ], [ -90.946036055787729, 32.344174708459903 ], [ -90.946019023220899, 32.344309035885054 ], [ -90.946000490397068, 32.344441750067475 ], [ -90.945986904022035, 32.344583042436952 ], [ -90.945977032234467, 32.344717995184922 ], [ -90.945966209245171, 32.344856196302572 ], [ -90.945944003573558, 32.344991704026114 ], [ -90.945923969718422, 32.345127448288295 ], [ -90.945906391764481, 32.345262548461307 ], [ -90.945886726662167, 32.345405107583595 ], [ -90.945862068121926, 32.34554175443634 ], [ -90.945852465685419, 32.345678410239238 ], [ -90.945834468955894, 32.345813979554833 ], [ -90.945812148413481, 32.34595157635065 ], [ -90.945789143185635, 32.346088627271769 ], [ -90.945763370690585, 32.3462138718074 ], [ -90.945749743143992, 32.346358601053367 ], [ -90.945733511509928, 32.346496662447514 ], [ -90.945730769407646, 32.346632707769281 ], [ -90.945733862233837, 32.34676979699401 ], [ -90.945732227492741, 32.346911581361148 ], [ -90.945731392979695, 32.347047260302872 ], [ -90.945716311686709, 32.347182952494613 ], [ -90.94567906830703, 32.347321363862058 ], [ -90.945638638251296, 32.347453056990211 ], [ -90.945606994107834, 32.347591139052 ], [ -90.945591565756772, 32.347728180183736 ], [ -90.945569915648562, 32.347864647306956 ], [ -90.945549597030919, 32.347996764021246 ], [ -90.945550121245446, 32.34813705443198 ], [ -90.94554605560711, 32.348273793307555 ], [ -90.945535346788191, 32.348409849299465 ], [ -90.94552798710275, 32.348547895524504 ], [ -90.9455132639238, 32.348688727051666 ], [ -90.945490723790272, 32.348822750994742 ], [ -90.945461395077388, 32.348958651141359 ], [ -90.9454332128564, 32.349096331266786 ], [ -90.945415030671541, 32.349228520535085 ], [ -90.945403553527115, 32.349365844540493 ], [ -90.945379380428719, 32.349502735962979 ], [ -90.945363655992224, 32.349639284284386 ], [ -90.945330151771728, 32.349775340816983 ], [ -90.94531519614155, 32.349910593127241 ], [ -90.945328486223801, 32.350052112930591 ], [ -90.945334555216803, 32.350179237266197 ], [ -90.945330083361583, 32.350308556304888 ] ] } },
{ "type": "Feature", "properties": { "station_id": 14, "station_ft": 4116.4, "width_ft": 2927.5, "flag": "ok", "lon": -90.948812, "lat": 32.349263, "survey_id": "LM_05_VGG_20240801_CS_4414_4374", "date": "2024-08-01 00:00:00+00:00", "method": "lines" }, "geometry": { "type": "LineString", "coordinates": [ [ -90.949734691074511, 32.341469118899298 ], [ -90.949737304748211, 32.341606292498412 ], [ -90.949731739520175, 32.341745265458115 ], [ -90.949724071679441, 32.341879795627712 ], [ -90.949714507207716, 32.342016450670464 ], [ -90.949705268559057, 32.342158080218667 ], [ -90.949687933051393, 32.342294664104983 ], [ -90.949666824603113, 32.342428627769543 ], [ -90.949640157218496, 32.342564157948743 ], [ -90.94961739467341, 32.342702664804378 ], [ -90.949593817745949, 32.342835596231048 ], [ -90.949572971446798, 32.34297489089883 ], [ -90.949560493813834, 32.343106832934481 ], [ -90.949551510119207, 32.343247884056105 ], [ -90.94954526681471, 32.343387327416217 ], [ -90.949533923488843, 32.343524266152485 ], [ -90.949505353710606, 32.343656287677483 ], [ -90.949484970201453, 32.343792281292018 ], [ -90.949470998067284, 32.343933053756174 ], [ -90.949465196275511, 32.344070736443783 ], [ -90.949447131798252, 32.344204877254604 ], [ -90.949422011172771, 32.34433943758755 ], [ -90.949402098123301, 32.344477957508815 ], [ -90.949390324327382, 32.344613497827581 ], [ -90.94937810584743, 32.344750358736995 ], [ -90.949358819624905, 32.344890634982463 ], [ -90.949321077308213, 32.345026109114166 ], [ -90.949297654157405, 32.345158049524038 ], [ -90.949286662216139, 32.345299110391977 ], [ -90.949280096627888, 32.345434020150471 ], [ -90.94927567557535, 32.345569990765767 ], [ -90.94926292518339, 32.345709602910439 ], [ -90.949232567142303, 32.345845481021939 ], [ -90.949210450298963, 32.345983847518148 ], [ -90.949191494308906, 32.346110845894742 ], [ -90.949181018487891, 32.346256467290992 ], [ -90.949174286569416, 32.346390689768825 ], [ -90.949172469902123, 32.346528820067931 ], [ -90.949162798969382, 32.346668911332515 ], [ -90.949153090831089, 32.346803671370999 ], [ -90.949144727419451, 32.346940761388737 ], [ -90.949116599245571, 32.347080805672597 ], [ -90.94909262449525, 32.347212666637418 ], [ -90.949069794342009, 32.3473510365653 ], [ -90.949060545359103, 32.347481781361111 ], [ -90.949028507341779, 32.347623054005503 ], [ -90.948986610186324, 32.347757338965415 ], [ -90.9489510909047, 32.34789142775508 ], [ -90.948939761314747, 32.348030592812968 ], [ -90.948929697552487, 32.348165299535111 ], [ -90.948917908716624, 32.348303642587545 ], [ -90.94890546378592, 32.348440642460325 ], [ -90.948893761129995, 32.348577445723095 ], [ -90.948884264097103, 32.348714596230927 ], [ -90.948869783578886, 32.348852375255348 ], [ -90.948851461497526, 32.348991712382343 ], [ -90.948832129375603, 32.349125447081441 ], [ -90.948812307642143, 32.349263445137751 ], [ -90.948794463474229, 32.349396979582153 ], [ -90.948778777689128, 32.349538475343422 ], [ -90.948763121990908, 32.349674693658855 ], [ -90.948740825054017, 32.349810696378412 ], [ -90.948730723821413, 32.349944799032002 ], [ -90.94873152542219, 32.350087038576021 ], [ -90.948738601174867, 32.350223448074125 ], [ -90.948733775883198, 32.350362142159995 ], [ -90.948733716074898, 32.35049185187399 ], [ -90.948730721776016, 32.350604424698325 ] ] } },
{ "type": "Feature", "properties": { "station_id": 15, "station_ft": 5132.9, "width_ft": 2810.9, "flag": "ok", "lon": -90.95221, "lat": 32.349443, "survey_id": "LM_05_VGG_20240801_CS_4414_4374", "date": "2024-08-01 00:00:00+00:00", "method": "lines" }, "geometry": { "type": "LineString", "coordinates": [ [ -90.953760308120749, 32.33660938061611 ], [ -90.953742469859208, 32.336747067787684 ], [ -90.953689674311903, 32.336881325077385 ], [ -90.953683522093044, 32.337018980926501 ], [ -90.953694860495816, 32.33715745887767 ], [ -90.953696069480927, 32.337301511026787 ], [ -90.953631008646965, 32.337427115452705 ], [ -90.953598261740339, 32.337562758474526 ], [ -90.953159159887974, 32.341787897834152 ], [ -90.953139374574249, 32.341925236376959 ], [ -90.95310575321308, 32.342061021463373 ], [ -90.953076520637879, 32.342199395672075 ], [ -90.95304713446896, 32.342334417756057 ], [ -90.952999583106788, 32.342469088984714 ], [ -90.952988267021539, 32.342604571481075 ], [ -90.95300140032154, 32.342745212079251 ], [ -90.953014093774982, 32.342883187326848 ], [ -90.952989432725644, 32.343017801108473 ], [ -90.952957886072753, 32.343154153093963 ], [ -90.952923170087601, 32.343290905701544 ], [ -90.952893949815916, 32.343426503162497 ], [ -90.952857760372382, 32.343561091464622 ], [ -90.952845254492587, 32.343697707012886 ], [ -90.952852096357248, 32.343836866191303 ], [ -90.952873544851059, 32.34397666785236 ], [ -90.952870335552021, 32.344113979913374 ], [ -90.952842960288223, 32.344249596242015 ], [ -90.95281991322291, 32.344383569882645 ], [ -90.952790642852847, 32.344521394976638 ], [ -90.952771286101992, 32.344660050631028 ], [ -90.952762750780707, 32.344794942262432 ], [ -90.952746995598957, 32.344929924351341 ], [ -90.952729824331655, 32.345070987870912 ], [ -90.952711099455556, 32.345207304757587 ], [ -90.952683269497896, 32.345342840300013 ], [ -90.952677148649897, 32.345480386661791 ], [ -90.952679860090555, 32.34561703746153 ], [ -90.95268792171332, 32.345754679213023 ], [ -90.952690633523915, 32.345896057206346 ], [ -90.952675418434552, 32.346034417437302 ], [ -90.952632064630293, 32.34616777649029 ], [ -90.952577730026462, 32.346300583426398 ], [ -90.952544234834789, 32.346431530448591 ], [ -90.952518885442061, 32.346569967451479 ], [ -90.952513355787772, 32.346708885212522 ], [ -90.952521425895483, 32.346847791224974 ], [ -90.952520076933766, 32.346982564557777 ], [ -90.952523397261132, 32.347123006185996 ], [ -90.952523311142443, 32.347262418451763 ], [ -90.952519750095263, 32.347400419330981 ], [ -90.952519463029816, 32.347538871265414 ], [ -90.95251372415089, 32.347675618514565 ], [ -90.952464432816285, 32.347807384301817 ], [ -90.952418261571651, 32.347945567246597 ], [ -90.952379696565444, 32.348078764705114 ], [ -90.952336682058601, 32.348214567622293 ], [ -90.952305566891198, 32.348348058552169 ], [ -90.952272108777194, 32.348484611734847 ], [ -90.952273710615714, 32.348620003613256 ], [ -90.952272289903249, 32.348758488139744 ], [ -90.952269013289452, 32.348895415355045 ], [ -90.952259676623257, 32.349031658082176 ], [ -90.952240620897243, 32.349172016481987 ], [ -90.952228353205683, 32.349310609226698 ], [ -90.952210376410619, 32.349442963418348 ], [ -90.95217963758347, 32.349588904407874 ], [ -90.952152307172298, 32.349717126468775 ], [ -90.952129405030121, 32.349858520029805 ], [ -90.952116926973105, 32.349989967974999 ], [ -90.952111050493073, 32.350125643601999 ], [ -90.952096744329523, 32.350264466353003 ], [ -90.952083694377251, 32.35040243164493 ], [ -90.952086646882904, 32.350545869871972 ], [ -90.952105943643033, 32.350678811308498 ], [ -90.952112634519153, 32.350819729615928 ], [ -90.952078027102246, 32.350953979751424 ] ] } },
{ "type": "Feature", "properties": { "station_id": 16, "station_ft": 6180.0, "width_ft": 3530.2, "flag": "ok", "lon": -90.95606, "lat": 32.346977, "survey_id": "LM_05_VGG_20240801_CS_4414_4374", "date": "2024-08-01 00:00:00+00:00", "method": "lines" }, "geometry": { "type": "LineString", "coordinates": [ [ -90.956772127285831, 32.339028375814792 ], [ -90.956769329646662, 32.339168159623782 ], [ -90.956753290026228, 32.339303116632671 ], [ -90.956737778954661, 32.339439719504917 ], [ -90.956722659999841, 32.339576815520111 ], [ -90.95672049195062, 32.339713930502278 ], [ -90.956711180821543, 32.339852976348567 ], [ -90.956713497661426, 32.339992432766088 ], [ -90.956716151781947, 32.340124685786563 ], [ -90.956707141519018, 32.340264858281593 ], [ -90.956700267964109, 32.340405266405028 ], [ -90.956684133347721, 32.34054066392617 ], [ -90.956666405444039, 32.340674996180283 ], [ -90.95665307905908, 32.34080911460012 ], [ -90.956637965817734, 32.340947090701007 ], [ -90.956621472211197, 32.341086860071094 ], [ -90.956605308957563, 32.341222916020513 ], [ -90.956591913101619, 32.341356375555556 ], [ -90.95657466192759, 32.341494279235597 ], [ -90.956549888005284, 32.341635161725641 ], [ -90.956539829735476, 32.341769098942507 ], [ -90.956533895735134, 32.341909475331228 ], [ -90.95652769352084, 32.342043888577543 ], [ -90.95652398658406, 32.342183264690597 ], [ -90.956517056254725, 32.342315289970657 ], [ -90.956493624624997, 32.342453829255454 ], [ -90.956464601103974, 32.342593605460088 ], [ -90.956451621596045, 32.342731295015859 ], [ -90.956441145988251, 32.342860947138021 ], [ -90.956429585766969, 32.343002533540719 ], [ -90.956418216474702, 32.343138813744424 ], [ -90.956404615734314, 32.343280272243256 ], [ -90.956394101651966, 32.343413937522953 ], [ -90.956373024911031, 32.343551117854446 ], [ -90.956359266577806, 32.343688509127745 ], [ -90.956336216361422, 32.343821247039763 ], [ -90.956285233152286, 32.343960333539087 ], [ -90.956261177612888, 32.344092883413744 ], [ -90.956257508444537, 32.344233029422966 ], [ -90.956252613231115, 32.344369277619315 ], [ -90.956248395927744, 32.344509892556289 ], [ -90.956246570384579, 32.344640354110659 ], [ -90.956238045113423, 32.344785416316121 ], [ -90.956234505338585, 32.344920887675791 ], [ -90.95622874637418, 32.345058679483429 ], [ -90.956222112333904, 32.345196201463708 ], [ -90.956209857718051, 32.345330946616386 ], [ -90.956183772939283, 32.345469883051763 ], [ -90.95613908468809, 32.345606300637513 ], [ -90.956084602003514, 32.345740264983903 ], [ -90.956055840086691, 32.345875971753898 ], [ -90.95607020036897, 32.34601072256536 ], [ -90.956090833670331, 32.346144234000434 ], [ -90.956105512901772, 32.346292342391777 ], [ -90.95611657164585, 32.346427247462032 ], [ -90.95611402745547, 32.346566342685747 ], [ -90.956110457493921, 32.346702090103705 ], [ -90.956086011136819, 32.346839286961227 ], [ -90.956059914667591, 32.346976601976422 ], [ -90.956033617866751, 32.34710825561379 ], [ -90.956004591519729, 32.347247921621999 ], [ -90.955999825768586, 32.34738886925458 ], [ -90.955996104385974, 32.347526265878464 ], [ -90.955993275766843, 32.347661706612335 ], [ -90.955982023356782, 32.347796447650502 ], [ -90.955951528333458, 32.347934526513157 ], [ -90.955914647254801, 32.348071481688443 ], [ -90.955888159147193, 32.348208469424598 ], [ -90.955871517267965, 32.348341037569043 ], [ -90.95586220411414, 32.348479918162582 ], [ -90.955852965587979, 32.348615583492602 ], [ -90.955846731159454, 32.348754943969716 ], [ -90.955838478721461, 32.348892665925241 ], [ -90.955827770721228, 32.34903125218986 ], [ -90.955820555106271, 32.349164322985203 ], [ -90.955805358635018, 32.34930477285365 ], [ -90.955787774368389, 32.349441715705069 ], [ -90.95577301672418, 32.349575208772769 ], [ -90.955758089293496, 32.34971230353262 ], [ -90.955759703535719, 32.349853549679388 ], [ -90.95576453459563, 32.349986726940386 ], [ -90.955753689628779, 32.350129078837156 ], [ -90.955725764598242, 32.350264231229261 ], [ -90.955697954290528, 32.350397376558206 ], [ -90.955678796420713, 32.350536196554188 ], [ -90.955656855690918, 32.350670604276338 ], [ -90.955645858239762, 32.350809494019046 ], [ -90.95565143076719, 32.350942364604776 ] ] } },
{ "type": "Feature", "properties": { "station_id": 17, "station_ft": 7228.7, "width_ft": 3200.8, "flag": "ok", "lon": -90.95941, "lat": 32.346703, "survey_id": "LM_05_VGG_20240801_CS_4414_4374", "date": "2024-08-01 00:00:00+00:00", "method": "lines" }, "geometry": { "type": "LineString", "coordinates": [ [ -90.959948937752927, 32.341108582715847 ], [ -90.959956242556345, 32.341228910636843 ], [ -90.959948203609159, 32.341368583393347 ], [ -90.959906441624923, 32.34150078184409 ], [ -90.959874741944319, 32.341636779160659 ], [ -90.959855203349591, 32.341770983726356 ], [ -90.959831369147011, 32.341906611006486 ], [ -90.95983725109312, 32.342045994571343 ], [ -90.959863043261677, 32.34218508716986 ], [ -90.959876481570163, 32.342326219650872 ], [ -90.959865993439095, 32.342462742855723 ], [ -90.959836222272941, 32.342596861149261 ], [ -90.95980394456916, 32.342733520509917 ], [ -90.959776182681821, 32.342867738825646 ], [ -90.959751835577308, 32.343013622008613 ], [ -90.959738384301019, 32.343143178219393 ], [ -90.959722692435975, 32.343281184534298 ], [ -90.959697808946629, 32.34341970361222 ], [ -90.959687734527719, 32.343550645332165 ], [ -90.959675273958425, 32.343692346469126 ], [ -90.959660057652258, 32.343833566199564 ], [ -90.959649742628685, 32.343967065687288 ], [ -90.959630835537837, 32.344103768614595 ], [ -90.95962834711878, 32.344235991977847 ], [ -90.959623435642555, 32.344378397792255 ], [ -90.95961476876019, 32.344520931364613 ], [ -90.959596707719513, 32.344648779877417 ], [ -90.959577594420438, 32.344788424555084 ], [ -90.95956204168678, 32.344923104314475 ], [ -90.959542632111081, 32.345062008276678 ], [ -90.959537172991901, 32.345195565689629 ], [ -90.959520963767375, 32.345333657473134 ], [ -90.959495361188246, 32.345471382857468 ], [ -90.959499865435092, 32.345608188661835 ], [ -90.95949531967895, 32.345747431842639 ], [ -90.959481158375198, 32.345881966692794 ], [ -90.959475089205554, 32.346021052400822 ], [ -90.959458304886198, 32.346155573209145 ], [ -90.959436907082051, 32.346292590529409 ], [ -90.959422429841851, 32.346428474209539 ], [ -90.959417674898731, 32.346565436872893 ], [ -90.959409752274397, 32.346703349512559 ], [ -90.959390317455757, 32.346843297818623 ], [ -90.959370034010107, 32.346977725947482 ], [ -90.959361180671394, 32.34711671542675 ], [ -90.959339853259806, 32.347249967378175 ], [ -90.959322297760451, 32.347390263446904 ], [ -90.959315997783207, 32.34752858103306 ], [ -90.959311961833151, 32.347661993351359 ], [ -90.959269593994534, 32.347800847021155 ], [ -90.959226079942766, 32.347933245918632 ], [ -90.959207843648841, 32.348073299147252 ], [ -90.959220608035309, 32.348210669026322 ], [ -90.959218618869627, 32.348344979278082 ], [ -90.959204530964655, 32.348485808197204 ], [ -90.959195317797722, 32.348624277282347 ], [ -90.959186607563893, 32.348760654415116 ], [ -90.959176966245963, 32.348893572378643 ], [ -90.959135345654545, 32.349451511441146 ], [ -90.959120346300082, 32.349582203291732 ], [ -90.959115693729302, 32.349720071674192 ], [ -90.959121828443713, 32.349858574604312 ], [ -90.959125543297546, 32.349993707814576 ], [ -90.959102423237383, 32.350129964321603 ], [ -90.959077288874681, 32.350270078762989 ], [ -90.959052606993609, 32.35040540784523 ], [ -90.959036101266349, 32.350538305710792 ], [ -90.959022051793369, 32.350675231417625 ], [ -90.959008309258849, 32.350814465088014 ], [ -90.958989318875979, 32.350948803703815 ], [ -90.958995910532238, 32.351087798529832 ] ] } },
{ "type": "Feature", "properties": { "station_id": 18, "station_ft": 8295.9, "width_ft": 3127.7, "flag": "ok", "lon": -90.962707, "lat": 32.348398, "survey_id": "LM_05_VGG_20240801_CS_4414_4374", "date": "2024-08-01 00:00:00+00:00", "method": "lines" }, "geometry": { "type": "LineString", "coordinates": [ [ -90.963193024800262, 32.342227628526302 ], [ -90.963178354768957, 32.342362854428949 ], [ -90.963185934853954, 32.342503575687886 ], [ -90.963185930028118, 32.342638425362296 ], [ -90.963156668316515, 32.342775153449026 ], [ -90.96314148370125, 32.342910794025443 ], [ -90.963133632049733, 32.343048596560251 ], [ -90.963126127277434, 32.34318510509042 ], [ -90.963108652630325, 32.343326776556815 ], [ -90.963087264432815, 32.343459699420436 ], [ -90.963073187713348, 32.343596432828974 ], [ -90.963061316432018, 32.343733651210201 ], [ -90.963047225672412, 32.343872969219539 ], [ -90.963038767033254, 32.344007365981632 ], [ -90.963029056402547, 32.344143364261903 ], [ -90.963000616195387, 32.344281928744422 ], [ -90.962981522481826, 32.344418881054565 ], [ -90.962978632066424, 32.34455325000927 ], [ -90.962989796882383, 32.344697280054234 ], [ -90.962976694001568, 32.344829721443588 ], [ -90.96297802513358, 32.344970528861182 ], [ -90.962968559927532, 32.345109163636877 ], [ -90.962963280554973, 32.345244479660124 ], [ -90.962945314226531, 32.345380739152894 ], [ -90.962906415492455, 32.345514600636875 ], [ -90.962881632217659, 32.345653009743735 ], [ -90.96286357568674, 32.345790230978892 ], [ -90.962868915229848, 32.345930029106874 ], [ -90.962876058661649, 32.34606385377166 ], [ -90.962868649430874, 32.346200279686819 ], [ -90.962856359297433, 32.346342447322769 ], [ -90.9628485286771, 32.346478930343487 ], [ -90.962837465833587, 32.346616089603152 ], [ -90.962837238326671, 32.346751517453001 ], [ -90.962818741569833, 32.346890555263954 ], [ -90.962798039481726, 32.347024545919545 ], [ -90.962773414288662, 32.347157786916192 ], [ -90.962744519809945, 32.347291681364823 ], [ -90.962731190368942, 32.347428933972324 ], [ -90.962746036036961, 32.347571406248306 ], [ -90.962745346817897, 32.347710437240131 ], [ -90.962738883413195, 32.347847875617461 ], [ -90.962719524683777, 32.347984141074612 ], [ -90.962715174698616, 32.348122723194614 ], [ -90.962712907893689, 32.348253626074467 ], [ -90.962707301850344, 32.348397986829042 ], [ -90.962692761945505, 32.348533513106652 ], [ -90.962689808287038, 32.34867277541332 ], [ -90.962677873761578, 32.348810379039456 ], [ -90.962656665532776, 32.348946076549169 ], [ -90.962636583006173, 32.3490808062244 ], [ -90.962620307392939, 32.349218073483222 ], [ -90.962616199185149, 32.349359072975346 ], [ -90.962593179280887, 32.349495054549152 ], [ -90.962575285233811, 32.349627822710318 ], [ -90.962547760258232, 32.349767866774009 ], [ -90.962534214885267, 32.349902096680118 ], [ -90.962538915963947, 32.350043300205641 ], [ -90.962538672203763, 32.350181036654661 ], [ -90.962534172014585, 32.35031684375646 ], [ -90.962525010397158, 32.350452838233679 ], [ -90.962521517315608, 32.350589107434125 ], [ -90.962517951339478, 32.350728812823291 ], [ -90.962513849808275, 32.350866046363215 ], [ -90.96250763179934, 32.351001559016616 ], [ -90.9624963558215, 32.351126789412945 ] ] } },
{ "type": "Feature", "properties": { "station_id": 19, "station_ft": 9322.7, "width_ft": 2821.6, "flag": "ok", "lon": -90.966077, "lat": 32.347973, "survey_id": "LM_05_VGG_20240801_CS_4414_4374", "date": "2024-08-01 00:00:00+00:00", "method": "lines" }, "geometry": { "type": "LineString", "coordinates": [ [ -90.966412293466789, 32.34277966456591 ], [ -90.966399954810171, 32.34289555547722 ], [ -90.96638683691566, 32.343034401827552 ], [ -90.966378692129467, 32.343171353801417 ], [ -90.966376650446719, 32.343305911546764 ], [ -90.966382554620537, 32.343442298832201 ], [ -90.966378906506435, 32.343583378282979 ], [ -90.966368646070649, 32.343718719438101 ], [ -90.966348962306668, 32.343853942847943 ], [ -90.966322330572766, 32.343991070532255 ], [ -90.966296848168454, 32.344125910906001 ], [ -90.966261095581871, 32.344264430713665 ], [ -90.966225070496961, 32.344401055406003 ], [ -90.966240626359649, 32.344538025507504 ], [ -90.966252905847071, 32.344678613802301 ], [ -90.966280334605102, 32.344813985863716 ], [ -90.966292270093234, 32.344956416432701 ], [ -90.966269503730203, 32.345090803080026 ], [ -90.966252274793476, 32.345229725008686 ], [ -90.966255220830689, 32.345364642750717 ], [ -90.96624559041598, 32.345502179270191 ], [ -90.966237179739224, 32.345647378510449 ], [ -90.966218854757187, 32.34577781284051 ], [ -90.966195592496689, 32.34591074465078 ], [ -90.966185069802194, 32.346050293021626 ], [ -90.96620027064516, 32.346187347836988 ], [ -90.966209626637465, 32.34632668555075 ], [ -90.966198305664747, 32.346463268316263 ], [ -90.966179328732565, 32.346602474024216 ], [ -90.966166091775747, 32.346738215101695 ], [ -90.966153125056735, 32.346880276384198 ], [ -90.966143026436555, 32.34701102561958 ], [ -90.966131156186293, 32.347147777051099 ], [ -90.966108021997087, 32.347289861370086 ], [ -90.966093734001774, 32.347423436183369 ], [ -90.966076430242467, 32.34755658604535 ], [ -90.966071997027356, 32.347696515045087 ], [ -90.966075839320254, 32.347834451954306 ], [ -90.966076806306745, 32.347973364593877 ], [ -90.966072142908175, 32.348108155425344 ], [ -90.966066611514648, 32.348248585005607 ], [ -90.96607462047163, 32.34838501575058 ], [ -90.966084052350524, 32.348530510481652 ], [ -90.966080289759205, 32.348659799458147 ], [ -90.966059100133592, 32.348797586863796 ], [ -90.966025055571279, 32.348930572671755 ], [ -90.965990671090282, 32.349070597758953 ], [ -90.965994875457554, 32.349204849004757 ], [ -90.965995438341281, 32.349346155195242 ], [ -90.965983315032048, 32.349479279024855 ], [ -90.965970832531966, 32.34962109071305 ], [ -90.965968472950721, 32.349756611226013 ], [ -90.965975504634955, 32.349896867739197 ], [ -90.965988681284173, 32.350031514041262 ], [ -90.965982284233121, 32.35016848503804 ], [ -90.965976116115527, 32.350305839046861 ], [ -90.965981764450149, 32.350447284734656 ], [ -90.965973085630282, 32.350582150661261 ], [ -90.965960368495018, 32.350718356160122 ], [ -90.965944194714126, 32.350855678275643 ], [ -90.965917768651025, 32.350980736934225 ], [ -90.965910950332329, 32.351108336796926 ] ] } },
{ "type": "Feature", "properties": { "station_id": 20, "station_ft": 10373.5, "width_ft": 2482.2, "flag": "ok", "lon": -90.969468, "lat": 32.348135, "survey_id": "LM_05_VGG_20240801_CS_4414_4374", "date": "2024-08-01 00:00:00+00:00", "method": "lines" }, "geometry": { "type": "LineString", "coordinates": [ [ -90.969748133512979, 32.34377144933724 ], [ -90.969731029087413, 32.343881235084041 ], [ -90.96974093562352, 32.344019882603774 ], [ -90.96973914500289, 32.344157270709985 ], [ -90.969736259844638, 32.344295515627152 ], [ -90.969710405105971, 32.344431842875224 ], [ -90.969686579333967, 32.344566812602615 ], [ -90.969695062853873, 32.344705522298725 ], [ -90.969687637555083, 32.344842883805171 ], [ -90.969663852954, 32.344978897588589 ], [ -90.969651478102449, 32.345116833246308 ], [ -90.969651533657284, 32.345254376142428 ], [ -90.969653857540337, 32.345391962602825 ], [ -90.969647475265191, 32.345530226034768 ], [ -90.969639919475597, 32.345667477259468 ], [ -90.969610330587102, 32.34580233894745 ], [ -90.969606470745205, 32.345940231634451 ], [ -90.969595934240644, 32.346077058710215 ], [ -90.96960431680472, 32.346215301760395 ], [ -90.969587112625788, 32.346352656643383 ], [ -90.969573724137049, 32.346489085974959 ], [ -90.969565100204179, 32.346626287554152 ], [ -90.969545883673945, 32.34676285629093 ], [ -90.969529616836866, 32.346899986390909 ], [ -90.969525821757472, 32.347037741653956 ], [ -90.969531678594393, 32.347176052435891 ], [ -90.969542007198385, 32.347314725726029 ], [ -90.969539625597392, 32.347451044511132 ], [ -90.969516787115936, 32.347588180686266 ], [ -90.969468929317372, 32.34772239226789 ], [ -90.969469025101489, 32.34786100713783 ], [ -90.96946574340474, 32.347998209697181 ], [ -90.969468095749477, 32.348135328831617 ], [ -90.969461677054767, 32.348273151405699 ], [ -90.969438769431306, 32.348409710753351 ], [ -90.969438311543215, 32.348547998344969 ], [ -90.969423890179129, 32.348685064982611 ], [ -90.969411089264213, 32.348822342580043 ], [ -90.969402204, 32.348959299230074 ], [ -90.969399308106972, 32.349096086798994 ], [ -90.96939286048206, 32.349234350472202 ], [ -90.969390390931125, 32.349371795996959 ], [ -90.969371722754076, 32.349508196861812 ], [ -90.969347352496058, 32.349644240505796 ], [ -90.969334264514544, 32.349782124626401 ], [ -90.969316732369009, 32.349918904812633 ], [ -90.969330264898929, 32.350057396878491 ], [ -90.969331294625988, 32.350195291869483 ], [ -90.96931929731781, 32.350331769093813 ], [ -90.969315241694432, 32.350469387619469 ], [ -90.969298546724659, 32.350605585520128 ], [ -90.969320759250792, 32.350744281800097 ], [ -90.969302353964039, 32.350881257547556 ], [ -90.969296422489364, 32.351010117399603 ] ] } }
]
}
