{
"type": "FeatureCollection",
"name": "LM_09_LPM_20210605_CS_5176_5148_transects",
"crs": { "type": "name", "properties": { "name": "urn:ogc:def:crs:OGC:1.3:CRS84" } },
"features": [
{ "type": "Feature", "properties": { "station_id": 0, "station_ft": 7292.5, "width_ft": 2212.5, "flag": "ok", "lon": -91.15146, "lat": 33.109335, "survey_id": "LM_09_LPM_20210605_CS_5176_5148", "date": "2021-06-05 00:00:00+00:00", "method": "lines" }, "geometry": { "type": "LineString", "coordinates": [ [ -91.147430011723358, 33.102149747358254 ], [ -91.147489461547835, 33.102261764866235 ], [ -91.147553339714477, 33.102386614838416 ], [ -91.147611845706294, 33.102506030339207 ], [ -91.147682212498566, 33.102629766662297 ], [ -91.147744743600128, 33.102757181560563 ], [ -91.147810620279373, 33.102882705398741 ], [ -91.147891220006045, 33.103004147596323 ], [ -91.147954780685211, 33.103129879443216 ], [ -91.148025273829674, 33.103253036755362 ], [ -91.148090608047411, 33.103379828116083 ], [ -91.148165075372162, 33.103501970229473 ], [ -91.148243316143351, 33.103622493469921 ], [ -91.14830949691617, 33.103748895056853 ], [ -91.148370951294737, 33.10387623369013 ], [ -91.148437971235424, 33.104001584677434 ], [ -91.148515592582456, 33.104122112682752 ], [ -91.148578029254637, 33.104249609782386 ], [ -91.14865110855358, 33.104373381857542 ], [ -91.148732768727569, 33.104492673253624 ], [ -91.148805864153886, 33.104614549814087 ], [ -91.148869474753056, 33.104741819062653 ], [ -91.148945213444861, 33.104863567331712 ], [ -91.149018715526196, 33.104986952292222 ], [ -91.149092209176501, 33.105109402228805 ], [ -91.149162840554141, 33.105233025892602 ], [ -91.149227782534211, 33.105359462096231 ], [ -91.149303317641824, 33.105480167325936 ], [ -91.149382769905458, 33.105600653900531 ], [ -91.149445440654219, 33.105728533995631 ], [ -91.149515458045997, 33.105852848531349 ], [ -91.149576357198768, 33.105979805122487 ], [ -91.149649932310183, 33.106103821264838 ], [ -91.149719979687717, 33.106227722512045 ], [ -91.149781005280062, 33.106354156997554 ], [ -91.149834181079527, 33.106486248554766 ], [ -91.149919228582505, 33.106604307771669 ], [ -91.150009374783764, 33.106719228166597 ], [ -91.150090334871251, 33.106840227335809 ], [ -91.15015064696162, 33.106967022454853 ], [ -91.150208311769731, 33.107097161150122 ], [ -91.150268397507716, 33.107224233598373 ], [ -91.15034590143793, 33.1073456123003 ], [ -91.150414099062331, 33.107470624376433 ], [ -91.150479403225091, 33.107596920424271 ], [ -91.15055159776341, 33.107719652939167 ], [ -91.150634278798407, 33.107839348344498 ], [ -91.150716010997655, 33.107958830808073 ], [ -91.150789318589048, 33.108081830881737 ], [ -91.150853258075969, 33.108208739782064 ], [ -91.150912767299033, 33.108336886846921 ], [ -91.150961705072177, 33.108469390670685 ], [ -91.151028690428006, 33.108593806207658 ], [ -91.15109903919425, 33.108718007579455 ], [ -91.151184159244011, 33.108836422442081 ], [ -91.151253659124166, 33.108960656338908 ], [ -91.151322609555237, 33.109085580870861 ], [ -91.151393477303429, 33.109209393640576 ], [ -91.151460473066209, 33.109334687979363 ], [ -91.1515359932759, 33.109456545956391 ], [ -91.151604807945247, 33.109580839136825 ], [ -91.151668588875125, 33.109708078620471 ], [ -91.151740821843092, 33.109831003080082 ], [ -91.151818393146101, 33.10995224237994 ], [ -91.151903388045199, 33.110070905489806 ], [ -91.15196747588206, 33.110195916567669 ], [ -91.152032069049312, 33.110322600490967 ], [ -91.152102944418701, 33.110447016883228 ], [ -91.152172157383475, 33.110571802116205 ], [ -91.152247051962959, 33.110692866655853 ], [ -91.152316172171794, 33.110818119474331 ], [ -91.152385447266255, 33.110942492105394 ], [ -91.152453813029908, 33.11106733683328 ], [ -91.152525330384748, 33.111190375499177 ], [ -91.152582765661478, 33.111319799438675 ], [ -91.152649639167294, 33.111445643888466 ], [ -91.152730033522488, 33.111564500733053 ], [ -91.152803507040417, 33.111687196350061 ], [ -91.152877868908448, 33.111810462243596 ], [ -91.152949546443452, 33.111933197528614 ], [ -91.153014367518978, 33.112059439370917 ], [ -91.153082639874128, 33.112184532289248 ], [ -91.153154388760484, 33.112307733137087 ], [ -91.153216897061341, 33.112434650999042 ], [ -91.153281498566656, 33.11256185621027 ], [ -91.1533618317643, 33.112680960970764 ], [ -91.153452719857469, 33.112797302029513 ], [ -91.15349404881816, 33.112932741022597 ], [ -91.154476457127998, 33.114675062988098 ], [ -91.154534476069941, 33.11476831526587 ], [ -91.154613841435264, 33.114888249646839 ], [ -91.154681453084109, 33.115005183149215 ], [ -91.154763659896602, 33.115125181651791 ], [ -91.154846734615759, 33.115243662277422 ], [ -91.154914691217868, 33.115369388234434 ], [ -91.154983481720222, 33.115493514503299 ], [ -91.15503902779767, 33.115622674613277 ], [ -91.155115338088152, 33.115744140887422 ], [ -91.155184559381524, 33.115868786257444 ], [ -91.155259993441504, 33.115990807329048 ], [ -91.155331268654237, 33.116115054951436 ], [ -91.155395796813835, 33.116240775280211 ], [ -91.155470000791951, 33.116363876409501 ], [ -91.155541177780762, 33.116488096595511 ], [ -91.155598460525042, 33.11661776793126 ], [ -91.155680463290707, 33.116736612084175 ], [ -91.155753325548559, 33.116859254818429 ], [ -91.155833122570527, 33.116979707568007 ], [ -91.155906539932943, 33.117102428592027 ], [ -91.15596915119535, 33.117229013319736 ], [ -91.156039317422085, 33.117353157812602 ], [ -91.156126235757341, 33.117470210941846 ] ] } },
{ "type": "Feature", "properties": { "station_id": 1, "station_ft": 6297.3, "width_ft": 2549.0, "flag": "ok", "lon": -91.147713, "lat": 33.109598, "survey_id": "LM_09_LPM_20210605_CS_5176_5148", "date": "2021-06-05 00:00:00+00:00", "method": "lines" }, "geometry": { "type": "LineString", "coordinates": [ [ -91.145366024921358, 33.104322026518403 ], [ -91.145405065951394, 33.104455476309973 ], [ -91.145454145193014, 33.104586800360984 ], [ -91.145520974395936, 33.104713116260015 ], [ -91.145580626495573, 33.104840083011389 ], [ -91.14563162047908, 33.104970102408721 ], [ -91.145692593723595, 33.105098682592278 ], [ -91.145756063472547, 33.105225295254598 ], [ -91.145814582579661, 33.105353286346777 ], [ -91.145867503124308, 33.105483266022098 ], [ -91.145924505953772, 33.105613163151538 ], [ -91.146000869063045, 33.105735596224413 ], [ -91.146046433657702, 33.105868070005982 ], [ -91.146094465048293, 33.105998959676448 ], [ -91.146149870343521, 33.106129115063453 ], [ -91.14620783041434, 33.106256533421217 ], [ -91.146270134093569, 33.106384087519871 ], [ -91.146310095889945, 33.106517915971438 ], [ -91.146368931544927, 33.106644613506532 ], [ -91.146433493733582, 33.106772702796277 ], [ -91.146477921580725, 33.106905622015589 ], [ -91.146536188341884, 33.107034357338023 ], [ -91.146602003318563, 33.107160102127516 ], [ -91.146660551618425, 33.107287378448262 ], [ -91.146729037365205, 33.107412253655298 ], [ -91.146785226879061, 33.107542320642843 ], [ -91.146847042499786, 33.107669850547211 ], [ -91.146909053137279, 33.107797131184547 ], [ -91.146964219394846, 33.107925968569845 ], [ -91.147020502588447, 33.108055430704653 ], [ -91.147071436803373, 33.108185613905597 ], [ -91.147128859874158, 33.108314684429466 ], [ -91.147192725415493, 33.108441210719 ], [ -91.147265452062229, 33.108565480830961 ], [ -91.14731700876807, 33.108695825756996 ], [ -91.147356309878262, 33.10882858603118 ], [ -91.147409370896369, 33.108959141092647 ], [ -91.147474778353441, 33.109086289215263 ], [ -91.147533663031169, 33.109214441994681 ], [ -91.147602183954859, 33.109339344381581 ], [ -91.14765259960032, 33.109469696599724 ], [ -91.147712595960186, 33.109597979072142 ], [ -91.147771379030843, 33.109725610320275 ], [ -91.147830041215357, 33.10985428736123 ], [ -91.147887557161766, 33.109982613899646 ], [ -91.147945044184425, 33.110111270607369 ], [ -91.14799866258835, 33.110241903785422 ], [ -91.148056600809554, 33.110369842460457 ], [ -91.148106472115344, 33.110501324205828 ], [ -91.148162873170449, 33.110629026717426 ], [ -91.14822121358803, 33.110758116810366 ], [ -91.148305304288826, 33.110878381557299 ], [ -91.148367309930009, 33.111004755221181 ], [ -91.148401072765921, 33.11114219671289 ], [ -91.148459818087602, 33.111269112810611 ], [ -91.148530831384306, 33.111394767442036 ], [ -91.14858538585159, 33.111524020060067 ], [ -91.148638668992277, 33.111653418922828 ], [ -91.148693624778289, 33.111783630038836 ], [ -91.148753153679493, 33.11191037674746 ], [ -91.148804388883676, 33.112040833059623 ], [ -91.148859773802272, 33.112171399244474 ], [ -91.148923112246237, 33.112296883840251 ], [ -91.148977900949589, 33.112426546787624 ], [ -91.149044049822166, 33.112552232926511 ], [ -91.149095329726265, 33.112683842941983 ], [ -91.149146364559982, 33.112813612427622 ], [ -91.149204646383907, 33.112943115337757 ], [ -91.149268154841593, 33.113069258641929 ], [ -91.149332651914335, 33.113196274563023 ], [ -91.149383326668556, 33.113325964241312 ], [ -91.149428474174201, 33.113458218370191 ], [ -91.149491306553472, 33.11358532805194 ], [ -91.149562220151424, 33.113710377653412 ], [ -91.149629776952537, 33.113836219223508 ], [ -91.149671669913303, 33.113969731655637 ], [ -91.149715803209801, 33.114101718196849 ], [ -91.149799191249272, 33.114223168516112 ], [ -91.152614444526407, 33.120557580557765 ], [ -91.152692206067755, 33.120680356908821 ], [ -91.152746082557414, 33.120809144804909 ], [ -91.152815629876997, 33.120933734240481 ], [ -91.152858612506876, 33.121067486170645 ], [ -91.152909143000215, 33.121198109243345 ], [ -91.152966123615698, 33.121326931612487 ], [ -91.153025741631211, 33.121454966577886 ], [ -91.153087208047083, 33.121581368152874 ], [ -91.15314699188535, 33.121709566966146 ], [ -91.153202767888942, 33.121838754196382 ], [ -91.15325929414081, 33.121967826457258 ], [ -91.153320964960571, 33.122095161584078 ], [ -91.153370329524634, 33.12222667213689 ], [ -91.15342059569052, 33.12235682964176 ], [ -91.153485301856918, 33.122483841737072 ], [ -91.153537359045686, 33.122613438282663 ], [ -91.153601310122852, 33.122739988216502 ], [ -91.15366450894426, 33.122866515114247 ], [ -91.153716254189504, 33.122997542768481 ] ] } },
{ "type": "Feature", "properties": { "station_id": 2, "station_ft": 5380.1, "width_ft": 2211.4, "flag": "ok", "lon": -91.144358, "lat": 33.109888, "survey_id": "LM_09_LPM_20210605_CS_5176_5148", "date": "2021-06-05 00:00:00+00:00", "method": "lines" }, "geometry": { "type": "LineString", "coordinates": [ [ -91.142934407588868, 33.106120609762584 ], [ -91.142976170889142, 33.106220018999153 ], [ -91.143011760248541, 33.106354839043334 ], [ -91.143057447630568, 33.106486900179313 ], [ -91.143105286748394, 33.106618645254635 ], [ -91.143155140478953, 33.106749140125906 ], [ -91.143202594349816, 33.106881601781765 ], [ -91.143247878870497, 33.107012429260337 ], [ -91.143297608651068, 33.107143611940685 ], [ -91.143350796106461, 33.107274470065114 ], [ -91.143403067380689, 33.107405059108402 ], [ -91.143451805782746, 33.107534984017697 ], [ -91.143496512455343, 33.107666858374351 ], [ -91.14355295528091, 33.107796541097088 ], [ -91.143613457562509, 33.107923641163595 ], [ -91.143653485929207, 33.108058075051893 ], [ -91.143692395713657, 33.108191554115017 ], [ -91.143735642656935, 33.108324344937337 ], [ -91.143794194918016, 33.108452529665392 ], [ -91.143854146539155, 33.108580127290786 ], [ -91.143920729163213, 33.108707847662131 ], [ -91.143973377108082, 33.10883656481063 ], [ -91.144012551103984, 33.108970372042563 ], [ -91.144062843681283, 33.109102155716627 ], [ -91.144086412784418, 33.10923988390288 ], [ -91.144149167270129, 33.109366804007607 ], [ -91.144212351049205, 33.109494134248045 ], [ -91.144262073318345, 33.109624299432745 ], [ -91.144316276928549, 33.109755232507908 ], [ -91.144357501322631, 33.109888092131577 ], [ -91.144403225356868, 33.110020097426229 ], [ -91.144450681499819, 33.110152283482378 ], [ -91.144504637016709, 33.110281101855975 ], [ -91.144558082579763, 33.110411188563788 ], [ -91.144601260818192, 33.110543347395115 ], [ -91.144645003492073, 33.110676519616028 ], [ -91.14470682446408, 33.110804600510633 ], [ -91.144757103193925, 33.110934761835047 ], [ -91.144789234795084, 33.111069493740317 ], [ -91.144860010759388, 33.111194739998233 ], [ -91.144914603322093, 33.111325120213287 ], [ -91.144959735250794, 33.111456524997443 ], [ -91.144994291604064, 33.111592148121836 ], [ -91.145044252619385, 33.111723081401216 ], [ -91.145094509352703, 33.111854231835892 ], [ -91.145143718134932, 33.111985004961774 ], [ -91.145196343018441, 33.11211440871601 ], [ -91.145249883454824, 33.112243972386203 ], [ -91.145298226386203, 33.112376427282939 ], [ -91.14534586331439, 33.112506660536305 ], [ -91.145392897711375, 33.112638931859053 ], [ -91.1454470558552, 33.112768023437063 ], [ -91.145506952623379, 33.112896170508833 ], [ -91.145561967720809, 33.113026136472683 ], [ -91.145612026150246, 33.113156875888073 ], [ -91.145655280587476, 33.113289885851472 ], [ -91.145702731364224, 33.113421083136338 ], [ -91.145754482547787, 33.113551179377858 ], [ -91.145813561652844, 33.113679084551073 ], [ -91.145862912633817, 33.113810872590463 ], [ -91.145902681310602, 33.113944813156223 ], [ -91.145947617275212, 33.114075915820528 ], [ -91.146008172275799, 33.114204388329078 ], [ -91.146055560758782, 33.114335804963417 ], [ -91.146103629501653, 33.114466612119308 ], [ -91.146155587100949, 33.114597696847994 ], [ -91.146212821638073, 33.114727372084594 ], [ -91.146256456513399, 33.114858923115058 ], [ -91.146328502661831, 33.114983308055855 ], [ -91.146365307450694, 33.115117898942692 ], [ -91.151118986761006, 33.127500257538991 ], [ -91.15119503097506, 33.127592458699397 ], [ -91.151210349132356, 33.12773328949298 ], [ -91.151247613680042, 33.127866694352633 ], [ -91.151278632817309, 33.128002970529344 ], [ -91.151330218104505, 33.128134467186733 ], [ -91.1514294138276, 33.128250534769684 ], [ -91.151479754301008, 33.128381572467461 ], [ -91.151525140411835, 33.128513604754474 ], [ -91.151554887416992, 33.128650026250128 ], [ -91.151604347955498, 33.12878123466934 ], [ -91.151649012384553, 33.12891294072778 ], [ -91.151698934546673, 33.129044668134121 ], [ -91.151750441764335, 33.12917454390211 ], [ -91.151801010232376, 33.129305441989445 ], [ -91.151842752464447, 33.129439064264879 ], [ -91.151905789183573, 33.129565290907962 ], [ -91.151956782207677, 33.12969615908051 ], [ -91.152006369077483, 33.129826761459981 ], [ -91.152055477102337, 33.129958521094835 ], [ -91.15211399486995, 33.130087113528724 ], [ -91.152145305263872, 33.130222782491117 ], [ -91.15220108648812, 33.130352079930617 ] ] } },
{ "type": "Feature", "properties": { "station_id": 3, "station_ft": 4212.8, "width_ft": 1896.4, "flag": "ok", "lon": -91.141301, "lat": 33.111424, "survey_id": "LM_09_LPM_20210605_CS_5176_5148", "date": "2021-06-05 00:00:00+00:00", "method": "lines" }, "geometry": { "type": "LineString", "coordinates": [ [ -91.140126003011986, 33.10756449991311 ], [ -91.140163502021991, 33.107697907218324 ], [ -91.140217817993886, 33.107827632313267 ], [ -91.140251841059921, 33.107962958300597 ], [ -91.140274415918299, 33.108099731643229 ], [ -91.140325477259267, 33.108230604839918 ], [ -91.140377179372408, 33.108360181769079 ], [ -91.140408301704966, 33.108496103551197 ], [ -91.140443525995607, 33.108630569609964 ], [ -91.140460459326391, 33.108768149461916 ], [ -91.140505988118065, 33.108901064611118 ], [ -91.140549279679263, 33.109032070066753 ], [ -91.140595778701709, 33.109163851803594 ], [ -91.140641662032124, 33.109296242527961 ], [ -91.140677373352645, 33.10943034828157 ], [ -91.140724594658636, 33.109562454388971 ], [ -91.140771838707295, 33.10969351709516 ], [ -91.140821116194275, 33.109825610737893 ], [ -91.140862204932262, 33.109958499491789 ], [ -91.140891263432053, 33.110093417396939 ], [ -91.140928348792571, 33.110227733257631 ], [ -91.140965986458923, 33.110361743464864 ], [ -91.141014148939547, 33.110493212166865 ], [ -91.141066707309449, 33.110623251160341 ], [ -91.141122827407372, 33.110753431145021 ], [ -91.141152928066987, 33.110888122203917 ], [ -91.141174142400459, 33.111025839151999 ], [ -91.141212859338651, 33.111159925218992 ], [ -91.141258438812827, 33.111290970532728 ], [ -91.141300768296063, 33.111423713100365 ], [ -91.141339910188705, 33.111557714309171 ], [ -91.141379995179491, 33.11169137847407 ], [ -91.141428877161104, 33.111822759357523 ], [ -91.141476806178687, 33.111953487277241 ], [ -91.141513892774, 33.112087748801336 ], [ -91.141545730872025, 33.112222977576948 ], [ -91.141573135524297, 33.112359143075331 ], [ -91.141619528105707, 33.112489578830086 ], [ -91.141664898826548, 33.112622603572788 ], [ -91.14170563484096, 33.112755879267993 ], [ -91.141745845380413, 33.112888855393884 ], [ -91.141786191038477, 33.113022298592718 ], [ -91.141826957302513, 33.11315532608134 ], [ -91.141867685514399, 33.113287694679421 ], [ -91.141906830151441, 33.113421804740049 ], [ -91.141953845582165, 33.113552510405349 ], [ -91.141995524804344, 33.113685257791893 ], [ -91.142032060507773, 33.113819796793962 ], [ -91.142067423479403, 33.113954728404906 ], [ -91.142104983168721, 33.11408686950616 ], [ -91.142150188809282, 33.114219593938849 ], [ -91.142190018995933, 33.114353589430266 ], [ -91.142231564986147, 33.114485979616809 ], [ -91.142269428991199, 33.114619355767736 ], [ -91.142312319768635, 33.114752315159862 ], [ -91.142350742334983, 33.114885934709619 ], [ -91.142393620456318, 33.115017602056561 ], [ -91.142427881399485, 33.115153172755385 ], [ -91.142465911948733, 33.115286767753325 ], [ -91.142502535997636, 33.115420151861521 ], [ -91.142538057500062, 33.115554340190009 ], [ -91.142577952699028, 33.115688280094744 ], [ -91.142616073221348, 33.11582088531658 ], [ -91.142690321800899, 33.115947318390667 ], [ -91.142738390556957, 33.116078567764085 ], [ -91.142757939716645, 33.116215965102121 ], [ -91.142837019957909, 33.11634214758655 ], [ -91.147183216152882, 33.130825894442957 ], [ -91.147228117518338, 33.130927315380966 ], [ -91.147264043615067, 33.131061334267088 ], [ -91.1472945909521, 33.131196487411728 ], [ -91.147348520586803, 33.131327668313467 ], [ -91.147375061410258, 33.1314640017413 ], [ -91.147417306285135, 33.131596028074945 ], [ -91.147457113044368, 33.131729307408769 ], [ -91.147483974358337, 33.131865034591634 ], [ -91.147974835301468, 33.133609871109904 ], [ -91.148029429820227, 33.133703120530534 ], [ -91.148050599054059, 33.133841193023628 ], [ -91.14813040215104, 33.133965196553632 ], [ -91.148202650051459, 33.134091748863909 ], [ -91.148229519712004, 33.134228052830323 ], [ -91.148260455287542, 33.134362598992304 ] ] } },
{ "type": "Feature", "properties": { "station_id": 4, "station_ft": 3113.4, "width_ft": 1841.2, "flag": "ok", "lon": -91.138016, "lat": 33.111806, "survey_id": "LM_09_LPM_20210605_CS_5176_5148", "date": "2021-06-05 00:00:00+00:00", "method": "lines" }, "geometry": { "type": "LineString", "coordinates": [ [ -91.137413011129041, 33.109132539818972 ], [ -91.137439131666355, 33.109239582580535 ], [ -91.137467799021252, 33.109375327997761 ], [ -91.137484788986441, 33.109512440847006 ], [ -91.137512835207346, 33.109648080250786 ], [ -91.137557179312324, 33.10978040001968 ], [ -91.137594066932692, 33.109915103214412 ], [ -91.137637666302211, 33.110048086873753 ], [ -91.137645462755998, 33.110186935220419 ], [ -91.137673140801027, 33.11032150576181 ], [ -91.137708105326965, 33.110456523379035 ], [ -91.13775303355547, 33.110588316316509 ], [ -91.137774266642538, 33.110725154648094 ], [ -91.137799741702466, 33.110861662628842 ], [ -91.137834368872504, 33.11099547323397 ], [ -91.137869254305883, 33.111128925097127 ], [ -91.137880155886521, 33.111267973362828 ], [ -91.137919213330406, 33.111400574144533 ], [ -91.137952780916635, 33.111536342756239 ], [ -91.13798408203273, 33.111670642742276 ], [ -91.138016401687722, 33.111805595260698 ], [ -91.138045449185199, 33.111939826821931 ], [ -91.138076596013548, 33.112075033948081 ], [ -91.138110261180501, 33.112210636862883 ], [ -91.13814028669502, 33.112344697971295 ], [ -91.138171755574817, 33.112479352964151 ], [ -91.138201307200703, 33.112615120365035 ], [ -91.138232677466206, 33.112749748921935 ], [ -91.138262389693097, 33.11288513025071 ], [ -91.138294806246662, 33.11301991703202 ], [ -91.138326732538417, 33.113154624916142 ], [ -91.138357225800434, 33.113289617054789 ], [ -91.13839726890815, 33.113422732427864 ], [ -91.138436462683444, 33.113555634165706 ], [ -91.138483228211413, 33.113688156956059 ], [ -91.138503098426341, 33.113825718007696 ], [ -91.138519794620677, 33.113962640440512 ], [ -91.138546794125872, 33.114097709184698 ], [ -91.138574323009507, 33.114233599526237 ], [ -91.13861283644539, 33.114367137652494 ], [ -91.138650892085209, 33.114500513715953 ], [ -91.138684266010458, 33.114636283295539 ], [ -91.138712824421788, 33.11477035368118 ], [ -91.138740779127062, 33.114906240313729 ], [ -91.138768899037629, 33.11504237382762 ], [ -91.13880101363165, 33.115176063234543 ], [ -91.138842110286049, 33.115309859575518 ], [ -91.138869053663669, 33.115445835655244 ], [ -91.138898591146358, 33.115579816693952 ], [ -91.138931796268309, 33.115714845194731 ], [ -91.138965129450028, 33.115849570795831 ], [ -91.138994947219402, 33.115985584154096 ], [ -91.139019796225952, 33.116121078707231 ], [ -91.139056942325894, 33.116254900492834 ], [ -91.139091212006804, 33.116388410851876 ], [ -91.139126599805493, 33.11652279309488 ], [ -91.139163556454022, 33.116657303134176 ], [ -91.139200760656678, 33.116790162405195 ], [ -91.139226019372472, 33.11692763340897 ], [ -91.139250279635775, 33.117062884640809 ], [ -91.139276276349193, 33.117198784655265 ], [ -91.139314916919005, 33.1173316616375 ], [ -91.139377738206662, 33.117462348930538 ], [ -91.139378125870067, 33.117601327853777 ], [ -91.14287342156301, 33.132499784430976 ], [ -91.142890782617727, 33.132636728513944 ], [ -91.142927059367153, 33.132770471380198 ], [ -91.142952773765259, 33.132906427036659 ], [ -91.143008953755327, 33.133037704307021 ], [ -91.143063978145491, 33.133167642871094 ], [ -91.143117972957711, 33.133299347249988 ], [ -91.143143454888744, 33.133417055539887 ], [ -91.143606996068925, 33.135488968064926 ], [ -91.143605319406475, 33.135608694052742 ], [ -91.143637726349581, 33.135744055944322 ], [ -91.143672113970112, 33.135878140804323 ], [ -91.143699622312994, 33.136013617489759 ], [ -91.143724614316341, 33.136148972579996 ] ] } },
{ "type": "Feature", "properties": { "station_id": 5, "station_ft": 1901.0, "width_ft": 1723.6, "flag": "ok", "lon": -91.134655, "lat": 33.112276, "survey_id": "LM_09_LPM_20210605_CS_5176_5148", "date": "2021-06-05 00:00:00+00:00", "method": "lines" }, "geometry": { "type": "LineString", "coordinates": [ [ -91.13433483920285, 33.110371176749538 ], [ -91.134379457315418, 33.110505364172589 ], [ -91.13440883706086, 33.110640858667537 ], [ -91.13441018935751, 33.110779116599417 ], [ -91.134449772746592, 33.110912539272327 ], [ -91.134452832681788, 33.111051830354107 ], [ -91.134467487407647, 33.111187694486929 ], [ -91.134499609948222, 33.111323144260616 ], [ -91.134525137841209, 33.111458690519292 ], [ -91.134544637362907, 33.111595815578944 ], [ -91.134567457307952, 33.111731764244666 ], [ -91.134592204452858, 33.111867673461639 ], [ -91.134610654615031, 33.112004255228555 ], [ -91.134636898212122, 33.112139521835466 ], [ -91.134655409621956, 33.11227563612993 ], [ -91.134678274306438, 33.112412931565053 ], [ -91.134682165583641, 33.112550156041351 ], [ -91.134690958661395, 33.112687734007125 ], [ -91.134718287149227, 33.112823736579159 ], [ -91.134728673391024, 33.112960590167958 ], [ -91.134763893733677, 33.11309535988299 ], [ -91.134794163992879, 33.113231645568305 ], [ -91.134816688744294, 33.113367321035447 ], [ -91.134831157664578, 33.113504203346181 ], [ -91.134847157669455, 33.113640607837766 ], [ -91.134869950530231, 33.113776996584612 ], [ -91.134894246042222, 33.113913430660347 ], [ -91.134915729224332, 33.114049525756421 ], [ -91.134925031975996, 33.114185589191827 ], [ -91.134945869292451, 33.114322402552745 ], [ -91.134964487189265, 33.114459395189208 ], [ -91.134992537097645, 33.114595557117767 ], [ -91.135010691162634, 33.114731838601841 ], [ -91.135027959852593, 33.114867602807344 ], [ -91.13504405945757, 33.115004172505934 ], [ -91.13506022877884, 33.115141097910012 ], [ -91.135086808052506, 33.115277270162686 ], [ -91.135101709347126, 33.115414835783078 ], [ -91.135119998556576, 33.115551446372187 ], [ -91.135145943479458, 33.115686055581492 ], [ -91.135164661833755, 33.115823184560767 ], [ -91.135175763136061, 33.115959483419054 ], [ -91.135184726786974, 33.116097775192614 ], [ -91.135208043977954, 33.116234187490853 ], [ -91.13523960317643, 33.116368376424631 ], [ -91.135261557294783, 33.116505814560306 ], [ -91.135286359371563, 33.116640294016655 ], [ -91.135299041960394, 33.116778066815016 ], [ -91.135313876969434, 33.116915578698851 ], [ -91.135332686966976, 33.117051882906232 ], [ -91.135355448102459, 33.117188243729089 ], [ -91.135379862140368, 33.117323137709796 ], [ -91.135407653201696, 33.117459522044861 ], [ -91.135430441786511, 33.117595222644823 ], [ -91.135441644779959, 33.11773190579396 ], [ -91.135456847194448, 33.117870184395528 ], [ -91.135480474890429, 33.118004699289699 ], [ -91.135508596622714, 33.118141465566758 ], [ -91.135521753732093, 33.118277504045594 ], [ -91.135547847356065, 33.118413925400191 ], [ -91.135579325912289, 33.118549818864089 ], [ -91.137704341148392, 33.13328250333705 ], [ -91.137740337178101, 33.133393466264849 ], [ -91.137721081043196, 33.133534907921771 ], [ -91.137719728774954, 33.133673100681484 ], [ -91.137758064966206, 33.133807848879243 ], [ -91.137784912346021, 33.133943605375379 ], [ -91.137803629252872, 33.134079634371446 ], [ -91.137820554690222, 33.134216169944878 ], [ -91.138310814930946, 33.137610817170206 ], [ -91.138332213224871, 33.13774688366896 ], [ -91.13835579687094, 33.137882716933341 ], [ -91.13836374594301, 33.138019941511097 ], [ -91.138384359973458, 33.138156013960426 ], [ -91.138429485667444, 33.138289837926571 ], [ -91.138422859715689, 33.138429933818166 ] ] } },
{ "type": "Feature", "properties": { "station_id": 6, "station_ft": 796.7, "width_ft": 1527.8, "flag": "ok", "lon": -91.131234, "lat": 33.112364, "survey_id": "LM_09_LPM_20210605_CS_5176_5148", "date": "2021-06-05 00:00:00+00:00", "method": "lines" }, "geometry": { "type": "LineString", "coordinates": [ [ -91.131121515047937, 33.111176646565106 ], [ -91.131134436258165, 33.111291030913812 ], [ -91.131137921448357, 33.111405639770283 ], [ -91.131149962172543, 33.111541851075387 ], [ -91.131177741469429, 33.111677878663414 ], [ -91.131199843427794, 33.111814382604848 ], [ -91.131208887676735, 33.111951437205157 ], [ -91.131223325542848, 33.11208908933996 ], [ -91.131223484472997, 33.112225898761267 ], [ -91.131234107072871, 33.112364262388382 ], [ -91.131251303327844, 33.112499945634568 ], [ -91.131269145051576, 33.112638400083192 ], [ -91.131280886664882, 33.112773953238495 ], [ -91.131298968968395, 33.112910207863543 ], [ -91.131315502382847, 33.113048396564835 ], [ -91.131336359318809, 33.113184358401227 ], [ -91.131351305469678, 33.11332046808522 ], [ -91.131361045785255, 33.113458618218708 ], [ -91.131378337737615, 33.113594052848313 ], [ -91.131417971183765, 33.113729812360894 ], [ -91.131432990882701, 33.113866801580421 ], [ -91.13143374459429, 33.114004293321962 ], [ -91.13143705022172, 33.114142346687494 ], [ -91.131451542300169, 33.114278679251683 ], [ -91.131472142589629, 33.114415110645041 ], [ -91.131488139841238, 33.11455176266751 ], [ -91.131503229394966, 33.114689218476272 ], [ -91.131524023948771, 33.114825428598976 ], [ -91.131534220238649, 33.114963354852641 ], [ -91.131552727060836, 33.11509941461172 ], [ -91.131557166437574, 33.115236388600586 ], [ -91.131573298610832, 33.115373589746341 ], [ -91.131588389536262, 33.115511045515831 ], [ -91.131609696020675, 33.115646125237205 ], [ -91.131621231999276, 33.115784180837373 ], [ -91.131638855886052, 33.115920080312279 ], [ -91.131653382835154, 33.116056522589822 ], [ -91.131661748057553, 33.116194296429875 ], [ -91.131679081520574, 33.116330527760738 ], [ -91.131698638003542, 33.116467075756233 ], [ -91.131699266753785, 33.116605146206886 ], [ -91.131719313296216, 33.116741608099112 ], [ -91.13174839809642, 33.116877269099383 ], [ -91.131769854890933, 33.117014326960948 ], [ -91.131782684721571, 33.117150972126268 ], [ -91.131785797535528, 33.117289301652939 ], [ -91.131796966671558, 33.117426424516076 ], [ -91.131808295801903, 33.117563107236712 ], [ -91.131826278331332, 33.117698895241276 ], [ -91.131842063719233, 33.117837335604101 ], [ -91.131858619352897, 33.117974094822088 ], [ -91.131871508134452, 33.118109997503488 ], [ -91.13188669509465, 33.118247177544838 ], [ -91.131904482078284, 33.118382993824419 ], [ -91.131916734172776, 33.118520632678354 ], [ -91.131942327203618, 33.118656453920678 ], [ -91.131971579222508, 33.11879236260846 ], [ -91.133570775383347, 33.133513733474089 ], [ -91.1335899452028, 33.133650090271061 ], [ -91.133608856178839, 33.13378661372947 ], [ -91.133626988769649, 33.133923801300455 ], [ -91.133626734315357, 33.134061327892553 ], [ -91.13363758364207, 33.134198617244159 ], [ -91.133664580833312, 33.134326293874523 ], [ -91.134243679444182, 33.139337093389599 ], [ -91.134265049448771, 33.139477998222269 ], [ -91.134276222739572, 33.139614763238875 ], [ -91.134284381138642, 33.139725328988561 ], [ -91.134267094160833, 33.13986483321407 ], [ -91.134300600056918, 33.140000328445453 ] ] } },
{ "type": "Feature", "properties": { "station_id": 7, "station_ft": -168.9, "width_ft": 1629.8, "flag": "ok", "lon": -91.127899, "lat": 33.112457, "survey_id": "LM_09_LPM_20210605_CS_5176_5148", "date": "2021-06-05 00:00:00+00:00", "method": "lines" }, "geometry": { "type": "LineString", "coordinates": [ [ -91.127780913079604, 33.111363159549732 ], [ -91.127779705702878, 33.111501131886023 ], [ -91.127816155475742, 33.111635895856189 ], [ -91.127800688814219, 33.111775196182542 ], [ -91.127831951886151, 33.111910543225335 ], [ -91.127827347883368, 33.112048481300391 ], [ -91.12785277902735, 33.112185459664545 ], [ -91.127876375080959, 33.112321624691234 ], [ -91.127898560717952, 33.112457139581323 ], [ -91.127905617408459, 33.112595223306698 ], [ -91.127903140849355, 33.112733698725194 ], [ -91.12792327183692, 33.112869473758821 ], [ -91.127944845786629, 33.113005926657969 ], [ -91.127956336037045, 33.113143157970903 ], [ -91.127971549033376, 33.113280448495054 ], [ -91.127993345026226, 33.113416075832824 ], [ -91.128004774026564, 33.113553747537033 ], [ -91.128023276058599, 33.113689917033135 ], [ -91.128041263493245, 33.113826997786802 ], [ -91.128043348843647, 33.113964344049755 ], [ -91.128063425900677, 33.114101328513946 ], [ -91.128069069547834, 33.114238432971689 ], [ -91.128085254601672, 33.114374755173692 ], [ -91.128106340080436, 33.114511265222582 ], [ -91.128120375553493, 33.114648261145284 ], [ -91.128134076626068, 33.11478440711749 ], [ -91.128147011380378, 33.114922426233228 ], [ -91.128174686029695, 33.115058043053558 ], [ -91.128182197141896, 33.1151958217431 ], [ -91.128188759027807, 33.115333250323921 ], [ -91.128216308118056, 33.115469417042512 ], [ -91.128220409634551, 33.115605734221475 ], [ -91.128245480140791, 33.115742329701796 ], [ -91.128254328721624, 33.115879879831489 ], [ -91.128269895556784, 33.116016370918366 ], [ -91.128286247870989, 33.116153104046724 ], [ -91.128300874864436, 33.116290398194863 ], [ -91.128312364725858, 33.116427465293945 ], [ -91.128334912851329, 33.116563169747032 ], [ -91.12834689937641, 33.116701002792141 ], [ -91.128351593600655, 33.116837782319976 ], [ -91.128376592414298, 33.116973609075544 ], [ -91.128387014800268, 33.117111809147517 ], [ -91.12839641655583, 33.117249108647385 ], [ -91.128422593723641, 33.117385119920691 ], [ -91.128440598774034, 33.117520303299258 ], [ -91.128455193560427, 33.117657652603 ], [ -91.128460520287035, 33.117795748112883 ], [ -91.128467963350829, 33.117933143042748 ], [ -91.128486601342303, 33.118069696507305 ], [ -91.128502432155344, 33.11820637788275 ], [ -91.128532486989783, 33.118341375232326 ], [ -91.128551192520931, 33.11847814825321 ], [ -91.128574952666824, 33.118614119885748 ], [ -91.128585524843615, 33.118750806845071 ], [ -91.128588057250226, 33.118890432256606 ], [ -91.1302074782174, 33.133779450026665 ], [ -91.130217825046614, 33.133890662215713 ], [ -91.130242608629771, 33.134019782940065 ], [ -91.13023272530225, 33.134158634398467 ], [ -91.130255554389549, 33.134295600399845 ], [ -91.130284471239207, 33.134430246231169 ], [ -91.130302567422703, 33.134567517502326 ] ] } },
{ "type": "Feature", "properties": { "station_id": 8, "station_ft": -1145.3, "width_ft": 1976.9, "flag": "ok", "lon": -91.124277, "lat": 33.111931, "survey_id": "LM_09_LPM_20210605_CS_5176_5148", "date": "2021-06-05 00:00:00+00:00", "method": "lines" }, "geometry": { "type": "LineString", "coordinates": [ [ -91.124166729412508, 33.111003006992568 ], [ -91.124163261269658, 33.111111586595591 ], [ -91.124205027352673, 33.111246262941549 ], [ -91.124226458255706, 33.11138203040715 ], [ -91.124253446412794, 33.111518367617727 ], [ -91.124255761165784, 33.111656399662998 ], [ -91.124262780094568, 33.111794621857342 ], [ -91.124277323784341, 33.11193070802058 ], [ -91.124300290162708, 33.112066575714955 ], [ -91.124336487276622, 33.112202881490987 ], [ -91.124355244745814, 33.112339049990943 ], [ -91.124369264379652, 33.112474974450393 ], [ -91.124381506920884, 33.11261297140495 ], [ -91.124404205921692, 33.112748015731057 ], [ -91.124424048823428, 33.112885002345664 ], [ -91.124437973059173, 33.113021257401122 ], [ -91.12445180953388, 33.113158474189916 ], [ -91.124457752119781, 33.113296813173633 ], [ -91.124485193994829, 33.113432735340851 ], [ -91.124506140989197, 33.113569027842672 ], [ -91.124531585494083, 33.113704191744802 ], [ -91.124548885527688, 33.113841689477134 ], [ -91.12456257848153, 33.113977560950204 ], [ -91.12457934897111, 33.114114182003149 ], [ -91.124591722746288, 33.114252288067149 ], [ -91.12460388826571, 33.114388911299137 ], [ -91.124630522549722, 33.114525634709061 ], [ -91.12466017796929, 33.114660634767873 ], [ -91.124678483007472, 33.11479724694744 ], [ -91.124692020384117, 33.114933888495734 ], [ -91.124703988629491, 33.115070347948169 ], [ -91.124721680632604, 33.115207760179345 ], [ -91.124735964774104, 33.115343902855038 ], [ -91.124762951604552, 33.115479854847983 ], [ -91.124786219086218, 33.115616242517191 ], [ -91.124799009829843, 33.115753465844733 ], [ -91.124812579304759, 33.115889942146936 ], [ -91.124837380592183, 33.116026127998474 ], [ -91.124855521311517, 33.116162630256042 ], [ -91.124874645402301, 33.116299457174236 ], [ -91.124882341176644, 33.116436520783644 ], [ -91.12489742387875, 33.116574196587585 ], [ -91.124921113213531, 33.116710251512735 ], [ -91.124939087179783, 33.116846287735235 ], [ -91.12495354847961, 33.116983831317356 ], [ -91.124968514836624, 33.117119501621971 ], [ -91.12498591761279, 33.11725730061471 ], [ -91.125014464749398, 33.117392445514788 ], [ -91.125040667019988, 33.11752812736966 ], [ -91.125059854870685, 33.117664705860555 ], [ -91.125082114401479, 33.117801483934123 ], [ -91.125097611876257, 33.117938030858198 ], [ -91.125101526509809, 33.11807588846569 ], [ -91.125110395496876, 33.118212641602582 ], [ -91.125124763193611, 33.11835067984088 ], [ -91.125170926355949, 33.11848343151518 ], [ -91.125206199406762, 33.118618148585824 ], [ -91.125215795463589, 33.118755777111062 ], [ -91.125231234151528, 33.118893011440761 ], [ -91.125243464099285, 33.119029332027395 ], [ -91.125281191920664, 33.119164720534179 ] ] } },
{ "type": "Feature", "properties": { "station_id": 9, "station_ft": -2179.2, "width_ft": 2331.1, "flag": "ok", "lon": -91.120821, "lat": 33.112001, "survey_id": "LM_09_LPM_20210605_CS_5176_5148", "date": "2021-06-05 00:00:00+00:00", "method": "lines" }, "geometry": { "type": "LineString", "coordinates": [ [ -91.120657079263097, 33.110910624764308 ], [ -91.120689177720607, 33.111045638425736 ], [ -91.120696572728846, 33.111182814371354 ], [ -91.120726265166567, 33.111319052358489 ], [ -91.120739147656195, 33.111456303627726 ], [ -91.12074670302357, 33.111593065581872 ], [ -91.120783270643315, 33.111727583897455 ], [ -91.120819878943422, 33.111862926069008 ], [ -91.120820979369128, 33.112000911789849 ], [ -91.120838658000679, 33.112137582705429 ], [ -91.120874480366368, 33.112272709808678 ], [ -91.120911176895987, 33.112407090199561 ], [ -91.120927612912325, 33.112543521886984 ], [ -91.120938377467638, 33.112681225603978 ], [ -91.120956024547397, 33.112817924636708 ], [ -91.120973901361282, 33.112954787217383 ], [ -91.121006382595482, 33.113088726236754 ], [ -91.121039959303047, 33.113224746589843 ], [ -91.12106656978662, 33.113359464769729 ], [ -91.121081281282812, 33.113496622338893 ], [ -91.121102488884915, 33.1136334088268 ], [ -91.121124822700367, 33.113768401076193 ], [ -91.121124139082198, 33.113907634217597 ], [ -91.121126976829615, 33.114046213023762 ], [ -91.121168046738958, 33.114180070627192 ], [ -91.121194662307246, 33.114315420794419 ], [ -91.121206603941147, 33.11445311700254 ], [ -91.121223858896002, 33.11458984638346 ], [ -91.121257103246379, 33.114725016660422 ], [ -91.121273762135672, 33.114860732711563 ], [ -91.121286460677851, 33.114999056183819 ], [ -91.121314344959799, 33.115133767112638 ], [ -91.121334370916941, 33.115269763012542 ], [ -91.121346937602254, 33.115408060252044 ], [ -91.12136115392569, 33.115544505843509 ], [ -91.121375186009104, 33.115682271739409 ], [ -91.121398966762882, 33.115818162720139 ], [ -91.12142038504426, 33.115952858591605 ], [ -91.121445053606834, 33.116089403063071 ], [ -91.121469883872848, 33.116225808547739 ], [ -91.121490006627212, 33.116361666728849 ], [ -91.121519818430443, 33.116496282431442 ], [ -91.121530656022045, 33.116634673511975 ], [ -91.121539912901497, 33.116771589535304 ], [ -91.121559196093841, 33.116908553040048 ], [ -91.121593226194108, 33.117043719097452 ], [ -91.121621116310223, 33.117178951033196 ], [ -91.121652897242527, 33.117314680412214 ], [ -91.121669791503294, 33.1174509439738 ], [ -91.121688510739276, 33.117586866874312 ], [ -91.121698326435393, 33.117724164340238 ], [ -91.121715326212353, 33.117861306346597 ], [ -91.12173235435516, 33.117997899050572 ], [ -91.121748473107203, 33.118135239577221 ], [ -91.121779781976656, 33.118269158626553 ], [ -91.121805364522231, 33.118405559227824 ], [ -91.121841814180854, 33.118540984876724 ], [ -91.121857459341726, 33.118676376255934 ], [ -91.121867902301545, 33.118814274733012 ], [ -91.121889401483017, 33.118950537038607 ], [ -91.121924873096347, 33.119086187943708 ], [ -91.121923207889282, 33.119225015111027 ], [ -91.121932751454707, 33.119361050098988 ], [ -91.121970998559746, 33.119496464309144 ], [ -91.122000657895882, 33.1196321519637 ], [ -91.122004239063273, 33.11976979177588 ], [ -91.122039318409776, 33.119905253053574 ] ] } },
{ "type": "Feature", "properties": { "station_id": 10, "station_ft": -3210.7, "width_ft": 2551.1, "flag": "ok", "lon": -91.11741, "lat": 33.11293, "survey_id": "LM_09_LPM_20210605_CS_5176_5148", "date": "2021-06-05 00:00:00+00:00", "method": "lines" }, "geometry": { "type": "LineString", "coordinates": [ [ -91.117173031895078, 33.111736795055975 ], [ -91.11717474702148, 33.111848969349616 ], [ -91.117233883082875, 33.111980708504248 ], [ -91.117288271681787, 33.112111102442285 ], [ -91.11730408514164, 33.112247923592726 ], [ -91.11731634802328, 33.112385839161696 ], [ -91.11735382368218, 33.112520241891005 ], [ -91.117383924014618, 33.112655158974782 ], [ -91.117396540479916, 33.11279233022529 ], [ -91.117409581981889, 33.112929580849055 ], [ -91.117450489124153, 33.113064264906143 ], [ -91.117477229925697, 33.113199560153213 ], [ -91.117509782804035, 33.113334791768047 ], [ -91.117556156810352, 33.113467187199703 ], [ -91.117571869961182, 33.113603733902742 ], [ -91.117576597785174, 33.11374246595576 ], [ -91.117603142360622, 33.113877817394751 ], [ -91.117638171659408, 33.114012428351273 ], [ -91.117672357417177, 33.114147594622828 ], [ -91.117704732488249, 33.114281068119517 ], [ -91.117739598533532, 33.114415598011732 ], [ -91.117764580773581, 33.114551481299877 ], [ -91.117793290353049, 33.114687809083286 ], [ -91.117812824573875, 33.114824193715322 ], [ -91.117834515157227, 33.114960757723445 ], [ -91.117861089353894, 33.115095614772692 ], [ -91.117891094799134, 33.115230751368422 ], [ -91.117932515272855, 33.115364030774273 ], [ -91.117957006520214, 33.115499697082292 ], [ -91.1179829736854, 33.115636014111885 ], [ -91.117996597882808, 33.115772601810782 ], [ -91.118033162944812, 33.115907092930279 ], [ -91.118063823253465, 33.116042308292521 ], [ -91.118081927005292, 33.116179444831964 ], [ -91.118115969460632, 33.116313017670905 ], [ -91.118148300993994, 33.116448772495687 ], [ -91.118176150220322, 33.116583757560306 ], [ -91.118202272229155, 33.116718974403263 ], [ -91.118233625662739, 33.116854955363024 ], [ -91.118266756320281, 33.116988835945179 ], [ -91.118288408733733, 33.117124575930433 ], [ -91.118306086841415, 33.117261494180894 ], [ -91.118333364615623, 33.117398187847925 ], [ -91.118364738184013, 33.117532766531518 ], [ -91.118392139858003, 33.117668552317085 ], [ -91.118427985967287, 33.117802882792311 ], [ -91.118451330872546, 33.117938034995426 ], [ -91.118477395472496, 33.118074048281635 ], [ -91.118507960186221, 33.118209429985789 ], [ -91.118538163703263, 33.118344428039755 ], [ -91.118567546389329, 33.118479047143602 ], [ -91.118593123561169, 33.118615393474045 ], [ -91.118608454342436, 33.118752739400229 ], [ -91.118641033381053, 33.118886733311882 ], [ -91.11866625284155, 33.119023191874717 ], [ -91.118699421096053, 33.11915751206169 ], [ -91.118714915107375, 33.11929474692819 ], [ -91.118737902928203, 33.119430010391426 ], [ -91.118785280168851, 33.119564378939785 ], [ -91.118820788281482, 33.119697172229337 ], [ -91.118844083173286, 33.119833917875766 ], [ -91.118869455197469, 33.11996902921657 ], [ -91.118893496450568, 33.120105221024261 ], [ -91.118934197515884, 33.120238009480431 ], [ -91.118971197150572, 33.120373267488361 ], [ -91.118984432668071, 33.120509856506736 ], [ -91.119025372817347, 33.120643825504082 ] ] } },
{ "type": "Feature", "properties": { "station_id": 11, "station_ft": -4120.4, "width_ft": 2884.4, "flag": "ok", "lon": -91.1141, "lat": 33.113253, "survey_id": "LM_09_LPM_20210605_CS_5176_5148", "date": "2021-06-05 00:00:00+00:00", "method": "lines" }, "geometry": { "type": "LineString", "coordinates": [ [ -91.113884112171135, 33.112448690332393 ], [ -91.113890932268646, 33.112588426581652 ], [ -91.113940032576721, 33.112719487202618 ], [ -91.11398929394521, 33.112850327685138 ], [ -91.114024512887539, 33.112984883540065 ], [ -91.114065661362417, 33.113117753977569 ], [ -91.114099518894065, 33.113253417470666 ], [ -91.11415366336152, 33.113382441067309 ], [ -91.114201502329635, 33.113514829512134 ], [ -91.114222727785346, 33.113651204184542 ], [ -91.114247319654709, 33.113787805714175 ], [ -91.114300666523107, 33.113918895450759 ], [ -91.114342237465664, 33.114051460160887 ], [ -91.114379446840076, 33.114185618393066 ], [ -91.114427076919327, 33.114316468883878 ], [ -91.114470748416608, 33.114450257466693 ], [ -91.114504300184791, 33.114584411526842 ], [ -91.114542808296903, 33.11471768242405 ], [ -91.114573627623898, 33.114853117730767 ], [ -91.114618363093342, 33.114985277469309 ], [ -91.114666776546841, 33.115115930877877 ], [ -91.114703856184093, 33.115250089796035 ], [ -91.114739668616465, 33.115384999622627 ], [ -91.114773452548135, 33.115519509190037 ], [ -91.114816818733217, 33.115651842430374 ], [ -91.114853307482178, 33.115785648834304 ], [ -91.114891873756775, 33.115917984191555 ], [ -91.114923966531691, 33.116053247286835 ], [ -91.114975984844904, 33.116185279131322 ], [ -91.115022934154283, 33.116316462716398 ], [ -91.115060567439642, 33.116450343913087 ], [ -91.11509464440762, 33.11658468651904 ], [ -91.115123797874745, 33.116719857979753 ], [ -91.115176005756851, 33.116850953498719 ], [ -91.115211096297926, 33.116985372655911 ], [ -91.115248299457491, 33.117118651454426 ], [ -91.115296040315641, 33.117250544967874 ], [ -91.115330045075538, 33.117384036762509 ], [ -91.115376132894639, 33.117517259755715 ], [ -91.115413498426236, 33.117650427466806 ], [ -91.115442657880948, 33.117786175854832 ], [ -91.115492735761393, 33.117916432499364 ], [ -91.115528295558278, 33.118051947728226 ], [ -91.115555007145048, 33.118187958502084 ], [ -91.115607855448985, 33.118317511526243 ], [ -91.115648258838419, 33.118450495067378 ], [ -91.115677744758244, 33.118586131324484 ], [ -91.115721639687337, 33.118718790853251 ], [ -91.115764385179048, 33.118850742555203 ], [ -91.115800131303203, 33.118985185324952 ], [ -91.115845106599707, 33.119118195076133 ], [ -91.115889748757965, 33.119250354820494 ], [ -91.115912383792349, 33.119386803148949 ], [ -91.115943628220251, 33.119521768250003 ], [ -91.116001964026083, 33.119651313653172 ], [ -91.116068322925642, 33.119779462432952 ], [ -91.116095648105144, 33.119914425053381 ], [ -91.116121352408555, 33.120050744040832 ], [ -91.116146804861899, 33.120188135786137 ], [ -91.116189394249545, 33.120320693301757 ], [ -91.116234166341869, 33.120452632965772 ], [ -91.116284805664449, 33.120583298651752 ], [ -91.116317879383459, 33.12071816917701 ], [ -91.116351300204073, 33.120851691314691 ], [ -91.116378712514248, 33.120989016574228 ], [ -91.116415596838806, 33.121122791931178 ], [ -91.116469979277596, 33.121251839845456 ], [ -91.1165314893112, 33.121381805013989 ], [ -91.116549162767825, 33.121518394357437 ], [ -91.116571471448808, 33.121654706599458 ], [ -91.116627771291093, 33.121786271561788 ], [ -91.116692460746975, 33.121913770416498 ], [ -91.116714639776959, 33.12205016639038 ], [ -91.116729205337691, 33.122189797628188 ], [ -91.116738385277515, 33.122329903638366 ] ] } },
{ "type": "Feature", "properties": { "station_id": 12, "station_ft": -5163.5, "width_ft": 2549.3, "flag": "ok", "lon": -91.110309, "lat": 33.11396, "survey_id": "LM_09_LPM_20210605_CS_5176_5148", "date": "2021-06-05 00:00:00+00:00", "method": "lines" }, "geometry": { "type": "LineString", "coordinates": [ [ -91.109966558881538, 33.113102581736669 ], [ -91.110006597954552, 33.113199072600608 ], [ -91.110061234683883, 33.113306795663526 ], [ -91.110098553814836, 33.113439470411798 ], [ -91.110145337086664, 33.113571289974509 ], [ -91.110222414749401, 33.113694372810322 ], [ -91.110258812598573, 33.113829939494281 ], [ -91.110309111963602, 33.113960444966821 ], [ -91.110372962729713, 33.114087128487903 ], [ -91.110432513636482, 33.11421499292554 ], [ -91.110476302022349, 33.114347903103642 ], [ -91.110523742814152, 33.114480047506269 ], [ -91.110573200123326, 33.11461132813163 ], [ -91.110622259392656, 33.114741923240587 ], [ -91.110673111195467, 33.114872013028652 ], [ -91.110729442672564, 33.115001381534341 ], [ -91.110781864674394, 33.115131736484514 ], [ -91.11083342945841, 33.115261216725393 ], [ -91.110891356778836, 33.115389970167371 ], [ -91.110943681176394, 33.115520380648462 ], [ -91.110995812810643, 33.115651149368475 ], [ -91.111047225542379, 33.115781784593565 ], [ -91.111094853310519, 33.115912828430481 ], [ -91.111154924553261, 33.116040140101113 ], [ -91.111206338727385, 33.11617088524347 ], [ -91.111256672448036, 33.116301445049587 ], [ -91.111310209036475, 33.116432012787364 ], [ -91.111358197944469, 33.116563219255092 ], [ -91.111420872937899, 33.116689469483653 ], [ -91.111464863329388, 33.116822735039882 ], [ -91.111511287723175, 33.116954116212128 ], [ -91.11156013524436, 33.11708638841003 ], [ -91.111618281314634, 33.117213683892409 ], [ -91.111668785533197, 33.11734484745687 ], [ -91.11171534840247, 33.117477161803855 ], [ -91.111779620940638, 33.11760290772898 ], [ -91.111832176477577, 33.117733343375299 ], [ -91.111885126599375, 33.117863913584159 ], [ -91.111933700554715, 33.117994567013653 ], [ -91.111980353679499, 33.118125973596598 ], [ -91.112038388056121, 33.118255275767304 ], [ -91.112109059173548, 33.118380733552954 ], [ -91.112146649585, 33.118513791756932 ], [ -91.112195919721287, 33.118645538948698 ], [ -91.112252381563607, 33.118774328765021 ], [ -91.112301253556581, 33.118905364272401 ], [ -91.112344623510197, 33.119038221265626 ], [ -91.112393043140074, 33.119169809576441 ], [ -91.112467677678978, 33.119292686113191 ], [ -91.112519714944455, 33.119423289663885 ], [ -91.112572927754485, 33.119553885837504 ], [ -91.112605805885849, 33.119689501621764 ], [ -91.112657155677184, 33.119819861442977 ], [ -91.112717816420272, 33.119946865591501 ], [ -91.112799774106705, 33.120070384074893 ], [ -91.112854700668152, 33.120198990220331 ], [ -91.112897936796557, 33.120331325751131 ], [ -91.11293273761693, 33.120466406427894 ], [ -91.11298301994033, 33.120597844856029 ], [ -91.113027162803292, 33.120729432581982 ], [ -91.113070531388374, 33.12086190336084 ], [ -91.113125312521802, 33.120992380338357 ], [ -91.113155783329375, 33.12112897218114 ], [ -91.113215573128457, 33.121257025632559 ], [ -91.113294452527356, 33.121379380925127 ], [ -91.113360169435651, 33.121505500984711 ], [ -91.113408499945976, 33.121637584400254 ], [ -91.113456794611267, 33.121769475060027 ], [ -91.113505856110365, 33.121899244675092 ], [ -91.113540432386003, 33.122034683602962 ], [ -91.113599210586202, 33.122162716126049 ], [ -91.113666883042143, 33.122288109630837 ], [ -91.113707756750841, 33.122422767888999 ], [ -91.113765619534021, 33.122550586047105 ], [ -91.113815829985739, 33.12268100744118 ], [ -91.113865295071221, 33.122812066452816 ], [ -91.113920177460955, 33.122942569436155 ], [ -91.113979405371509, 33.123069581850281 ], [ -91.11402135226993, 33.123203600285549 ], [ -91.114082245134369, 33.123330547209093 ], [ -91.114136628530247, 33.123459926119857 ], [ -91.114183452166543, 33.123591358595228 ] ] } },
{ "type": "Feature", "properties": { "station_id": 13, "station_ft": -6054.3, "width_ft": 2789.1, "flag": "ok", "lon": -91.106903, "lat": 33.115097, "survey_id": "LM_09_LPM_20210605_CS_5176_5148", "date": "2021-06-05 00:00:00+00:00", "method": "lines" }, "geometry": { "type": "LineString", "coordinates": [ [ -91.106489697075872, 33.114349422214495 ], [ -91.106566920353814, 33.114470913175879 ], [ -91.106635577083722, 33.114595039633635 ], [ -91.106689298609993, 33.114725360351393 ], [ -91.106766748060963, 33.114846547712894 ], [ -91.106839476578315, 33.114969412582006 ], [ -91.106902510845259, 33.115096570031682 ], [ -91.10695856867747, 33.115225034899936 ], [ -91.107028999013309, 33.115350167191785 ], [ -91.107104884908779, 33.115471693140407 ], [ -91.107189919922291, 33.115590001863133 ], [ -91.10725393851736, 33.115717620067933 ], [ -91.107315406940501, 33.11584484201078 ], [ -91.107377617684335, 33.115971042222419 ], [ -91.107451329796191, 33.116094065593906 ], [ -91.10750941733437, 33.116223012591014 ], [ -91.107574987339035, 33.116348559750257 ], [ -91.107640402767245, 33.116475151967343 ], [ -91.107709976166333, 33.11659910796768 ], [ -91.107787724196356, 33.116720511883692 ], [ -91.10785748972738, 33.116843971581623 ], [ -91.107919516034187, 33.116971326776401 ], [ -91.107988245651725, 33.117095864919804 ], [ -91.108061601616711, 33.117219000111156 ], [ -91.108133781596479, 33.117342169617309 ], [ -91.108190120194578, 33.117472583330297 ], [ -91.108256182261584, 33.117598182934138 ], [ -91.108320870414786, 33.117723487180257 ], [ -91.108390684863693, 33.117848678353823 ], [ -91.108467293421285, 33.117970280947922 ], [ -91.108533323527737, 33.118095934687574 ], [ -91.108594960652681, 33.11822329282797 ], [ -91.108659099480633, 33.118349260319292 ], [ -91.1087221670102, 33.118475839461226 ], [ -91.108795823341381, 33.11859949437379 ], [ -91.108873538793631, 33.118720594787519 ], [ -91.10893966259205, 33.118845560630575 ], [ -91.10900228353475, 33.118973297435033 ], [ -91.109075500679566, 33.119095167787073 ], [ -91.109133827385861, 33.119224854515487 ], [ -91.109191655290388, 33.11935336222723 ], [ -91.109253421978565, 33.119480498284979 ], [ -91.109313143012656, 33.119608939141948 ], [ -91.109386653511038, 33.119730671311601 ], [ -91.109475672206528, 33.11984812849461 ], [ -91.109553978546458, 33.119969170662017 ], [ -91.109623950004291, 33.120093288005258 ], [ -91.109682204965196, 33.120221957806102 ], [ -91.109735707204365, 33.120352498401509 ], [ -91.109793014114771, 33.120481036093921 ], [ -91.109869506251314, 33.120603655549914 ], [ -91.109951036906068, 33.12072371526628 ], [ -91.110025134086683, 33.120845058352415 ], [ -91.110092924537398, 33.120969821069615 ], [ -91.110156073756357, 33.121097800087405 ], [ -91.110248802781214, 33.121213475282637 ], [ -91.110320046344242, 33.121337144246866 ], [ -91.110373965437475, 33.121466526891787 ], [ -91.110431342201196, 33.121595504735375 ], [ -91.110498850876482, 33.12172147720333 ], [ -91.110558466170929, 33.121848598904862 ], [ -91.110632155512562, 33.121971730347006 ], [ -91.110708932589873, 33.122093083318013 ], [ -91.110762567632193, 33.122223430526965 ], [ -91.110819916715627, 33.122352792451608 ], [ -91.110889367796219, 33.122476774297745 ], [ -91.110956155327173, 33.122602229823649 ], [ -91.111024836382157, 33.122727673491418 ], [ -91.111087059390428, 33.122854091558715 ], [ -91.111167784230204, 33.122974814555491 ], [ -91.111238403849939, 33.123097772709158 ], [ -91.111299082122272, 33.12322672858653 ], [ -91.111368599077295, 33.123350489717907 ], [ -91.111433888532758, 33.123476394328549 ], [ -91.111498065179561, 33.123601974937664 ], [ -91.111566005753389, 33.12372832997908 ], [ -91.111636525782373, 33.123851040545247 ], [ -91.111712042321997, 33.123973582800168 ], [ -91.111761843020886, 33.124105903784255 ], [ -91.111817818698327, 33.124234751701486 ], [ -91.111879828807247, 33.124362654803569 ], [ -91.111967386539376, 33.124480119181193 ], [ -91.112062325243613, 33.124593909943371 ], [ -91.112115312911044, 33.124724562594203 ], [ -91.112189622940434, 33.124847195025538 ], [ -91.11224967397375, 33.124975082217276 ], [ -91.112333664515276, 33.125095344859311 ] ] } },
{ "type": "Feature", "properties": { "station_id": 14, "station_ft": -6951.4, "width_ft": 3068.2, "flag": "ok", "lon": -91.103296, "lat": 33.116269, "survey_id": "LM_09_LPM_20210605_CS_5176_5148", "date": "2021-06-05 00:00:00+00:00", "method": "lines" }, "geometry": { "type": "LineString", "coordinates": [ [ -91.102734458648101, 33.115476904333853 ], [ -91.10278670489447, 33.115565929357921 ], [ -91.102869190049873, 33.115684668884569 ], [ -91.102965617392783, 33.115795544420081 ], [ -91.103031448792649, 33.115921862449895 ], [ -91.103116122926778, 33.116040643282261 ], [ -91.103206181258599, 33.116155103337903 ], [ -91.103296464790404, 33.116269066914924 ], [ -91.103372933790595, 33.116390619504607 ], [ -91.103463387830331, 33.116505406027294 ], [ -91.103551989214964, 33.116621139866908 ], [ -91.103634897328575, 33.116739491221658 ], [ -91.103705846862525, 33.1168645951321 ], [ -91.103776878742295, 33.116987939326719 ], [ -91.103859756326855, 33.117106400712281 ], [ -91.103951160818397, 33.117221401888969 ], [ -91.104033421383846, 33.117340196978489 ], [ -91.104108334435082, 33.117462856939568 ], [ -91.104186754813028, 33.117583077772601 ], [ -91.10425658466481, 33.117707034126873 ], [ -91.10435207927172, 33.117818985477363 ], [ -91.104458435868182, 33.117925785908355 ], [ -91.104546625930794, 33.118042812731154 ], [ -91.104625568498605, 33.118162947081956 ], [ -91.104694982940828, 33.118287674867375 ], [ -91.104758669599178, 33.118414884304698 ], [ -91.104831803867157, 33.118539149863054 ], [ -91.104934127345231, 33.118647623991471 ], [ -91.105042272853552, 33.118753312779027 ], [ -91.105135361446102, 33.118866433434647 ], [ -91.105226632724424, 33.11898074736559 ], [ -91.105295954914723, 33.119106025378628 ], [ -91.10535451790436, 33.119237141608721 ], [ -91.105442440981378, 33.119353124368907 ], [ -91.105535727768725, 33.119466353480853 ], [ -91.105615899298812, 33.119584830381918 ], [ -91.105690827437343, 33.119708616309268 ], [ -91.105780664454812, 33.119823048699658 ], [ -91.105862177308481, 33.119941792124891 ], [ -91.105940668885651, 33.120062148380818 ], [ -91.10601736925922, 33.120183257766037 ], [ -91.106108981888369, 33.120298942134454 ], [ -91.106197091939208, 33.120413769928135 ], [ -91.106293019652682, 33.12052610202494 ], [ -91.106374335722208, 33.120644489249472 ], [ -91.106457292638368, 33.120763745365608 ], [ -91.106526377023172, 33.120887567006939 ], [ -91.106609798775821, 33.121007727210198 ], [ -91.106695116068295, 33.121124193163475 ], [ -91.106777019070435, 33.121242301452256 ], [ -91.106861271190468, 33.121360175092384 ], [ -91.106951119862046, 33.121475567691007 ], [ -91.107022684898226, 33.121599126573344 ], [ -91.107105743040549, 33.121718601603938 ], [ -91.10720236859494, 33.121828346236271 ], [ -91.107293040459055, 33.121944393482572 ], [ -91.107367404362762, 33.122066752674847 ], [ -91.107439593033462, 33.122190554481001 ], [ -91.107530828755941, 33.122303739741852 ], [ -91.107609553122771, 33.122424231373742 ], [ -91.107686273424093, 33.122546987780225 ], [ -91.107768795878599, 33.122664679454843 ], [ -91.107858779986827, 33.122780318471555 ], [ -91.107947281200083, 33.122894481586044 ], [ -91.108028257481806, 33.123014545968026 ], [ -91.108101000505258, 33.123138069803403 ], [ -91.108181252458252, 33.123257479460214 ], [ -91.108263631373177, 33.123377341996779 ], [ -91.108345350974034, 33.123496412400343 ], [ -91.108441692479261, 33.123606843949311 ], [ -91.108533722216563, 33.123720930568446 ], [ -91.108625099056539, 33.123835076179937 ], [ -91.108697590369943, 33.123959535335175 ], [ -91.108772711129077, 33.124081998912835 ], [ -91.108859078545379, 33.124198401741019 ], [ -91.108948606923121, 33.124313904798171 ], [ -91.109035260526625, 33.124429288630232 ], [ -91.109126568807397, 33.12454291220903 ], [ -91.109207544130399, 33.124662508707473 ], [ -91.109288456723419, 33.124782379647669 ], [ -91.109362762900389, 33.124905012919392 ], [ -91.109439567715611, 33.125025762317783 ], [ -91.10952578544061, 33.125143456775582 ], [ -91.109619373996367, 33.125256185733186 ], [ -91.10970090281053, 33.125375449328153 ], [ -91.109776372818601, 33.125496507977672 ], [ -91.109852442099964, 33.125618910839655 ], [ -91.10994346368031, 33.125733057632914 ], [ -91.11003078465717, 33.125849809807818 ], [ -91.11010734052293, 33.125971659449675 ], [ -91.110191141972933, 33.12608928642598 ], [ -91.110278615241185, 33.126204636269868 ], [ -91.110369152407657, 33.126319252817531 ], [ -91.110456175376157, 33.126435375363222 ], [ -91.110538818242176, 33.1265548234759 ], [ -91.110613843545394, 33.12667709439252 ], [ -91.110688382646032, 33.126799862408447 ], [ -91.110765264176777, 33.126921379569936 ] ] } }
]
}
