{
"type": "FeatureCollection",
"name": "LM_02_GCG_20220717_CS_3598_3476_B_transects",
"crs": { "type": "name", "properties": { "name": "urn:ogc:def:crs:OGC:1.3:CRS84" } },
"features": [
{ "type": "Feature", "properties": { "station_id": 0, "station_ft": 7132.3, "width_ft": 2669.1, "flag": "ok", "lon": -91.513262, "lat": 31.514955, "survey_id": "LM_02_GCG_20220717_CS_3598_3476_B", "date": "2022-07-17 00:00:00+00:00", "method": "lines" }, "geometry": { "type": "LineString", "coordinates": [ [ -91.50329087164404, 31.509437678843106 ], [ -91.503425472645546, 31.509512618108065 ], [ -91.503561965062758, 31.509584819048587 ], [ -91.503685560703374, 31.509672668556487 ], [ -91.503826492008088, 31.509740595321972 ], [ -91.503957996231577, 31.509816661695073 ], [ -91.504097202991403, 31.50988520907411 ], [ -91.504237998868945, 31.509955142325826 ], [ -91.504359371463039, 31.510044605974471 ], [ -91.504493888716283, 31.510117841255649 ], [ -91.504629041248904, 31.510195743054378 ], [ -91.504763266692166, 31.51027128944855 ], [ -91.504901383552877, 31.510339789992695 ], [ -91.505032287542022, 31.510419077619087 ], [ -91.505164841516489, 31.510496864649681 ], [ -91.505303264207186, 31.510566709308762 ], [ -91.505449289476672, 31.510626176033078 ], [ -91.505584059022027, 31.51070144149271 ], [ -91.50571071652962, 31.510787474360495 ], [ -91.505849482696107, 31.51085651803086 ], [ -91.505983513667971, 31.510929151016715 ], [ -91.506107365998886, 31.511021806211865 ], [ -91.506242634130587, 31.51109324525364 ], [ -91.506389287755894, 31.511154024521939 ], [ -91.506520173838538, 31.511234300070836 ], [ -91.506657835006692, 31.511304617364381 ], [ -91.506792950809597, 31.511376689401068 ], [ -91.506927304275763, 31.511451930164416 ], [ -91.507057183834675, 31.511531197094733 ], [ -91.507198292307677, 31.511600080691984 ], [ -91.507324631427494, 31.511683503077094 ], [ -91.507464790616979, 31.511750772658107 ], [ -91.507611554182589, 31.511812538809291 ], [ -91.507742990458866, 31.511887915492181 ], [ -91.507877760879708, 31.511965569255679 ], [ -91.508013799056243, 31.512036835166398 ], [ -91.508144055997164, 31.512117856999975 ], [ -91.508283672244119, 31.512187824465968 ], [ -91.508423102543091, 31.512255786871624 ], [ -91.508547230496845, 31.512344478878976 ], [ -91.508675394271322, 31.512427415967977 ], [ -91.508808680540014, 31.512504286023482 ], [ -91.508950465586508, 31.512567965872801 ], [ -91.509081739649076, 31.512648125128287 ], [ -91.509223083969275, 31.512715079720309 ], [ -91.509361512858007, 31.512784919809736 ], [ -91.509494825826494, 31.512858709975688 ], [ -91.509631292597902, 31.512930711495969 ], [ -91.509763044291702, 31.513010508507641 ], [ -91.509885567702682, 31.513101522655852 ], [ -91.510018013638444, 31.513177711933388 ], [ -91.510156927221715, 31.513247738772836 ], [ -91.510302580579392, 31.513307615385397 ], [ -91.510424699442098, 31.513399539979414 ], [ -91.510556855711386, 31.513475731347391 ], [ -91.510692711414791, 31.513549991943723 ], [ -91.510827285023467, 31.51362693005315 ], [ -91.510965686556204, 31.513696905690015 ], [ -91.511108278945343, 31.513760823661553 ], [ -91.51123883400227, 31.513839612838101 ], [ -91.511364813847365, 31.513927184711577 ], [ -91.511496750864893, 31.514003569191349 ], [ -91.511636837519902, 31.514072265074741 ], [ -91.511765016856714, 31.514153521388064 ], [ -91.511902671089089, 31.514225235314775 ], [ -91.512042790476883, 31.514291373703038 ], [ -91.512176504084977, 31.514368648350377 ], [ -91.512306265670588, 31.514448075909552 ], [ -91.512440812691096, 31.514525204608802 ], [ -91.512577965344647, 31.514597801712096 ], [ -91.512717586249522, 31.514664988275157 ], [ -91.512852587142092, 31.514737384862183 ], [ -91.512990009487154, 31.514808439572125 ], [ -91.513122301509711, 31.514887320775102 ], [ -91.513261861065615, 31.514954754400154 ], [ -91.513398812679029, 31.51502650020775 ], [ -91.51352854031451, 31.515108181419194 ], [ -91.513666464792024, 31.515180742244898 ], [ -91.513797177003099, 31.515258977152588 ], [ -91.513929269046812, 31.515337255103045 ], [ -91.514075405204693, 31.515396737768238 ], [ -91.514209428538209, 31.515472935974252 ], [ -91.514349111931097, 31.515539790056252 ], [ -91.514485201655617, 31.515611844743482 ], [ -91.5146184912102, 31.515688241376637 ], [ -91.514747431045436, 31.515773418733843 ], [ -91.514862327538353, 31.515872222696167 ], [ -91.51499631057176, 31.515947540221624 ], [ -91.515119312683893, 31.51604024924578 ], [ -91.515257895173121, 31.516108761953618 ] ] } },
{ "type": "Feature", "properties": { "station_id": 1, "station_ft": 6210.1, "width_ft": 3017.7, "flag": "ok", "lon": -91.512675, "lat": 31.518967, "survey_id": "LM_02_GCG_20220717_CS_3598_3476_B", "date": "2022-07-17 00:00:00+00:00", "method": "lines" }, "geometry": { "type": "LineString", "coordinates": [ [ -91.501648747210936, 31.5106703668976 ], [ -91.501757809341939, 31.510735040878746 ], [ -91.501861942941076, 31.510842008707769 ], [ -91.501997427927051, 31.510918288735503 ], [ -91.502109615840695, 31.511017541412301 ], [ -91.502210314548137, 31.511126904969665 ], [ -91.502339499542614, 31.511210004243452 ], [ -91.502472818560292, 31.511287430851525 ], [ -91.502599188433848, 31.51137377157302 ], [ -91.502724316068921, 31.511458143960837 ], [ -91.502838278171566, 31.511555456108304 ], [ -91.502954818729123, 31.511651177163213 ], [ -91.503078028654585, 31.511738728605057 ], [ -91.503202917158973, 31.511824450054529 ], [ -91.503328465400358, 31.511911649787308 ], [ -91.503442899421316, 31.512008131863933 ], [ -91.503569829508024, 31.51209281698328 ], [ -91.503693183780143, 31.512179019126638 ], [ -91.503803707630965, 31.51228089722466 ], [ -91.503917932761127, 31.512378618103966 ], [ -91.504039937293911, 31.512467113925386 ], [ -91.50415783651647, 31.512560842746119 ], [ -91.504280280654299, 31.51264859208419 ], [ -91.504399619375278, 31.512739365667038 ], [ -91.504511780083675, 31.512838589330734 ], [ -91.504631780528385, 31.512930979054925 ], [ -91.504769586332316, 31.513005118154648 ], [ -91.504894864976748, 31.513091053462869 ], [ -91.505008043299057, 31.513189498076049 ], [ -91.505117486161254, 31.513289405326042 ], [ -91.505243808973304, 31.51337409428012 ], [ -91.505368556694094, 31.513461107168233 ], [ -91.505490059229146, 31.513552849194649 ], [ -91.505612641864971, 31.513641201076233 ], [ -91.505731494548399, 31.513731373578896 ], [ -91.505846719535356, 31.51382658176653 ], [ -91.505958037016526, 31.513927516323491 ], [ -91.506086607668678, 31.514009655026211 ], [ -91.50621096351982, 31.514098539280891 ], [ -91.506328051811238, 31.514191228205835 ], [ -91.506451161402467, 31.514280508733254 ], [ -91.50653254307818, 31.514337735944856 ], [ -91.506653760132394, 31.514427005667606 ], [ -91.506769699036624, 31.514522673595724 ], [ -91.506896632385761, 31.514607191116628 ], [ -91.507018827325453, 31.514697660886526 ], [ -91.507131575793849, 31.514794733060157 ], [ -91.507261882257865, 31.514876936678093 ], [ -91.507396167388279, 31.514953936057079 ], [ -91.507499631913092, 31.515060383929733 ], [ -91.507620741996519, 31.515151221090932 ], [ -91.50774093138007, 31.515240307079818 ], [ -91.507865958927027, 31.515328771348852 ], [ -91.507980281218266, 31.515423271552248 ], [ -91.50810496513445, 31.515509896258486 ], [ -91.508231243156004, 31.515595682811323 ], [ -91.508350180478573, 31.515687171402732 ], [ -91.508467332646461, 31.515782112316078 ], [ -91.508592166839392, 31.515867800833885 ], [ -91.508698507969356, 31.515973176017301 ], [ -91.508813960531569, 31.516068105158194 ], [ -91.508940633457698, 31.516154546603641 ], [ -91.509072841416739, 31.516234559183388 ], [ -91.509197868346092, 31.516320246216797 ], [ -91.509307301135848, 31.516421304166659 ], [ -91.509424563981398, 31.516514676637399 ], [ -91.509548232391296, 31.516604471091998 ], [ -91.509677425716305, 31.516684593711481 ], [ -91.50979224044444, 31.516779719888969 ], [ -91.509908154984899, 31.516878078885583 ], [ -91.510038608158183, 31.516958711708568 ], [ -91.510158925047691, 31.517047354957295 ], [ -91.510269384432164, 31.517150794298324 ], [ -91.510397115880522, 31.517234365649951 ], [ -91.510513751119476, 31.517328732179099 ], [ -91.510641534116303, 31.517411340532163 ], [ -91.510760213155308, 31.517504862827391 ], [ -91.510885340832829, 31.517590602230147 ], [ -91.511013963726413, 31.517673559597288 ], [ -91.511126177358733, 31.51777093512937 ], [ -91.511242325493541, 31.517867229088953 ], [ -91.511360217589669, 31.51795935657897 ], [ -91.511467063060508, 31.518063543278878 ], [ -91.511566220185145, 31.518176431371607 ], [ -91.511704826529993, 31.518246789251098 ], [ -91.511833315184063, 31.518331754508239 ], [ -91.511939603214699, 31.518434900688021 ], [ -91.512065585710346, 31.518519530759384 ], [ -91.512196574619466, 31.51860166875748 ], [ -91.512308748129414, 31.518700692147537 ], [ -91.512442017839973, 31.518777888389145 ], [ -91.512551680188309, 31.518878777175217 ], [ -91.512675306493648, 31.518967414504171 ], [ -91.512796034079415, 31.519057589930487 ], [ -91.512929378907444, 31.519135581283805 ], [ -91.513064622664956, 31.519211439249386 ] ] } },
{ "type": "Feature", "properties": { "station_id": 2, "station_ft": 5231.7, "width_ft": 2203.2, "flag": "ok", "lon": -91.506845, "lat": 31.518746, "survey_id": "LM_02_GCG_20220717_CS_3598_3476_B", "date": "2022-07-17 00:00:00+00:00", "method": "lines" }, "geometry": { "type": "LineString", "coordinates": [ [ -91.500675329920554, 31.512595634973131 ], [ -91.500780171555675, 31.512700123407985 ], [ -91.500888771207684, 31.512802296679226 ], [ -91.500991761237515, 31.51290751699457 ], [ -91.501087925512266, 31.513015933450944 ], [ -91.501196156334274, 31.513119373302644 ], [ -91.501302331545176, 31.513220111847598 ], [ -91.501404502178474, 31.513326410687 ], [ -91.501507237587845, 31.513431632886061 ], [ -91.501614938265504, 31.513533676631972 ], [ -91.501720727686759, 31.513636754120785 ], [ -91.501830975091693, 31.513739707829213 ], [ -91.501943243280593, 31.51383744832939 ], [ -91.502045693837502, 31.513942864765777 ], [ -91.502147720573646, 31.514047873744023 ], [ -91.502249385252654, 31.514154561578682 ], [ -91.502361071272276, 31.514254423649813 ], [ -91.502465747415343, 31.514358169910587 ], [ -91.502577177421912, 31.514458062079619 ], [ -91.50268208166203, 31.51456208113213 ], [ -91.5027823507791, 31.514667434813262 ], [ -91.502891535142524, 31.514769875102353 ], [ -91.503004999882677, 31.514868070837998 ], [ -91.5030989399676, 31.514980547202736 ], [ -91.503193624069311, 31.515090872093893 ], [ -91.503297179625477, 31.515194682892737 ], [ -91.503396525344911, 31.515303123416526 ], [ -91.503503676009288, 31.51540698412634 ], [ -91.50362214093542, 31.515499552909173 ], [ -91.503725861484796, 31.515606221591874 ], [ -91.503821994549412, 31.515716889862087 ], [ -91.503927424250776, 31.515819006436132 ], [ -91.504030135005479, 31.515924418803223 ], [ -91.504142057888188, 31.516022353421413 ], [ -91.504239043393198, 31.516134360014767 ], [ -91.504341322926038, 31.516238566684894 ], [ -91.50443410510502, 31.516350557484703 ], [ -91.504532225465965, 31.516460904872471 ], [ -91.504646044209338, 31.516558903734914 ], [ -91.504757741529659, 31.516656618895983 ], [ -91.504865836775465, 31.516758820267079 ], [ -91.504962082603612, 31.516870558886918 ], [ -91.505067396363017, 31.516973555729951 ], [ -91.505165942894038, 31.517081919140146 ], [ -91.505271211451728, 31.517186317690591 ], [ -91.505374459851168, 31.517290871738631 ], [ -91.505480890142678, 31.517393252850994 ], [ -91.505597584309655, 31.517490097163577 ], [ -91.505711921853347, 31.517585781541676 ], [ -91.505814371138811, 31.517690507575708 ], [ -91.505927394702212, 31.517788924668718 ], [ -91.506027499242435, 31.517898565439712 ], [ -91.506122667408093, 31.518008525544936 ], [ -91.506232048176642, 31.518108130114875 ], [ -91.506344110596487, 31.518206473563389 ], [ -91.506452968198616, 31.518307814278735 ], [ -91.506549895342701, 31.518419875452295 ], [ -91.506649942910357, 31.518527371633407 ], [ -91.506747369745909, 31.518635744016542 ], [ -91.506845011800507, 31.518745818837466 ], [ -91.50695591257886, 31.518843677261192 ], [ -91.507069056538299, 31.518943768718025 ], [ -91.50716687919504, 31.519052907306442 ], [ -91.507264062380727, 31.519162160806701 ], [ -91.507375799193397, 31.51926003913082 ], [ -91.507490992619353, 31.519357169557985 ], [ -91.507587796395626, 31.519466839325123 ], [ -91.507701881874596, 31.519562551196667 ], [ -91.50781958199218, 31.519659879252291 ], [ -91.507923337617783, 31.5197635471601 ], [ -91.508022344363653, 31.519872261133649 ], [ -91.508110377545989, 31.519988746013503 ], [ -91.508211767060601, 31.520095514307179 ], [ -91.508325151751762, 31.520191479134613 ], [ -91.508426377231146, 31.520297973691171 ], [ -91.508533415252813, 31.520402188101773 ], [ -91.508625177563005, 31.52051657581654 ], [ -91.508711211224011, 31.520632088394226 ], [ -91.508816762393366, 31.520735464870359 ], [ -91.50892596942009, 31.520838531690689 ], [ -91.509032765719255, 31.520938734660191 ], [ -91.509134752088997, 31.521046926116188 ], [ -91.509248827374648, 31.521144148119838 ], [ -91.509380277134554, 31.521227081948368 ], [ -91.509468689380299, 31.521345348897082 ] ] } },
{ "type": "Feature", "properties": { "station_id": 3, "station_ft": 4249.5, "width_ft": 3285.3, "flag": "ok", "lon": -91.504182, "lat": 31.520709, "survey_id": "LM_02_GCG_20220717_CS_3598_3476_B", "date": "2022-07-17 00:00:00+00:00", "method": "lines" }, "geometry": { "type": "LineString", "coordinates": [ [ -91.498596429654739, 31.513992361064965 ], [ -91.498695285325397, 31.514100617732758 ], [ -91.498786275900244, 31.514213755531397 ], [ -91.498869659611486, 31.514331800984102 ], [ -91.498965062729866, 31.514441050253627 ], [ -91.499052264501998, 31.514556504046645 ], [ -91.499150421823899, 31.514665315925861 ], [ -91.499237893504144, 31.514781784407845 ], [ -91.499319524032572, 31.514900642753091 ], [ -91.499390317195378, 31.515025454625366 ], [ -91.499484578704539, 31.515138204938797 ], [ -91.499585755801107, 31.515244597227095 ], [ -91.499684843615768, 31.515353290156202 ], [ -91.499785518769556, 31.515460594112287 ], [ -91.499878318916544, 31.515571900952981 ], [ -91.499974176009331, 31.515681310310857 ], [ -91.50007054628783, 31.515790741966761 ], [ -91.500162626797533, 31.515906095431195 ], [ -91.500270260352764, 31.516007700760849 ], [ -91.50036725069269, 31.516117923755544 ], [ -91.500458004334135, 31.516229715971228 ], [ -91.500551741010824, 31.516341370874365 ], [ -91.500638157425755, 31.516457875002676 ], [ -91.500731969703168, 31.516570409277527 ], [ -91.500821052225888, 31.516684552252276 ], [ -91.500913219908867, 31.516796441239343 ], [ -91.501008744626532, 31.516907282227582 ], [ -91.501101503975519, 31.517020237063853 ], [ -91.501194792380815, 31.517131950563424 ], [ -91.501284057052288, 31.517245075143233 ], [ -91.501384747380115, 31.517353284871835 ], [ -91.501479178574883, 31.517463888360453 ], [ -91.501569371019016, 31.51757672918967 ], [ -91.501662487089163, 31.517689900380574 ], [ -91.501753841198067, 31.517803335599865 ], [ -91.501855066334329, 31.517910522762026 ], [ -91.501942985831306, 31.518023796213633 ], [ -91.502034180946126, 31.518137259724686 ], [ -91.502122058232629, 31.518252265878719 ], [ -91.502223774580088, 31.518360190460928 ], [ -91.502329635850359, 31.51846337664702 ], [ -91.502411435611492, 31.51858247840407 ], [ -91.502508001686394, 31.518691604178002 ], [ -91.502591883751222, 31.518810411713588 ], [ -91.502696057179676, 31.518914602330263 ], [ -91.502781624716022, 31.519032020808915 ], [ -91.502871212456313, 31.519145085323572 ], [ -91.502965570626813, 31.519257227752448 ], [ -91.503057161759813, 31.519368817324114 ], [ -91.503162679910105, 31.519475222802324 ], [ -91.503262597113135, 31.519582777864002 ], [ -91.503362446887806, 31.519690141365505 ], [ -91.503449857868219, 31.519806085112492 ], [ -91.50353789576765, 31.519920785724267 ], [ -91.50362108020397, 31.520037400203279 ], [ -91.503708969473976, 31.52015306431797 ], [ -91.503787428989085, 31.520274202287489 ], [ -91.503875026494129, 31.520389566828136 ], [ -91.503976416204054, 31.520496695670978 ], [ -91.504084840014755, 31.520599196700928 ], [ -91.504181551916759, 31.520709474146631 ], [ -91.504277702318348, 31.520818438152794 ], [ -91.50435289588944, 31.520939962771322 ], [ -91.504448056695765, 31.521051931635451 ], [ -91.504550382119362, 31.521159353543684 ], [ -91.504645828811661, 31.521268378708005 ], [ -91.504755525459956, 31.521369905206129 ], [ -91.5048595946148, 31.5214756072928 ], [ -91.504941528025668, 31.521594651051419 ], [ -91.505029024862509, 31.521709410520579 ], [ -91.505105297992628, 31.521832519231765 ], [ -91.505197711138393, 31.521945281941186 ], [ -91.505311494465303, 31.522044984833887 ], [ -91.505382397688862, 31.522169764085145 ], [ -91.505474222967493, 31.522281597651745 ], [ -91.505541898783747, 31.522407396606646 ], [ -91.505627246486412, 31.522524704103624 ], [ -91.505730049797648, 31.522631626406888 ], [ -91.505832667235012, 31.522736460746458 ], [ -91.505919444449475, 31.522855130245556 ], [ -91.506015768383051, 31.52296222082369 ], [ -91.506111953821133, 31.523073628833338 ], [ -91.5062100288132, 31.523182133529112 ], [ -91.506302936722307, 31.523293159293519 ], [ -91.506424090584929, 31.523389329549786 ], [ -91.506510966316128, 31.523505495086685 ], [ -91.506601983873949, 31.523619286784999 ], [ -91.506686445323879, 31.523734815087224 ], [ -91.506764211621842, 31.523856370465136 ], [ -91.506850827242502, 31.523972208962093 ], [ -91.506944044735647, 31.524084797891195 ], [ -91.507039032299076, 31.524195116789958 ], [ -91.50714804685235, 31.524298104741799 ], [ -91.507227922651424, 31.524418870275273 ], [ -91.50731282070123, 31.524535850602248 ], [ -91.507414563633404, 31.524642341086974 ], [ -91.507486004075901, 31.524732671699805 ] ] } },
{ "type": "Feature", "properties": { "station_id": 4, "station_ft": 3209.0, "width_ft": 2535.8, "flag": "ok", "lon": -91.50032, "lat": 31.520918, "survey_id": "LM_02_GCG_20220717_CS_3598_3476_B", "date": "2022-07-17 00:00:00+00:00", "method": "lines" }, "geometry": { "type": "LineString", "coordinates": [ [ -91.495616329963141, 31.514865757002497 ], [ -91.495687168908375, 31.514973830453844 ], [ -91.495804173638859, 31.515073512023079 ], [ -91.495894073998514, 31.515186881859684 ], [ -91.495995993229457, 31.515293930458391 ], [ -91.49609976008999, 31.515399861921004 ], [ -91.496183506041788, 31.515516311377528 ], [ -91.496282978284427, 31.51562522355076 ], [ -91.496372509483678, 31.515739805760635 ], [ -91.496465634151207, 31.515851689364045 ], [ -91.496558877896319, 31.515962884602477 ], [ -91.496638453927773, 31.516084512191874 ], [ -91.496735998991554, 31.516193193502442 ], [ -91.496825180378963, 31.516307916533155 ], [ -91.496893083051859, 31.516432591046399 ], [ -91.496954362784692, 31.516563950744644 ], [ -91.497049437598804, 31.516675238062202 ], [ -91.497154230148396, 31.516780803045041 ], [ -91.497252049975202, 31.516888272051222 ], [ -91.497361288643518, 31.516992724102813 ], [ -91.497449691496811, 31.517106683566091 ], [ -91.497550679774335, 31.517215938015521 ], [ -91.497647544882398, 31.517323937557538 ], [ -91.497721391584719, 31.517446523814819 ], [ -91.49778939359139, 31.517573863663156 ], [ -91.497868763617703, 31.517694171980967 ], [ -91.497948859826408, 31.517813512262258 ], [ -91.498047751569018, 31.517921768990327 ], [ -91.498125349452536, 31.518041489029361 ], [ -91.498205730656636, 31.518160414394185 ], [ -91.498291747186784, 31.518278380222384 ], [ -91.498383251108066, 31.518391184332977 ], [ -91.498485037712769, 31.51849737976109 ], [ -91.498579976006198, 31.518607622753706 ], [ -91.498663093514281, 31.518727237143686 ], [ -91.498743631574413, 31.518845803577882 ], [ -91.498832547490977, 31.518959427250518 ], [ -91.498893793578077, 31.519090346107568 ], [ -91.498992570587475, 31.519199592420271 ], [ -91.499086106451443, 31.519310480882655 ], [ -91.499191776717609, 31.519416612356611 ], [ -91.499275864078584, 31.519531462025174 ], [ -91.499358420631282, 31.519649679561191 ], [ -91.499438148835566, 31.51977012152788 ], [ -91.499518364654364, 31.519888442356255 ], [ -91.499604425294422, 31.520007066972351 ], [ -91.49970580964029, 31.520111643499536 ], [ -91.499792676772287, 31.520228033961306 ], [ -91.499886036333606, 31.52034007776474 ], [ -91.499969201147522, 31.520458069271449 ], [ -91.500061139429874, 31.520571939515413 ], [ -91.500148591344626, 31.520686180687402 ], [ -91.500233398643829, 31.520802013331341 ], [ -91.500319807683482, 31.520917610348405 ], [ -91.500397596344612, 31.521039278731433 ], [ -91.500480134007248, 31.521158292880664 ], [ -91.500572756355155, 31.521270342866945 ], [ -91.500663483494463, 31.521382107055249 ], [ -91.500742749204548, 31.521503789685184 ], [ -91.500837440840073, 31.521614390248004 ], [ -91.500933105960129, 31.521723251203522 ], [ -91.501024080420549, 31.521836799418139 ], [ -91.50110523884463, 31.521955770704668 ], [ -91.501186872395877, 31.522074242482141 ], [ -91.501280456982286, 31.52218606307763 ], [ -91.501367268951398, 31.522302865022422 ], [ -91.501443621823981, 31.522422402124413 ], [ -91.501524720847812, 31.522541675779781 ], [ -91.501611169178844, 31.522657546549929 ], [ -91.501708397587521, 31.522768097092229 ], [ -91.501802103713459, 31.522879256011667 ], [ -91.501903180009009, 31.522986966499111 ], [ -91.501972493012772, 31.523113192540162 ], [ -91.502056080888522, 31.523231177795807 ], [ -91.502140910816237, 31.52334582653053 ], [ -91.502226860650723, 31.523462801656464 ], [ -91.502320606183233, 31.523574481973842 ], [ -91.50241443783834, 31.523685282128877 ], [ -91.502510638116121, 31.523795538389606 ], [ -91.502591155614908, 31.523914321506481 ], [ -91.502673873402827, 31.524034514782414 ], [ -91.502757320192089, 31.524151346462641 ], [ -91.502852629199893, 31.524262160720184 ], [ -91.502939805734059, 31.524376979515608 ], [ -91.503020275494137, 31.524497000106816 ], [ -91.503096351752745, 31.524617170847431 ], [ -91.503168696398035, 31.524741773073245 ], [ -91.503252188723266, 31.52485962216797 ], [ -91.50335757200952, 31.524964983292794 ], [ -91.50345995488864, 31.525071691176159 ], [ -91.5035397755681, 31.525190975126495 ], [ -91.503593841383946, 31.525324238811752 ], [ -91.503692236350972, 31.525432686568823 ], [ -91.503799844303529, 31.525536267443339 ] ] } },
{ "type": "Feature", "properties": { "station_id": 5, "station_ft": 2106.7, "width_ft": 2432.9, "flag": "ok", "lon": -91.496805, "lat": 31.521841, "survey_id": "LM_02_GCG_20220717_CS_3598_3476_B", "date": "2022-07-17 00:00:00+00:00", "method": "lines" }, "geometry": { "type": "LineString", "coordinates": [ [ -91.492698941838029, 31.516116372047556 ], [ -91.492765414652126, 31.516224430787872 ], [ -91.49281949369518, 31.516357892395728 ], [ -91.492884248649034, 31.516485291472048 ], [ -91.492986585878114, 31.51659258579728 ], [ -91.49308128006011, 31.5167045397402 ], [ -91.493164970201462, 31.516821870999408 ], [ -91.493263716139396, 31.516931891471934 ], [ -91.493343045937422, 31.517049455135908 ], [ -91.49343088522339, 31.517164879949199 ], [ -91.493504074745246, 31.517289260352353 ], [ -91.49358165622715, 31.517408077046117 ], [ -91.493661480808356, 31.51752923618761 ], [ -91.49375401399044, 31.517640219862368 ], [ -91.493848343621877, 31.517753605928 ], [ -91.493936570126195, 31.517866525119217 ], [ -91.494028033509295, 31.51798169655412 ], [ -91.494115944153691, 31.51809500356676 ], [ -91.494189661583533, 31.518217840190136 ], [ -91.494272505202687, 31.518336470688261 ], [ -91.494357382661406, 31.518453543211663 ], [ -91.494449113128852, 31.518564258563124 ], [ -91.494521894034875, 31.51868919215746 ], [ -91.494602986795115, 31.518806298856962 ], [ -91.494680942645502, 31.51892665087459 ], [ -91.494768269630995, 31.519041913395725 ], [ -91.494854436996988, 31.519159413948614 ], [ -91.494951217610236, 31.519268406515931 ], [ -91.495031037435027, 31.519388905509302 ], [ -91.495100502222343, 31.519512797455782 ], [ -91.495184696876748, 31.519628968318656 ], [ -91.495274951365261, 31.519744698987861 ], [ -91.495336565377627, 31.519872015176261 ], [ -91.495423687559054, 31.519988709400639 ], [ -91.495511483260572, 31.52010281364419 ], [ -91.495588541755552, 31.520223035220912 ], [ -91.495702066738374, 31.52032623938068 ], [ -91.495793186452829, 31.520439213856658 ], [ -91.495866345673477, 31.520560679162326 ], [ -91.495948302053606, 31.520679921673267 ], [ -91.496046734697387, 31.520789887656441 ], [ -91.496125577724172, 31.520909075372128 ], [ -91.496189956166404, 31.521036641032442 ], [ -91.496281189338191, 31.521150850532276 ], [ -91.496371268196256, 31.521262541673458 ], [ -91.496475072607566, 31.521370919003694 ], [ -91.4965465558425, 31.521494296607777 ], [ -91.49662572632657, 31.521613811082595 ], [ -91.496715794193463, 31.521727178596596 ], [ -91.496805129120688, 31.521840937797784 ], [ -91.496888331654063, 31.521959536117798 ], [ -91.496982279685767, 31.52207000927352 ], [ -91.497060567557114, 31.522190767916264 ], [ -91.497155980398915, 31.522302932100796 ], [ -91.497228605792245, 31.522425062455948 ], [ -91.497296813711898, 31.522550668102291 ], [ -91.497375918446451, 31.522669907600164 ], [ -91.497470914613714, 31.522782020307588 ], [ -91.497555102047528, 31.522899673971267 ], [ -91.497640045246541, 31.523016194286633 ], [ -91.497722718448316, 31.523133366497913 ], [ -91.497813988182429, 31.523247657445921 ], [ -91.497893952676435, 31.523366338637462 ], [ -91.497983863451353, 31.523479679554288 ], [ -91.498069501452946, 31.523595175045372 ], [ -91.498157809135151, 31.523711224246906 ], [ -91.498239946167999, 31.523829034072303 ], [ -91.498323468279352, 31.52394721541182 ], [ -91.498402993738083, 31.524066642473191 ], [ -91.498490623315078, 31.524179646648797 ], [ -91.498576667347251, 31.524296705481767 ], [ -91.498666910454006, 31.524410894193139 ], [ -91.498754816643327, 31.52452543420431 ], [ -91.498820403272646, 31.524651530886477 ], [ -91.498904066544213, 31.524770700752434 ], [ -91.498997078806937, 31.52488288532161 ], [ -91.499089029860912, 31.524994886494323 ], [ -91.499161217242971, 31.525117568849694 ], [ -91.499247647922715, 31.52523467867735 ], [ -91.499326121460811, 31.525354417716347 ], [ -91.499405334149486, 31.5254743140997 ], [ -91.4995003886186, 31.525585435313634 ], [ -91.499585129728047, 31.525700800791856 ], [ -91.499670622336623, 31.525817231652656 ], [ -91.499745190545582, 31.525940249965263 ], [ -91.499825010078879, 31.526059755439491 ], [ -91.499922890598555, 31.526168431784654 ], [ -91.50000132102781, 31.526289819337602 ], [ -91.500099679025311, 31.526398079037399 ], [ -91.500178643583439, 31.526518527284722 ], [ -91.500256589820822, 31.526639534895462 ], [ -91.500346307170219, 31.526752325641937 ], [ -91.500424508261247, 31.526873219887246 ] ] } },
{ "type": "Feature", "properties": { "station_id": 6, "station_ft": 1084.1, "width_ft": 2835.7, "flag": "ok", "lon": -91.494206, "lat": 31.523617, "survey_id": "LM_02_GCG_20220717_CS_3598_3476_B", "date": "2022-07-17 00:00:00+00:00", "method": "lines" }, "geometry": { "type": "LineString", "coordinates": [ [ -91.48940346488979, 31.516631036344723 ], [ -91.489478621700812, 31.516751498162964 ], [ -91.489550690493246, 31.516873885334718 ], [ -91.489649373644355, 31.516981792586023 ], [ -91.489720168013477, 31.517107517194656 ], [ -91.48980758443949, 31.517222810401968 ], [ -91.489888506584791, 31.517342286418693 ], [ -91.489981725855245, 31.517454558143204 ], [ -91.490051225763835, 31.517576748177291 ], [ -91.490132219815266, 31.517696882626286 ], [ -91.490206042242178, 31.517818263298324 ], [ -91.490266811973356, 31.517947954375568 ], [ -91.490341808616378, 31.518068224984471 ], [ -91.490437869718889, 31.518179316274146 ], [ -91.490520061790008, 31.518297570981911 ], [ -91.490606901076291, 31.518412758785686 ], [ -91.490699188602363, 31.518527430074823 ], [ -91.490776573269144, 31.51864866902849 ], [ -91.490863344588462, 31.51876350012482 ], [ -91.490940841783313, 31.518883500612581 ], [ -91.491031806950119, 31.518997496397436 ], [ -91.491111081782478, 31.519115886213655 ], [ -91.491189709221317, 31.519236398476416 ], [ -91.491266664673674, 31.519356623700766 ], [ -91.491342065312054, 31.519478209410103 ], [ -91.491428162301403, 31.519595520866329 ], [ -91.491514276865729, 31.519711593860773 ], [ -91.491599272869806, 31.519828034954383 ], [ -91.491682489144935, 31.519945866520825 ], [ -91.491755038664735, 31.520067780799767 ], [ -91.491841827118861, 31.520183793339033 ], [ -91.49190679082966, 31.520309816508263 ], [ -91.492007043838669, 31.520419604159454 ], [ -91.492085622641298, 31.520538549742078 ], [ -91.49216577769711, 31.520657838123981 ], [ -91.492250157351535, 31.52077623592859 ], [ -91.492339203733138, 31.520890413121517 ], [ -91.492424315686918, 31.521005670239532 ], [ -91.492497685415046, 31.521128978092172 ], [ -91.49257828218937, 31.521247547922023 ], [ -91.492657809297043, 31.521367803927941 ], [ -91.492747525338004, 31.521481644664327 ], [ -91.492816060925875, 31.52160576540669 ], [ -91.492891959098756, 31.521728363780948 ], [ -91.492971540331354, 31.521847820943794 ], [ -91.493056240154317, 31.52196332934442 ], [ -91.493143950706497, 31.522078370283037 ], [ -91.493235025328616, 31.522192995562012 ], [ -91.493318179602298, 31.522310579414818 ], [ -91.493389326884085, 31.52243302754999 ], [ -91.493467056399666, 31.522553079251573 ], [ -91.493557205719512, 31.522668069804276 ], [ -91.493640225947075, 31.522785132472187 ], [ -91.493713595010476, 31.522908054465482 ], [ -91.493786022440361, 31.523030160664479 ], [ -91.493875035853321, 31.523146535694664 ], [ -91.493963655310608, 31.523259726197061 ], [ -91.494052876743183, 31.523374752745248 ], [ -91.494125136849888, 31.523498756837444 ], [ -91.49420550400265, 31.523616640412587 ], [ -91.494285312144967, 31.523735957533916 ], [ -91.494361247294577, 31.523856052878138 ], [ -91.494442097878377, 31.523976624820669 ], [ -91.494527494553878, 31.524091135597853 ], [ -91.494614052479648, 31.52420860555689 ], [ -91.494685151989856, 31.524332124718281 ], [ -91.494763676414323, 31.524451316084285 ], [ -91.494847343588518, 31.524568591165064 ], [ -91.494934617830395, 31.524684321930543 ], [ -91.495019470187032, 31.524801366975808 ], [ -91.495094049165132, 31.524923260716708 ], [ -91.495173833079363, 31.52504307256077 ], [ -91.495253427579584, 31.525160494368951 ], [ -91.495340875186614, 31.525277130515288 ], [ -91.495420245225603, 31.525397138043466 ], [ -91.495510274674658, 31.525509764437373 ], [ -91.495588149516792, 31.525630830678406 ], [ -91.495665619543999, 31.525750223108048 ], [ -91.49574084912301, 31.525872660645174 ], [ -91.495828389728302, 31.525988965504762 ], [ -91.495912950477177, 31.526105654515991 ], [ -91.495993271952472, 31.5262245816084 ], [ -91.496078762380577, 31.526341152023232 ], [ -91.496158240939096, 31.526459399456151 ], [ -91.496237967433913, 31.526579541166431 ], [ -91.496291744012154, 31.526672045360296 ], [ -91.49635848655231, 31.526777708634206 ], [ -91.496452815863648, 31.526890047197035 ], [ -91.496526472573294, 31.527012333486581 ], [ -91.496604940164872, 31.527131744171907 ], [ -91.496690275559871, 31.527248672679569 ], [ -91.496764624608602, 31.527369770196742 ], [ -91.496854520770469, 31.527484266300082 ], [ -91.496919949406532, 31.52761063950754 ], [ -91.496997269933928, 31.527730692556755 ], [ -91.497074291079187, 31.527852397757282 ], [ -91.497178780193408, 31.527958431368926 ], [ -91.49815172829932, 31.529333366090096 ], [ -91.498203989343722, 31.529466346370178 ], [ -91.498303736381303, 31.529575363103653 ], [ -91.498410848495851, 31.529680383314094 ], [ -91.498482164343173, 31.529804970449042 ] ] } },
{ "type": "Feature", "properties": { "station_id": 7, "station_ft": 28.1, "width_ft": 2458.3, "flag": "ok", "lon": -91.492683, "lat": 31.527365, "survey_id": "LM_02_GCG_20220717_CS_3598_3476_B", "date": "2022-07-17 00:00:00+00:00", "method": "lines" }, "geometry": { "type": "LineString", "coordinates": [ [ -91.487195315240754, 31.518657244896776 ], [ -91.487237308781459, 31.518792191444323 ], [ -91.487319526989808, 31.518910282075115 ], [ -91.487400006164364, 31.519030422910838 ], [ -91.487493188290571, 31.519142339643217 ], [ -91.487562580886106, 31.519266401532665 ], [ -91.487637020976692, 31.519388603310514 ], [ -91.487705719813135, 31.519513577731608 ], [ -91.487778654564636, 31.519635930082366 ], [ -91.487846057704502, 31.519759954739037 ], [ -91.487931738207763, 31.519877629498268 ], [ -91.488022918288507, 31.519990993310728 ], [ -91.488112000867858, 31.520106107539839 ], [ -91.488209440592669, 31.520217105964317 ], [ -91.488282921519385, 31.520339426009841 ], [ -91.488342163281985, 31.52046761936171 ], [ -91.488406356397292, 31.520594008462584 ], [ -91.488463508256942, 31.520724475244279 ], [ -91.488550967740281, 31.520840539011445 ], [ -91.488641297004492, 31.520955119405397 ], [ -91.488735288772006, 31.521067357913587 ], [ -91.488808427177133, 31.521190477048219 ], [ -91.488907468466195, 31.521300993268092 ], [ -91.488956250615573, 31.521434449285277 ], [ -91.489008213060544, 31.521565566909405 ], [ -91.489093602863605, 31.521682803335082 ], [ -91.489180830973638, 31.52179823562162 ], [ -91.489257866603907, 31.521919698628977 ], [ -91.489327230019796, 31.522043676736331 ], [ -91.489399108566474, 31.522165927574218 ], [ -91.489465994862869, 31.522291852530607 ], [ -91.48954138278178, 31.522412477089556 ], [ -91.489615807969017, 31.522535612031781 ], [ -91.48969852867279, 31.522652267900042 ], [ -91.489772414346106, 31.522775929788811 ], [ -91.489859160593824, 31.522891064704453 ], [ -91.489933056617033, 31.523012884820091 ], [ -91.490016711771446, 31.523129778217239 ], [ -91.490093011974608, 31.523251357340214 ], [ -91.490179341132162, 31.52336649488791 ], [ -91.490251274776739, 31.5234904771443 ], [ -91.490307341132123, 31.523621006908765 ], [ -91.490386919811499, 31.523740384528587 ], [ -91.490472247803254, 31.523857510472883 ], [ -91.490551217742777, 31.523976837572302 ], [ -91.490628172407412, 31.524096732979398 ], [ -91.490718774117099, 31.524212106533454 ], [ -91.490794628751019, 31.524331214549047 ], [ -91.490854917585224, 31.524460579418879 ], [ -91.490928286136807, 31.524583641002536 ], [ -91.491003020377534, 31.524705589922746 ], [ -91.4910724514924, 31.524829402216255 ], [ -91.491154140781944, 31.524947990023914 ], [ -91.491237092857986, 31.525064888903806 ], [ -91.491313796226109, 31.525185006177871 ], [ -91.491398761817479, 31.525301227462151 ], [ -91.491471860611, 31.525425692612924 ], [ -91.491533938669548, 31.525551714897876 ], [ -91.491615318280978, 31.525671129473547 ], [ -91.49169189863234, 31.525791605642954 ], [ -91.491764076104189, 31.525914209417433 ], [ -91.491848006653569, 31.526032199252896 ], [ -91.491923046738009, 31.526152716274925 ], [ -91.49200159441547, 31.526273942792734 ], [ -91.492080007780686, 31.526392119520239 ], [ -91.49216121695342, 31.526510573885414 ], [ -91.492235620051247, 31.52663400944515 ], [ -91.492305624736034, 31.526757293619742 ], [ -91.492386366302199, 31.526876795502048 ], [ -91.492464972991229, 31.526994943160446 ], [ -91.492518847709562, 31.52712686698877 ], [ -91.492594796408667, 31.527248006629485 ], [ -91.492682723880463, 31.527364723198787 ], [ -91.492751477004148, 31.527487852503068 ], [ -91.492820056332491, 31.527612494838554 ], [ -91.492908600463295, 31.52772708900866 ], [ -91.492996945359721, 31.527843690628984 ], [ -91.493065697902296, 31.527966709723675 ], [ -91.493128636104359, 31.528094454877543 ], [ -91.493208106087252, 31.528214820862548 ], [ -91.493281350982016, 31.528337772031325 ], [ -91.49335977933076, 31.528456799997286 ], [ -91.493438522788608, 31.528575494975488 ], [ -91.493517374557413, 31.528695014108468 ], [ -91.493599869898432, 31.528813372824249 ], [ -91.493678021449327, 31.528933365357165 ], [ -91.493742509497878, 31.529059199520855 ], [ -91.493821487106246, 31.529181081047145 ], [ -91.493902646268126, 31.52929766510989 ], [ -91.493979267561002, 31.529418495612681 ], [ -91.494058253607079, 31.529538370288972 ], [ -91.494132073527794, 31.529660985618474 ], [ -91.494203627714867, 31.529784528724203 ], [ -91.494293246628175, 31.529900073455568 ], [ -91.494359194546547, 31.530024382518903 ], [ -91.494445912178264, 31.530141464966842 ], [ -91.494527219100036, 31.530259476678985 ], [ -91.494603079235375, 31.530380863804108 ], [ -91.494698743849384, 31.530492148015405 ], [ -91.494761777465428, 31.530619451289461 ], [ -91.494839803247942, 31.530739499189121 ] ] } },
{ "type": "Feature", "properties": { "station_id": 8, "station_ft": -1027.2, "width_ft": 3068.5, "flag": "ok", "lon": -91.488107, "lat": 31.526263, "survey_id": "LM_02_GCG_20220717_CS_3598_3476_B", "date": "2022-07-17 00:00:00+00:00", "method": "lines" }, "geometry": { "type": "LineString", "coordinates": [ [ -91.484218006047854, 31.519941607021419 ], [ -91.484286965337063, 31.520064630285493 ], [ -91.484351542089442, 31.520191348141662 ], [ -91.484420501160798, 31.52031689921251 ], [ -91.484504910166848, 31.520433268349791 ], [ -91.484579395000125, 31.520554124165223 ], [ -91.484665480372286, 31.520671000270454 ], [ -91.484727987172832, 31.520799000935899 ], [ -91.484798258571544, 31.520921599031027 ], [ -91.484877135468125, 31.52104203092853 ], [ -91.484964998994286, 31.521157378400844 ], [ -91.485037940002755, 31.521280419472916 ], [ -91.485098826251615, 31.521407033047129 ], [ -91.48517643455277, 31.521528602572673 ], [ -91.485254339173252, 31.521648135705352 ], [ -91.485333017218821, 31.521767963939791 ], [ -91.485403626374463, 31.521891878026441 ], [ -91.485489620221827, 31.52200900145063 ], [ -91.485564135539263, 31.522129472163261 ], [ -91.485651862213331, 31.52224655280332 ], [ -91.48571712271314, 31.522371229144827 ], [ -91.485788541127746, 31.522495548749799 ], [ -91.485848764594465, 31.522622909208785 ], [ -91.485926170793135, 31.522743545731778 ], [ -91.486007628235058, 31.522862194092305 ], [ -91.486095769166866, 31.522976383841876 ], [ -91.486174419209206, 31.523096321779754 ], [ -91.486245428977824, 31.523221304033807 ], [ -91.48631593152183, 31.523344147118411 ], [ -91.486392248332024, 31.523464793147802 ], [ -91.486472821501494, 31.523584548506868 ], [ -91.48655182048013, 31.523704097951192 ], [ -91.486622132841191, 31.523827079642334 ], [ -91.486690221906045, 31.523951867901133 ], [ -91.486771707237864, 31.524070048313419 ], [ -91.486854138905912, 31.52418948362557 ], [ -91.486917947169388, 31.524315767741804 ], [ -91.486987324819779, 31.524438345491387 ], [ -91.487073773566607, 31.524555545705827 ], [ -91.4871464585014, 31.5246782035527 ], [ -91.487210134630033, 31.524804212728931 ], [ -91.487268107498565, 31.524933545230766 ], [ -91.487338666978985, 31.525058145772899 ], [ -91.487430565372648, 31.525172190582989 ], [ -91.487511990200787, 31.525290508098813 ], [ -91.48759300039751, 31.525408995239562 ], [ -91.487666918098114, 31.52552999124574 ], [ -91.487745711247427, 31.525650862034691 ], [ -91.487813534486847, 31.525774689744726 ], [ -91.487892247579921, 31.52589424084837 ], [ -91.487970249668066, 31.526015887901302 ], [ -91.488043499982609, 31.526137412761358 ], [ -91.488107014622429, 31.526263120768657 ], [ -91.48818612874004, 31.526383795361522 ], [ -91.488263161270694, 31.526504873785708 ], [ -91.488344020531358, 31.526624020111566 ], [ -91.488414367116476, 31.526746753279074 ], [ -91.488486919010143, 31.526868751319537 ], [ -91.488568456397971, 31.526988111414624 ], [ -91.488651412279523, 31.527105424970216 ], [ -91.488728791245634, 31.527225894812819 ], [ -91.48879445700247, 31.527351473877516 ], [ -91.488871051088168, 31.527473325131929 ], [ -91.488948741579776, 31.527592966819771 ], [ -91.489014830512502, 31.527719092060334 ], [ -91.489088560637981, 31.527840198867864 ], [ -91.489167798013966, 31.527960322445953 ], [ -91.489240034148892, 31.52808259702336 ], [ -91.489320103714206, 31.528202464967301 ], [ -91.489401989946344, 31.528321327107424 ], [ -91.489473866223207, 31.528442973495974 ], [ -91.489553136535307, 31.528563123566936 ], [ -91.489632561682171, 31.528682749111542 ], [ -91.489708061269624, 31.528804033421093 ], [ -91.4897916179265, 31.528920378454981 ], [ -91.489877889228268, 31.529038183324147 ], [ -91.489951093118023, 31.529160751723499 ], [ -91.49001442794173, 31.52928712043586 ], [ -91.490083372771707, 31.529410331505602 ], [ -91.490158038688548, 31.529531622156693 ], [ -91.490226946417167, 31.529657088095345 ], [ -91.490290367635325, 31.529782548610047 ], [ -91.490360835030515, 31.529906901004516 ], [ -91.490438630749978, 31.530026981736043 ], [ -91.490525525769471, 31.53014313099759 ], [ -91.490607661302192, 31.530261109822689 ], [ -91.490676104755664, 31.530385205272712 ], [ -91.490750693018782, 31.530507925668651 ], [ -91.490826568641566, 31.530628297676362 ], [ -91.49089480127391, 31.530753522212187 ], [ -91.490971554925324, 31.530874793435796 ], [ -91.491032748305472, 31.531001648113484 ], [ -91.491108102050688, 31.53112394920139 ], [ -91.491198048214741, 31.531237541556173 ], [ -91.491272515533666, 31.531360757820874 ], [ -91.491325186096674, 31.531491262624751 ], [ -91.491440175858273, 31.531595337199882 ], [ -91.491529055902703, 31.531710945566399 ] ] } },
{ "type": "Feature", "properties": { "station_id": 9, "station_ft": -2051.2, "width_ft": 3287.9, "flag": "ok", "lon": -91.485068, "lat": 31.527368, "survey_id": "LM_02_GCG_20220717_CS_3598_3476_B", "date": "2022-07-17 00:00:00+00:00", "method": "lines" }, "geometry": { "type": "LineString", "coordinates": [ [ -91.481835252668489, 31.521710217458981 ], [ -91.481891417399609, 31.521813178880883 ], [ -91.48200350596818, 31.521920669518842 ], [ -91.482077107753895, 31.522042910047499 ], [ -91.482127966744017, 31.522173737483214 ], [ -91.482198751579347, 31.52229658041502 ], [ -91.482272205977225, 31.522419893538348 ], [ -91.482333300851678, 31.522547963067403 ], [ -91.482414740190762, 31.522665514598224 ], [ -91.482477454843234, 31.522792223034738 ], [ -91.482566913471757, 31.522909481461159 ], [ -91.482642184264193, 31.523029039857036 ], [ -91.482700529629469, 31.523157931125702 ], [ -91.482763563737421, 31.523284444437156 ], [ -91.482811376163383, 31.523417910687286 ], [ -91.482885458901407, 31.523540035440018 ], [ -91.482945817442996, 31.523668112150688 ], [ -91.483030349152884, 31.523783902996268 ], [ -91.483114249142403, 31.523903026384531 ], [ -91.483192431616715, 31.524024399821123 ], [ -91.483269305436167, 31.524143695383046 ], [ -91.483321544403779, 31.524274263649318 ], [ -91.483386960406563, 31.52440127646295 ], [ -91.483468384238336, 31.524519981753421 ], [ -91.483542883969946, 31.524641882278175 ], [ -91.483588903615995, 31.524775557300622 ], [ -91.483658240361066, 31.524897697173621 ], [ -91.483758471331697, 31.525011202599188 ], [ -91.483824547676249, 31.5251343610256 ], [ -91.483894778990759, 31.5252588294017 ], [ -91.483954324408487, 31.525385812623369 ], [ -91.484017265936274, 31.525512408127735 ], [ -91.484094912730541, 31.525634362948406 ], [ -91.484158002201269, 31.525759856785672 ], [ -91.484216003844992, 31.525889163392876 ], [ -91.484283380572265, 31.526013602197512 ], [ -91.484351780564324, 31.526137673718981 ], [ -91.484428067341156, 31.526258541195656 ], [ -91.48450231558563, 31.526380663404627 ], [ -91.48457659026829, 31.52650226405833 ], [ -91.484652328681719, 31.526625500069144 ], [ -91.484728111542651, 31.526744447335172 ], [ -91.484781578223746, 31.526875415994908 ], [ -91.484849399288862, 31.527001966199663 ], [ -91.484926912851577, 31.527120678601833 ], [ -91.484997059470857, 31.527245806305483 ], [ -91.485068068234241, 31.527367903202883 ], [ -91.485144970555794, 31.527489093832692 ], [ -91.485215464395054, 31.52761364109066 ], [ -91.485274957361085, 31.52774139425469 ], [ -91.48534340935457, 31.527864255326538 ], [ -91.485422360319419, 31.527984933103394 ], [ -91.485490183637836, 31.528108955018364 ], [ -91.485548820709255, 31.528237430009771 ], [ -91.485613096387453, 31.528362583163254 ], [ -91.485692633864232, 31.528483887664912 ], [ -91.485772175790146, 31.528602965406165 ], [ -91.48584516821029, 31.528724465857465 ], [ -91.485910466880071, 31.528851753318296 ], [ -91.485992317830068, 31.528970700073547 ], [ -91.486057039818164, 31.529095409750841 ], [ -91.486120007229118, 31.52922109567416 ], [ -91.486183516984212, 31.529349004239915 ], [ -91.48624402000803, 31.529475125352583 ], [ -91.486326892373086, 31.529593486379127 ], [ -91.486417912675535, 31.529708969137587 ], [ -91.486468618897021, 31.529842187623093 ], [ -91.486513587725085, 31.529975980887219 ], [ -91.486577338876032, 31.530102539688389 ], [ -91.486647501349225, 31.53022601764124 ], [ -91.486719069066936, 31.530348849779983 ], [ -91.486798382595566, 31.530467351682557 ], [ -91.486870283974994, 31.530591170947091 ], [ -91.486925682698185, 31.530719646457914 ], [ -91.487008717416288, 31.530838032581904 ], [ -91.487097334655829, 31.530956230302888 ], [ -91.487171790866611, 31.531076342277938 ], [ -91.487241108071601, 31.531201338988279 ], [ -91.487317682527603, 31.531321487671178 ], [ -91.487388343636624, 31.531446142088814 ], [ -91.487468217496982, 31.531565709869376 ], [ -91.487525339076768, 31.531693236119889 ], [ -91.487580463390543, 31.531822813132074 ], [ -91.487661953470635, 31.531943274351026 ], [ -91.487741267554838, 31.532061610558742 ], [ -91.487804265067851, 31.532189302775272 ], [ -91.487878135231895, 31.532311261152781 ], [ -91.487956975891009, 31.532430179569957 ], [ -91.487990422602849, 31.532568913749405 ] ] } },
{ "type": "Feature", "properties": { "station_id": 10, "station_ft": -3127.2, "width_ft": 3691.1, "flag": "ok", "lon": -91.480604, "lat": 31.526125, "survey_id": "LM_02_GCG_20220717_CS_3598_3476_B", "date": "2022-07-17 00:00:00+00:00", "method": "lines" }, "geometry": { "type": "LineString", "coordinates": [ [ -91.479236961597223, 31.523487283634246 ], [ -91.479281555135373, 31.523620340909222 ], [ -91.479342880858027, 31.523746541190718 ], [ -91.479424311142608, 31.523866238425931 ], [ -91.479488703657793, 31.523991365903843 ], [ -91.479556864827799, 31.524117559830731 ], [ -91.479622985101486, 31.524242231645207 ], [ -91.479676493635267, 31.524372074929101 ], [ -91.479743938892994, 31.524497449963974 ], [ -91.47981932716867, 31.52461887851122 ], [ -91.479880088732926, 31.524746182908018 ], [ -91.479944859432351, 31.52487053655123 ], [ -91.480015572986972, 31.524995442923412 ], [ -91.480066424154288, 31.525125721983478 ], [ -91.48012756868053, 31.52525277570264 ], [ -91.480223633962552, 31.52536714559167 ], [ -91.480291967644561, 31.525491523001104 ], [ -91.48033920591871, 31.525622906630453 ], [ -91.480401042414769, 31.525751300456196 ], [ -91.480472554741084, 31.525873229583716 ], [ -91.480530628126644, 31.526000887808305 ], [ -91.480603866574782, 31.526124807987433 ], [ -91.480680319362435, 31.52624655648988 ], [ -91.480734321792198, 31.526374552342645 ], [ -91.480793735944346, 31.526504260029846 ], [ -91.480874239930827, 31.526623964538476 ], [ -91.48093803724872, 31.526749948765655 ], [ -91.48102165497933, 31.526866986420114 ], [ -91.481096865280577, 31.526989405044009 ], [ -91.481154797992161, 31.527118602759042 ], [ -91.481225356273725, 31.527240953019184 ], [ -91.481276542903444, 31.527372245786665 ], [ -91.481333544816337, 31.5275013976491 ], [ -91.481415724723604, 31.527618887121392 ], [ -91.481479507707263, 31.527746163518021 ], [ -91.481555168525233, 31.527868549835073 ], [ -91.481620239236705, 31.527993477898022 ], [ -91.481675077486088, 31.528121439627984 ], [ -91.481746850933405, 31.528246004415401 ], [ -91.481805430547951, 31.52837286018687 ], [ -91.481866033693436, 31.5285024465935 ], [ -91.481930958627032, 31.528625973406445 ], [ -91.481992300447459, 31.52875291429752 ], [ -91.482058891046165, 31.528878734811563 ], [ -91.482115254837282, 31.529008057036087 ], [ -91.482189803027282, 31.529131085116791 ], [ -91.482250438744714, 31.529258086317739 ], [ -91.482323199315161, 31.529379206723629 ], [ -91.482396713507356, 31.529501666773669 ], [ -91.482457490701023, 31.529629601808413 ], [ -91.482533009104955, 31.529750614331231 ], [ -91.482622936324915, 31.529866274716941 ], [ -91.482683964228173, 31.529993658149674 ], [ -91.482741569896902, 31.530122033675468 ], [ -91.482815092642454, 31.530245097616529 ], [ -91.482873062830365, 31.530374322044629 ], [ -91.482918744992176, 31.530506488699277 ], [ -91.482989789311787, 31.530628915550189 ], [ -91.483047701152941, 31.530758579609547 ], [ -91.483115107598508, 31.530882688565693 ], [ -91.483168496906345, 31.531012559158491 ], [ -91.48325240209455, 31.531131626265726 ], [ -91.483329701129406, 31.53125366749024 ], [ -91.483384145685648, 31.531383170455438 ], [ -91.483456253118163, 31.531505807503326 ], [ -91.483526675294556, 31.531629669041173 ], [ -91.48359371152236, 31.531754908350603 ], [ -91.483672205110921, 31.531874766946085 ], [ -91.483735156961316, 31.532001856526673 ], [ -91.483800353556418, 31.532126177042873 ], [ -91.483869244511041, 31.532250712294381 ], [ -91.48392374116942, 31.532379115167977 ], [ -91.483982311681615, 31.532507426348108 ], [ -91.484059985354406, 31.532628418461101 ], [ -91.484117356615513, 31.532758334828646 ], [ -91.484193325968135, 31.532879068024091 ], [ -91.484253601560226, 31.533007610822892 ], [ -91.484306913991858, 31.533136216255091 ], [ -91.484366586074529, 31.533265232481718 ], [ -91.484432955604149, 31.533390779405661 ], [ -91.484522988272516, 31.533506739474191 ] ] } },
{ "type": "Feature", "properties": { "station_id": 11, "station_ft": -4179.1, "width_ft": 3604.6, "flag": "ok", "lon": -91.477855, "lat": 31.527779, "survey_id": "LM_02_GCG_20220717_CS_3598_3476_B", "date": "2022-07-17 00:00:00+00:00", "method": "lines" }, "geometry": { "type": "LineString", "coordinates": [ [ -91.476632990233838, 31.525116846551388 ], [ -91.476688322844097, 31.525225509280038 ], [ -91.476741179453981, 31.525346975145439 ], [ -91.476764720682496, 31.525488055871289 ], [ -91.47684295051819, 31.52561119145065 ], [ -91.476881359259806, 31.525745184153561 ], [ -91.476943742945622, 31.525871513195636 ], [ -91.4770073701374, 31.525997143873251 ], [ -91.477052617374696, 31.526131378386118 ], [ -91.477115448401364, 31.52625748327814 ], [ -91.477188171702551, 31.526378964261266 ], [ -91.477248082680006, 31.5265076789943 ], [ -91.477311561051323, 31.526634245144212 ], [ -91.47738857562608, 31.526754973351395 ], [ -91.477444103252495, 31.526884744472433 ], [ -91.477504742851991, 31.527012628256347 ], [ -91.477567722723634, 31.52713771427263 ], [ -91.477617399691752, 31.527269269197163 ], [ -91.477687118971957, 31.527394240739667 ], [ -91.477749532786191, 31.527520266033356 ], [ -91.477804544016124, 31.527649657400897 ], [ -91.477854643599699, 31.527779036776849 ], [ -91.477925629681422, 31.52790526032577 ], [ -91.47799214949957, 31.528028363717507 ], [ -91.478050599185039, 31.528155523672432 ], [ -91.478130745127928, 31.528277542753148 ], [ -91.478206547701575, 31.528398748408531 ], [ -91.478264210859578, 31.528527070561491 ], [ -91.478325338171047, 31.528655306658877 ], [ -91.478385697809614, 31.528781102875303 ], [ -91.478440646092253, 31.528910548595029 ], [ -91.478515416377746, 31.529033796956419 ], [ -91.478560296566613, 31.529166549661561 ], [ -91.478614084063167, 31.529295483514979 ], [ -91.478674556429766, 31.52942259796815 ], [ -91.478740362496495, 31.529547520923874 ], [ -91.478803469181358, 31.529674777654652 ], [ -91.478857215582778, 31.529805553332228 ], [ -91.47893002097517, 31.52992807679194 ], [ -91.479003239724889, 31.530050376450951 ], [ -91.479054599522044, 31.530180102011816 ], [ -91.479111021247462, 31.5303091770582 ], [ -91.479181741731111, 31.53043438580243 ], [ -91.479247438305009, 31.530558072100469 ], [ -91.479312688462159, 31.530684676236515 ], [ -91.479376706872372, 31.530810329999827 ], [ -91.479444714811663, 31.530934077538305 ], [ -91.479513928590649, 31.531059382545596 ], [ -91.479561441573082, 31.531189389445963 ], [ -91.479609485505563, 31.531323458907377 ], [ -91.479670349678926, 31.531450790252581 ], [ -91.47972475067219, 31.531579800121449 ], [ -91.47978718225697, 31.531706814330082 ], [ -91.479848278579126, 31.531832163935135 ], [ -91.479913877510938, 31.531958215361691 ], [ -91.479968653393598, 31.53208631448598 ], [ -91.480022139297603, 31.53221654269068 ], [ -91.480078993712311, 31.532346602681418 ], [ -91.480150371748493, 31.532470238400773 ], [ -91.480228156151327, 31.532590269650978 ], [ -91.480293379551526, 31.532717038485249 ], [ -91.480345148140074, 31.532845907513323 ], [ -91.480404052745172, 31.532975563857562 ], [ -91.480481341326907, 31.533096919687964 ], [ -91.480548654431686, 31.533221360893549 ], [ -91.480612956758534, 31.533346268268613 ], [ -91.480677331224612, 31.53347180805736 ], [ -91.480719087784721, 31.533605879309917 ], [ -91.480775216770752, 31.533734240950285 ], [ -91.480859308815539, 31.53385286871158 ], [ -91.480924424016607, 31.533978565846184 ], [ -91.480978556643407, 31.534108952812769 ], [ -91.481069360890572, 31.534225266464944 ], [ -91.481114700973507, 31.534358343126033 ], [ -91.481145902148043, 31.534495202762947 ], [ -91.481236720058448, 31.534612670524822 ], [ -91.481313940154052, 31.534733475370686 ] ] } },
{ "type": "Feature", "properties": { "station_id": 12, "station_ft": -5271.3, "width_ft": 3185.1, "flag": "ok", "lon": -91.474958, "lat": 31.529347, "survey_id": "LM_02_GCG_20220717_CS_3598_3476_B", "date": "2022-07-17 00:00:00+00:00", "method": "lines" }, "geometry": { "type": "LineString", "coordinates": [ [ -91.47368088332307, 31.526528757081799 ], [ -91.47376633727329, 31.526647157673661 ], [ -91.473799510825941, 31.526783781822484 ], [ -91.473862131316409, 31.526908735867536 ], [ -91.473931049855466, 31.527034265911237 ], [ -91.473983659602709, 31.527164641803829 ], [ -91.474037834633634, 31.527294371512543 ], [ -91.474106320062901, 31.527418613858885 ], [ -91.4741599181244, 31.527548403665108 ], [ -91.474207456731818, 31.527678686695289 ], [ -91.474281838536243, 31.527802216182838 ], [ -91.474334257968664, 31.527932621557522 ], [ -91.474392043293477, 31.528060971514943 ], [ -91.47445695034358, 31.528186454949868 ], [ -91.474504824184336, 31.528317835113057 ], [ -91.474573323703538, 31.528443120485395 ], [ -91.474617871603144, 31.528575437535579 ], [ -91.474670592330753, 31.528704135557422 ], [ -91.474730817849405, 31.528832546527628 ], [ -91.474780195371864, 31.52896344598653 ], [ -91.474855048735407, 31.529086035662775 ], [ -91.47492326118973, 31.529211351337295 ], [ -91.474957712475799, 31.529347194411073 ], [ -91.475019972400418, 31.529473910521258 ], [ -91.475080374857455, 31.529600945297751 ], [ -91.475142577971582, 31.529728156059665 ], [ -91.475189298717453, 31.529859546204378 ], [ -91.475239706603745, 31.529990656300523 ], [ -91.475304195601581, 31.530115839942876 ], [ -91.47536285247368, 31.530244374593654 ], [ -91.475414077895536, 31.530374101984862 ], [ -91.475478044812007, 31.530501159722768 ], [ -91.475531118892789, 31.530629717081979 ], [ -91.475595913596706, 31.530756244285165 ], [ -91.475648036059297, 31.530885744402383 ], [ -91.475706013766711, 31.53101376276139 ], [ -91.475763939460961, 31.531142770883605 ], [ -91.475808304456393, 31.531275638281738 ], [ -91.475876244238236, 31.531399417243229 ], [ -91.475928660615992, 31.531529298784868 ], [ -91.475989564952997, 31.531657730045811 ], [ -91.476051604312318, 31.531784502549442 ], [ -91.47609833111747, 31.531916194352704 ], [ -91.476168486822104, 31.532040035402613 ], [ -91.476211293397895, 31.532173933840856 ], [ -91.476274371400606, 31.532299047451737 ], [ -91.476343550812359, 31.532424381560677 ], [ -91.476384394288573, 31.532557775300642 ], [ -91.47645107919773, 31.532683762931523 ], [ -91.476519771931919, 31.532808689134765 ], [ -91.476571481303878, 31.532938301615843 ], [ -91.476636689707249, 31.533064221167212 ], [ -91.47668638864927, 31.533194813838836 ], [ -91.476734886038827, 31.533326764592623 ], [ -91.476810301143601, 31.533447506354083 ], [ -91.476856392049541, 31.533579561539131 ], [ -91.47691019369465, 31.533709623206764 ], [ -91.476985021534333, 31.533832156665845 ], [ -91.477042682556117, 31.533960232152385 ], [ -91.47708446047271, 31.534093782294821 ], [ -91.477149345549819, 31.534219483479049 ], [ -91.477215625865611, 31.534346299457692 ], [ -91.477256525289704, 31.534478923071418 ], [ -91.477320293579837, 31.53460504628886 ], [ -91.477376009071918, 31.534734019204777 ], [ -91.477413544429524, 31.534869640835485 ], [ -91.477469639126397, 31.534998169304409 ], [ -91.477542197139627, 31.535121273724503 ], [ -91.477589891515564, 31.535252983258964 ], [ -91.477667575840044, 31.535375408631584 ], [ -91.477741756170019, 31.535497234013608 ], [ -91.477798944170615, 31.535615362323732 ], [ -91.478019303063164, 31.536157055492186 ], [ -91.47806346471026, 31.536267520908638 ], [ -91.478135321059142, 31.536380350142537 ], [ -91.478191053648686, 31.536507865095036 ], [ -91.478226569100613, 31.536643559518556 ] ] } },
{ "type": "Feature", "properties": { "station_id": 13, "station_ft": -6275.2, "width_ft": 3224.5, "flag": "ok", "lon": -91.471448, "lat": 31.529328, "survey_id": "LM_02_GCG_20220717_CS_3598_3476_B", "date": "2022-07-17 00:00:00+00:00", "method": "lines" }, "geometry": { "type": "LineString", "coordinates": [ [ -91.470808685294784, 31.527786557966344 ], [ -91.470850670432995, 31.527906392342558 ], [ -91.470898797320288, 31.528037881714162 ], [ -91.470979805347838, 31.528157698137186 ], [ -91.471035283788112, 31.528286757403453 ], [ -91.471066782795518, 31.528423095053391 ], [ -91.471110684923147, 31.528555529170035 ], [ -91.471167089166642, 31.528684057957587 ], [ -91.471231116003494, 31.528811419542556 ], [ -91.471299312478209, 31.528935831012578 ], [ -91.471356220257164, 31.529063557985573 ], [ -91.471396886423264, 31.529198934654563 ], [ -91.47144793944004, 31.529328143107765 ], [ -91.471497802828864, 31.529459781788855 ], [ -91.471546807883101, 31.529589393508513 ], [ -91.471612118280504, 31.529716578406859 ], [ -91.471669473812184, 31.529844164145704 ], [ -91.47173470267397, 31.529969893207831 ], [ -91.471792329478149, 31.530098548768176 ], [ -91.47185131625406, 31.53022559771896 ], [ -91.4718929090144, 31.530360525836791 ], [ -91.47194887851812, 31.530487491567698 ], [ -91.472021733848479, 31.530612218245317 ], [ -91.472074620976869, 31.530741630118619 ], [ -91.472135420023193, 31.530869844202982 ], [ -91.472188852155938, 31.530999197055621 ], [ -91.472225482245676, 31.531132381759754 ], [ -91.47227618424526, 31.53126423265488 ], [ -91.472324977429523, 31.531394780215177 ], [ -91.472384562466331, 31.531523363003462 ], [ -91.472445736468231, 31.531650640156496 ], [ -91.472503408872925, 31.531777590430153 ], [ -91.472554134584868, 31.531908642842254 ], [ -91.472615257540625, 31.532036964697305 ], [ -91.472666365760361, 31.532165154781762 ], [ -91.472731586384072, 31.532292642831248 ], [ -91.472796897293165, 31.532416886081801 ], [ -91.472861974479954, 31.532543110938374 ], [ -91.472907203644766, 31.53267597166678 ], [ -91.472963013708522, 31.532805440022294 ], [ -91.473012905829691, 31.532936417574025 ], [ -91.473053316189905, 31.533068936088924 ], [ -91.473117621244427, 31.533194892607774 ], [ -91.473161056232101, 31.533328044277802 ], [ -91.473212433676935, 31.5334597236623 ], [ -91.473277968324439, 31.533583799590936 ], [ -91.47333964732023, 31.533710218587174 ], [ -91.473404126994154, 31.533837217723487 ], [ -91.473464122726853, 31.533965026976926 ], [ -91.473512695162839, 31.534095603910778 ], [ -91.473554505748481, 31.534229649200707 ], [ -91.473621375112984, 31.534355252482257 ], [ -91.473669980963308, 31.534485857001805 ], [ -91.473715246833308, 31.534619047124444 ], [ -91.473798519126632, 31.534739500566431 ], [ -91.473865122330622, 31.53486419881304 ], [ -91.473915049482116, 31.5349952585949 ], [ -91.473951632519274, 31.535129598354189 ], [ -91.473983658158261, 31.535266424564714 ], [ -91.474042164855376, 31.535393037394588 ], [ -91.474087984505786, 31.5355267445841 ], [ -91.474126204861136, 31.535661041713396 ], [ -91.474178291322346, 31.535790102542482 ], [ -91.474245642507057, 31.535915591115014 ], [ -91.474304303507083, 31.536044264053228 ], [ -91.474356889854803, 31.536172138010286 ], [ -91.474431313541942, 31.536295913883119 ], [ -91.474514851557856, 31.536416887494045 ], [ -91.474572651914613, 31.536543395413503 ] ] } },
{ "type": "Feature", "properties": { "station_id": 14, "station_ft": -7320.3, "width_ft": 3124.7, "flag": "ok", "lon": -91.468036, "lat": 31.52981, "survey_id": "LM_02_GCG_20220717_CS_3598_3476_B", "date": "2022-07-17 00:00:00+00:00", "method": "lines" }, "geometry": { "type": "LineString", "coordinates": [ [ -91.467652442959633, 31.528907696848083 ], [ -91.467710011278498, 31.529034732449354 ], [ -91.467766191911565, 31.529163759892725 ], [ -91.467824619009065, 31.529292740324468 ], [ -91.467852421042124, 31.529428973619613 ], [ -91.467926454009685, 31.529553389275598 ], [ -91.467990999602463, 31.529678769258876 ], [ -91.468035500035612, 31.529810483986033 ], [ -91.468094889512813, 31.529939400719112 ], [ -91.468169723123552, 31.530061005254076 ], [ -91.468210798781584, 31.530196104279913 ], [ -91.468245515645933, 31.530330819610544 ], [ -91.468315214974567, 31.530455053409792 ], [ -91.468386765206972, 31.530578392336373 ], [ -91.468432505470048, 31.530711635349917 ], [ -91.468492033168971, 31.530838653142606 ], [ -91.468538688709884, 31.530970678602529 ], [ -91.468597468416547, 31.531099462487656 ], [ -91.468668830853758, 31.531223132074327 ], [ -91.468717102669132, 31.531353383595377 ], [ -91.468773381303905, 31.531482354627141 ], [ -91.46884802647007, 31.531604043348896 ], [ -91.468897737456246, 31.531736591650603 ], [ -91.468954608581726, 31.531864017867488 ], [ -91.469013789730766, 31.531991423541506 ], [ -91.469046708037482, 31.532128491258433 ], [ -91.469087616552557, 31.532262904202206 ], [ -91.469150447355531, 31.532389507207053 ], [ -91.469214930418332, 31.532514721982405 ], [ -91.469274722602989, 31.532642177097742 ], [ -91.469320761986097, 31.5327734934137 ], [ -91.469374074301939, 31.532903781927253 ], [ -91.469436261069831, 31.533030171338485 ], [ -91.469503885761512, 31.533155027957953 ], [ -91.469557509365302, 31.533284462267911 ], [ -91.469623445691823, 31.533410378157612 ], [ -91.469697121280092, 31.533533944460483 ], [ -91.469744931248272, 31.533665656102116 ], [ -91.46979791027708, 31.533794848912589 ], [ -91.469855570276707, 31.533923559994413 ], [ -91.469919419815213, 31.534049329212998 ], [ -91.469969795247152, 31.534180770844493 ], [ -91.470032947673545, 31.534307289317344 ], [ -91.470087312409547, 31.534436853855926 ], [ -91.470145822999811, 31.534564264870134 ], [ -91.470192686811885, 31.534694611198972 ], [ -91.470234210831777, 31.534829182348211 ], [ -91.470293861252614, 31.534957902554762 ], [ -91.470362860832751, 31.535082087170078 ], [ -91.47041466528124, 31.535212224433177 ], [ -91.470464726891777, 31.535341551974469 ], [ -91.470522589758474, 31.53547103017236 ], [ -91.470586063351263, 31.535597325416077 ], [ -91.470648865904352, 31.535723928710937 ], [ -91.470715345259592, 31.535849288986046 ], [ -91.470776193238677, 31.535976101686312 ], [ -91.47083902995999, 31.536102787539299 ], [ -91.470906142380201, 31.536227427803844 ], [ -91.470928354719305, 31.536367916143135 ], [ -91.470974447413766, 31.536505965369585 ], [ -91.471043758530683, 31.536629183610778 ], [ -91.47108491918226, 31.536757491591722 ], [ -91.471133091632481, 31.536889611517552 ], [ -91.47119454750225, 31.537016171464931 ], [ -91.471269343471747, 31.537139149569025 ], [ -91.47132276958709, 31.537267786611068 ], [ -91.47135830413346, 31.537403153725801 ], [ -91.471399627796103, 31.537536846878325 ], [ -91.471475677328755, 31.537659895754153 ], [ -91.471554448057589, 31.537782343175017 ] ] } }
]
}
