{
"type": "FeatureCollection",
"name": "LM_05_VGG_20230817_CS_4274_4240_transects",
"crs": { "type": "name", "properties": { "name": "urn:ogc:def:crs:OGC:1.3:CRS84" } },
"features": [
{ "type": "Feature", "properties": { "station_ft": 0.0, "width_ft": 2871.8, "flag": "waypoint", "lon": -91.001387, "lat": 32.171708, "survey_id": "LM_05_VGG_20230817_CS_4274_4240", "date": "2023-08-17T00:00:00Z", "method": "lines", "station_id": 0 }, "geometry": { "type": "LineString", "coordinates": [ [ -90.995477479545798, 32.170931304927329 ], [ -90.995635848050554, 32.170964560038144 ], [ -90.995792222181763, 32.170999117693732 ], [ -90.99595455971901, 32.171009262452536 ], [ -90.996105245448263, 32.171074827756833 ], [ -90.996268641533646, 32.171079442047485 ], [ -90.996432157725877, 32.171091558597077 ], [ -90.996594037589176, 32.171096455467762 ], [ -90.9967465266852, 32.171161185387156 ], [ -90.996904611818081, 32.171190922407753 ], [ -90.997072730996223, 32.171178193334292 ], [ -90.997231467004354, 32.171181730614407 ], [ -90.997399178506726, 32.171179751075449 ], [ -90.997552689141258, 32.171211435768747 ], [ -90.997705333603648, 32.171270721256427 ], [ -90.997868656881423, 32.171274013602222 ], [ -90.998027900565376, 32.171289615298953 ], [ -90.998192949900286, 32.171308071189038 ], [ -90.998353511130361, 32.171322730368779 ], [ -90.998512897193791, 32.171344624469569 ], [ -90.998668978894131, 32.171378684994075 ], [ -90.998829850344364, 32.171404776043623 ], [ -90.998988978661629, 32.171417875500076 ], [ -90.99915023248758, 32.171425383140686 ], [ -90.9993115557441, 32.17143805760761 ], [ -90.999464190483366, 32.171495801612053 ], [ -90.999620209112521, 32.171534369460048 ], [ -90.999783219461293, 32.171552422779556 ], [ -90.99994527827576, 32.171550606713886 ], [ -91.000107847601058, 32.171539112182074 ], [ -91.000267339161908, 32.171579887504414 ], [ -91.000420096633789, 32.171623226821339 ], [ -91.000582142316333, 32.17162861189837 ], [ -91.000748199311047, 32.17162545436075 ], [ -91.000904452152582, 32.171674080023891 ], [ -91.001066018904709, 32.171684579393172 ], [ -91.001226217463227, 32.171689203243709 ], [ -91.001386872402477, 32.171707541979821 ], [ -91.001547592716605, 32.171730469499366 ], [ -91.001703907077456, 32.171760869078071 ], [ -91.001861339083305, 32.17179373713504 ], [ -91.002021453139577, 32.171813176330453 ], [ -91.002184275321852, 32.17182740655435 ], [ -91.002344931551121, 32.171850360450222 ], [ -91.002504815549713, 32.171864990873068 ], [ -91.002668962421964, 32.171865771021231 ], [ -91.002832232039609, 32.171866061404678 ], [ -91.002991404358681, 32.171880501989669 ], [ -91.003147215890309, 32.171917142994097 ], [ -91.003306012783568, 32.171955306490261 ], [ -91.003464573789017, 32.171978903129073 ], [ -91.003625549728099, 32.171996934303287 ], [ -91.003788587242198, 32.17200516785919 ], [ -91.003942635830981, 32.172048001863139 ], [ -91.004101762648801, 32.172060653892025 ], [ -91.004267471608955, 32.172054195640264 ], [ -91.00442706515085, 32.172073085337672 ], [ -91.004587287305426, 32.172089634897411 ], [ -91.004742750764038, 32.172140265615461 ] ] } },
{ "type": "Feature", "properties": { "station_ft": 1072.2, "width_ft": 3056.7, "flag": "waypoint", "lon": -91.000339, "lat": 32.174517, "survey_id": "LM_05_VGG_20230817_CS_4274_4240", "date": "2023-08-17T00:00:00Z", "method": "lines", "station_id": 1 }, "geometry": { "type": "LineString", "coordinates": [ [ -90.994586741987504, 32.173796602546219 ], [ -90.994734362295333, 32.173853581236102 ], [ -90.994900429647942, 32.173846858298845 ], [ -90.995067732708293, 32.173841227991865 ], [ -90.995231975287695, 32.173845948271918 ], [ -90.99539722152555, 32.173833017280373 ], [ -90.995552327537339, 32.173856944010645 ], [ -90.995713380198751, 32.173894253002594 ], [ -90.995867306826327, 32.173924700228213 ], [ -90.996029046832959, 32.173945320746078 ], [ -90.996190817337862, 32.173961212683309 ], [ -90.996346327351489, 32.173987280833927 ], [ -90.996506937713235, 32.174007960768087 ], [ -90.99666822832117, 32.174033393100068 ], [ -90.99682693767258, 32.174059333859979 ], [ -90.996983810741455, 32.174086163322279 ], [ -90.997141135726807, 32.174117250388946 ], [ -90.997303325017171, 32.174146223126044 ], [ -90.997458334936752, 32.174170065948786 ], [ -90.997629311220805, 32.174145143899452 ], [ -90.997793402442682, 32.174151126888077 ], [ -90.997950553729922, 32.174184962586885 ], [ -90.9981038382479, 32.174220412816794 ], [ -90.998263016783298, 32.174257564264856 ], [ -90.998417990606512, 32.174285281193185 ], [ -90.998582780436067, 32.174280703746525 ], [ -90.99922017586384, 32.174393567032595 ], [ -90.999375127522697, 32.174427055412522 ], [ -90.999540826402352, 32.174418568878252 ], [ -90.999701984022877, 32.174429897261902 ], [ -90.999861835389254, 32.174439334905443 ], [ -91.000025764810417, 32.174454166248388 ], [ -91.000182009523783, 32.174487674777893 ], [ -91.000339255710628, 32.174516586697408 ], [ -91.000497651743402, 32.174552530113232 ], [ -91.000657383666805, 32.17457230306939 ], [ -91.000813264664288, 32.174613453803836 ], [ -91.00097980879535, 32.17460990827481 ], [ -91.00114564909498, 32.17459418994958 ], [ -91.001305895621101, 32.174613547239332 ], [ -91.001459320873082, 32.174650284940313 ], [ -91.001619833601964, 32.174688358475159 ], [ -91.001781066826467, 32.174701086124578 ], [ -91.001933405862673, 32.174752809017782 ], [ -91.002089788728654, 32.174796209151125 ], [ -91.002253088481496, 32.174791057633392 ], [ -91.002414930889017, 32.174798750933427 ], [ -91.002575659745986, 32.174808730604475 ], [ -91.002729664346717, 32.17485381989863 ], [ -91.002889646966523, 32.174881202714104 ], [ -91.003055187201696, 32.174881837866032 ], [ -91.003220522399673, 32.174854464452451 ], [ -91.003381861898035, 32.174886127583349 ], [ -91.003537655816345, 32.174915153224553 ], [ -91.003694252288213, 32.174952256474775 ], [ -91.003853454831656, 32.174974556873188 ], [ -91.004006943726807, 32.175024100493125 ], [ -91.004166675134968, 32.175043593952751 ], [ -91.004331860457285, 32.175057533770563 ], [ -91.004493829799543, 32.175055849378602 ], [ -91.004652389868752, 32.175096321918012 ] ] } },
{ "type": "Feature", "properties": { "station_ft": 2185.6, "width_ft": 3241.0, "flag": "ok", "lon": -90.998723, "lat": 32.177251, "survey_id": "LM_05_VGG_20230817_CS_4274_4240", "date": "2023-08-17T00:00:00Z", "method": "lines", "station_id": 2 }, "geometry": { "type": "LineString", "coordinates": [ [ -90.992661929578091, 32.176446617563059 ], [ -90.992810993863614, 32.176474592179581 ], [ -90.99297419259544, 32.176477425180551 ], [ -90.993134330888793, 32.176517270868075 ], [ -90.993292011076392, 32.176547948705711 ], [ -90.993455817096347, 32.176536319126491 ], [ -90.993616385545863, 32.176550654138062 ], [ -90.993775119974046, 32.176575169182449 ], [ -90.993933816938139, 32.176616807872151 ], [ -90.994098003789375, 32.17660872140597 ], [ -90.994261042950171, 32.176616143812261 ], [ -90.994418190512476, 32.176649049603256 ], [ -90.994568012035955, 32.17671478526178 ], [ -90.994727263020266, 32.176739104319658 ], [ -90.994896687433538, 32.176722275200461 ], [ -90.995053698637534, 32.176736269867774 ], [ -90.995211690009455, 32.176774062596103 ], [ -90.995366467220606, 32.176814291514646 ], [ -90.995528527081518, 32.176833728670694 ], [ -90.995694456055631, 32.176820628647768 ], [ -90.995851851187922, 32.176838550417273 ], [ -90.996011543850898, 32.17687034157867 ], [ -90.996173208797458, 32.176897586979827 ], [ -90.996327038648801, 32.176923030832484 ], [ -90.996490352746875, 32.176932592529752 ], [ -90.996650245785219, 32.176960670866002 ], [ -90.996804562795262, 32.176999746107093 ], [ -90.996963817824223, 32.177029008767562 ], [ -90.997135043444686, 32.177006423546999 ], [ -90.997296394129535, 32.177012640658432 ], [ -90.997450439004339, 32.177049819120114 ], [ -90.99760518224582, 32.177102991904718 ], [ -90.99776726920328, 32.177117121571676 ], [ -90.99792710369934, 32.177132664283306 ], [ -90.998416222622623, 32.177208020234232 ], [ -90.998565149174937, 32.177225543957952 ], [ -90.998723343145244, 32.177250934880156 ], [ -90.99887975284831, 32.177279852966983 ], [ -90.999040842811354, 32.17730349677101 ], [ -90.99919873251001, 32.177326964226815 ], [ -90.999362128242595, 32.177329980020403 ], [ -90.999526916327781, 32.177319903854425 ], [ -90.999686132735334, 32.177339158555981 ], [ -90.999838200707572, 32.177406498454019 ], [ -90.999995103617209, 32.17744976131474 ], [ -91.000153072055653, 32.177470726430357 ], [ -91.000309331042359, 32.177509841244877 ], [ -91.000476913568662, 32.17749296025233 ], [ -91.000635611687542, 32.177520901854564 ], [ -91.000793142207158, 32.177552588336823 ], [ -91.000954652859903, 32.177562840953613 ], [ -91.001114130596321, 32.17757799733625 ], [ -91.001278036515487, 32.177597527377976 ], [ -91.001436540504599, 32.177621043797309 ], [ -91.001595324074728, 32.177651760423139 ], [ -91.001762611480899, 32.177674021600197 ], [ -91.001920416694986, 32.177685748989894 ], [ -91.002071025966629, 32.177712358074778 ], [ -91.002231441653336, 32.17773638553777 ], [ -91.002389493523054, 32.177755285864279 ], [ -91.002546875348131, 32.177793182630261 ], [ -91.002703178459441, 32.177824928227061 ], [ -91.002863603467276, 32.17782801021928 ], [ -91.003028249464222, 32.177855972336133 ], [ -91.003189620830668, 32.177864766400816 ], [ -91.003347017171848, 32.17789559818538 ], [ -91.003503627148163, 32.177929512729932 ], [ -91.003663573135199, 32.177946641986075 ] ] } },
{ "type": "Feature", "properties": { "station_ft": 3317.8, "width_ft": 2969.8, "flag": "ok", "lon": -90.99878, "lat": 32.180362, "survey_id": "LM_05_VGG_20230817_CS_4274_4240", "date": "2023-08-17T00:00:00Z", "method": "lines", "station_id": 3 }, "geometry": { "type": "LineString", "coordinates": [ [ -90.99288913534312, 32.179585422924838 ], [ -90.993033860728744, 32.179598137708304 ], [ -90.993197281919862, 32.179617515696897 ], [ -90.993356320996256, 32.179652227335765 ], [ -90.993505795186181, 32.179660132676098 ], [ -90.993650142528722, 32.17967436016562 ], [ -90.993805712200285, 32.179689518183444 ], [ -90.993967427336969, 32.179705193118139 ], [ -90.994128067429116, 32.179719857117405 ], [ -90.994286333685253, 32.179741460148058 ], [ -90.996699825559588, 32.180090339631441 ], [ -90.996862485286513, 32.180106995189377 ], [ -90.997028060761863, 32.180093345125279 ], [ -90.997182929098912, 32.180131949809486 ], [ -90.997330170430217, 32.180130544801528 ], [ -90.997511653841642, 32.180144379937907 ], [ -90.997666797616375, 32.180180865122608 ], [ -90.997821874972303, 32.180221474457703 ], [ -90.99798373823964, 32.180235136929383 ], [ -90.998144350002207, 32.180250071015408 ], [ -90.998302779313335, 32.180280436478043 ], [ -90.998459483049146, 32.180322409938881 ], [ -90.998619157717201, 32.180332977257898 ], [ -90.998780198300111, 32.180362366150604 ], [ -90.99894477789671, 32.180345172885282 ], [ -90.999112042879986, 32.180332720533663 ], [ -90.999263043333798, 32.180377032557637 ], [ -90.999420572414635, 32.180381398468846 ], [ -90.999578447855441, 32.1804199284582 ], [ -90.999739880594348, 32.180432052451145 ], [ -90.999908834807144, 32.180438666202065 ], [ -91.000065315247568, 32.180471980531642 ], [ -91.000220948443328, 32.180531027865094 ], [ -91.000378939046783, 32.180540914654479 ], [ -91.000540256494631, 32.180555071819725 ], [ -91.000698118447261, 32.180591648951527 ], [ -91.000855015185721, 32.180628754030394 ], [ -91.001015231149353, 32.18066020596234 ], [ -91.001175072010824, 32.180680059648388 ], [ -91.001337600345693, 32.180682830322048 ], [ -91.001498352447058, 32.180694734714507 ], [ -91.00165673967912, 32.180714733446344 ], [ -91.001819042279223, 32.180730863250481 ], [ -91.001971275868001, 32.180779975776098 ], [ -91.002125554674251, 32.180843535169686 ], [ -91.002289076741675, 32.180840773955318 ], [ -91.002453668918605, 32.180825280483511 ], [ -91.002608770962922, 32.180877674993141 ], [ -91.002764403708994, 32.180931853895345 ] ] } },
{ "type": "Feature", "properties": { "station_ft": 4692.3, "width_ft": 2649.7, "flag": "ok", "lon": -90.995199, "lat": 32.182598, "survey_id": "LM_05_VGG_20230817_CS_4274_4240", "date": "2023-08-17T00:00:00Z", "method": "lines", "station_id": 4 }, "geometry": { "type": "LineString", "coordinates": [ [ -90.992985293432355, 32.18218602112605 ], [ -90.993144652846809, 32.182210725689885 ], [ -90.993307926284942, 32.182231313592752 ], [ -90.993469467332488, 32.182253697719936 ], [ -90.993626208561224, 32.182269399909366 ], [ -90.993787912035444, 32.182287383734369 ], [ -90.993942347446662, 32.182332811423336 ], [ -90.994095173869383, 32.182374645484515 ], [ -90.994259199490571, 32.182391985304108 ], [ -90.994421708176432, 32.182391631142885 ], [ -90.994580660231222, 32.18242252065599 ], [ -90.994734323597825, 32.182459347206368 ], [ -90.994894617508962, 32.182483522519995 ], [ -90.995039088453382, 32.182563305056611 ], [ -90.99519884403152, 32.182597899644307 ], [ -90.995366657846915, 32.182589133248868 ], [ -90.995528610972045, 32.182592408565334 ], [ -90.995685189504073, 32.182634578168582 ], [ -90.995833498336196, 32.182695235678395 ], [ -90.995995317215701, 32.182720061730272 ], [ -90.996153378360148, 32.182739216824309 ], [ -90.996308996747501, 32.182778174815354 ], [ -90.996474491764602, 32.18278844014668 ], [ -90.996638151073483, 32.182777329289507 ], [ -90.996799495407828, 32.182803640280405 ], [ -90.996953378069151, 32.182848269966293 ], [ -90.997106231734378, 32.182893701164467 ], [ -90.997261698484749, 32.182938267148501 ], [ -90.997422173156053, 32.182951497498991 ], [ -90.99758011731673, 32.182972410855101 ], [ -90.997740240983276, 32.183008402603065 ], [ -90.99789541082157, 32.183043266756059 ], [ -90.998044603612044, 32.183105181349369 ], [ -90.998996218013929, 32.183261581462297 ], [ -90.999148282083524, 32.183322573309546 ], [ -90.999305373414913, 32.183341564521939 ], [ -90.999471771619909, 32.183355833329209 ], [ -90.99962966688858, 32.183365364395598 ], [ -90.999786475680793, 32.183398678187359 ], [ -90.999949281149767, 32.183421211471746 ], [ -91.000107109986658, 32.183452595019382 ], [ -91.00026655219493, 32.183461484962898 ], [ -91.000412777848197, 32.183475089648013 ], [ -91.000566565957811, 32.183497642638223 ], [ -91.000704232361869, 32.183525392881833 ], [ -91.000844904436448, 32.183539823570712 ], [ -91.001017574102477, 32.183545316872149 ], [ -91.001164713371139, 32.183604434860428 ], [ -91.00131857737901, 32.183650542781457 ], [ -91.001477617812625, 32.183683924745047 ], [ -91.001634609547438, 32.183706844581685 ], [ -91.001797346407088, 32.183724208453718 ], [ -91.00195568579008, 32.183754487675564 ], [ -91.002110577848924, 32.183790858633891 ], [ -91.002265227581645, 32.183833663312228 ] ] } },
{ "type": "Feature", "properties": { "station_ft": 5730.8, "width_ft": 2286.2, "flag": "ok", "lon": -90.99422, "lat": 32.185328, "survey_id": "LM_05_VGG_20230817_CS_4274_4240", "date": "2023-08-17T00:00:00Z", "method": "lines", "station_id": 5 }, "geometry": { "type": "LineString", "coordinates": [ [ -90.992495825419567, 32.184962978383666 ], [ -90.992650491601182, 32.185003981200097 ], [ -90.992793108378791, 32.185063984728018 ], [ -90.992953644183302, 32.185103196227431 ], [ -90.993119930170295, 32.185101586713458 ], [ -90.993289447642908, 32.185099878054523 ], [ -90.993438485586992, 32.185153662709951 ], [ -90.993587767618266, 32.185209946641464 ], [ -90.993752040780208, 32.185224894170588 ], [ -90.993907739894951, 32.185261216850833 ], [ -90.994063041911815, 32.185300537235527 ], [ -90.994220295156296, 32.185328247211558 ], [ -90.994378917395082, 32.185357407165974 ], [ -90.994532492559046, 32.185399401755227 ], [ -90.994681342815667, 32.185453901052533 ], [ -90.9948467679, 32.185467191714913 ], [ -90.995004548737541, 32.185491682086379 ], [ -90.995161850954531, 32.185517136999096 ], [ -90.996098809480756, 32.18572668632558 ], [ -90.996257927931666, 32.185757270684029 ], [ -90.996421061645819, 32.18577999974292 ], [ -90.996581529820944, 32.1858049691443 ], [ -90.996733128432567, 32.185846009174647 ], [ -90.996899415924545, 32.185840052444526 ], [ -90.997057660810228, 32.185874845528332 ], [ -90.997210003945924, 32.185929295541023 ], [ -90.99735512382297, 32.185990655103794 ], [ -90.997510962590582, 32.186036785211911 ], [ -90.997670628320378, 32.186058046479062 ], [ -90.997818018594586, 32.186120354912063 ], [ -90.997973305979571, 32.186161760040882 ], [ -90.998135150874674, 32.186167066121989 ], [ -90.998294759833612, 32.186193742280672 ], [ -90.998449419480067, 32.18623773291317 ], [ -90.99860077384254, 32.186271515989944 ], [ -90.998765928789865, 32.186292004803242 ], [ -90.998920390831159, 32.186335309616219 ], [ -90.999079271681239, 32.186368529457596 ], [ -90.999236796978082, 32.186393098835353 ], [ -90.999391449193425, 32.186435961983328 ], [ -90.999545065663966, 32.186482925526775 ], [ -90.999695618921265, 32.186526579136732 ], [ -90.999859963974814, 32.186546576588498 ], [ -91.00002432825643, 32.186555962999989 ], [ -91.000168609961449, 32.186621528874134 ], [ -91.000324764113586, 32.1866663624319 ], [ -91.000477555088764, 32.18670645737717 ], [ -91.000643945587484, 32.186705579587922 ], [ -91.000804754608879, 32.186723697050411 ], [ -91.000953917064578, 32.186784866079961 ], [ -91.001103180187684, 32.186824209640932 ], [ -91.001263172225421, 32.186854425937305 ] ] } },
{ "type": "Feature", "properties": { "station_ft": 6767.3, "width_ft": 1958.6, "flag": "ok", "lon": -90.993833, "lat": 32.188158, "survey_id": "LM_05_VGG_20230817_CS_4274_4240", "date": "2023-08-17T00:00:00Z", "method": "lines", "station_id": 6 }, "geometry": { "type": "LineString", "coordinates": [ [ -90.992286059765519, 32.187749883734512 ], [ -90.992435240847698, 32.187814031505646 ], [ -90.992592391259279, 32.18784474072428 ], [ -90.992746646116842, 32.187881841561762 ], [ -90.992911570958157, 32.18788812843686 ], [ -90.993059063183225, 32.187951074040178 ], [ -90.993209079070382, 32.188005430964807 ], [ -90.993360762773307, 32.188053402288084 ], [ -90.993511160174705, 32.188106794625547 ], [ -90.993671701364633, 32.188132454483991 ], [ -90.993832919065028, 32.188157945573046 ], [ -90.993983224779896, 32.188198583487143 ], [ -90.994139012178522, 32.188241859240456 ], [ -90.994293795131654, 32.1882802477162 ], [ -90.994450985097458, 32.188311833672024 ], [ -90.994609492957977, 32.188342340285558 ], [ -90.994764321671056, 32.188378061282819 ], [ -90.994920860122079, 32.188413361017339 ], [ -90.995079615251115, 32.188442381361561 ], [ -90.995218264548384, 32.188529230845703 ], [ -90.995369376708894, 32.188578412061943 ], [ -90.995516659164167, 32.18863426401434 ], [ -90.995674098309166, 32.188677859276922 ], [ -90.995831971695551, 32.188705399806047 ], [ -90.995996026699629, 32.188725182823205 ], [ -90.996157328210273, 32.188739620586425 ], [ -90.99631635915722, 32.188766329283581 ], [ -90.996472379223619, 32.188805724932529 ], [ -90.996621433306871, 32.18886503106161 ], [ -90.996764998211106, 32.188934233437905 ], [ -90.996907851697358, 32.189003136372385 ], [ -90.997060632608296, 32.189041503985315 ], [ -90.997230953341173, 32.189042671569503 ], [ -90.997383580049529, 32.18908197477915 ], [ -90.997539510646448, 32.18912672994319 ], [ -90.997693900341147, 32.189164016082714 ], [ -90.997843469471348, 32.18921856189386 ], [ -90.997990428995124, 32.189274138484826 ], [ -90.998145827618202, 32.189321342306954 ], [ -90.998306377134838, 32.189347683385989 ], [ -90.998460548254513, 32.189381506773337 ], [ -90.998604998955685, 32.18944767860274 ], [ -90.998755317122985, 32.189498343396316 ], [ -90.998929888319182, 32.189497067661421 ], [ -90.999096352494234, 32.18948783528932 ], [ -90.999260480635229, 32.189512864016635 ], [ -90.999405748005898, 32.189571224538575 ], [ -90.999554100661896, 32.189626984045844 ], [ -90.999701044572717, 32.189689211380788 ] ] } },
{ "type": "Feature", "properties": { "station_ft": 7800.3, "width_ft": 1662.8, "flag": "ok", "lon": -90.992567, "lat": 32.190785, "survey_id": "LM_05_VGG_20230817_CS_4274_4240", "date": "2023-08-17T00:00:00Z", "method": "lines", "station_id": 7 }, "geometry": { "type": "LineString", "coordinates": [ [ -90.991648124344081, 32.190533107540624 ], [ -90.99180395261007, 32.190568249766869 ], [ -90.991959088547844, 32.190610321325245 ], [ -90.992110627579905, 32.190660219320428 ], [ -90.992269605675716, 32.190692677902092 ], [ -90.992416953073715, 32.190734955408111 ], [ -90.992566587421905, 32.190785081918804 ], [ -90.99273889138972, 32.190800813066843 ], [ -90.992887082559179, 32.190852541124436 ], [ -90.993041795000494, 32.190898545455184 ], [ -90.993190870759918, 32.190951862943159 ], [ -90.993349278855348, 32.190976929173701 ], [ -90.99350033855869, 32.191027377194857 ], [ -90.994242142190899, 32.191312888914695 ], [ -90.994390117967654, 32.191361290435538 ], [ -90.994553622186942, 32.191380253902736 ], [ -90.994717589634561, 32.19139624596982 ], [ -90.994875848762106, 32.191431783799977 ], [ -90.9950239427817, 32.191492058115408 ], [ -90.995160990915565, 32.191567013845876 ], [ -90.995323170672762, 32.19159046344668 ], [ -90.995491497882824, 32.191596866163941 ], [ -90.995644922713637, 32.191643231143019 ], [ -90.995791999338579, 32.191705681441597 ], [ -90.995937085759721, 32.191765668323967 ], [ -90.996094548336686, 32.191793869845398 ], [ -90.996253996836344, 32.191819367047557 ], [ -90.996408454906685, 32.191861135453586 ], [ -90.996560521437814, 32.191911793648082 ], [ -90.996709044905245, 32.191959667411652 ], [ -90.99686448880361, 32.191999120544764 ], [ -90.997022623075893, 32.192030643261894 ], [ -90.997183886702388, 32.19206124303259 ], [ -90.997337756315716, 32.192106421331054 ], [ -90.997480458834062, 32.192171751355346 ], [ -90.997630927596973, 32.192229179328649 ], [ -90.997779728505634, 32.192275097943757 ], [ -90.997935139425053, 32.192309877637214 ], [ -90.998093215779079, 32.192346731723823 ], [ -90.998250766977876, 32.19238675012457 ], [ -90.998410321163959, 32.192413288334414 ], [ -90.998566800402713, 32.192443827622789 ] ] } },
{ "type": "Feature", "properties": { "station_ft": 8888.8, "width_ft": 1819.0, "flag": "ok", "lon": -90.991121, "lat": 32.193513, "survey_id": "LM_05_VGG_20230817_CS_4274_4240", "date": "2023-08-17T00:00:00Z", "method": "lines", "station_id": 8 }, "geometry": { "type": "LineString", "coordinates": [ [ -90.989747385713258, 32.193115495694421 ], [ -90.98989812435768, 32.193157043358198 ], [ -90.990046610054463, 32.193208856145588 ], [ -90.990198487341345, 32.193255922939066 ], [ -90.990349525856942, 32.193303130981697 ], [ -90.990512982722265, 32.193350988544928 ], [ -90.990654830790433, 32.193396842562258 ], [ -90.990811723013664, 32.193430798153734 ], [ -90.990971644108001, 32.193463556424696 ], [ -90.991121438514014, 32.193512859506143 ], [ -90.991272335038119, 32.19356276088871 ], [ -90.991420781781187, 32.193617952242015 ], [ -90.991572611765704, 32.193667244191069 ], [ -90.991728241319635, 32.19370527328384 ], [ -90.991889764566196, 32.19373139733333 ], [ -90.992045450796681, 32.19376401125885 ], [ -90.992198088324557, 32.193812995235938 ], [ -90.992342252102105, 32.193879313626184 ], [ -90.992487455233316, 32.19393295417067 ], [ -90.992640635849639, 32.193976437331791 ], [ -90.992800537235979, 32.194015212971323 ], [ -90.992954081029239, 32.19405534091932 ], [ -90.993104353637378, 32.194099058724575 ], [ -90.993264782294133, 32.19413016201397 ], [ -90.99341779875067, 32.194182248368385 ], [ -90.99356520913237, 32.194227987994545 ], [ -90.993714071112151, 32.19428218517465 ], [ -90.993864547601461, 32.194331563480588 ], [ -90.99402376592343, 32.194365035771035 ], [ -90.994176872677912, 32.194407198091739 ], [ -90.994332041775095, 32.194452951282138 ], [ -90.994485587320852, 32.194497529591672 ], [ -90.994638481539738, 32.194541479851047 ], [ -90.994794521230631, 32.194568975248025 ], [ -90.994954056778752, 32.194601482467426 ], [ -90.99510914061311, 32.194648691568894 ], [ -90.995245153626144, 32.194722827391814 ], [ -90.995395347925253, 32.194777840757922 ], [ -90.9955470346993, 32.194819981785933 ], [ -90.995702958103365, 32.194858114432918 ], [ -90.995855530278106, 32.194906490084726 ], [ -90.996007346238343, 32.19495761823503 ], [ -90.996154128402836, 32.195014517124712 ], [ -90.996307266079313, 32.195056127479589 ], [ -90.996474699180951, 32.195072016067876 ], [ -90.996633512293556, 32.195093915130265 ], [ -90.996795251006048, 32.195126848539282 ], [ -90.996936451514301, 32.195189493281312 ], [ -90.997081075299135, 32.19526055904695 ], [ -90.99722732832511, 32.195324468334178 ], [ -90.997387054367593, 32.195351804083145 ], [ -90.997554101561491, 32.195363378996362 ], [ -90.997701003313054, 32.195418708999263 ], [ -90.997835452390063, 32.195503982175993 ] ] } },
{ "type": "Feature", "properties": { "station_ft": 9907.3, "width_ft": 1711.1, "flag": "ok", "lon": -90.990706, "lat": 32.19629, "survey_id": "LM_05_VGG_20230817_CS_4274_4240", "date": "2023-08-17T00:00:00Z", "method": "lines", "station_id": 9 }, "geometry": { "type": "LineString", "coordinates": [ [ -90.988482620275875, 32.195553937812598 ], [ -90.988633281760897, 32.195602139106242 ], [ -90.988766452114476, 32.195654553960779 ], [ -90.988907255244158, 32.195702943997361 ], [ -90.989050173134274, 32.195739778814954 ], [ -90.989205880652264, 32.19577486976717 ], [ -90.989340739183646, 32.195855257577833 ], [ -90.989480006837454, 32.195937436809992 ], [ -90.989630150548294, 32.19598544750432 ], [ -90.989793043001839, 32.196003705093638 ], [ -90.989937677990099, 32.196072332381377 ], [ -90.990082614596218, 32.196129027865915 ], [ -90.990229947876998, 32.196186260837827 ], [ -90.990370148490641, 32.196263046804866 ], [ -90.990527004890524, 32.19630049379554 ], [ -90.990706015455601, 32.196289832807906 ], [ -90.990853717164782, 32.196339807153777 ], [ -90.991004685321926, 32.196394463678438 ], [ -90.991142254998849, 32.196469393006254 ], [ -90.991290687785124, 32.196526563999413 ], [ -90.991441089901571, 32.196574406147562 ], [ -90.991602773861473, 32.196604185620203 ], [ -90.991757761078986, 32.1966377377626 ], [ -90.991895313423726, 32.196723524162437 ], [ -90.992033074363718, 32.196793476216698 ], [ -90.992182931056263, 32.196850583723375 ], [ -90.992332449840475, 32.19689227273556 ], [ -90.992491623270922, 32.196927945761232 ], [ -90.992646985376524, 32.19697306689627 ], [ -90.992793320859136, 32.197026096905233 ], [ -90.992932303869054, 32.197099312464509 ], [ -90.993080487977252, 32.197162145105082 ], [ -90.993233870962953, 32.197205984443336 ], [ -90.993385698355425, 32.197244993495431 ], [ -90.993544999069968, 32.197284787602179 ], [ -90.993698339844016, 32.197318318888918 ], [ -90.993854251219858, 32.197363105596352 ], [ -90.994002070472533, 32.197419919460742 ], [ -90.99415212518754, 32.19747740864868 ], [ -90.994292663074134, 32.197533077945067 ], [ -90.994434461928449, 32.197602209042721 ], [ -90.994579443101472, 32.197664204440002 ], [ -90.994730489381979, 32.197724656510779 ], [ -90.994883198041151, 32.197773416737675 ], [ -90.995032737362962, 32.197822111297945 ], [ -90.99518407631686, 32.197869147749707 ], [ -90.995335208772104, 32.197910054587403 ], [ -90.995494845278927, 32.197951274731793 ], [ -90.995648281739321, 32.197988980323629 ], [ -90.995803296805818, 32.198025853202587 ], [ -90.995950994096717, 32.198083379637573 ], [ -90.996094686220886, 32.198150190293234 ], [ -90.996232788487461, 32.198221868303158 ], [ -90.996384754606481, 32.198279454813168 ], [ -90.996552611019837, 32.198294983905896 ], [ -90.996718573892366, 32.1983079669766 ], [ -90.996880408163278, 32.198335594358767 ], [ -90.997016975247092, 32.198418329448373 ], [ -90.997146955168191, 32.198506458429449 ], [ -90.997742208957987, 32.198726995764225 ], [ -90.997900638192903, 32.198757471407141 ], [ -90.998066121945755, 32.198775457562469 ], [ -90.998222300874701, 32.19881644531516 ], [ -90.998360513484087, 32.198889658881015 ], [ -90.998501213499722, 32.198962447081243 ], [ -90.998640208953319, 32.199031973222979 ], [ -90.998779892446734, 32.199111776231035 ], [ -90.998943015391319, 32.199134033808591 ], [ -90.999106985490286, 32.199148234446859 ], [ -90.999274860500833, 32.199161671215286 ], [ -90.999420352048034, 32.199226407031141 ], [ -90.999560524211574, 32.199302110568361 ], [ -90.999699650734371, 32.199376197100413 ], [ -90.999852720761538, 32.199420690113058 ] ] } },
{ "type": "Feature", "properties": { "station_ft": 10989.2, "width_ft": 2007.2, "flag": "ok", "lon": -90.989091, "lat": 32.198927, "survey_id": "LM_05_VGG_20230817_CS_4274_4240", "date": "2023-08-17T00:00:00Z", "method": "lines", "station_id": 10 }, "geometry": { "type": "LineString", "coordinates": [ [ -90.986249286371063, 32.197929833994472 ], [ -90.986414844773066, 32.197949869534391 ], [ -90.986557816520929, 32.198016447711289 ], [ -90.986706290393101, 32.198074806138507 ], [ -90.986853804067422, 32.198134570767273 ], [ -90.987004631976362, 32.198183020191543 ], [ -90.987154592330398, 32.198232189958489 ], [ -90.987307337811572, 32.198277633285016 ], [ -90.987460434876709, 32.198322388327988 ], [ -90.987612464580536, 32.198367065740065 ], [ -90.98776262983688, 32.198422252410523 ], [ -90.987909496445454, 32.198477236835821 ], [ -90.988057687337303, 32.198531993288178 ], [ -90.988206487549022, 32.198586060130701 ], [ -90.988352287762581, 32.198641049558688 ], [ -90.988502540836578, 32.198694750504089 ], [ -90.988651112049993, 32.19874846088689 ], [ -90.988799995383062, 32.198805000261892 ], [ -90.988943989498551, 32.198869370889383 ], [ -90.989090588210246, 32.198927323178218 ], [ -90.989250568281804, 32.198958021679232 ], [ -90.989408714884632, 32.198994364007717 ], [ -90.989561031887334, 32.199038295374145 ], [ -90.989701481176809, 32.199108703116934 ], [ -90.989845878415167, 32.199170569889795 ], [ -90.989996887558462, 32.199221352264722 ], [ -90.990140899563571, 32.19928357691257 ], [ -90.990281250396535, 32.199353600341787 ], [ -90.990424763820712, 32.199418411843411 ], [ -90.990586750104526, 32.199444590060907 ], [ -90.990752937497788, 32.199461619897889 ], [ -90.990904128051469, 32.199510503726756 ], [ -90.991043810856681, 32.199582041209169 ], [ -90.991182751069232, 32.199662515740314 ], [ -90.991334215594833, 32.199704442855236 ], [ -90.991494277308576, 32.199741624799934 ], [ -90.991640466063899, 32.199800703498028 ], [ -90.991780551327977, 32.199869517295532 ], [ -90.991923447837166, 32.199938095349793 ], [ -90.992079788464935, 32.199970265624721 ], [ -90.99223594034558, 32.200007577012215 ], [ -90.992392512041278, 32.200053819358331 ], [ -90.992538759793931, 32.200107399258364 ], [ -90.9926758884327, 32.200183016298567 ], [ -90.992822531216476, 32.200246462324749 ], [ -90.992980489775661, 32.200278733060252 ], [ -90.993132131071789, 32.200322415611808 ], [ -90.993273074806197, 32.20039793002352 ], [ -90.993418240674004, 32.200462812429002 ], [ -90.993575723186197, 32.200491649000405 ], [ -90.99373336966022, 32.200525403897039 ], [ -90.993887438273305, 32.200573911975049 ], [ -90.9940410741725, 32.200616236603665 ], [ -90.994187299430848, 32.200670996968725 ], [ -90.994314757743084, 32.200772473475155 ], [ -90.994452722719416, 32.200842696770856 ], [ -90.994617258313212, 32.200867729196737 ], [ -90.994776907518343, 32.200905486268049 ], [ -90.994926929863595, 32.200953244086335 ], [ -90.995084451265683, 32.200987272992187 ], [ -90.995234433150614, 32.201038191500977 ], [ -90.995371147741295, 32.201118673014015 ], [ -90.995505575501326, 32.201200128583892 ], [ -90.995652034888266, 32.201255628199434 ], [ -90.99580343417496, 32.201310304562099 ], [ -90.995954898334801, 32.201360444294068 ], [ -90.996099537063841, 32.201414468546119 ], [ -90.996249498678367, 32.201466952388472 ], [ -90.996406678241684, 32.20150279676993 ], [ -90.996564331731662, 32.20154152426278 ], [ -90.996710299852651, 32.201600488169134 ], [ -90.996856528297741, 32.20165510741937 ], [ -90.997015517831741, 32.201690803563501 ], [ -90.997162646809329, 32.201749183690168 ], [ -90.997302505898844, 32.201821510441086 ], [ -90.99744726673643, 32.201883228544297 ], [ -90.997591453553454, 32.20194167862865 ], [ -90.997743305323041, 32.202000363323222 ], [ -90.997890087593291, 32.202055418537853 ], [ -90.998033242045466, 32.202118409644299 ] ] } },
{ "type": "Feature", "properties": { "station_ft": 12023.1, "width_ft": 2039.3, "flag": "ok", "lon": -90.987685, "lat": 32.201505, "survey_id": "LM_05_VGG_20230817_CS_4274_4240", "date": "2023-08-17T00:00:00Z", "method": "lines", "station_id": 11 }, "geometry": { "type": "LineString", "coordinates": [ [ -90.984405082433156, 32.200336151191422 ], [ -90.984561421858785, 32.200377347096286 ], [ -90.984710542379986, 32.200430976296524 ], [ -90.984853497684924, 32.200485791404098 ], [ -90.985003322989826, 32.200547332726359 ], [ -90.985151066124487, 32.200598110658952 ], [ -90.985303779812057, 32.200647597547366 ], [ -90.985456838419424, 32.20069114494342 ], [ -90.985610588968811, 32.200736365952899 ], [ -90.985755961989412, 32.200794685524414 ], [ -90.985901236493703, 32.200857156473532 ], [ -90.98605010849468, 32.200911857613761 ], [ -90.986198784835707, 32.200961859345739 ], [ -90.986356770712774, 32.201002549416238 ], [ -90.986506714478637, 32.201053395547369 ], [ -90.986650814840601, 32.201109797088854 ], [ -90.986793186505281, 32.201177615311877 ], [ -90.98693754051169, 32.201233245064799 ], [ -90.987087132795722, 32.201293575765099 ], [ -90.987236496595969, 32.201340026787896 ], [ -90.987385249577201, 32.201391511095657 ], [ -90.987535120861608, 32.201454588537686 ], [ -90.987684709525524, 32.201505270062817 ], [ -90.987832973032297, 32.201551423961384 ], [ -90.98798355778041, 32.201601193653438 ], [ -90.988138301900833, 32.201653992452378 ], [ -90.988287598648782, 32.201704400618411 ], [ -90.988440788816632, 32.201752396831715 ], [ -90.988582966081296, 32.201810675564559 ], [ -90.988736001476823, 32.201859524430255 ], [ -90.988889917544284, 32.201904849676197 ], [ -90.989029536432554, 32.201976197586319 ], [ -90.989171783100673, 32.20203961471065 ], [ -90.989327943525566, 32.202077781826134 ], [ -90.989477612554808, 32.202134948420657 ], [ -90.989616827286497, 32.202199232982878 ], [ -90.989768473029969, 32.202248032788475 ], [ -90.98992676622008, 32.202281514901486 ], [ -90.990073366905662, 32.20233888970391 ], [ -90.990218916107693, 32.202407401751202 ], [ -90.9903612839625, 32.202469469585886 ], [ -90.99052098392346, 32.202505280231165 ], [ -90.990677997471835, 32.202535937262972 ], [ -90.990816930186355, 32.202619353871825 ], [ -90.990953135175118, 32.20268758358786 ], [ -90.991119432418486, 32.20271447992971 ], [ -90.991249575122907, 32.202798326855799 ], [ -90.991398678576203, 32.202852772428542 ], [ -90.991543473813621, 32.202919582432564 ], [ -90.991691299090604, 32.202971753630429 ], [ -90.991860290354566, 32.202991186006926 ], [ -90.992023722402266, 32.203010703029371 ], [ -90.992161181359748, 32.20309112909964 ], [ -90.992300092372346, 32.203162256996443 ], [ -90.99245865355239, 32.203196669695544 ], [ -90.992620172327292, 32.203228784290694 ], [ -90.992753330052082, 32.203308902973824 ], [ -90.992885082911187, 32.203391556616999 ], [ -90.99303463157122, 32.203444816545598 ], [ -90.99318878402309, 32.203490932475603 ], [ -90.993330376331201, 32.203557014932727 ], [ -90.993498137705657, 32.20358057550596 ], [ -90.993660414464202, 32.203605593868275 ], [ -90.993803513873544, 32.20366542829273 ], [ -90.993940139459554, 32.203746571888978 ], [ -90.994078632816937, 32.203817699085491 ], [ -90.994222099974067, 32.203883716625249 ], [ -90.9943958178808, 32.203890284517051 ], [ -90.994539615496663, 32.20394827295101 ], [ -90.994685202418026, 32.20401664161767 ], [ -90.994819918066824, 32.204097354154726 ], [ -90.99495261356536, 32.204184536783394 ], [ -90.995116037523687, 32.204202702520021 ], [ -90.995281655062428, 32.204224540455911 ], [ -90.995426674813729, 32.204285929411952 ], [ -90.995570920181237, 32.204347570253155 ], [ -90.995716662553733, 32.204410412412777 ], [ -90.995881748925129, 32.204434698049596 ] ] } },
{ "type": "Feature", "properties": { "station_ft": 13086.6, "width_ft": 2150.2, "flag": "ok", "lon": -90.986315, "lat": 32.204186, "survey_id": "LM_05_VGG_20230817_CS_4274_4240", "date": "2023-08-17T00:00:00Z", "method": "lines", "station_id": 12 }, "geometry": { "type": "LineString", "coordinates": [ [ -90.98286063539291, 32.203007143682854 ], [ -90.983017512843219, 32.203050812354064 ], [ -90.98317392521443, 32.203088270640627 ], [ -90.983326404925549, 32.203136331705309 ], [ -90.983482539357425, 32.203175385438691 ], [ -90.983628959880605, 32.203225978915327 ], [ -90.983771651869191, 32.203293193747385 ], [ -90.983910216112733, 32.203366531309648 ], [ -90.98438109630213, 32.203481918459559 ], [ -90.98452323042919, 32.203547815053902 ], [ -90.984661582360573, 32.203622775233704 ], [ -90.984813602018235, 32.203669599572358 ], [ -90.984971976082051, 32.203709712164759 ], [ -90.985119060243235, 32.203762554104017 ], [ -90.98525076695141, 32.203853132984989 ], [ -90.985411080641867, 32.203879601441209 ], [ -90.985569386547681, 32.203914683328129 ], [ -90.985725444322341, 32.203951893165893 ], [ -90.985882450085768, 32.203990389310732 ], [ -90.986020833139918, 32.204069607978468 ], [ -90.986165987791864, 32.204132656326536 ], [ -90.986314533188221, 32.204186149441696 ], [ -90.986465858208277, 32.204225911477259 ], [ -90.9866194425218, 32.204269674715995 ], [ -90.986772550870981, 32.204323692915104 ], [ -90.98692608950077, 32.204361024298741 ], [ -90.987075211048634, 32.204418141518794 ], [ -90.987221767827364, 32.204478185575717 ], [ -90.987367706372368, 32.204537628445344 ], [ -90.987513075971577, 32.204589871324835 ], [ -90.987667733878993, 32.204634397870578 ], [ -90.987822040151116, 32.204684010455146 ], [ -90.987969617699434, 32.204737616636983 ], [ -90.988115649111847, 32.204791834864807 ], [ -90.988262714115763, 32.204854980905672 ], [ -90.988409606389084, 32.204912053071027 ], [ -90.988548648299869, 32.20497881421791 ], [ -90.988712411169274, 32.205008118424033 ], [ -90.988881231263292, 32.205016698739996 ], [ -90.989024129245649, 32.20508464869426 ], [ -90.989160798259689, 32.205158677434326 ], [ -90.989313918625143, 32.205204941399728 ], [ -90.989468641140135, 32.205249190335394 ], [ -90.989616576709281, 32.205302764760951 ], [ -90.989766687896861, 32.205362100205782 ], [ -90.989914763615374, 32.205408114575 ], [ -90.990070295057237, 32.205456948782746 ], [ -90.990227064148982, 32.205493489199185 ], [ -90.990379485061553, 32.205532306542075 ], [ -90.990531715290629, 32.205585005357861 ], [ -90.990680580515871, 32.205637309355787 ], [ -90.99082256173547, 32.205698995337798 ], [ -90.990975201298909, 32.205749987063669 ], [ -90.991128667578906, 32.205794680567706 ], [ -90.99128173844862, 32.205833932614084 ], [ -90.991433500833651, 32.20588426912294 ], [ -90.991570689595306, 32.205967143786587 ], [ -90.991708948284341, 32.206032420211379 ], [ -90.991853208852774, 32.206096126734906 ], [ -90.992006936307575, 32.206141009887588 ], [ -90.992168500381197, 32.206178705170615 ], [ -90.992323554916496, 32.206210331624106 ], [ -90.992480389699395, 32.206251267912343 ], [ -90.992637576825587, 32.206291624107003 ], [ -90.992785970213433, 32.206336424098971 ], [ -90.992937538643133, 32.206395665172067 ], [ -90.993073874099551, 32.206463039614171 ], [ -90.993218947728622, 32.206536003712969 ], [ -90.993365426355012, 32.206588757056238 ], [ -90.993517390491562, 32.20663996924992 ], [ -90.993661119480464, 32.206696886734179 ], [ -90.993812351372171, 32.206749614729397 ], [ -90.99395826741349, 32.206809406239223 ] ] } },
{ "type": "Feature", "properties": { "station_ft": 14216.5, "width_ft": 2429.5, "flag": "ok", "lon": -90.984723, "lat": 32.206981, "survey_id": "LM_05_VGG_20230817_CS_4274_4240", "date": "2023-08-17T00:00:00Z", "method": "lines", "station_id": 13 }, "geometry": { "type": "LineString", "coordinates": [ [ -90.982454736877315, 32.206251021260556 ], [ -90.982617565959572, 32.206262444413802 ], [ -90.982757289979062, 32.206343693318466 ], [ -90.982905278690666, 32.206400409125642 ], [ -90.983056186478095, 32.206453975964251 ], [ -90.983205984273283, 32.206505953924491 ], [ -90.98334584401367, 32.206583491420893 ], [ -90.983509120999486, 32.20660783045961 ], [ -90.983675394478965, 32.206612637784858 ], [ -90.983834703244369, 32.206638123174706 ], [ -90.984722953852526, 32.206981263950681 ], [ -90.984878936415001, 32.207020920875053 ], [ -90.985035303233587, 32.207055244120191 ], [ -90.98518803934337, 32.207101900114388 ], [ -90.985342057947207, 32.207147064026657 ], [ -90.985492663221436, 32.207198595906561 ], [ -90.985644890747096, 32.207241845123178 ], [ -90.98580253262746, 32.207273714222261 ], [ -90.985972908790245, 32.207268821816612 ], [ -90.986128413010093, 32.207313537914018 ], [ -90.986291146494764, 32.207329519068296 ], [ -90.986454765999326, 32.207347172803331 ], [ -90.986603439339703, 32.207399702616684 ], [ -90.98674723724767, 32.207475731577354 ], [ -90.986898360812276, 32.207522722984116 ], [ -90.987048688505439, 32.207571423647224 ], [ -90.98719530191967, 32.207634078113756 ], [ -90.987345215546256, 32.207683713935886 ], [ -90.987505391984698, 32.207708063823361 ], [ -90.987674972728811, 32.207713755978965 ], [ -90.987824093152881, 32.207769882958466 ], [ -90.987962909043944, 32.207849701367195 ], [ -90.988111857335142, 32.207899809310142 ], [ -90.988270563241215, 32.207926391506213 ], [ -90.988427035483951, 32.207970742622315 ], [ -90.988571879981436, 32.208029969645864 ], [ -90.988730023601164, 32.208068319192506 ], [ -90.988889403467681, 32.208094154923707 ], [ -90.989042951827514, 32.208140857022336 ], [ -90.989179494828349, 32.208219147377122 ], [ -90.989340880128097, 32.208245027142958 ], [ -90.989507228911762, 32.208255296760221 ], [ -90.989665468781467, 32.208284491256379 ], [ -90.989808405851178, 32.208357085265298 ], [ -90.989956360301974, 32.208412555634247 ], [ -90.99009397299541, 32.208495621731998 ], [ -90.990261624425827, 32.208502584763835 ], [ -90.990431249832227, 32.208509839420238 ], [ -90.990568473967585, 32.208583781599131 ], [ -90.990717645440185, 32.208641993458976 ], [ -90.990872765605459, 32.208682225478505 ], [ -90.991023777058516, 32.208731053990945 ], [ -90.991185494772509, 32.208757974856987 ], [ -90.991338243280623, 32.20880553051682 ], [ -90.991493315659511, 32.208843617514098 ], [ -90.991643166970363, 32.208897261574094 ], [ -90.991792173463821, 32.208936975087916 ], [ -90.991951575528603, 32.208974543875946 ], [ -90.992107186173172, 32.209006443600586 ], [ -90.992270438015822, 32.209035360702501 ] ] } },
{ "type": "Feature", "properties": { "station_ft": 15402.6, "width_ft": 2432.4, "flag": "ok", "lon": -90.985339, "lat": 32.210199, "survey_id": "LM_05_VGG_20230817_CS_4274_4240", "date": "2023-08-17T00:00:00Z", "method": "lines", "station_id": 14 }, "geometry": { "type": "LineString", "coordinates": [ [ -90.981275185824785, 32.209287678274734 ], [ -90.981431485161949, 32.209325881371733 ], [ -90.98158888592711, 32.209350665095357 ], [ -90.981748671633156, 32.209383572526143 ], [ -90.981902245140262, 32.209424894853228 ], [ -90.982056209533937, 32.209466573005528 ], [ -90.982213518775154, 32.209492153617745 ], [ -90.982373371985986, 32.209525389970686 ], [ -90.982526835803313, 32.209560307438636 ], [ -90.982687768967779, 32.209590844138383 ], [ -90.982843377306139, 32.20961808211068 ], [ -90.982992452633724, 32.209676935765799 ], [ -90.983147404590369, 32.209721026161219 ], [ -90.983300485587691, 32.209765565165455 ], [ -90.983452508569286, 32.209816129909775 ], [ -90.983614256197484, 32.209829096673253 ], [ -90.98377911851486, 32.209839133455688 ], [ -90.98393259968752, 32.209885429964714 ], [ -90.984084374569008, 32.209928188248277 ], [ -90.984237869451931, 32.209971899724565 ], [ -90.984400812568978, 32.209993902677411 ], [ -90.984561463349351, 32.210011712085745 ], [ -90.984714829107347, 32.210059876783809 ], [ -90.984870333742649, 32.210095138893678 ], [ -90.985029657281999, 32.210117186740028 ], [ -90.985189325557499, 32.210146956612206 ], [ -90.985338776851023, 32.210199153786064 ], [ -90.98550095726165, 32.210218383476239 ], [ -90.985639576585058, 32.210302218461678 ], [ -90.985805936838389, 32.210313620123451 ], [ -90.985958310923635, 32.210354064415242 ], [ -90.98610829375211, 32.210408099423987 ], [ -90.98626910699349, 32.210439593487813 ], [ -90.986425667009115, 32.210468443566576 ], [ -90.98658397746415, 32.210498054551806 ], [ -90.986746983980865, 32.210519669066251 ], [ -90.98689448241349, 32.210574321089524 ], [ -90.987044014569491, 32.210624097158082 ], [ -90.987197460058283, 32.210669591756513 ], [ -90.987349245428618, 32.210717871428081 ], [ -90.987515293504046, 32.21073531908268 ], [ -90.987671003888209, 32.210762714681998 ], [ -90.987826080720623, 32.210801164147597 ], [ -90.987980164653933, 32.210845363092268 ], [ -90.988137197396199, 32.210885835627053 ], [ -90.988294243563772, 32.210910254777851 ], [ -90.988456629649349, 32.210926400814508 ], [ -90.988617143486778, 32.210956437003588 ], [ -90.988769158980986, 32.2109961104996 ], [ -90.988922638011118, 32.21104149279477 ], [ -90.989070285303086, 32.211107576434294 ], [ -90.989219278241364, 32.211158644097551 ], [ -90.989378141636053, 32.211188303705391 ], [ -90.98953388181296, 32.211224245097611 ], [ -90.989692763503143, 32.211256569962636 ], [ -90.989853368187923, 32.211285532750999 ], [ -90.990008066646041, 32.211315954478948 ], [ -90.990163654290527, 32.211348762996252 ], [ -90.990320412142651, 32.211395748902369 ], [ -90.990473955971822, 32.211431948540714 ], [ -90.990634924934866, 32.211444086080384 ] ] } },
{ "type": "Feature", "properties": { "station_ft": 16486.2, "width_ft": 2157.0, "flag": "ok", "lon": -90.985084, "lat": 32.21317, "survey_id": "LM_05_VGG_20230817_CS_4274_4240", "date": "2023-08-17T00:00:00Z", "method": "lines", "station_id": 15 }, "geometry": { "type": "LineString", "coordinates": [ [ -90.980608691311829, 32.212332609608559 ], [ -90.980769444843233, 32.212355453574801 ], [ -90.980922797278041, 32.212392325029967 ], [ -90.981076999204802, 32.212444118708611 ], [ -90.981226640139695, 32.212500112756537 ], [ -90.981383718937067, 32.212533474545921 ], [ -90.981547568124313, 32.212545828025519 ], [ -90.981706522279424, 32.212561066037189 ], [ -90.981869182779093, 32.212569879277829 ], [ -90.98203210857514, 32.21258438136968 ], [ -90.982188728124541, 32.21261216411019 ], [ -90.982344980266873, 32.212652125683931 ], [ -90.982502027549259, 32.21269917481488 ], [ -90.98265566328925, 32.212739314467981 ], [ -90.982816399263839, 32.212763996504478 ], [ -90.982976787257925, 32.212771501544331 ], [ -90.983142412241705, 32.212769908155401 ], [ -90.983300794742675, 32.212795508892 ], [ -90.983457690673546, 32.212834750637654 ], [ -90.983611993425683, 32.212882224622049 ], [ -90.983763010825683, 32.212922349335471 ], [ -90.983870422985561, 32.212941367745337 ], [ -90.983982023555868, 32.212953601834649 ], [ -90.984141108849443, 32.212968781089728 ], [ -90.984302931960158, 32.212978145605284 ], [ -90.984456365705498, 32.2130214719962 ], [ -90.984605147820631, 32.213083651953006 ], [ -90.984760651351465, 32.213126967308661 ], [ -90.984923260631462, 32.213146717629193 ], [ -90.9850835645111, 32.2131695304478 ], [ -90.985243370110879, 32.213199656603997 ], [ -90.985406307784785, 32.213201922122892 ], [ -90.985568832331083, 32.213214223098817 ], [ -90.985723317067411, 32.213255151822374 ], [ -90.98587690453698, 32.213292813221436 ], [ -90.986035221182604, 32.213336140435828 ], [ -90.986188224290288, 32.21337779046997 ], [ -90.986345494639849, 32.213414938085172 ], [ -90.986506447526097, 32.213433457634395 ], [ -90.986670172777892, 32.213450863344747 ], [ -90.986829283616771, 32.213469584086795 ], [ -90.98698719789175, 32.213497190032463 ], [ -90.987141997276268, 32.213523381619162 ], [ -90.98730783531829, 32.213528708460096 ], [ -90.987458998177402, 32.213575149665239 ], [ -90.987608867538185, 32.213594549407965 ], [ -90.987766534849328, 32.213623750053308 ], [ -90.987939884690945, 32.21364866235642 ], [ -90.988093463750531, 32.213675904289161 ], [ -90.988252024923185, 32.21371700087677 ], [ -90.988410898269422, 32.213738442512323 ], [ -90.988566542310906, 32.213774029333955 ], [ -90.988729289549525, 32.213803723689381 ] ] } },
{ "type": "Feature", "properties": { "station_ft": 17666.4, "width_ft": 2165.1, "flag": "ok", "lon": -90.98645, "lat": 32.216198, "survey_id": "LM_05_VGG_20230817_CS_4274_4240", "date": "2023-08-17T00:00:00Z", "method": "lines", "station_id": 16 }, "geometry": { "type": "LineString", "coordinates": [ [ -90.980869957466041, 32.215493154804712 ], [ -90.981037903996395, 32.215485395587848 ], [ -90.981195719040699, 32.215512513259526 ], [ -90.981358068470797, 32.215531472263635 ], [ -90.981521826197749, 32.215534810805167 ], [ -90.981682288492692, 32.215520272326373 ], [ -90.981841890353266, 32.215553097498955 ], [ -90.982634672774253, 32.215695590210409 ], [ -90.982791603893801, 32.215734640461946 ], [ -90.982950260574995, 32.215752736219699 ], [ -90.983117256984016, 32.215738574468411 ], [ -90.983278563105316, 32.215751680911723 ], [ -90.983437533323027, 32.215772826168497 ], [ -90.983598029667235, 32.215790334492802 ], [ -90.983753741979612, 32.215835272317754 ], [ -90.983909680581277, 32.215871000407631 ], [ -90.984071463883311, 32.215883141149554 ], [ -90.984227476221193, 32.215924723915009 ], [ -90.984391983177673, 32.215928742052689 ], [ -90.984553258640034, 32.215937476853931 ], [ -90.984709173842162, 32.215974468410437 ], [ -90.984871323069328, 32.215978828134091 ], [ -90.985029196291322, 32.216013829730841 ], [ -90.985190161186551, 32.216042493503195 ], [ -90.985352884930805, 32.216050340549643 ], [ -90.985514988630868, 32.216057365429606 ], [ -90.985671759631089, 32.216073736015979 ], [ -90.985834890594546, 32.216097742567094 ], [ -90.985988914151335, 32.21614142200346 ], [ -90.98614345353235, 32.216189276669532 ], [ -90.986305404926114, 32.216193057511639 ], [ -90.986450163722907, 32.216198137199733 ], [ -90.986590425150538, 32.216225229679942 ], [ -90.986721032037082, 32.216263256742209 ], [ -90.986878396766727, 32.216272090847369 ], [ -90.987046035917032, 32.216279965307862 ], [ -90.98721075239672, 32.216281587089078 ], [ -90.987372309883938, 32.216275363928531 ], [ -90.987526774286479, 32.216303728284139 ], [ -90.987690119970082, 32.216321601724708 ], [ -90.9878522276653, 32.216356193690807 ], [ -90.988342049796984, 32.216402089230044 ], [ -90.988493528299557, 32.216428791407637 ], [ -90.988649048106154, 32.21644626408078 ], [ -90.98881075461513, 32.216465518923208 ], [ -90.988967074532866, 32.21650888069879 ] ] } },
{ "type": "Feature", "properties": { "station_ft": 18704.0, "width_ft": 1578.8, "flag": "ok", "lon": -90.985699, "lat": 32.218978, "survey_id": "LM_05_VGG_20230817_CS_4274_4240", "date": "2023-08-17T00:00:00Z", "method": "lines", "station_id": 17 }, "geometry": { "type": "LineString", "coordinates": [ [ -90.978730556207324, 32.218418619984831 ], [ -90.978889937545034, 32.218460796318901 ], [ -90.979046234203864, 32.218505681912411 ], [ -90.979207959745054, 32.218508923768894 ], [ -90.979367499516997, 32.218523198504883 ], [ -90.979531489153615, 32.218535774729837 ], [ -90.979692537934966, 32.21853016816506 ], [ -90.979851982563133, 32.218540127616706 ], [ -90.980014510937337, 32.218551720500898 ], [ -90.980174258941204, 32.218577098935008 ], [ -90.980333574108343, 32.218600664941185 ], [ -90.980492761768588, 32.218619997403394 ], [ -90.980656114616721, 32.218629194543034 ], [ -90.980821261890156, 32.218608832691672 ], [ -90.980982267164251, 32.218588106773552 ], [ -90.981145691381698, 32.218612007818479 ], [ -90.981305613756462, 32.21862990702418 ], [ -90.981464914305064, 32.218633268441437 ], [ -90.98162579401459, 32.218653911047568 ], [ -90.981783835701194, 32.218703044439117 ], [ -90.981943479217321, 32.218718085530284 ], [ -90.982108245215713, 32.218726063311543 ], [ -90.982268579173621, 32.218706274377482 ], [ -90.982428873020538, 32.218731014983923 ], [ -90.982588685665917, 32.218751771860994 ], [ -90.982749976705861, 32.218757540085441 ], [ -90.982913478114767, 32.218764891144254 ], [ -90.983031926451261, 32.218766013895269 ], [ -90.983165861688505, 32.218771593023419 ], [ -90.983284315520692, 32.218796299623214 ], [ -90.983441338126582, 32.218820285616246 ], [ -90.983604660821072, 32.218829780298975 ], [ -90.983766193260408, 32.218833072320727 ], [ -90.983929729537365, 32.218827118395538 ], [ -90.984084060902561, 32.218858978509218 ], [ -90.984244220780241, 32.218896525890983 ], [ -90.984406024814703, 32.218924362036525 ], [ -90.984568868738634, 32.218907581024425 ], [ -90.984731249781646, 32.218911883778411 ], [ -90.984892765018131, 32.218899205213084 ], [ -90.985054710357474, 32.218905929350839 ], [ -90.985213298573512, 32.218949723219936 ], [ -90.985375718143047, 32.218991215549096 ], [ -90.98553394053026, 32.218992790909311 ], [ -90.98569867080694, 32.218977537196032 ], [ -90.985859384416415, 32.218979319333812 ], [ -90.986020207997043, 32.218996492774338 ], [ -90.986182769929684, 32.2189990621563 ], [ -90.986345780041987, 32.219014464460088 ], [ -90.986503894208255, 32.219023598126839 ], [ -90.986665691619024, 32.219063882681198 ], [ -90.986824467980668, 32.219047971996673 ] ] } }
]
}
