{
"type": "FeatureCollection",
"name": "LM_04_GGK_20240804_CS_4016_3958_transects",
"crs": { "type": "name", "properties": { "name": "urn:ogc:def:crs:OGC:1.3:CRS84" } },
"features": [
{ "type": "Feature", "properties": { "station_id": 0, "station_ft": 13331.7, "width_ft": 1748.9, "flag": "ok", "lon": -91.136769, "lat": 31.981423, "survey_id": "LM_04_GGK_20240804_CS_4016_3958", "date": "2024-08-04 00:00:00+00:00", "method": "lines" }, "geometry": { "type": "LineString", "coordinates": [ [ -91.136828119926406, 31.979774220776445 ], [ -91.136815711777643, 31.979911986111343 ], [ -91.136791464181144, 31.980049413357403 ], [ -91.136791238923649, 31.980186386407215 ], [ -91.136805931119994, 31.980325409564493 ], [ -91.136818377446758, 31.980462165307458 ], [ -91.136799606794085, 31.980598925687961 ], [ -91.136774483971251, 31.980735864256779 ], [ -91.136788653709502, 31.980874175560679 ], [ -91.136796296402196, 31.981011043770881 ], [ -91.136788668189993, 31.981149631046108 ], [ -91.136772664679839, 31.981285714654575 ], [ -91.136768702368968, 31.981423178484075 ], [ -91.136770781036944, 31.98156178636491 ], [ -91.136772615670878, 31.981698251238214 ], [ -91.136768718618086, 31.981835797614274 ], [ -91.13676223755688, 31.981972838186987 ], [ -91.136765830129804, 31.982111298492164 ], [ -91.136771383701003, 31.982248950064573 ], [ -91.136763808805227, 31.982386381732823 ], [ -91.136764964426561, 31.982522631743048 ], [ -91.136768967744203, 31.982660018063093 ], [ -91.136771003144645, 31.982797416838597 ], [ -91.136756085791376, 31.982936022265086 ], [ -91.13674704925954, 31.9830721988078 ], [ -91.13673929072624, 31.983210785961521 ], [ -91.13673168136205, 31.983347915714265 ], [ -91.136744322766347, 31.983484670162596 ], [ -91.136759267603011, 31.983623114480054 ], [ -91.136753660097085, 31.983760478652975 ], [ -91.136744888861202, 31.98389747867272 ], [ -91.136730769650612, 31.984035171782327 ], [ -91.136732636341733, 31.984171664357888 ], [ -91.136729551662995, 31.984309919787094 ], [ -91.136725065992351, 31.984446590551435 ], [ -91.1367176561577, 31.984584406208551 ], [ -91.136710790061429, 31.98472172331649 ], [ -91.136725123056308, 31.984860116471737 ], [ -91.136720741171686, 31.984997527870664 ], [ -91.136730285188875, 31.98513421892379 ], [ -91.136724001780706, 31.985271862401319 ], [ -91.136712326477877, 31.98540868868411 ], [ -91.136711302209633, 31.985546490951055 ], [ -91.136712594544804, 31.985683729335836 ], [ -91.136716447025805, 31.985822243830203 ], [ -91.136718249485128, 31.985958763829576 ], [ -91.136699317065663, 31.986095663095487 ], [ -91.136682062926567, 31.986232578786723 ], [ -91.136664857154344, 31.986371528691784 ], [ -91.136677268332377, 31.986507679410312 ], [ -91.13668056137935, 31.986645015132886 ], [ -91.136687376068565, 31.986783097817778 ], [ -91.136702376047694, 31.986920277354493 ], [ -91.136685905301007, 31.987058342410958 ], [ -91.136668557729422, 31.987195726722316 ], [ -91.13666330181475, 31.987332786480621 ], [ -91.136656531094928, 31.987470020859952 ], [ -91.136660211436379, 31.987607354110807 ], [ -91.136661667833806, 31.987744838515152 ], [ -91.136677767010482, 31.987882340241967 ], [ -91.136683879377486, 31.988021169550461 ], [ -91.136689904470387, 31.988157388615676 ], [ -91.136675653183417, 31.98829480741432 ], [ -91.136671021867429, 31.988433237581997 ], [ -91.136656054312311, 31.988569946659918 ], [ -91.136652474478808, 31.988706886657866 ], [ -91.1366581910044, 31.988844729150287 ], [ -91.136651933791839, 31.988981520155576 ], [ -91.136645195690988, 31.98911886431717 ], [ -91.136650299702623, 31.989256600655569 ], [ -91.136650976839618, 31.989393539842993 ], [ -91.136645889585694, 31.98953150572666 ], [ -91.136643799187993, 31.989669123468328 ], [ -91.136640055613128, 31.989805733508991 ], [ -91.136638747302968, 31.989944334697139 ], [ -91.136638913229191, 31.990081745155106 ], [ -91.13663549874606, 31.990219206232918 ], [ -91.136626371499673, 31.990356097444412 ], [ -91.136620248696147, 31.990493630672841 ], [ -91.136620420260371, 31.990631810342819 ], [ -91.136613966896661, 31.990768327494443 ], [ -91.136619707642097, 31.990905290508618 ], [ -91.136627328128924, 31.991043147956393 ], [ -91.136630457947149, 31.991180182504113 ], [ -91.136629857019329, 31.991318477072582 ], [ -91.136620413576424, 31.991456250447062 ], [ -91.136619343194511, 31.991592404337389 ], [ -91.136622001830801, 31.991730981276202 ], [ -91.136625839053679, 31.991867708316892 ], [ -91.1366203996309, 31.992005951435342 ], [ -91.136609752587148, 31.992142468052581 ], [ -91.136602335651446, 31.992279651410655 ], [ -91.136603215924524, 31.992417551498779 ], [ -91.136602676187621, 31.99255546147527 ], [ -91.136598809083708, 31.992692841496339 ], [ -91.136601195537409, 31.992829688626351 ] ] } },
{ "type": "Feature", "properties": { "station_id": 1, "station_ft": 12593.1, "width_ft": 1850.8, "flag": "ok", "lon": -91.140174, "lat": 31.981235, "survey_id": "LM_04_GGK_20240804_CS_4016_3958", "date": "2024-08-04 00:00:00+00:00", "method": "lines" }, "geometry": { "type": "LineString", "coordinates": [ [ -91.140130343791299, 31.980006763903397 ], [ -91.14015142750867, 31.980134915932801 ], [ -91.140156601598733, 31.980272898929726 ], [ -91.140181535697991, 31.980409877018111 ], [ -91.140173420586194, 31.980547615325538 ], [ -91.140164014540829, 31.980685223856899 ], [ -91.140164733678262, 31.980822657992562 ], [ -91.140161191418073, 31.980959542948028 ], [ -91.140172162618484, 31.981096664800059 ], [ -91.140173791725246, 31.981234945369806 ], [ -91.140171988793412, 31.981371571256165 ], [ -91.140172322419261, 31.981509199917429 ], [ -91.14017820722286, 31.981647371355994 ], [ -91.140171314910035, 31.981784716783189 ], [ -91.140169248679797, 31.981920877184741 ], [ -91.140159751305248, 31.982059063438971 ], [ -91.140164439902691, 31.982196802378784 ], [ -91.1401746098975, 31.982334479411971 ], [ -91.140182165353551, 31.982471787982767 ], [ -91.140166847175237, 31.982608251765509 ], [ -91.140170796322835, 31.982746243396992 ], [ -91.14017068207113, 31.982884314968693 ], [ -91.140155497959512, 31.983021355961938 ], [ -91.140159122251632, 31.983159101647402 ], [ -91.140160585328303, 31.98329677810171 ], [ -91.140163626719499, 31.983434170362784 ], [ -91.140161665679642, 31.983571347323657 ], [ -91.140162604613337, 31.983708009838956 ], [ -91.140158360330503, 31.983845806436996 ], [ -91.140160525595775, 31.983982709152741 ], [ -91.140157893030235, 31.984120411628183 ], [ -91.140149388029911, 31.98425787727983 ], [ -91.140159717528306, 31.984395250239899 ], [ -91.14015388769468, 31.984532506788756 ], [ -91.140157191892044, 31.984670419511183 ], [ -91.140159717663778, 31.984808007110352 ], [ -91.140153310649112, 31.984945569432739 ], [ -91.140139284519464, 31.985082327964257 ], [ -91.140131495254906, 31.985220338258358 ], [ -91.140136440703969, 31.985358020486192 ], [ -91.140131675214434, 31.985495270247817 ], [ -91.140130235624355, 31.985632910095337 ], [ -91.140126109279706, 31.985769440638016 ], [ -91.140131801862424, 31.985907613207743 ], [ -91.140143292272512, 31.986044978751796 ], [ -91.140147111601024, 31.986182861111871 ], [ -91.14014075741008, 31.986319212816479 ], [ -91.140139261254319, 31.986457761146976 ], [ -91.140142295988525, 31.986594493244944 ], [ -91.140139891044413, 31.98673233219791 ], [ -91.14013290281126, 31.986869871120398 ], [ -91.140132357128365, 31.987006515950359 ], [ -91.140134651139135, 31.987143362769221 ], [ -91.140127540527885, 31.987281671720318 ], [ -91.140128478522612, 31.987418335065396 ], [ -91.140121589023636, 31.987556037478296 ], [ -91.140125891006875, 31.987693805813066 ], [ -91.140139259608858, 31.987831984548595 ], [ -91.140133173632222, 31.987969489755368 ], [ -91.140119371618738, 31.988106026754757 ], [ -91.140114740429368, 31.988243879829813 ], [ -91.140116302480649, 31.98838172058143 ], [ -91.140114109560983, 31.988518156708398 ], [ -91.140107857397723, 31.988655057830425 ], [ -91.14010748781557, 31.988793323891379 ], [ -91.140114980960263, 31.988930934833181 ], [ -91.140116794394871, 31.989068114735748 ], [ -91.140125130125199, 31.989205995371055 ], [ -91.140121845838848, 31.989342987632742 ], [ -91.140107991378727, 31.989480927279427 ], [ -91.140107679048185, 31.989618477809511 ], [ -91.140099294554034, 31.989755007385401 ], [ -91.140100371429298, 31.989892660002209 ], [ -91.140103026524656, 31.990030246668599 ], [ -91.140104520741346, 31.990167703634921 ], [ -91.140099891177044, 31.99030574874568 ], [ -91.140103215313658, 31.990442396856228 ], [ -91.140097570997938, 31.990578633936153 ], [ -91.140089971711546, 31.990716505830051 ], [ -91.140081180245105, 31.990854303234155 ], [ -91.140065648565994, 31.99099239058804 ], [ -91.140076934837097, 31.991128355882864 ], [ -91.140088109523461, 31.991266438471683 ], [ -91.140098151951022, 31.991404033151927 ], [ -91.140090140103169, 31.991542649855834 ], [ -91.140084372660695, 31.99167957488805 ], [ -91.140074992657432, 31.991816633810249 ], [ -91.14007829017028, 31.991953859228044 ], [ -91.140056787759988, 31.992091434405921 ], [ -91.140067604237629, 31.992229079160843 ], [ -91.140065814294147, 31.992367189142101 ] ] } },
{ "type": "Feature", "properties": { "station_id": 2, "station_ft": 11667.2, "width_ft": 1996.6, "flag": "ok", "lon": -91.143586, "lat": 31.981449, "survey_id": "LM_04_GGK_20240804_CS_4016_3958", "date": "2024-08-04 00:00:00+00:00", "method": "lines" }, "geometry": { "type": "LineString", "coordinates": [ [ -91.143543889893792, 31.979525312683815 ], [ -91.143550833986879, 31.979662349910708 ], [ -91.143543407920049, 31.979800743236236 ], [ -91.143551347980008, 31.979937334006582 ], [ -91.143539559071968, 31.98007471086099 ], [ -91.14356701105639, 31.980211453020033 ], [ -91.143565609690739, 31.980349257757204 ], [ -91.143539957264139, 31.980487025221741 ], [ -91.143560036845471, 31.980625215878685 ], [ -91.143561657572363, 31.980761846973284 ], [ -91.143588210960331, 31.980899006983215 ], [ -91.143581778095253, 31.981036761762244 ], [ -91.143581469816752, 31.981174092356177 ], [ -91.143589253630736, 31.981311179194673 ], [ -91.143585527811879, 31.981448751647807 ], [ -91.143579802440684, 31.98158622774271 ], [ -91.143585844079439, 31.981723242726893 ], [ -91.143583059823854, 31.981861524309878 ], [ -91.143586142309744, 31.981999411310042 ], [ -91.14360033861081, 31.982135824105562 ], [ -91.143589262310613, 31.982273636462452 ], [ -91.143598503337742, 31.982411456177029 ], [ -91.143596869702804, 31.982548466036206 ], [ -91.14359543499647, 31.982686078847298 ], [ -91.143605217140035, 31.982823097881145 ], [ -91.143615809977675, 31.982960496815544 ], [ -91.143612569486791, 31.983098148202277 ], [ -91.143600558059205, 31.983235993566073 ], [ -91.143590375080279, 31.983372645857365 ], [ -91.143598587572924, 31.983510802183307 ], [ -91.143605337348191, 31.983647702579937 ], [ -91.143604803493091, 31.983785117526637 ], [ -91.14361269127518, 31.98392291879161 ], [ -91.143608830836769, 31.98405985986869 ], [ -91.143610947416775, 31.984197862108626 ], [ -91.14360990016057, 31.984335610390687 ], [ -91.143613649127943, 31.984472255772815 ], [ -91.143622896133778, 31.984610597556355 ], [ -91.143615171490808, 31.984748140462198 ], [ -91.143618474503086, 31.984885447918838 ], [ -91.143643215953276, 31.985021794213793 ], [ -91.143639786719874, 31.985159997779654 ], [ -91.14363811612958, 31.985296402690501 ], [ -91.143635071136501, 31.985434382849302 ], [ -91.143639921207168, 31.985571571290716 ], [ -91.143645296080521, 31.985709717726309 ], [ -91.143647013477462, 31.985846348092959 ], [ -91.143651390934394, 31.98598477594847 ], [ -91.143658531697113, 31.986122059772892 ], [ -91.143666802255325, 31.986259308422788 ], [ -91.143660198726479, 31.986396073977215 ], [ -91.143663311777445, 31.986533658568707 ], [ -91.143673966073877, 31.986670754007719 ], [ -91.143675791691933, 31.986808730992443 ], [ -91.14368812343298, 31.986945733645928 ], [ -91.14368542484948, 31.987082667242088 ], [ -91.143678550592412, 31.987221496988784 ], [ -91.143666760130372, 31.987358873717696 ], [ -91.14367428179392, 31.987495411972585 ], [ -91.143677335617923, 31.987633711165326 ], [ -91.14367019252262, 31.987771333266423 ], [ -91.143683691177714, 31.987909015639591 ], [ -91.143699589812115, 31.988044538136094 ], [ -91.143702487717675, 31.988183388426346 ], [ -91.143699075075389, 31.988319859410144 ], [ -91.143704353766665, 31.98845797934143 ], [ -91.143705045220315, 31.988595358403543 ], [ -91.143704026406056, 31.988732583350298 ], [ -91.143707583420735, 31.988869367838969 ], [ -91.143721436546684, 31.989007019962205 ], [ -91.143719679423697, 31.989144634695474 ], [ -91.143716662528604, 31.989282065381904 ], [ -91.143714485188553, 31.989419545715265 ], [ -91.143715277575282, 31.989557446270044 ], [ -91.143716385781062, 31.989694438468579 ], [ -91.143729103069717, 31.989831301512499 ], [ -91.143732770828237, 31.989969595829663 ], [ -91.143739355831144, 31.99010594791525 ], [ -91.143739378919278, 31.990244321416245 ], [ -91.143740235538232, 31.990382057410052 ], [ -91.143746664352989, 31.99051893264155 ], [ -91.14375419327051, 31.990656240935177 ], [ -91.143758429375637, 31.990793212230411 ], [ -91.143746126056101, 31.990930895183592 ], [ -91.143747427670263, 31.991067968183163 ], [ -91.143752646246639, 31.991206555581709 ], [ -91.143766873607689, 31.991342665837255 ] ] } },
{ "type": "Feature", "properties": { "station_id": 3, "station_ft": 10761.9, "width_ft": 2213.2, "flag": "ok", "lon": -91.146903, "lat": 31.9824, "survey_id": "LM_04_GGK_20240804_CS_4016_3958", "date": "2024-08-04 00:00:00+00:00", "method": "lines" }, "geometry": { "type": "LineString", "coordinates": [ [ -91.146726404551757, 31.978967762120018 ], [ -91.146713783670933, 31.979105391673961 ], [ -91.146714642224055, 31.979243017805686 ], [ -91.146737519014039, 31.979379595581698 ], [ -91.146734321962569, 31.979518044013926 ], [ -91.146752712272402, 31.979654210442096 ], [ -91.146778105536825, 31.979790937106543 ], [ -91.146776290245015, 31.979928772449348 ], [ -91.14677421098601, 31.98006595024469 ], [ -91.14677868151162, 31.980203415224196 ], [ -91.146778384430377, 31.980341597951426 ], [ -91.146787393937558, 31.980478209561063 ], [ -91.146813274984567, 31.980615263140873 ], [ -91.146827480320411, 31.980752308583952 ], [ -91.14682698349219, 31.980889667406448 ], [ -91.14682974612947, 31.981027336304045 ], [ -91.146832474039968, 31.981164785375142 ], [ -91.146845614266979, 31.981301617584677 ], [ -91.14684879593058, 31.981439283786688 ], [ -91.146865770728155, 31.981575761338465 ], [ -91.146880489967415, 31.981712501346315 ], [ -91.146881414956511, 31.981850181102509 ], [ -91.146900523635466, 31.98198733305529 ], [ -91.146901799712793, 31.98212462637575 ], [ -91.146903533390258, 31.982262575995922 ], [ -91.146902775083888, 31.982399662306161 ], [ -91.14690943563879, 31.982536701053483 ], [ -91.14691426141404, 31.982674329631386 ], [ -91.146933853698911, 31.982811340479515 ], [ -91.14695354742058, 31.982948927840596 ], [ -91.146947441481473, 31.983086597633214 ], [ -91.146947042404946, 31.983224094659708 ], [ -91.14695405842987, 31.983361350251151 ], [ -91.146968295594476, 31.983498203320504 ], [ -91.14697441039435, 31.983635602662147 ], [ -91.146983816605285, 31.983773201845548 ], [ -91.14698424933772, 31.983909867449796 ], [ -91.146994400192142, 31.984047791018941 ], [ -91.146994255977773, 31.984184901310019 ], [ -91.147024034402307, 31.984321351694746 ], [ -91.147038171597885, 31.984457875305491 ], [ -91.147040325082713, 31.984595878093081 ], [ -91.147046728882145, 31.984733028452272 ], [ -91.147050106152832, 31.98487085745035 ], [ -91.147070692161975, 31.985007202616281 ], [ -91.147082288878863, 31.985144428786835 ], [ -91.147066478330942, 31.985282491737955 ], [ -91.147081524682619, 31.98541961371609 ], [ -91.147081739214997, 31.985557188823083 ], [ -91.147082245443443, 31.985694844122971 ], [ -91.147090846577143, 31.985832530479662 ], [ -91.147098984540662, 31.985968927484063 ], [ -91.147106589740588, 31.986107059409761 ], [ -91.147129500053907, 31.986243553764034 ], [ -91.147135579749872, 31.986380514070508 ], [ -91.14714143837594, 31.986518080015632 ], [ -91.147148740209801, 31.986654675354156 ], [ -91.147152222548257, 31.986793465882197 ], [ -91.14715619406077, 31.986929174431715 ], [ -91.147159992924188, 31.987067138653433 ], [ -91.147177294956151, 31.987204054924543 ], [ -91.147189836990478, 31.987342347244105 ], [ -91.147196943170854, 31.987478695813394 ], [ -91.147201195546671, 31.987616959224791 ], [ -91.147204343763732, 31.987754323378351 ], [ -91.147204010468329, 31.98789190104533 ], [ -91.147206151292266, 31.988028419427305 ], [ -91.147209920332131, 31.988166823003944 ], [ -91.147222903474386, 31.988303876965634 ], [ -91.147234078461182, 31.988440831595405 ], [ -91.147243711317458, 31.988578455347692 ], [ -91.14725366159054, 31.988715472836059 ], [ -91.14726092966707, 31.988851793277551 ], [ -91.147269169394761, 31.988988739663817 ], [ -91.147278836151855, 31.989126473206145 ], [ -91.147281211507234, 31.989264006413944 ], [ -91.14729893742566, 31.98940127702042 ], [ -91.147306984694666, 31.989538223724264 ], [ -91.147294587034722, 31.989675632541147 ], [ -91.147277562624495, 31.989814911660755 ], [ -91.14729002436799, 31.989951473818895 ], [ -91.147296981318306, 31.990089087642438 ], [ -91.14732850322234, 31.990225444557357 ], [ -91.147322856710431, 31.990363936436712 ] ] } },
{ "type": "Feature", "properties": { "station_id": 4, "station_ft": 9838.0, "width_ft": 2268.5, "flag": "ok", "lon": -91.150071, "lat": 31.979714, "survey_id": "LM_04_GGK_20240804_CS_4016_3958", "date": "2024-08-04 00:00:00+00:00", "method": "lines" }, "geometry": { "type": "LineString", "coordinates": [ [ -91.150059116525028, 31.979024314299796 ], [ -91.150076589269915, 31.979161943466686 ], [ -91.150087508924457, 31.979298899650082 ], [ -91.150066192708067, 31.979437245576086 ], [ -91.150071451461969, 31.979575832616042 ], [ -91.15007067189714, 31.979713578327235 ], [ -91.150081400294667, 31.979850673709375 ], [ -91.150090187324622, 31.979987066431555 ], [ -91.15011765334124, 31.98012430118866 ], [ -91.150130280976057, 31.98026102630805 ], [ -91.150132334772465, 31.980398149544392 ], [ -91.150143028129875, 31.980534970073116 ], [ -91.150156755125096, 31.980672045228587 ], [ -91.150163065575896, 31.980809169015465 ], [ -91.150178316320847, 31.980947086582173 ], [ -91.150198230275123, 31.981083600645412 ], [ -91.150212143765231, 31.981219850310715 ], [ -91.150226427157989, 31.981357719076453 ], [ -91.150221092999203, 31.981494642739779 ], [ -91.150218771527889, 31.981632921393796 ], [ -91.150227984292457, 31.981770025572242 ], [ -91.150246032333669, 31.981907045820119 ], [ -91.150267464707383, 31.982043769219224 ], [ -91.150279066685954, 31.982181106006951 ], [ -91.150290337968841, 31.982317537680622 ], [ -91.150287663707516, 31.982456230723702 ], [ -91.150299672580758, 31.982592190495453 ], [ -91.15032516957605, 31.9827289427135 ], [ -91.150343920852606, 31.982865161181078 ], [ -91.150339697400923, 31.983003589128888 ], [ -91.150354005030522, 31.983140551344899 ], [ -91.15036518605217, 31.98327775282926 ], [ -91.150378468767357, 31.983415463838277 ], [ -91.150390835050374, 31.983551723389748 ], [ -91.150395052034824, 31.983689189743817 ], [ -91.15040961169916, 31.983825435165336 ], [ -91.150430177472984, 31.983962549149272 ], [ -91.150438494453809, 31.984100347119345 ], [ -91.150442060379589, 31.984237047490701 ], [ -91.150450669993887, 31.984375145681661 ], [ -91.150467263756056, 31.984511653040254 ], [ -91.150478892804202, 31.984648384450765 ], [ -91.1504885610792, 31.984785816576903 ], [ -91.150496910230871, 31.98492364137169 ], [ -91.150512852428264, 31.985059437757684 ], [ -91.150517424245351, 31.985196791765265 ], [ -91.150519393497248, 31.985335262757904 ], [ -91.150539696292242, 31.985471773254471 ], [ -91.150561356722122, 31.985608523003805 ], [ -91.150571948063046, 31.985744656838335 ], [ -91.150581841260319, 31.985882004514927 ], [ -91.150595765791465, 31.986019216202305 ], [ -91.150606463356766, 31.986156338644445 ], [ -91.150624898755808, 31.98629319120209 ], [ -91.150625149457724, 31.98643054595221 ], [ -91.150636270505132, 31.986568159855942 ], [ -91.150644746257896, 31.986705653715077 ], [ -91.150665926232307, 31.986842818645279 ], [ -91.15067648714431, 31.986979062660975 ], [ -91.150687249028365, 31.987116129647905 ], [ -91.150691283428941, 31.987254641401748 ], [ -91.150700357599703, 31.987390509902042 ], [ -91.150702582493139, 31.987528649126368 ], [ -91.150708056697312, 31.987665805169012 ], [ -91.150731910553418, 31.987802567761495 ], [ -91.150747371858046, 31.987938560137607 ], [ -91.150762847104161, 31.98807611889173 ], [ -91.150784634401788, 31.988212620620565 ], [ -91.150794813136713, 31.988349278289082 ], [ -91.15079451550632, 31.988486691536391 ], [ -91.150823883290713, 31.988623281492266 ] ] } },
{ "type": "Feature", "properties": { "station_id": 5, "station_ft": 8836.8, "width_ft": 3197.5, "flag": "ok", "lon": -91.153298, "lat": 31.978949, "survey_id": "LM_04_GGK_20240804_CS_4016_3958", "date": "2024-08-04 00:00:00+00:00", "method": "lines" }, "geometry": { "type": "LineString", "coordinates": [ [ -91.153200825286746, 31.97798984262046 ], [ -91.153215940909433, 31.97812663342874 ], [ -91.153242266043435, 31.978261951278515 ], [ -91.153224938465669, 31.978402222592965 ], [ -91.153221816434211, 31.978540753593862 ], [ -91.153261221219068, 31.978674529580275 ], [ -91.153260449339982, 31.978812606202894 ], [ -91.153297553787212, 31.978948842788483 ], [ -91.153318372920253, 31.979085075456094 ], [ -91.153344252854112, 31.979221082427593 ], [ -91.153368740797077, 31.979356411191525 ], [ -91.153380511687047, 31.979494186709672 ], [ -91.153391012197275, 31.979630568090013 ], [ -91.153393500526093, 31.97976889778084 ], [ -91.153402555474514, 31.979905837707445 ], [ -91.153436326373651, 31.980040612256563 ], [ -91.153457089928267, 31.980177916604095 ], [ -91.153466920954145, 31.980315017437285 ], [ -91.153474170981141, 31.980452189055161 ], [ -91.153478656905619, 31.98059025871558 ], [ -91.153501767464704, 31.980726613581915 ], [ -91.153518844307001, 31.980862650310627 ], [ -91.153540252190965, 31.980999675402529 ], [ -91.1535654898762, 31.981135934433123 ], [ -91.153574445236401, 31.981272572846027 ], [ -91.153589655740632, 31.981408951682738 ], [ -91.153592785627623, 31.981546920057948 ], [ -91.153609549380917, 31.981684003093878 ], [ -91.153625571841232, 31.981821007947513 ], [ -91.153646292419097, 31.981956966068974 ], [ -91.153661996949481, 31.982094496026026 ], [ -91.153675045228894, 31.982230777884119 ], [ -91.153688482993246, 31.982367305222418 ], [ -91.153700572408837, 31.982504501409565 ], [ -91.153727968330458, 31.982640415447605 ], [ -91.153733684654782, 31.982778999251348 ], [ -91.153743248757735, 31.982915029454048 ], [ -91.153754768249783, 31.983053438657393 ], [ -91.153767752053824, 31.983189693844967 ], [ -91.153791382786537, 31.983326347342015 ], [ -91.153818905994427, 31.983462013415746 ], [ -91.153838046416951, 31.983597844603224 ], [ -91.153841725455649, 31.983735754359092 ], [ -91.153834482500542, 31.983875054100661 ], [ -91.153848919414358, 31.984011436942964 ], [ -91.153888212486564, 31.984146779784176 ], [ -91.153920564996398, 31.984281343218385 ], [ -91.153914641752422, 31.984420304349879 ], [ -91.153923893188605, 31.984557408793933 ], [ -91.153931564666522, 31.984694605516843 ], [ -91.15395684175347, 31.98483141333336 ], [ -91.153976247231412, 31.984967956999146 ], [ -91.153978829869445, 31.985105928820701 ], [ -91.154000617188572, 31.985241989025162 ], [ -91.154026790545728, 31.98537793969302 ], [ -91.154043004759203, 31.985514696062214 ], [ -91.154047168758268, 31.985652712653856 ], [ -91.15405860917744, 31.985789389865179 ], [ -91.154058004960646, 31.985927959445931 ], [ -91.154077181251438, 31.986064147428117 ], [ -91.15412529655336, 31.986197755684064 ], [ -91.154144960782176, 31.986334297616089 ], [ -91.154139292563301, 31.9864728728842 ], [ -91.154140428597472, 31.986611266159048 ], [ -91.15416798571944, 31.986746876842147 ], [ -91.154189974253555, 31.986883706732957 ], [ -91.154199840515801, 31.987020971253393 ], [ -91.154222299974862, 31.98715636778854 ], [ -91.154247869221763, 31.987293173593812 ] ] } },
{ "type": "Feature", "properties": { "station_id": 6, "station_ft": 8028.1, "width_ft": 3190.4, "flag": "ok", "lon": -91.156964, "lat": 31.981201, "survey_id": "LM_04_GGK_20240804_CS_4016_3958", "date": "2024-08-04 00:00:00+00:00", "method": "lines" }, "geometry": { "type": "LineString", "coordinates": [ [ -91.156439259562546, 31.977531881256862 ], [ -91.156467700660684, 31.977665259278755 ], [ -91.156465374545661, 31.977805764674876 ], [ -91.156519247566479, 31.977923255274749 ], [ -91.156512425491655, 31.978062167438154 ], [ -91.156569208526349, 31.978195087441339 ], [ -91.156602155984189, 31.978331047877798 ], [ -91.156632453705228, 31.978466476277482 ], [ -91.156634685731376, 31.978604477474072 ], [ -91.156641074961897, 31.978742259610659 ], [ -91.156659029730889, 31.978878510265655 ], [ -91.156677981326126, 31.979014534402086 ], [ -91.15669881445811, 31.979151892754107 ], [ -91.156710293270066, 31.979288871694809 ], [ -91.156718251291053, 31.979425297205378 ], [ -91.156750966737391, 31.979560434805634 ], [ -91.156769827916278, 31.979697200799873 ], [ -91.156799223421459, 31.979832579966288 ], [ -91.15679829899662, 31.979970986688389 ], [ -91.156813202039189, 31.980108686487775 ], [ -91.156823098813661, 31.980245483570947 ], [ -91.156858109314371, 31.980381293422507 ], [ -91.156887630826176, 31.980516286652733 ], [ -91.156904462060226, 31.980653175798164 ], [ -91.156902055479478, 31.980791702142998 ], [ -91.15692822227598, 31.98092671712288 ], [ -91.156941216363123, 31.981063522033455 ], [ -91.156963886534015, 31.981200566255911 ], [ -91.156989229852428, 31.98133718098703 ], [ -91.157011979824176, 31.981472245165463 ], [ -91.157027624653125, 31.981609885076146 ], [ -91.157033524223877, 31.981746763061 ], [ -91.157048877770976, 31.981884239818633 ], [ -91.157068416175079, 31.982020782170466 ], [ -91.157093785494112, 31.982156708596762 ], [ -91.157117535683298, 31.982291767144982 ], [ -91.157119797451188, 31.982429437981398 ], [ -91.157150486858797, 31.982565110708141 ], [ -91.157172991292256, 31.982701523749725 ], [ -91.157186957261075, 31.982838789428534 ], [ -91.15719672319706, 31.982975285153586 ], [ -91.157214039681961, 31.983112254014522 ], [ -91.157228202356961, 31.983249848470376 ], [ -91.157252983899028, 31.983384817301811 ], [ -91.15726511468776, 31.98352247904802 ], [ -91.157280271632914, 31.983659544875007 ], [ -91.157317207320716, 31.98379399467958 ], [ -91.157327918470941, 31.983931556506086 ], [ -91.157346462854008, 31.984068654429798 ], [ -91.157358620069061, 31.984205574677098 ], [ -91.15737219860857, 31.984342759846086 ], [ -91.1573904106328, 31.98447876148651 ], [ -91.157427029783832, 31.98461384547295 ], [ -91.15743780108626, 31.984750883820109 ], [ -91.157455729781503, 31.984887601527291 ], [ -91.157474721873754, 31.985024312322533 ], [ -91.157483042863959, 31.985161366568903 ], [ -91.157504578183762, 31.985297538678747 ], [ -91.157518870293288, 31.98543507719582 ], [ -91.157553715193472, 31.985570117631642 ], [ -91.15755281698074, 31.985707644774568 ], [ -91.15757561868449, 31.985844714968884 ], [ -91.157589799163929, 31.985980632705683 ], [ -91.15760418412026, 31.986117757556713 ], [ -91.157634392473952, 31.986253598228043 ], [ -91.157655318215461, 31.986389938376444 ], [ -91.157666671179328, 31.986527110861957 ], [ -91.157679498578148, 31.986663147384295 ], [ -91.157696050520428, 31.986800945322649 ], [ -91.157720768293657, 31.986935804363316 ] ] } },
{ "type": "Feature", "properties": { "station_id": 7, "station_ft": 7112.4, "width_ft": 3385.0, "flag": "ok", "lon": -91.160662, "lat": 31.982912, "survey_id": "LM_04_GGK_20240804_CS_4016_3958", "date": "2024-08-04 00:00:00+00:00", "method": "lines" }, "geometry": { "type": "LineString", "coordinates": [ [ -91.159467017102187, 31.976116820759284 ], [ -91.159486358069103, 31.976252814006614 ], [ -91.159494600200773, 31.976391601208139 ], [ -91.159513613501773, 31.97652690938483 ], [ -91.159542372708515, 31.976662979285564 ], [ -91.15958558029817, 31.976795628276793 ], [ -91.159606535730674, 31.976931693946202 ], [ -91.159612135206118, 31.977070718373081 ], [ -91.159633832863477, 31.977206833308738 ], [ -91.159650608343725, 31.977344328515247 ], [ -91.159690246703633, 31.977478045005693 ], [ -91.159727270936926, 31.977611422279129 ], [ -91.15974220624328, 31.9777486264305 ], [ -91.159749574715974, 31.977887144209447 ], [ -91.159745311752019, 31.978026782037912 ], [ -91.159769557883109, 31.978163046267976 ], [ -91.159821919991273, 31.978295031302341 ], [ -91.159862421133667, 31.97842778074639 ], [ -91.159887543263878, 31.978564478427622 ], [ -91.159915327617028, 31.978699537276576 ], [ -91.159949786834702, 31.978834552642105 ], [ -91.159973833306935, 31.978969964982848 ], [ -91.159982613629666, 31.979107649251819 ], [ -91.159999189274501, 31.979244347547652 ], [ -91.160030011059675, 31.979380046706464 ], [ -91.160059243925602, 31.97951482100973 ], [ -91.160084231193721, 31.979650804352747 ], [ -91.160110795164996, 31.979786448249026 ], [ -91.160137039813819, 31.979922342218789 ], [ -91.160160774059335, 31.980058856758511 ], [ -91.160181215376184, 31.980194979707111 ], [ -91.160206039264168, 31.980330634905737 ], [ -91.160227125044813, 31.980466754542903 ], [ -91.160258581645678, 31.980601184213796 ], [ -91.160276456349365, 31.980738836219764 ], [ -91.160297573236676, 31.980874625563299 ], [ -91.160332928236926, 31.981008727690593 ], [ -91.160368771292895, 31.981143321726595 ], [ -91.160380031991366, 31.981280466690396 ], [ -91.160409694380419, 31.981416283279923 ], [ -91.160423206243323, 31.981552781381758 ], [ -91.160454959352805, 31.981687869179392 ], [ -91.160474994634143, 31.981825342013515 ], [ -91.160508387147303, 31.981959869893004 ], [ -91.16053355432652, 31.982094285437167 ], [ -91.160552527930733, 31.982232040225441 ], [ -91.160579411007973, 31.982366994682987 ], [ -91.160601398460543, 31.982502778258663 ], [ -91.160621851660309, 31.982640083289702 ], [ -91.160645189820059, 31.982775445911059 ], [ -91.160662412382308, 31.982912112753834 ], [ -91.160693715557613, 31.98304731250915 ], [ -91.160727172173864, 31.983181701900499 ], [ -91.16075745186599, 31.983317788487877 ], [ -91.160784684048465, 31.983452191384554 ], [ -91.160805131102421, 31.983588754197939 ], [ -91.160824126921511, 31.983725244401128 ], [ -91.160850018860017, 31.983861194527826 ], [ -91.160878065714925, 31.983996498413287 ], [ -91.160902092709634, 31.984132955785935 ], [ -91.160912553067377, 31.984270738928405 ], [ -91.160923806848842, 31.984407086596146 ], [ -91.160951705762912, 31.984543793755602 ], [ -91.160985254760931, 31.98467752229914 ], [ -91.161025770958318, 31.984811426336051 ], [ -91.161065318238798, 31.984945115728447 ], [ -91.161105024242843, 31.985078556968876 ], [ -91.161117521752615, 31.985216793927879 ], [ -91.161152725835649, 31.985351665949459 ], [ -91.161159636131245, 31.985489142130071 ], [ -91.161180473242112, 31.985625895275913 ], [ -91.161195467930739, 31.985762108458459 ], [ -91.1612117914202, 31.985899001060314 ], [ -91.161231883556908, 31.986035373967702 ], [ -91.161248820191531, 31.986172426690104 ], [ -91.161267978363639, 31.98630894365753 ], [ -91.161318552246215, 31.986442148853982 ], [ -91.161330563061952, 31.986579975896984 ] ] } },
{ "type": "Feature", "properties": { "station_id": 8, "station_ft": 6252.3, "width_ft": 3001.7, "flag": "ok", "lon": -91.164662, "lat": 31.984753, "survey_id": "LM_04_GGK_20240804_CS_4016_3958", "date": "2024-08-04 00:00:00+00:00", "method": "lines" }, "geometry": { "type": "LineString", "coordinates": [ [ -91.162242697485809, 31.975512547564737 ], [ -91.162283344037817, 31.975643342864124 ], [ -91.16231011401824, 31.975765791283919 ], [ -91.162324548945492, 31.975904262763983 ], [ -91.16237841175078, 31.976034395431991 ], [ -91.162416835018817, 31.976168862105364 ], [ -91.162464362756381, 31.976300877641773 ], [ -91.162516683412335, 31.976431597482385 ], [ -91.162543476557943, 31.976567266467146 ], [ -91.162572096826608, 31.976701742111594 ], [ -91.162598888657101, 31.976837246051605 ], [ -91.162637399732688, 31.976970694800087 ], [ -91.162688123611019, 31.977102964402267 ], [ -91.162722254394424, 31.977236963897738 ], [ -91.162754169792933, 31.977372023075354 ], [ -91.16279144805398, 31.977504572579967 ], [ -91.162853951786019, 31.97763429140236 ], [ -91.162857271232511, 31.97777382472319 ], [ -91.162883740410948, 31.977909248615667 ], [ -91.162928083499366, 31.978042026945456 ], [ -91.162956173122865, 31.978178319504554 ], [ -91.162972919543847, 31.978315539331135 ], [ -91.163017584660508, 31.978448205490096 ], [ -91.163062433627161, 31.978579771100438 ], [ -91.163091543535913, 31.978714765528323 ], [ -91.163138112328895, 31.978847419186984 ], [ -91.163168129100967, 31.97898287480664 ], [ -91.163192376910388, 31.979118615237471 ], [ -91.163226088304739, 31.979252398138804 ], [ -91.163275047040116, 31.979385448238407 ], [ -91.163300186457917, 31.979519946402558 ], [ -91.163334002846753, 31.979654661967778 ], [ -91.163367269152701, 31.979789024896256 ], [ -91.163398540090654, 31.979923977129886 ], [ -91.163432391076043, 31.980058858367279 ], [ -91.16346147351716, 31.980194209972002 ], [ -91.163514153333068, 31.980325036958956 ], [ -91.163534158857104, 31.980462262389224 ], [ -91.163567683100894, 31.980596649708033 ], [ -91.163611248899301, 31.980728855636439 ], [ -91.163650368415546, 31.980861365692679 ], [ -91.163685158632902, 31.980996597814123 ], [ -91.163709995999255, 31.981133268525266 ], [ -91.163752369162268, 31.981265400126727 ], [ -91.163790526744691, 31.981398548598868 ], [ -91.163822158103031, 31.98153391045869 ], [ -91.163856286622888, 31.981667277358085 ], [ -91.163887628048386, 31.981802614938445 ], [ -91.163920158472564, 31.981937558743997 ], [ -91.163952911631526, 31.982072198967817 ], [ -91.163989045405103, 31.982206129860778 ], [ -91.164023576288045, 31.98234111644803 ], [ -91.164067174678735, 31.982473128964862 ], [ -91.164094546729217, 31.982608107374713 ], [ -91.164126660773178, 31.982743273875748 ], [ -91.164163630810833, 31.982876952124883 ], [ -91.164189003395535, 31.983012052714173 ], [ -91.164226554496096, 31.983145727133216 ], [ -91.164279151859859, 31.983277653580032 ], [ -91.164345547181384, 31.983405504480256 ], [ -91.164370030084214, 31.983541985226751 ], [ -91.164385815447261, 31.983679513126564 ], [ -91.164411035709975, 31.983815493926883 ], [ -91.164437610596295, 31.983951494705519 ], [ -91.164468757055829, 31.984086612407257 ], [ -91.16450843036678, 31.984219447642282 ], [ -91.164552125022652, 31.984351158097503 ], [ -91.164585565676646, 31.984486617855168 ], [ -91.164621278878187, 31.984620277098696 ], [ -91.164661503202467, 31.984753383717706 ], [ -91.164689719799625, 31.984888905615005 ], [ -91.164727307412704, 31.98502293671547 ], [ -91.164758548569424, 31.985157669517388 ], [ -91.164780574973406, 31.985293369016876 ], [ -91.164822124148074, 31.985426659876122 ], [ -91.164871042225712, 31.985558197982016 ], [ -91.16491551448307, 31.985690232343966 ] ] } },
{ "type": "Feature", "properties": { "station_id": 9, "station_ft": 5339.0, "width_ft": 2750.7, "flag": "ok", "lon": -91.168116, "lat": 31.983676, "survey_id": "LM_04_GGK_20240804_CS_4016_3958", "date": "2024-08-04 00:00:00+00:00", "method": "lines" }, "geometry": { "type": "LineString", "coordinates": [ [ -91.16469946789951, 31.974217144435059 ], [ -91.164740570014274, 31.974351564912279 ], [ -91.164795648001331, 31.974480204192151 ], [ -91.164837736740083, 31.974613133759064 ], [ -91.164877241599385, 31.974745668101196 ], [ -91.164932394404417, 31.974875516169551 ], [ -91.164985588675776, 31.97500614720305 ], [ -91.165031213483786, 31.975137872126524 ], [ -91.165065283135675, 31.97527184344877 ], [ -91.16511370913544, 31.975403027820541 ], [ -91.165169926475215, 31.975532813777171 ], [ -91.165226399202254, 31.975662157939169 ], [ -91.165262624147374, 31.97579562086495 ], [ -91.165310633506252, 31.975926999965264 ], [ -91.165363299525993, 31.976056176917805 ], [ -91.165397922698418, 31.976190777577148 ], [ -91.165457098319052, 31.976319417606124 ], [ -91.165513628732739, 31.976448019033722 ], [ -91.165558230745191, 31.976580547644268 ], [ -91.165588606456353, 31.976716082422371 ], [ -91.165649235875279, 31.976845014924073 ], [ -91.165693475431084, 31.97697661065752 ], [ -91.165748045074238, 31.97710580289003 ], [ -91.16579706132265, 31.977237807342267 ], [ -91.165844103276072, 31.977368972495338 ], [ -91.165882137267616, 31.977502588360956 ], [ -91.165917339871697, 31.977636882020395 ], [ -91.165991250795599, 31.977761604050777 ], [ -91.166036813763043, 31.977893190953917 ], [ -91.166077905190292, 31.978026017427112 ], [ -91.166129517911315, 31.978156162254304 ], [ -91.166176220505776, 31.978289006880061 ], [ -91.166210553405662, 31.978423334097997 ], [ -91.166253439124944, 31.978554801394779 ], [ -91.166305774412521, 31.978686398743598 ], [ -91.166345061879625, 31.978819374023587 ], [ -91.166405802756614, 31.978946078755644 ], [ -91.166456080407841, 31.979078239650345 ], [ -91.16649732909066, 31.979210541860049 ], [ -91.16655534983299, 31.979339545985628 ], [ -91.16659483330524, 31.979472711970473 ], [ -91.166634711322473, 31.97960667256304 ], [ -91.16668705772635, 31.97973574092752 ], [ -91.16673178994931, 31.979868020167121 ], [ -91.166772630386546, 31.980001425172276 ], [ -91.166833061902324, 31.980129451065867 ], [ -91.166894680791799, 31.980256781936184 ], [ -91.166943429378719, 31.98038735821056 ], [ -91.166988356660397, 31.980519718124299 ], [ -91.167022316166097, 31.980655229802252 ], [ -91.167060730357704, 31.980787715434882 ], [ -91.167115986124443, 31.980917424609764 ], [ -91.167164393574396, 31.981049514480706 ], [ -91.16722575298509, 31.981176461786166 ], [ -91.167270483746577, 31.981308411634316 ], [ -91.167309139603788, 31.981442627089748 ], [ -91.167353996966042, 31.981574273956802 ], [ -91.167407382077684, 31.981703884348743 ], [ -91.167447841917593, 31.981837703715975 ], [ -91.167497427880505, 31.981968027124854 ], [ -91.1675387457244, 31.982100521444259 ], [ -91.167592036385173, 31.982230270342335 ], [ -91.167641700555507, 31.982361939594483 ], [ -91.167699431836397, 31.982490586975082 ], [ -91.167738726284711, 31.982623918784931 ], [ -91.167785517185209, 31.982755359759587 ], [ -91.167837004539692, 31.982885340436805 ], [ -91.167878427122446, 31.983018549076547 ], [ -91.167926285604068, 31.983150175055531 ], [ -91.167982175969058, 31.983278505222867 ], [ -91.168030779154066, 31.983410428367957 ], [ -91.168075504503648, 31.983541525674006 ], [ -91.168116194273225, 31.983675645370909 ], [ -91.168160539108897, 31.98380745938783 ], [ -91.16820926272041, 31.983938365298652 ], [ -91.168242539218255, 31.984073000858452 ], [ -91.168302177797827, 31.984201965430959 ], [ -91.168364706612564, 31.984329454505254 ], [ -91.168404219265554, 31.984461795314708 ], [ -91.16845240740524, 31.984594133126823 ], [ -91.168494700153119, 31.984723459741087 ], [ -91.168535519312357, 31.984839848528633 ] ] } },
{ "type": "Feature", "properties": { "station_id": 10, "station_ft": 4431.2, "width_ft": 2478.6, "flag": "ok", "lon": -91.171702, "lat": 31.982741, "survey_id": "LM_04_GGK_20240804_CS_4016_3958", "date": "2024-08-04 00:00:00+00:00", "method": "lines" }, "geometry": { "type": "LineString", "coordinates": [ [ -91.16672566534325, 31.973085104951199 ], [ -91.166787197580305, 31.973189127104199 ], [ -91.166869689308072, 31.973293011585152 ], [ -91.166906530188783, 31.973430208104126 ], [ -91.166986090047246, 31.973548542793974 ], [ -91.167065866506448, 31.973669514752959 ], [ -91.167126609031868, 31.973796686401219 ], [ -91.167180642853992, 31.973927228027389 ], [ -91.167252856745094, 31.974049761000053 ], [ -91.167330413161167, 31.974171186550919 ], [ -91.167381100352031, 31.974302465217498 ], [ -91.167433009032578, 31.974433322795843 ], [ -91.167485485492833, 31.974562720166873 ], [ -91.167565900890594, 31.974682808296325 ], [ -91.167640309923115, 31.974805546640599 ], [ -91.167707775877915, 31.974930777235581 ], [ -91.167759072100139, 31.975061555717474 ], [ -91.16782042417185, 31.975188063744202 ], [ -91.16788524887329, 31.975313531643131 ], [ -91.167948505880517, 31.975440411252251 ], [ -91.168019414765155, 31.975564628814471 ], [ -91.16809353028755, 31.975686819580403 ], [ -91.168153703513696, 31.975814956662205 ], [ -91.168223057985742, 31.975938387106787 ], [ -91.168278172039365, 31.976066859511931 ], [ -91.168351200749214, 31.976189991551994 ], [ -91.16841362361896, 31.976317151444075 ], [ -91.168483334491, 31.97644071736384 ], [ -91.168538462664984, 31.976570673952629 ], [ -91.168619295510908, 31.976690126417481 ], [ -91.168661538497972, 31.976825225186236 ], [ -91.16872247077356, 31.976951487477923 ], [ -91.168790773552004, 31.977076134747129 ], [ -91.168861806970497, 31.977199581704706 ], [ -91.168923464359438, 31.977327460597515 ], [ -91.168991597363259, 31.977451174571275 ], [ -91.16905183314573, 31.977578705630016 ], [ -91.169125536670379, 31.977701447649238 ], [ -91.169195105957542, 31.977826910603866 ], [ -91.169250636268032, 31.977954802613141 ], [ -91.16931911036886, 31.978080327715752 ], [ -91.169383587476531, 31.978206209175056 ], [ -91.16944590520356, 31.978332077768236 ], [ -91.169511548554453, 31.978458418616921 ], [ -91.169568029459754, 31.978587787707426 ], [ -91.169627837080526, 31.978714249905995 ], [ -91.169685671470816, 31.978843610918958 ], [ -91.169747899202775, 31.978970194181993 ], [ -91.169823975950294, 31.979091078578797 ], [ -91.169895303982983, 31.979214715036093 ], [ -91.169957754372376, 31.979340939592614 ], [ -91.170026933358415, 31.97946579948243 ], [ -91.170096690380646, 31.979590326352604 ], [ -91.170154225883877, 31.97971856181012 ], [ -91.170214920511214, 31.979846639328319 ], [ -91.170276818066455, 31.979972125149228 ], [ -91.170345867409566, 31.980096821566178 ], [ -91.170408363803503, 31.980224364037074 ], [ -91.1704731246747, 31.980349116617958 ], [ -91.170546647556492, 31.980472711133444 ], [ -91.170607878298966, 31.980599354605623 ], [ -91.170672451840773, 31.980724740487709 ], [ -91.170734693975021, 31.980852614522139 ], [ -91.170797890626233, 31.980978970763175 ], [ -91.170860052846862, 31.981105113749535 ], [ -91.170924156323082, 31.981231904025663 ], [ -91.170985231298417, 31.981358989311008 ], [ -91.171056531204627, 31.981482652278157 ], [ -91.171115456075583, 31.981610851010284 ], [ -91.171182432905198, 31.98173437830399 ], [ -91.171261416193772, 31.981855380534611 ], [ -91.171329699658372, 31.981980602663263 ], [ -91.171385502200167, 31.98210942699486 ], [ -91.17144536747621, 31.982238086487975 ], [ -91.171502006093647, 31.982366547213683 ], [ -91.171563884042556, 31.982493213842812 ], [ -91.171625276961976, 31.982619581529896 ], [ -91.171702135681599, 31.982740789578308 ], [ -91.17178356721432, 31.982861252216775 ], [ -91.171844095686964, 31.982988257675867 ], [ -91.171904862443739, 31.983116663865648 ], [ -91.171962976305352, 31.983244207371552 ], [ -91.172018682241585, 31.983372811073529 ], [ -91.17208329701144, 31.983498690071468 ], [ -91.172164214912684, 31.983619320868094 ] ] } },
{ "type": "Feature", "properties": { "station_id": 11, "station_ft": 3507.9, "width_ft": 2100.8, "flag": "ok", "lon": -91.175108, "lat": 31.981207, "survey_id": "LM_04_GGK_20240804_CS_4016_3958", "date": "2024-08-04 00:00:00+00:00", "method": "lines" }, "geometry": { "type": "LineString", "coordinates": [ [ -91.168422492523121, 31.971805145784039 ], [ -91.168506068501543, 31.971921803680612 ], [ -91.168599571625691, 31.972034383061921 ], [ -91.168680467144611, 31.972154192323085 ], [ -91.16874937494498, 31.972278422725825 ], [ -91.168834721826954, 31.972394738664388 ], [ -91.168926723068495, 31.97250878502582 ], [ -91.169014606367597, 31.972623819775627 ], [ -91.169099020960928, 31.972740388762059 ], [ -91.1691834799703, 31.972858332681707 ], [ -91.169251558851187, 31.97298342047084 ], [ -91.169331232505925, 31.973103402363343 ], [ -91.16941378628502, 31.973220945628363 ], [ -91.169499512815619, 31.973336352248296 ], [ -91.169588305326002, 31.97345184772718 ], [ -91.169674273636105, 31.973568901166992 ], [ -91.169770756579581, 31.973679096301986 ], [ -91.169859934661645, 31.973794451959147 ], [ -91.169942620807831, 31.973912214027507 ], [ -91.170016999835198, 31.974034868196068 ], [ -91.17009104817447, 31.974156618160851 ], [ -91.170166068644463, 31.974278911783081 ], [ -91.170258679492221, 31.974392237941203 ], [ -91.170335170171569, 31.974512926429028 ], [ -91.170422568902339, 31.974627551190729 ], [ -91.170508020437367, 31.974744195295472 ], [ -91.170591324318011, 31.974862337911873 ], [ -91.170679723448401, 31.974976955884358 ], [ -91.170769259410662, 31.975092308493466 ], [ -91.170856055435451, 31.975207899160473 ], [ -91.170932448515273, 31.97532839581288 ], [ -91.170999935330826, 31.975455272998033 ], [ -91.171083752723021, 31.975573082709221 ], [ -91.171174624212355, 31.975686254597306 ], [ -91.17126106315277, 31.975801434286314 ], [ -91.17134736349081, 31.975919034427339 ], [ -91.171424466392011, 31.976039499016004 ], [ -91.171508820441659, 31.976155819573041 ], [ -91.171596431118061, 31.976272008538327 ], [ -91.171685250632137, 31.976386375881436 ], [ -91.171764485711918, 31.976507128274264 ], [ -91.171844406892504, 31.976625237336968 ], [ -91.171934653709911, 31.976740584366212 ], [ -91.172011434209466, 31.976860802695843 ], [ -91.172083756374292, 31.976983690082658 ], [ -91.172162729857391, 31.977103948831118 ], [ -91.172263921481232, 31.977213340660928 ], [ -91.172360310864391, 31.977323067165575 ], [ -91.172445251606959, 31.977439767351918 ], [ -91.172516678820102, 31.977563484656098 ], [ -91.172592350707276, 31.977685772409977 ], [ -91.17268498955022, 31.977797859180683 ], [ -91.1727730795306, 31.977913246888459 ], [ -91.172850483397497, 31.978034533716865 ], [ -91.172933239278109, 31.978152018161804 ], [ -91.173014975867744, 31.978270828663302 ], [ -91.173097344711721, 31.978388288498383 ], [ -91.173181847413659, 31.978506284269052 ], [ -91.173263165688013, 31.978625097365637 ], [ -91.173352283216232, 31.978739873617251 ], [ -91.17343715820752, 31.978856272312743 ], [ -91.17352081508983, 31.978973310289074 ], [ -91.173604738298252, 31.979091336647222 ], [ -91.173693500537183, 31.979205922905159 ], [ -91.173782106635016, 31.97932111435383 ], [ -91.173873367845573, 31.979433896510358 ], [ -91.173947797495771, 31.979557428015799 ], [ -91.174023882144894, 31.979678639836919 ], [ -91.174096106156497, 31.979800893540911 ], [ -91.17418494025064, 31.979916138187409 ], [ -91.174298687529074, 31.980019096251702 ], [ -91.174374031124998, 31.980140284799283 ], [ -91.174432822425274, 31.9802710665932 ], [ -91.174508107885913, 31.98039291467212 ], [ -91.174602556565034, 31.980504850870187 ], [ -91.174695433357655, 31.980617731705465 ], [ -91.174772316047125, 31.980737838422854 ], [ -91.174845932707058, 31.980860495463549 ], [ -91.174921159937782, 31.980982920829852 ], [ -91.175012003749401, 31.981095540742391 ], [ -91.175108158671264, 31.981207052186207 ], [ -91.175202072425293, 31.981320255814602 ], [ -91.175290700221751, 31.981433797450865 ], [ -91.175359608092194, 31.981559865447316 ], [ -91.175436920766444, 31.98168087611047 ], [ -91.175525527445515, 31.981795626155495 ], [ -91.175623159024596, 31.981906248104035 ], [ -91.175687245368451, 31.982033860265641 ] ] } },
{ "type": "Feature", "properties": { "station_id": 12, "station_ft": 2597.8, "width_ft": 1807.9, "flag": "ok", "lon": -91.17762, "lat": 31.978704, "survey_id": "LM_04_GGK_20240804_CS_4016_3958", "date": "2024-08-04 00:00:00+00:00", "method": "lines" }, "geometry": { "type": "LineString", "coordinates": [ [ -91.17032998518826, 31.971010170293169 ], [ -91.170425010725509, 31.971112705466396 ], [ -91.17052086113398, 31.971224388669064 ], [ -91.170610632245271, 31.971337760435595 ], [ -91.170726736469618, 31.971435566029037 ], [ -91.17083578521293, 31.971537540316056 ], [ -91.170940785068723, 31.97164110859875 ], [ -91.171029991058063, 31.971756106167589 ], [ -91.171126250554849, 31.971866547979129 ], [ -91.171232923389397, 31.971969610764088 ], [ -91.171333735524954, 31.972076999432911 ], [ -91.17144031899123, 31.972180885993172 ], [ -91.171542689063997, 31.972285845501084 ], [ -91.171632873160902, 31.972401798410424 ], [ -91.171736122345834, 31.972507631228986 ], [ -91.1718387272022, 31.972613551183827 ], [ -91.171945779892198, 31.972715620625266 ], [ -91.172053170225581, 31.972819309225649 ], [ -91.17215538559978, 31.972924901417013 ], [ -91.172255615322854, 31.973031881029705 ], [ -91.172352690519389, 31.973143059573832 ], [ -91.172464161949662, 31.973241580421071 ], [ -91.17257139212218, 31.973345324632255 ], [ -91.172656592236947, 31.973462546128683 ], [ -91.172744103126973, 31.973578597943696 ], [ -91.172844446535876, 31.97368733577764 ], [ -91.172957048449973, 31.973785903705512 ], [ -91.173068152386691, 31.973886433894208 ], [ -91.173159634852084, 31.973999353239606 ], [ -91.17325935816055, 31.974107159637498 ], [ -91.173367842605515, 31.974210290618199 ], [ -91.173462077482426, 31.974320991961889 ], [ -91.173555442038065, 31.974435079939642 ], [ -91.173671918707598, 31.974530488609538 ], [ -91.173781071662162, 31.974632569577548 ], [ -91.173882300070147, 31.974739129090597 ], [ -91.173983190646666, 31.974847367251201 ], [ -91.174080128006196, 31.974957142974162 ], [ -91.174184038407674, 31.975060605633701 ], [ -91.174288094848009, 31.975166018788265 ], [ -91.174387517691272, 31.975275860763674 ], [ -91.174499738260536, 31.975374677790132 ], [ -91.174593216144586, 31.975486895626467 ], [ -91.174689134709809, 31.975597914916747 ], [ -91.174784729330725, 31.975708771243674 ], [ -91.174884059669637, 31.975815534587866 ], [ -91.174981110765174, 31.975926876203701 ], [ -91.175089188747364, 31.976027451660105 ], [ -91.175190138609139, 31.976134918257486 ], [ -91.175296316522605, 31.976239162134402 ], [ -91.175401460616001, 31.976343247743113 ], [ -91.175500675840055, 31.976451385725859 ], [ -91.175593066792842, 31.976564352197645 ], [ -91.175687569489298, 31.97667543509764 ], [ -91.175791321676385, 31.976782360435443 ], [ -91.175894697293117, 31.976886952455313 ], [ -91.175995387692296, 31.976993952954849 ], [ -91.176092690430679, 31.977104412722433 ], [ -91.176195657145044, 31.977209913534498 ], [ -91.176300603234068, 31.977313285429357 ], [ -91.176398771086227, 31.977423051110588 ], [ -91.176509116096298, 31.977524270377248 ], [ -91.176611196351985, 31.977631536186209 ], [ -91.176708608200641, 31.977739657199063 ], [ -91.176805068397528, 31.977849434798106 ], [ -91.176907761673689, 31.977956669226902 ], [ -91.177011043148497, 31.978061094981125 ], [ -91.177108512627072, 31.978171827875357 ], [ -91.177212691684403, 31.978275780344138 ], [ -91.177319953814205, 31.978378200761785 ], [ -91.177417809708231, 31.978488765801909 ], [ -91.177520435593934, 31.97859553211018 ], [ -91.177619913143545, 31.978703584535889 ], [ -91.177720536666783, 31.978810006871349 ], [ -91.17781634449571, 31.978922233749518 ], [ -91.177929230915538, 31.979018926587965 ], [ -91.178026003994347, 31.979130789752908 ], [ -91.1781330706429, 31.979232798616707 ], [ -91.178227140250129, 31.979345283837905 ], [ -91.178330758263286, 31.979450999440356 ], [ -91.17841482110218, 31.979569460798512 ], [ -91.178509833714571, 31.979679246668159 ], [ -91.178620726997934, 31.979779937300876 ], [ -91.178723733878257, 31.979885710745297 ] ] } },
{ "type": "Feature", "properties": { "station_id": 13, "station_ft": 1594.8, "width_ft": 1467.7, "flag": "ok", "lon": -91.180208, "lat": 31.976351, "survey_id": "LM_04_GGK_20240804_CS_4016_3958", "date": "2024-08-04 00:00:00+00:00", "method": "lines" }, "geometry": { "type": "LineString", "coordinates": [ [ -91.171452309378793, 31.969043218765297 ], [ -91.171560366336166, 31.969146299266114 ], [ -91.171674746784973, 31.969242630117062 ], [ -91.171792466166949, 31.969337317320889 ], [ -91.171917179583403, 31.969424537070946 ], [ -91.172025096894885, 31.969526463743701 ], [ -91.172139743423159, 31.969623562562205 ], [ -91.172265386451926, 31.969710087721698 ], [ -91.172387204289478, 31.969801504297013 ], [ -91.17247529049736, 31.969920988561014 ], [ -91.17260317324228, 31.970005464948251 ], [ -91.172720470322488, 31.970099686905801 ], [ -91.172836199996524, 31.970195211435403 ], [ -91.172949826730402, 31.970293525589032 ], [ -91.173063442499028, 31.970390492379995 ], [ -91.17318875126719, 31.970479136295967 ], [ -91.173297924339153, 31.97058042135281 ], [ -91.173407983243337, 31.970679858016727 ], [ -91.173521836512634, 31.970778170138981 ], [ -91.173641314287664, 31.97087070028368 ], [ -91.173756500094385, 31.970966584666449 ], [ -91.173872199180863, 31.971061997493763 ], [ -91.173989881079677, 31.971155666474306 ], [ -91.174109383525419, 31.971247315816647 ], [ -91.17421693956571, 31.971351469552342 ], [ -91.174328997538382, 31.971450645041969 ], [ -91.174445904507934, 31.971544152782212 ], [ -91.174563589410027, 31.971637903257548 ], [ -91.174688451842499, 31.971726795701336 ], [ -91.174800598576951, 31.97182492585522 ], [ -91.174914195111768, 31.971923073348314 ], [ -91.175031495790734, 31.972017045967341 ], [ -91.175138754871355, 31.972120210652768 ], [ -91.17525071619194, 31.972219248859961 ], [ -91.175370952314239, 31.972309737767453 ], [ -91.175480169471186, 31.97241187280407 ], [ -91.175593835554196, 31.972510294260349 ], [ -91.175704861639389, 31.972609227332086 ], [ -91.175813017026243, 31.972711561205422 ], [ -91.175932395994735, 31.972803402579373 ], [ -91.176057862849163, 31.972890970245157 ], [ -91.176175910973143, 31.972985431005455 ], [ -91.176286694758346, 31.973085850465079 ], [ -91.176403714922671, 31.973180647900808 ], [ -91.176517114000376, 31.973277887977481 ], [ -91.176632394083427, 31.973372779721881 ], [ -91.176742224911791, 31.973474743614471 ], [ -91.17685082816611, 31.973576414356025 ], [ -91.176976347135991, 31.973662413363002 ], [ -91.177090397019555, 31.973760116629641 ], [ -91.177199291861498, 31.973861894243534 ], [ -91.177307262564824, 31.973964860198631 ], [ -91.177427477279679, 31.974056007367118 ], [ -91.177549969431837, 31.974145929019787 ], [ -91.177666185855657, 31.974240703539127 ], [ -91.177780428967111, 31.974338321908309 ], [ -91.177895157352452, 31.974435991953012 ], [ -91.178010607192164, 31.974531430480688 ], [ -91.178126471681779, 31.974626371938999 ], [ -91.178245383736026, 31.974719615604677 ], [ -91.178348583803853, 31.974826021295836 ], [ -91.178468765846986, 31.974916946713368 ], [ -91.178583139721241, 31.975014564363093 ], [ -91.178697258720078, 31.975112512769662 ], [ -91.178821470216661, 31.975199617924918 ], [ -91.178932971633898, 31.975300387324328 ], [ -91.179046270087412, 31.975396691432685 ], [ -91.179158755599644, 31.975495694606572 ], [ -91.179274791658401, 31.975591431047558 ], [ -91.179392428347882, 31.975685974415502 ], [ -91.179507525072552, 31.975781330915982 ], [ -91.179627308225221, 31.975874183254557 ], [ -91.179749068619827, 31.975964685660553 ], [ -91.179856095286951, 31.976066116237224 ], [ -91.179968589042474, 31.976165832856037 ], [ -91.18008363434862, 31.976262372352267 ], [ -91.180208153168081, 31.976351178504281 ], [ -91.180310225723929, 31.976457287040205 ], [ -91.180426207985803, 31.976553929984028 ], [ -91.180546366075603, 31.976645348626299 ], [ -91.180675962966077, 31.976728595825218 ], [ -91.180794338095424, 31.976822472780452 ], [ -91.180896431559276, 31.976930725225301 ], [ -91.181010191972334, 31.977031147573118 ], [ -91.18109497460523, 31.977126045804027 ] ] } },
{ "type": "Feature", "properties": { "station_id": 14, "station_ft": 627.3, "width_ft": 1591.5, "flag": "ok", "lon": -91.182454, "lat": 31.974107, "survey_id": "LM_04_GGK_20240804_CS_4016_3958", "date": "2024-08-04 00:00:00+00:00", "method": "lines" }, "geometry": { "type": "LineString", "coordinates": [ [ -91.173889281103243, 31.967841008393481 ], [ -91.174020490765557, 31.967922740553735 ], [ -91.174127811093598, 31.96802631794985 ], [ -91.174240744732217, 31.968126505072501 ], [ -91.174378057471685, 31.96820212081272 ], [ -91.174510020059955, 31.968281510829879 ], [ -91.174638622502655, 31.968363753811452 ], [ -91.174752059800596, 31.968462452718395 ], [ -91.174875325876798, 31.968549954207333 ], [ -91.17500309376571, 31.968636078393992 ], [ -91.175129490582108, 31.96872020497571 ], [ -91.175250948451819, 31.968810851027019 ], [ -91.17537142469655, 31.968903455023337 ], [ -91.175477859882804, 31.969008631535758 ], [ -91.175606052058242, 31.969091618433509 ], [ -91.175736115768203, 31.969174702800942 ], [ -91.175859829903942, 31.969261595204976 ], [ -91.175973940118567, 31.96935957426755 ], [ -91.17610060464898, 31.9694446594232 ], [ -91.17622893885347, 31.969528937048654 ], [ -91.176344480279909, 31.969624734663995 ], [ -91.176460570663863, 31.96972060968832 ], [ -91.176578798402375, 31.969813832560888 ], [ -91.176701972745803, 31.969901442852514 ], [ -91.176832138610706, 31.969984937519925 ], [ -91.176954671385388, 31.970072908945692 ], [ -91.177075395268545, 31.970163997262123 ], [ -91.177194280765136, 31.970258562499101 ], [ -91.177320242649571, 31.970344064108584 ], [ -91.177442904162177, 31.970431896212698 ], [ -91.177567394889152, 31.970518781736374 ], [ -91.177684386569453, 31.970614155407393 ], [ -91.17780687205331, 31.970703829849089 ], [ -91.177928739779901, 31.970792794032814 ], [ -91.178054658119393, 31.970880548845244 ], [ -91.178175665698703, 31.970970727857722 ], [ -91.178294871229681, 31.971064767741581 ], [ -91.178427897918553, 31.971143321316756 ], [ -91.178551432181138, 31.971231146505708 ], [ -91.178660148341535, 31.971334711529536 ], [ -91.178790576905968, 31.971414711411093 ], [ -91.178914884232015, 31.971502311040322 ], [ -91.179040277943173, 31.971588831936405 ], [ -91.179166258410163, 31.971676090096043 ], [ -91.179285285141745, 31.971767958613313 ], [ -91.179403597446608, 31.971862881753029 ], [ -91.17952680443446, 31.971949883875254 ], [ -91.179642971133902, 31.972046361406793 ], [ -91.179766167992526, 31.972135782054099 ], [ -91.17989062186227, 31.972221620258097 ], [ -91.180015913063741, 31.972307370684891 ], [ -91.180134281761951, 31.972401249331512 ], [ -91.180252966079195, 31.972494217619179 ], [ -91.180371845707398, 31.972587460447372 ], [ -91.180487551251701, 31.972682730005594 ], [ -91.180611966996565, 31.972771289444875 ], [ -91.180740358283515, 31.972853802529546 ], [ -91.18086742296245, 31.972939293149455 ], [ -91.180990367603812, 31.973029099334607 ], [ -91.181110622431447, 31.973120901968329 ], [ -91.181230839653878, 31.973212155523633 ], [ -91.181350572132288, 31.973303247165781 ], [ -91.181477485018064, 31.973389589493951 ], [ -91.18160057092517, 31.973477140462872 ], [ -91.181721969261119, 31.973566955348929 ], [ -91.181844815459044, 31.97365645922638 ], [ -91.181964126518452, 31.973750603963946 ], [ -91.18208858308742, 31.973836275796092 ], [ -91.182216304241621, 31.973922804948991 ], [ -91.18234010495496, 31.974010734575497 ], [ -91.182453534646413, 31.974106952696069 ], [ -91.182575811382478, 31.974197420998859 ], [ -91.182703090510699, 31.974281341819875 ], [ -91.182830741483755, 31.974367128603152 ], [ -91.182950444024726, 31.974458080908079 ], [ -91.183071060608569, 31.974550264281358 ], [ -91.183189300382168, 31.974643507764362 ], [ -91.183303066518064, 31.974741152238899 ], [ -91.183419865482392, 31.974835395351946 ] ] } },
{ "type": "Feature", "properties": { "station_id": 15, "station_ft": -357.0, "width_ft": 1573.8, "flag": "ok", "lon": -91.184178, "lat": 31.971399, "survey_id": "LM_04_GGK_20240804_CS_4016_3958", "date": "2024-08-04 00:00:00+00:00", "method": "lines" }, "geometry": { "type": "LineString", "coordinates": [ [ -91.175179574558385, 31.965823626055027 ], [ -91.175307861808847, 31.965906887770746 ], [ -91.175432569930152, 31.965993801147334 ], [ -91.175566369568628, 31.966069796979816 ], [ -91.175700661136574, 31.96614669664196 ], [ -91.175835707866639, 31.966221583679381 ], [ -91.17596683627113, 31.966301554928265 ], [ -91.176099620164123, 31.966379288436251 ], [ -91.176226816860279, 31.966462968574312 ], [ -91.176352094196233, 31.966551911765364 ], [ -91.176480798588372, 31.966634867382083 ], [ -91.176612241217668, 31.966713790642316 ], [ -91.17674255934034, 31.966793272250708 ], [ -91.1768708586267, 31.966877548624261 ], [ -91.177003612816122, 31.966955446394568 ], [ -91.177134767203185, 31.967034564006884 ], [ -91.177268856512512, 31.967113689924936 ], [ -91.177405819574929, 31.967186253834996 ], [ -91.177533487397582, 31.967268335066251 ], [ -91.177662481476474, 31.967350930403807 ], [ -91.17779883110812, 31.967426905964 ], [ -91.17793065228139, 31.967504753936854 ], [ -91.178055034092537, 31.967594113493742 ], [ -91.178188109472771, 31.96767151365659 ], [ -91.17831999427807, 31.967749304878222 ], [ -91.178449861134197, 31.967831865628515 ], [ -91.17856439084207, 31.967929921646558 ], [ -91.178707941165001, 31.967996200518137 ], [ -91.17883850865951, 31.968077794846995 ], [ -91.178969049160813, 31.968156419502741 ], [ -91.179097002968234, 31.968241356005336 ], [ -91.179224623077033, 31.96832494817189 ], [ -91.179359518300444, 31.968400190405635 ], [ -91.179489214047763, 31.968481541855631 ], [ -91.179621937960675, 31.968559106953567 ], [ -91.179755182614571, 31.968637135583204 ], [ -91.179887253149744, 31.968717233475218 ], [ -91.180015059380537, 31.968799861336223 ], [ -91.180139861830597, 31.968888995940937 ], [ -91.180261802126225, 31.968978974686689 ], [ -91.180397279094279, 31.969054238964173 ], [ -91.180528857743809, 31.96913329513864 ], [ -91.180654163241726, 31.969220887349863 ], [ -91.180788887244731, 31.969294726830785 ], [ -91.1809181267555, 31.969378883606556 ], [ -91.181049913240329, 31.96945582125328 ], [ -91.181182088895909, 31.969536632209618 ], [ -91.181322533435832, 31.969604770334797 ], [ -91.18144869547568, 31.969690788644435 ], [ -91.181574976489685, 31.969775568724508 ], [ -91.181703726356233, 31.969858903682237 ], [ -91.181840763476131, 31.969931682246184 ], [ -91.18197344616334, 31.970011224608406 ], [ -91.182097168939606, 31.970098302878277 ], [ -91.182228352844177, 31.970179668560988 ], [ -91.182355912345557, 31.970263202889402 ], [ -91.182483629124633, 31.970346213876638 ], [ -91.182612694640554, 31.970428610582694 ], [ -91.182740590432488, 31.97051343367858 ], [ -91.182871336524073, 31.970592740034881 ], [ -91.183001099396293, 31.970673702274162 ], [ -91.183135065591088, 31.970752355519156 ], [ -91.183264702087811, 31.970833675451168 ], [ -91.183404259398401, 31.970903082424154 ], [ -91.183532906269306, 31.970985453017356 ], [ -91.183660676894576, 31.971070524002016 ], [ -91.183797714288261, 31.971142970333737 ], [ -91.183928325204604, 31.971224861112461 ], [ -91.18405270080514, 31.971312373139025 ], [ -91.184177845388021, 31.971399384783112 ], [ -91.18431008987065, 31.971476507979808 ], [ -91.184448340770885, 31.971547461953865 ], [ -91.184583553271025, 31.971624702035143 ], [ -91.184717591041021, 31.971700384279266 ], [ -91.184854661206714, 31.971772637135228 ], [ -91.184954622524131, 31.971891042641332 ], [ -91.185081891641431, 31.971973998936392 ], [ -91.185218553681054, 31.972047463475509 ], [ -91.185343960767455, 31.972134720177753 ], [ -91.18549333140416, 31.97219443735495 ], [ -91.185607913121686, 31.972293173655789 ], [ -91.185741913037177, 31.972368112842908 ], [ -91.18588544153809, 31.972434163523843 ], [ -91.185995293238136, 31.972540847456468 ] ] } },
{ "type": "Feature", "properties": { "station_id": 16, "station_ft": -1279.3, "width_ft": 1348.8, "flag": "ok", "lon": -91.185796, "lat": 31.968725, "survey_id": "LM_04_GGK_20240804_CS_4016_3958", "date": "2024-08-04 00:00:00+00:00", "method": "lines" }, "geometry": { "type": "LineString", "coordinates": [ [ -91.176646087153557, 31.964165891156604 ], [ -91.176755988732808, 31.964223820397926 ], [ -91.176885709405099, 31.964291210585834 ], [ -91.177035926651115, 31.96434334618392 ], [ -91.177178194744243, 31.964407573837171 ], [ -91.177316044917134, 31.964478922670065 ], [ -91.177447512994661, 31.964561006753549 ], [ -91.177582633895696, 31.964636936684556 ], [ -91.177730578325807, 31.964690763059707 ], [ -91.177873460154174, 31.964755013793731 ], [ -91.178013194494326, 31.964824177719713 ], [ -91.178148641330182, 31.964900489045739 ], [ -91.178290091071574, 31.964966782452841 ], [ -91.17843091742013, 31.965031981424037 ], [ -91.178572118567246, 31.965099155447586 ], [ -91.178707839228224, 31.965173622810365 ], [ -91.178844387623798, 31.965246848106862 ], [ -91.17898246618077, 31.965318138561223 ], [ -91.179120255363088, 31.965389458746969 ], [ -91.179256611570736, 31.965462766937438 ], [ -91.179393922492721, 31.965534722187659 ], [ -91.17953415265562, 31.96560140739043 ], [ -91.179680523202904, 31.965662581015096 ], [ -91.179826032648521, 31.965721314455809 ], [ -91.179962564859835, 31.965796050094948 ], [ -91.180100275783218, 31.965865830299435 ], [ -91.180239738735082, 31.96593664297836 ], [ -91.180381108075267, 31.966000872972117 ], [ -91.180514476639885, 31.966078679995 ], [ -91.180648831953874, 31.966155051794548 ], [ -91.180788079192951, 31.966223363631165 ], [ -91.180926126629529, 31.966294515059023 ], [ -91.18107122988296, 31.966357894167007 ], [ -91.18120932963086, 31.966427670547727 ], [ -91.181348355659921, 31.966496341260683 ], [ -91.181488172595436, 31.966566902173621 ], [ -91.181623487812104, 31.966638895352617 ], [ -91.181762469398322, 31.966709682487043 ], [ -91.181903391154691, 31.966777569750018 ], [ -91.18204429637774, 31.966843752512048 ], [ -91.182186947717085, 31.966906872559594 ], [ -91.182323407395074, 31.966980341730903 ], [ -91.182459934854393, 31.96705414036742 ], [ -91.182599669204876, 31.967122556942869 ], [ -91.182741207168974, 31.967190824215336 ], [ -91.182878056482323, 31.967261019246489 ], [ -91.183018204281552, 31.967328773350289 ], [ -91.183155880084229, 31.967401134141603 ], [ -91.183298843175308, 31.967466339459399 ], [ -91.183436267940252, 31.967535979909719 ], [ -91.183576239944799, 31.967605576092105 ], [ -91.183715309311125, 31.96767512315261 ], [ -91.183853575343861, 31.967744950497249 ], [ -91.18398584137698, 31.967825015746218 ], [ -91.184127161512549, 31.967890314091331 ], [ -91.184267335031009, 31.967960539424183 ], [ -91.18441330187548, 31.968019182383063 ], [ -91.184555792978202, 31.968082107803667 ], [ -91.184698126001081, 31.968148746037944 ], [ -91.184832884553799, 31.96822271806613 ], [ -91.184968694314563, 31.968298690360218 ], [ -91.185107276985107, 31.968367661962393 ], [ -91.185243684144623, 31.968442062573711 ], [ -91.185386828605161, 31.968505725763929 ], [ -91.185524807776588, 31.968575608189116 ], [ -91.185662104248905, 31.968648407942919 ], [ -91.18579579046235, 31.968724778671323 ], [ -91.185936277918046, 31.968793900690837 ], [ -91.186084375738247, 31.968849118480126 ], [ -91.186219180637579, 31.9689243259993 ], [ -91.186357807830433, 31.968994478203758 ], [ -91.18648635249518, 31.969079650290503 ], [ -91.186637442497243, 31.969134023044145 ], [ -91.186787034795302, 31.969186810355655 ], [ -91.186915985812703, 31.969270550773675 ], [ -91.187049337067606, 31.969348928066289 ], [ -91.187185645105274, 31.96942269593567 ] ] } },
{ "type": "Feature", "properties": { "station_id": 17, "station_ft": -2307.3, "width_ft": 1650.7, "flag": "ok", "lon": -91.188049, "lat": 31.966218, "survey_id": "LM_04_GGK_20240804_CS_4016_3958", "date": "2024-08-04 00:00:00+00:00", "method": "lines" }, "geometry": { "type": "LineString", "coordinates": [ [ -91.179011996803197, 31.962911526870109 ], [ -91.179155443022751, 31.962974315987257 ], [ -91.179302666351674, 31.963030454044446 ], [ -91.179451724446963, 31.963082814570811 ], [ -91.179604116963063, 31.963129627196384 ], [ -91.179761041117999, 31.963167750979199 ], [ -91.179899918457238, 31.963238512999808 ], [ -91.180048535928961, 31.963291893015864 ], [ -91.180196133271849, 31.963346599034029 ], [ -91.180344085396072, 31.963401329565887 ], [ -91.180492562460429, 31.96345341767373 ], [ -91.180641705336299, 31.963507836894014 ], [ -91.18078631948471, 31.963567647530645 ], [ -91.180933751634356, 31.963625349651696 ], [ -91.18107910261206, 31.963684604915596 ], [ -91.181224535380849, 31.963742265034039 ], [ -91.181374934744028, 31.963792991927193 ], [ -91.181526178611975, 31.963840745084905 ], [ -91.181673615069926, 31.963895367468517 ], [ -91.181821559932402, 31.963952570014722 ], [ -91.18196664907056, 31.964011303839989 ], [ -91.182116626839331, 31.964061648483241 ], [ -91.182267859458278, 31.964111654486938 ], [ -91.182416109300817, 31.964163411766112 ], [ -91.182568731662073, 31.964210247208801 ], [ -91.182714758274614, 31.964269138028289 ], [ -91.182861000767275, 31.964326982917171 ], [ -91.183006540034214, 31.964385410412831 ], [ -91.183154580336833, 31.964438789705099 ], [ -91.183304347027317, 31.96449053668087 ], [ -91.183458783705461, 31.964534747202514 ], [ -91.183608908432618, 31.964583411678895 ], [ -91.183751949496951, 31.96464707751899 ], [ -91.183894324142344, 31.964711874041654 ], [ -91.184045586683084, 31.964761465565338 ], [ -91.184196704654255, 31.964809243400566 ], [ -91.184348718502392, 31.964856300801454 ], [ -91.184488744229014, 31.964925098467187 ], [ -91.184633803706049, 31.96498726445645 ], [ -91.184778589547975, 31.965047728562361 ], [ -91.184928832381246, 31.965098480197121 ], [ -91.185082115223125, 31.965143219519941 ], [ -91.185228236602185, 31.965201502546822 ], [ -91.185375586662857, 31.965256725375706 ], [ -91.18552474564153, 31.965308830899613 ], [ -91.185672564019484, 31.965362263717239 ], [ -91.18582302960084, 31.965412628606725 ], [ -91.185972146913045, 31.965463605693316 ], [ -91.186120336678457, 31.965518822907963 ], [ -91.186265128107095, 31.965579697390915 ], [ -91.1864139710827, 31.965632298180235 ], [ -91.186567680747004, 31.965677720011357 ], [ -91.186715585880435, 31.965729996677823 ], [ -91.186861316696252, 31.965791249235643 ], [ -91.187014077468191, 31.965835136580825 ], [ -91.187160399025956, 31.96589388315207 ], [ -91.187306505776178, 31.965950432345146 ], [ -91.187458372914179, 31.965998641300608 ], [ -91.187606443910724, 31.966051355890539 ], [ -91.187761294892638, 31.966094569025159 ], [ -91.187892279861146, 31.966182417985983 ], [ -91.188049313711446, 31.966217533905422 ], [ -91.188208136838796, 31.966250851964148 ], [ -91.188344513662088, 31.966328905480122 ], [ -91.188500398781244, 31.966368784803176 ], [ -91.188640244564212, 31.966434940284852 ], [ -91.188792972794104, 31.966481959528281 ], [ -91.188937503598567, 31.966545636451361 ], [ -91.189083157302832, 31.96660523750112 ], [ -91.189234363023175, 31.966651497212929 ], [ -91.189387386191626, 31.966695572889964 ], [ -91.189527027522004, 31.966767390419868 ], [ -91.189667036846657, 31.966837116682214 ], [ -91.189800131284485, 31.966922722795385 ] ] } },
{ "type": "Feature", "properties": { "station_id": 18, "station_ft": -3383.8, "width_ft": 1538.5, "flag": "ok", "lon": -91.189402, "lat": 31.963447, "survey_id": "LM_04_GGK_20240804_CS_4016_3958", "date": "2024-08-04 00:00:00+00:00", "method": "lines" }, "geometry": { "type": "LineString", "coordinates": [ [ -91.182515546267453, 31.961546160486797 ], [ -91.18265094293163, 31.961592561000828 ], [ -91.182805071450545, 31.961635345959699 ], [ -91.182960750488817, 31.961667976601177 ], [ -91.183114818789704, 31.961711200773372 ], [ -91.183265436342282, 31.961761291824914 ], [ -91.183419055413836, 31.961801192693301 ], [ -91.18357127248143, 31.961846435267102 ], [ -91.183724627526772, 31.961889223376961 ], [ -91.183878112773357, 31.961932120450339 ], [ -91.184032194184596, 31.9619731167993 ], [ -91.184183908556548, 31.962019764340415 ], [ -91.184334554679523, 31.962065840787997 ], [ -91.184488417743893, 31.962107662311208 ], [ -91.184642204222072, 31.962151601649261 ], [ -91.184796929261225, 31.962189018805038 ], [ -91.184952257538242, 31.962225305342272 ], [ -91.185105244943841, 31.962270073744115 ], [ -91.185257955653029, 31.962312699272342 ], [ -91.185416463753427, 31.962344126499055 ], [ -91.185566763707342, 31.962394519935959 ], [ -91.185716112954552, 31.962446760204486 ], [ -91.185869205538637, 31.962488751147273 ], [ -91.186023992343621, 31.962529190204069 ], [ -91.186175587172286, 31.962573114430089 ], [ -91.186329483861499, 31.96261496143104 ], [ -91.186483099532538, 31.962657634401708 ], [ -91.186634796884007, 31.962702189565263 ], [ -91.186788203250714, 31.962746678044976 ], [ -91.186942261520116, 31.962785005184053 ], [ -91.187098487770768, 31.962820622896739 ], [ -91.187254584117497, 31.962856022145584 ], [ -91.187405608281978, 31.962904346032854 ], [ -91.187556952907727, 31.962952531406259 ], [ -91.187713093333087, 31.96298922120512 ], [ -91.187864001025389, 31.963035428738301 ], [ -91.188017996783358, 31.963077300962247 ], [ -91.188171675428705, 31.963119641377205 ], [ -91.188324168891356, 31.963162952736916 ], [ -91.188475805541273, 31.963211162091131 ], [ -91.188631057583123, 31.963245850171297 ], [ -91.188784019439481, 31.963290916378753 ], [ -91.188939017785387, 31.96332959095901 ], [ -91.189090798756979, 31.963375847046134 ], [ -91.189242913796278, 31.963420011166082 ], [ -91.189401832344174, 31.963446647321899 ], [ -91.189557383725599, 31.963485812513735 ], [ -91.189708713830015, 31.963532098852294 ], [ -91.189865561692145, 31.963568451139611 ], [ -91.190013148694007, 31.963621386279417 ], [ -91.190166037503786, 31.963668814983969 ], [ -91.190323031346239, 31.963699998251975 ], [ -91.190480995477444, 31.963731422775343 ], [ -91.190628945358569, 31.963785206966651 ], [ -91.190783064673724, 31.963826221842226 ], [ -91.190936845056171, 31.963868998281185 ], [ -91.191080560585164, 31.96393891805884 ] ] } },
{ "type": "Feature", "properties": { "station_id": 19, "station_ft": -4484.6, "width_ft": 1395.8, "flag": "ok", "lon": -91.190148, "lat": 31.960451, "survey_id": "LM_04_GGK_20240804_CS_4016_3958", "date": "2024-08-04 00:00:00+00:00", "method": "lines" }, "geometry": { "type": "LineString", "coordinates": [ [ -91.185290106829498, 31.959446227484467 ], [ -91.185455247944901, 31.959449379419098 ], [ -91.185606277285373, 31.959502406732291 ], [ -91.185756170778347, 31.959558190258974 ], [ -91.185911523125682, 31.959594090438163 ], [ -91.186069033231746, 31.959629728832081 ], [ -91.186227901719604, 31.959651751136501 ], [ -91.186387015393265, 31.959679462122502 ], [ -91.186543050180234, 31.959708924205536 ], [ -91.186699680312245, 31.959743386331958 ], [ -91.186856041990566, 31.959776831905788 ], [ -91.187010627226684, 31.959813313056561 ], [ -91.18716728964084, 31.959847911462251 ], [ -91.18732491794978, 31.959878737146681 ], [ -91.187480261479323, 31.959913563178926 ], [ -91.18764082663526, 31.959937661823027 ], [ -91.187796290009473, 31.959971470300502 ], [ -91.187955445505807, 31.959996622347454 ], [ -91.188112695675841, 31.960021401942072 ], [ -91.188269334417242, 31.960053250369548 ], [ -91.188425614462886, 31.960091697881317 ], [ -91.188580156805671, 31.960126968045728 ], [ -91.18873793596083, 31.960160044612742 ], [ -91.188895918997872, 31.960187374972051 ], [ -91.189054008611578, 31.960215693719103 ], [ -91.189207561511552, 31.960258858963133 ], [ -91.189361849121923, 31.960294431997905 ], [ -91.18951899976777, 31.960325835329243 ], [ -91.18967520132594, 31.960359141407885 ], [ -91.189831731484745, 31.960393078158308 ], [ -91.189992215631875, 31.960415249859189 ], [ -91.190147992121084, 31.960451389053908 ], [ -91.190305231657277, 31.960481828556492 ], [ -91.190460455023839, 31.960520802833774 ], [ -91.190619842629644, 31.960542981139863 ], [ -91.19078007715197, 31.960559188844563 ], [ -91.190933315319654, 31.960606587282832 ], [ -91.191084467413731, 31.960654988931914 ], [ -91.191244002833841, 31.960679144959972 ], [ -91.191401438487816, 31.960706365857192 ], [ -91.191557273062514, 31.960745114606063 ], [ -91.191707150263667, 31.960801963416021 ], [ -91.191868333554538, 31.960816046738071 ], [ -91.192022717499754, 31.960854831775496 ], [ -91.192180884409069, 31.960880892415812 ] ] } },
{ "type": "Feature", "properties": { "station_id": 20, "station_ft": -5477.6, "width_ft": 1337.6, "flag": "ok", "lon": -91.190387, "lat": 31.957463, "survey_id": "LM_04_GGK_20240804_CS_4016_3958", "date": "2024-08-04 00:00:00+00:00", "method": "lines" }, "geometry": { "type": "LineString", "coordinates": [ [ -91.187369733375604, 31.957011491168586 ], [ -91.187526928386021, 31.957044821250026 ], [ -91.187687387768435, 31.957058034653343 ], [ -91.187848214473604, 31.957072757745369 ], [ -91.188006590839279, 31.957101240975309 ], [ -91.188163242093921, 31.957135096082549 ], [ -91.188318293494532, 31.957170143162394 ], [ -91.188477533681095, 31.957194441818466 ], [ -91.188637526440843, 31.957212963510088 ], [ -91.188797055062068, 31.957237094786027 ], [ -91.188958806078872, 31.957243645996304 ], [ -91.189116627087273, 31.957274798279126 ], [ -91.189272355355001, 31.957306348651354 ], [ -91.189430871221205, 31.957335984394184 ], [ -91.189589396097702, 31.957359626334476 ], [ -91.189751153013731, 31.95736667159531 ], [ -91.189909867114622, 31.957393363640023 ], [ -91.190070185874731, 31.957412183431099 ], [ -91.190231320537436, 31.957425224015925 ], [ -91.190387394921061, 31.95746265419567 ], [ -91.190542962359785, 31.957494121117669 ], [ -91.190701129944287, 31.957524334786214 ], [ -91.190860622034123, 31.957544422616344 ], [ -91.191018463355022, 31.957574225054131 ], [ -91.191175005565526, 31.957609918688679 ], [ -91.191333943575501, 31.957629433397525 ], [ -91.191493334346248, 31.957648943944474 ], [ -91.191654652901661, 31.957664291952639 ], [ -91.191813068751699, 31.957686557455538 ], [ -91.191970602036463, 31.957721281152381 ], [ -91.192128967385798, 31.957744921886256 ], [ -91.192271309344832, 31.957765151898855 ], [ -91.192417851286436, 31.957786342635782 ] ] } },
{ "type": "Feature", "properties": { "station_id": 21, "station_ft": -6284.8, "width_ft": 1227.6, "flag": "ok", "lon": -91.19087, "lat": 31.954629, "survey_id": "LM_04_GGK_20240804_CS_4016_3958", "date": "2024-08-04 00:00:00+00:00", "method": "lines" }, "geometry": { "type": "LineString", "coordinates": [ [ -91.187689463784494, 31.954179145652702 ], [ -91.187847464175476, 31.954206065202492 ], [ -91.188006818227734, 31.954229291476597 ], [ -91.188163022150448, 31.954264028944131 ], [ -91.188321275732847, 31.954286850095155 ], [ -91.188478255554841, 31.954318200995729 ], [ -91.188641935699039, 31.954324712619819 ], [ -91.188802066429375, 31.954341308735518 ], [ -91.188956968579177, 31.954378197635144 ], [ -91.189116674959564, 31.954401145979325 ], [ -91.189276082551444, 31.95441969792325 ], [ -91.189439098632405, 31.954424041392958 ], [ -91.189598826103321, 31.954442287759562 ], [ -91.189756979583308, 31.954468159572091 ], [ -91.189913739422209, 31.954500114396286 ], [ -91.190073293964147, 31.954520560886863 ], [ -91.190233651426411, 31.954533717697515 ], [ -91.190396465119377, 31.954540617981525 ], [ -91.190553152088171, 31.954571638210794 ], [ -91.190711047879887, 31.954600918574148 ], [ -91.190869966587329, 31.954629284592858 ], [ -91.191027422424312, 31.954659803936853 ], [ -91.191191992520245, 31.954650913864622 ], [ -91.19135194183464, 31.954672125333019 ], [ -91.191507903396285, 31.954708344706081 ], [ -91.191667149876622, 31.954726756744989 ], [ -91.191825984608911, 31.954752978485285 ], [ -91.191987740324066, 31.954763897007005 ], [ -91.192145432559883, 31.954792022614701 ], [ -91.192304140309403, 31.954818326678964 ] ] } },
{ "type": "Feature", "properties": { "station_id": 22, "station_ft": -7204.2, "width_ft": 1468.5, "flag": "ok", "lon": -91.191714, "lat": 31.951751, "survey_id": "LM_04_GGK_20240804_CS_4016_3958", "date": "2024-08-04 00:00:00+00:00", "method": "lines" }, "geometry": { "type": "LineString", "coordinates": [ [ -91.188196604928109, 31.951363156609094 ], [ -91.188353327396669, 31.951402095641569 ], [ -91.188513068926028, 31.951429524856952 ], [ -91.18867445070974, 31.951428492854117 ], [ -91.188833754797557, 31.951457326051685 ], [ -91.18899151584877, 31.951483201530724 ], [ -91.189153768709772, 31.951492718041415 ], [ -91.189317708873247, 31.951486060410133 ], [ -91.189477390182319, 31.951499882034117 ], [ -91.189636166147736, 31.951516898425499 ], [ -91.189795206478749, 31.951552026948359 ], [ -91.189952243996885, 31.951576256665707 ], [ -91.19011313831831, 31.951588777886215 ], [ -91.190274287551389, 31.951597421126149 ], [ -91.190436924396963, 31.951599731405086 ], [ -91.190596903498204, 31.951614374778906 ], [ -91.19075522581889, 31.951645026660263 ], [ -91.190916555966027, 31.951662766401121 ], [ -91.191076625637862, 31.951676665450531 ], [ -91.191236315919411, 31.951691392033197 ], [ -91.191396512130339, 31.951705125690562 ], [ -91.1915560201587, 31.951724471360837 ], [ -91.191714115150347, 31.95175143961109 ], [ -91.19187239250904, 31.951780605987743 ], [ -91.192036984944735, 31.951774792658284 ], [ -91.192196694052271, 31.951781051544799 ], [ -91.192354603586068, 31.95182272725194 ], [ -91.192510302339713, 31.951862328185889 ], [ -91.192667580889236, 31.951891528281035 ], [ -91.192831547767341, 31.951891105670818 ], [ -91.192992098577619, 31.951897880014272 ], [ -91.193152945401607, 31.951908610270543 ] ] } },
{ "type": "Feature", "properties": { "station_id": 23, "station_ft": -7973.1, "width_ft": 1545.2, "flag": "ok", "lon": -91.191592, "lat": 31.948849, "survey_id": "LM_04_GGK_20240804_CS_4016_3958", "date": "2024-08-04 00:00:00+00:00", "method": "lines" }, "geometry": { "type": "LineString", "coordinates": [ [ -91.187741894347141, 31.948534232886125 ], [ -91.187901720872944, 31.948557347116729 ], [ -91.188059859471196, 31.948582753230927 ], [ -91.188221883074576, 31.94858897454899 ], [ -91.18838011115831, 31.94860998144312 ], [ -91.188541937010825, 31.948619282525602 ], [ -91.188703731063939, 31.948614646760241 ], [ -91.18886631471004, 31.948618746891071 ], [ -91.189025030385309, 31.94864018978625 ], [ -91.189181628332378, 31.948687154969011 ], [ -91.189340613054028, 31.948713296884808 ], [ -91.189504436490552, 31.948698008450958 ], [ -91.189665991257698, 31.94870588052763 ], [ -91.189824835106265, 31.948723775566037 ], [ -91.189985973304701, 31.948735305154187 ], [ -91.190145931043006, 31.948748189833946 ], [ -91.190306753332706, 31.948753481396491 ], [ -91.190467377607973, 31.948772188785508 ], [ -91.190627611754778, 31.948783503613768 ], [ -91.190785650147092, 31.948815312681088 ], [ -91.190948451118317, 31.948814982500618 ], [ -91.191109887640295, 31.948823869895026 ], [ -91.191270161131342, 31.948832572852321 ], [ -91.191430758713935, 31.948844847361386 ], [ -91.191592243263869, 31.948848538385477 ], [ -91.191754515082508, 31.948850218216393 ], [ -91.191909662645614, 31.948896969772758 ], [ -91.192070054907646, 31.948925242385361 ], [ -91.192231962680282, 31.948912107935051 ], [ -91.192393054510447, 31.948932458258845 ], [ -91.192551252255299, 31.948953571066653 ], [ -91.192714284862475, 31.948953787166747 ], [ -91.192875722529152, 31.948955827429664 ], [ -91.193034820506455, 31.948983640433116 ], [ -91.193196180385698, 31.94899469728918 ], [ -91.19335552068506, 31.949013876853893 ], [ -91.193517970688688, 31.949013875820629 ] ] } },
{ "type": "Feature", "properties": { "station_id": 24, "station_ft": -8897.0, "width_ft": 1642.0, "flag": "ok", "lon": -91.191903, "lat": 31.945956, "survey_id": "LM_04_GGK_20240804_CS_4016_3958", "date": "2024-08-04 00:00:00+00:00", "method": "lines" }, "geometry": { "type": "LineString", "coordinates": [ [ -91.188080399415014, 31.94569661727245 ], [ -91.188221805605991, 31.945704928076623 ], [ -91.188381581168386, 31.94570923987871 ], [ -91.188528664594699, 31.945714435073867 ], [ -91.18868860353119, 31.945729300392784 ], [ -91.1888509196407, 31.945729389263519 ], [ -91.189011311391369, 31.945740952234914 ], [ -91.189171896640985, 31.945759579527031 ], [ -91.189331667344476, 31.945773620896187 ], [ -91.189492971847443, 31.945772395487072 ], [ -91.189653078526646, 31.945798364476993 ], [ -91.18981331543533, 31.945821032594583 ], [ -91.189973701277609, 31.945825091172786 ], [ -91.190136218566536, 31.945815501322276 ], [ -91.190298231037332, 31.945827986925277 ], [ -91.190456709484735, 31.945848742495045 ], [ -91.1906169554766, 31.945875890719819 ], [ -91.190775941681181, 31.945888781222227 ], [ -91.190937095866531, 31.945895609221704 ], [ -91.1910990580663, 31.945899243594699 ], [ -91.191259913327031, 31.945915556831242 ], [ -91.19141872739641, 31.945941091324677 ], [ -91.19157996147122, 31.94595308634543 ], [ -91.19174105001639, 31.945959776688181 ], [ -91.191903198050113, 31.945955629605827 ], [ -91.19206246075899, 31.945967059269464 ], [ -91.192224669594822, 31.945976270148797 ], [ -91.19238187776898, 31.946009456388179 ], [ -91.192541241854116, 31.946042105685731 ], [ -91.192700929690687, 31.94605771074162 ], [ -91.192862610847385, 31.946062251100262 ], [ -91.193023730888385, 31.946058438710875 ], [ -91.193185584600243, 31.946067650763769 ], [ -91.193346046484265, 31.946079703776693 ], [ -91.193503734697671, 31.946105436268112 ], [ -91.193664498717197, 31.946115397294847 ], [ -91.193825086511296, 31.946140944706102 ], [ -91.193986386444919, 31.946149500251693 ], [ -91.194144609389653, 31.946170390011559 ], [ -91.194305027879452, 31.946191595658409 ], [ -91.194466795354828, 31.946181207228637 ], [ -91.194629047091652, 31.94618112410523 ] ] } },
{ "type": "Feature", "properties": { "station_id": 25, "station_ft": -9891.9, "width_ft": 1779.0, "flag": "ok", "lon": -91.192651, "lat": 31.943065, "survey_id": "LM_04_GGK_20240804_CS_4016_3958", "date": "2024-08-04 00:00:00+00:00", "method": "lines" }, "geometry": { "type": "LineString", "coordinates": [ [ -91.188802046736768, 31.94274404782276 ], [ -91.188963877489726, 31.942741061029956 ], [ -91.189122796588848, 31.942761238194919 ], [ -91.189282871986464, 31.942777449238633 ], [ -91.189442518032408, 31.942796054625038 ], [ -91.189602670755164, 31.942813749153576 ], [ -91.189762909103223, 31.942830178537637 ], [ -91.189923037090011, 31.942841660127289 ], [ -91.190084011929812, 31.942860969989979 ], [ -91.190245418018975, 31.94286087118153 ], [ -91.190406146089046, 31.942874436747363 ], [ -91.190566187884443, 31.942880036377339 ], [ -91.190726258026586, 31.942906113443719 ], [ -91.190888726908156, 31.94290235062677 ], [ -91.191049516283769, 31.942915667861115 ], [ -91.191207262816732, 31.942937966920226 ], [ -91.191368006468508, 31.942953181506851 ], [ -91.191528915132295, 31.942961907017462 ], [ -91.191689509660804, 31.942974950599886 ], [ -91.191851080656036, 31.942982104748047 ], [ -91.192008451814871, 31.943012569601912 ], [ -91.192169918381666, 31.943025770811339 ], [ -91.19233102940693, 31.943038948066775 ], [ -91.192489487128924, 31.943054423792773 ], [ -91.192650542460754, 31.943065016377407 ], [ -91.192811280129447, 31.943076133066036 ], [ -91.192973362069907, 31.94308270515463 ], [ -91.193134965292799, 31.943089884502413 ], [ -91.193296718316304, 31.943081917319599 ], [ -91.193457570028968, 31.943101746786532 ], [ -91.193614008032881, 31.943139252028875 ], [ -91.193773864055231, 31.94315254507179 ], [ -91.193936041176855, 31.94316590515157 ], [ -91.1940966247342, 31.943170781501802 ], [ -91.194258297780166, 31.943174990124277 ], [ -91.19441880010524, 31.943191906929858 ], [ -91.194580692469202, 31.943188555429497 ], [ -91.194737937340861, 31.943219071851839 ], [ -91.194901220922731, 31.943223131651951 ], [ -91.195062227043351, 31.943231907927704 ], [ -91.195217441823814, 31.943272883407566 ], [ -91.195379696179373, 31.943277141665714 ], [ -91.195543029389654, 31.943265889961612 ], [ -91.195702396750036, 31.943292378539276 ], [ -91.195847474126722, 31.943324817740081 ] ] } },
{ "type": "Feature", "properties": { "station_id": 26, "station_ft": -10827.7, "width_ft": 2084.7, "flag": "ok", "lon": -91.19536, "lat": 31.94038, "survey_id": "LM_04_GGK_20240804_CS_4016_3958", "date": "2024-08-04 00:00:00+00:00", "method": "lines" }, "geometry": { "type": "LineString", "coordinates": [ [ -91.189581170566896, 31.939914589663911 ], [ -91.189745171654479, 31.939899272813253 ], [ -91.189903249043269, 31.939930009748323 ], [ -91.19006288246716, 31.939958262270387 ], [ -91.1902245099254, 31.939954643111083 ], [ -91.190386639749917, 31.939953191961116 ], [ -91.190546980604992, 31.939974237089 ], [ -91.190708684363784, 31.939978836070946 ], [ -91.190868145360042, 31.93999543349862 ], [ -91.191028150497104, 31.940008097780211 ], [ -91.191187601319882, 31.940027004458994 ], [ -91.191349061092453, 31.940036633773911 ], [ -91.191508995344407, 31.940055426758487 ], [ -91.19167057774419, 31.940067886578767 ], [ -91.191830572345225, 31.940079393772642 ], [ -91.191990310457754, 31.940094477349518 ], [ -91.192149648170712, 31.940115060081361 ], [ -91.19231063561638, 31.940125845705982 ], [ -91.192472555783269, 31.940122523815834 ], [ -91.19263537693125, 31.940126013451291 ], [ -91.192794107931135, 31.940140249698533 ], [ -91.192954765991288, 31.940157221478099 ], [ -91.19311345304493, 31.940183993046443 ], [ -91.193274573298012, 31.94019516162815 ], [ -91.193434777150543, 31.940211833761047 ], [ -91.193595313081175, 31.94022600176806 ], [ -91.19375693436109, 31.940225209893548 ], [ -91.193916388842936, 31.940240896285996 ], [ -91.19407722281089, 31.940252533836112 ], [ -91.194238280605177, 31.940267302618505 ], [ -91.194398247704555, 31.940286228807732 ], [ -91.194557870030891, 31.940299138326552 ], [ -91.19471813165292, 31.940318447195029 ], [ -91.194879622895257, 31.940327961773814 ], [ -91.195040136898129, 31.940339737349674 ], [ -91.195198554485799, 31.940354879948917 ], [ -91.195359707281085, 31.940379789528524 ], [ -91.195520673981633, 31.940391781468605 ], [ -91.195679637981101, 31.940406754721405 ], [ -91.195840796479061, 31.94040813403527 ], [ -91.196002572225595, 31.94042033991472 ], [ -91.196162702518734, 31.940432445841914 ], [ -91.196323466610153, 31.940443447930658 ], [ -91.196484229482977, 31.940454202722602 ], [ -91.19664472778588, 31.940460863003345 ] ] } },
{ "type": "Feature", "properties": { "station_id": 27, "station_ft": -11833.2, "width_ft": 2293.5, "flag": "ok", "lon": -91.1967, "lat": 31.937493, "survey_id": "LM_04_GGK_20240804_CS_4016_3958", "date": "2024-08-04 00:00:00+00:00", "method": "lines" }, "geometry": { "type": "LineString", "coordinates": [ [ -91.190287900250652, 31.936920219806467 ], [ -91.190449197577436, 31.93692330955211 ], [ -91.190609215321345, 31.936941443937773 ], [ -91.190767625162678, 31.936966817141741 ], [ -91.190930120268263, 31.936970420348484 ], [ -91.191089985165306, 31.936985971416139 ], [ -91.191248513310143, 31.93700675380741 ], [ -91.191410648617733, 31.937020226649064 ], [ -91.191570140446473, 31.937037153117398 ], [ -91.191730909110333, 31.937042279332278 ], [ -91.191892353477897, 31.937050808789873 ], [ -91.192051170329364, 31.93707485916001 ], [ -91.192210205602507, 31.937098165647701 ], [ -91.192370410613592, 31.937112035395263 ], [ -91.192531844144369, 31.937119381812423 ], [ -91.192694217952393, 31.937120372781951 ], [ -91.192852836251575, 31.937140327379392 ], [ -91.193013611677131, 31.937160130098619 ], [ -91.193174665705953, 31.937171683496668 ], [ -91.193333386073974, 31.937188723891406 ], [ -91.193494250760736, 31.937200718257955 ], [ -91.193655458487498, 31.937211501645095 ], [ -91.193814323084524, 31.937226753033993 ], [ -91.193975113214819, 31.937247983831575 ], [ -91.19413343680813, 31.937267471672996 ], [ -91.194295686950056, 31.93726901064381 ], [ -91.194457528853988, 31.937275197498025 ], [ -91.194617060789341, 31.937292807951557 ], [ -91.194776895696435, 31.937318743640667 ], [ -91.194935898917407, 31.937338500926337 ], [ -91.195095646541148, 31.937355064994723 ], [ -91.195257792947913, 31.937359297202047 ], [ -91.19541689966556, 31.937386612313503 ], [ -91.195576885766414, 31.9373942667888 ], [ -91.195736435796263, 31.937413772255017 ], [ -91.195898388533578, 31.937417977001179 ], [ -91.196059266974245, 31.937431370360695 ], [ -91.196217149337514, 31.93745528476979 ], [ -91.196378022618589, 31.93746471963124 ], [ -91.196538698555031, 31.937480532463237 ], [ -91.196699790634241, 31.937492549169352 ], [ -91.196858196208026, 31.937517310548078 ], [ -91.197018714514073, 31.937536944891978 ], [ -91.197177803726035, 31.937555406454589 ], [ -91.197338988123107, 31.937566982528644 ], [ -91.197499199144048, 31.937574440956837 ], [ -91.197659996955409, 31.937589564342566 ], [ -91.197823845711852, 31.937575859635448 ], [ -91.197980956974931, 31.937620584990455 ] ] } },
{ "type": "Feature", "properties": { "station_id": 28, "station_ft": -12720.5, "width_ft": 2548.1, "flag": "ok", "lon": -91.197741, "lat": 31.934803, "survey_id": "LM_04_GGK_20240804_CS_4016_3958", "date": "2024-08-04 00:00:00+00:00", "method": "lines" }, "geometry": { "type": "LineString", "coordinates": [ [ -91.190381604415094, 31.934057746330396 ], [ -91.190539789010799, 31.934069873517945 ], [ -91.190703317984202, 31.934081276335561 ], [ -91.190862466476673, 31.934089575559298 ], [ -91.191020865241057, 31.934117808288214 ], [ -91.191181345771327, 31.93413060546316 ], [ -91.191342064385324, 31.934131004269993 ], [ -91.191502683084977, 31.934148308353244 ], [ -91.191662301018269, 31.934165454862605 ], [ -91.191821662125037, 31.934189666039405 ], [ -91.1919801663188, 31.934215313110645 ], [ -91.192139945938933, 31.934232539990681 ], [ -91.192300785666461, 31.93424241950542 ], [ -91.192460708997089, 31.934261101464106 ], [ -91.192620012669551, 31.934279100218475 ], [ -91.192780222042515, 31.934293959686499 ], [ -91.192941464271314, 31.934309004051315 ], [ -91.193101491247461, 31.934321526804265 ], [ -91.193262613254902, 31.934337505869642 ], [ -91.193420987268667, 31.934356032971362 ], [ -91.193581516047303, 31.934367122319369 ], [ -91.193741353541213, 31.934386985539945 ], [ -91.193902465292851, 31.9344017274517 ], [ -91.194063842205509, 31.93441041969108 ], [ -91.194223712764639, 31.934420083285719 ], [ -91.194381181352057, 31.934452056193354 ], [ -91.194540353669254, 31.934476651207113 ], [ -91.194700948866796, 31.934491312636695 ], [ -91.194862950783062, 31.934497828013374 ], [ -91.195022079400431, 31.934514203441825 ], [ -91.195181914379177, 31.934537252827354 ], [ -91.195341069325721, 31.934559949501576 ], [ -91.195502198184073, 31.934562758957352 ], [ -91.195662057350091, 31.934581355239342 ], [ -91.195823381290566, 31.934594745932458 ], [ -91.195981983431949, 31.934620277299054 ], [ -91.196139601842447, 31.934650982632267 ], [ -91.196300593098627, 31.93465964668481 ], [ -91.196461553149362, 31.934668476681576 ], [ -91.196622561385269, 31.934679064713919 ], [ -91.196780933711111, 31.934704183602449 ], [ -91.196940590061971, 31.934721735329358 ], [ -91.19710315962304, 31.934726924605524 ], [ -91.197264781697754, 31.934734153743481 ], [ -91.197422927627571, 31.934762627271564 ], [ -91.197582429073293, 31.934780893491567 ], [ -91.197741447485768, 31.934802570810959 ], [ -91.197903755252511, 31.934810729663866 ], [ -91.19806322075722, 31.934818248422857 ], [ -91.198223406123574, 31.934837250482474 ], [ -91.198384264283519, 31.934852428510016 ], [ -91.198543553164384, 31.934872014342687 ], [ -91.198701281776437, 31.934897080199637 ], [ -91.198861229727612, 31.934918255575596 ], [ -91.19902063671276, 31.934936767727535 ], [ -91.199164442949495, 31.934941505075791 ] ] } },
{ "type": "Feature", "properties": { "station_id": 29, "station_ft": -13597.3, "width_ft": 2929.1, "flag": "ok", "lon": -91.199086, "lat": 31.932113, "survey_id": "LM_04_GGK_20240804_CS_4016_3958", "date": "2024-08-04 00:00:00+00:00", "method": "lines" }, "geometry": { "type": "LineString", "coordinates": [ [ -91.19045939214719, 31.931137297492448 ], [ -91.190620554870691, 31.931144292064157 ], [ -91.190779697821085, 31.931159490490895 ], [ -91.190937965704308, 31.931191599439479 ], [ -91.191096599496916, 31.93121436004871 ], [ -91.191257355101669, 31.931233065926762 ], [ -91.191417943079927, 31.931240777615731 ], [ -91.191578497611644, 31.931258659269481 ], [ -91.191735369457106, 31.931289567297124 ], [ -91.19189617937954, 31.931303736691213 ], [ -91.192057697119822, 31.931314299185093 ], [ -91.192220303658246, 31.93131366690476 ], [ -91.19237897835761, 31.931337360827438 ], [ -91.192535029465176, 31.931370032884381 ], [ -91.19269406443037, 31.93139776417414 ], [ -91.19285327669472, 31.931413399617497 ], [ -91.193015135902826, 31.931425966053745 ], [ -91.193176483244869, 31.931432047981236 ], [ -91.193337227044822, 31.931449403962635 ], [ -91.193493810529588, 31.931480366771353 ], [ -91.193650655433359, 31.931518722622855 ], [ -91.193808480532184, 31.931551491113449 ], [ -91.193971357977659, 31.931552201183745 ], [ -91.194132247430105, 31.931557460723464 ], [ -91.194292208556888, 31.931570450526731 ], [ -91.194451868300717, 31.931588994739272 ], [ -91.194613782258088, 31.931603977469027 ], [ -91.194773315348229, 31.931619360318521 ], [ -91.194932072507925, 31.931641456042431 ], [ -91.195090770390166, 31.93166399116031 ], [ -91.195251181401375, 31.931683683609567 ], [ -91.19540974888686, 31.931706055078863 ], [ -91.195570574599685, 31.93172178527475 ], [ -91.195730147963644, 31.931738046830642 ], [ -91.195890004475558, 31.93175348199 ], [ -91.1960508820884, 31.931771355774814 ], [ -91.196209456709099, 31.931791059481963 ], [ -91.196370382586579, 31.931800164040631 ], [ -91.196529930740198, 31.931820602937414 ], [ -91.196690502433299, 31.931836609396662 ], [ -91.196849431260844, 31.931856281937449 ], [ -91.197010559254593, 31.931873300570853 ], [ -91.197167967954286, 31.931895732726904 ], [ -91.197328761087974, 31.931907915817536 ], [ -91.197489048967682, 31.931931536441009 ], [ -91.197647544073547, 31.931953080422907 ], [ -91.197808156622827, 31.931970019481529 ], [ -91.197968516110947, 31.931977202261667 ], [ -91.19812826757439, 31.932002008025222 ], [ -91.198285273077317, 31.932029554008015 ], [ -91.198445934886877, 31.93204495249844 ], [ -91.19860660475446, 31.932061092935857 ], [ -91.198768662735247, 31.932063754886258 ], [ -91.198927218149194, 31.932088182708533 ], [ -91.199086003025926, 31.932112938837438 ], [ -91.199246549254113, 31.932129629421258 ], [ -91.199403799521349, 31.932162696953608 ], [ -91.199563252655736, 31.932183132671931 ], [ -91.199711101814998, 31.932213818173427 ], [ -91.199876239143222, 31.932214862366429 ], [ -91.200031052901991, 31.932245747079996 ], [ -91.200180534144224, 31.932292446404109 ] ] } }
]
}
