{
"type": "FeatureCollection",
"name": "LM_07_FMB_20250619_CS_4694_4676_transects",
"crs": { "type": "name", "properties": { "name": "urn:ogc:def:crs:OGC:1.3:CRS84" } },
"features": [
{ "type": "Feature", "properties": { "station_id": 0, "station_ft": -4989.4, "width_ft": 1792.0, "flag": "ok", "lon": -91.156217, "lat": 32.626587, "survey_id": "LM_07_FMB_20250619_CS_4694_4676", "date": "2025-06-19 00:00:00+00:00", "method": "lines" }, "geometry": { "type": "LineString", "coordinates": [ [ -91.137732533733697, 32.626352558102347 ], [ -91.1378681893097, 32.626358642333237 ], [ -91.138031242365798, 32.626352100545581 ], [ -91.138193888980894, 32.626336463512281 ], [ -91.138356367625249, 32.626327423562238 ], [ -91.138518257458585, 32.626347000239754 ], [ -91.138680406597018, 32.62636649118307 ], [ -91.138842862583999, 32.626362178563099 ], [ -91.139006037373221, 32.62635115489288 ], [ -91.139168194869299, 32.626335299712956 ], [ -91.139331033924094, 32.6263049003202 ], [ -91.139494486563876, 32.626303136889327 ], [ -91.139655472211729, 32.626341406430036 ], [ -91.139817195402728, 32.626378489748731 ], [ -91.139980205335632, 32.626381648411687 ], [ -91.140142133131846, 32.626376430355116 ], [ -91.140304167356092, 32.626379511906492 ], [ -91.140466552431434, 32.626392594877451 ], [ -91.140629017990861, 32.626403836672765 ], [ -91.140791055073876, 32.626399991325584 ], [ -91.140954083425683, 32.626387041757411 ], [ -91.141117068937291, 32.626369447400158 ], [ -91.141279576319732, 32.626352845114987 ], [ -91.141441582169719, 32.62637079504298 ], [ -91.141603206761928, 32.626404056023524 ], [ -91.141764766685824, 32.626415769277259 ], [ -91.141927892848088, 32.626410156160475 ], [ -91.142090636177457, 32.626405343335811 ], [ -91.142253049689202, 32.626396325816927 ], [ -91.14241557186331, 32.626392283178653 ], [ -91.142577579549169, 32.626399512665984 ], [ -91.142740967316698, 32.626383314911848 ], [ -91.142903526189329, 32.626358025556534 ], [ -91.143065989932069, 32.626369043281862 ], [ -91.143226791897717, 32.626404726834238 ], [ -91.143389233983129, 32.626424209795644 ], [ -91.143551657409361, 32.626423519887112 ], [ -91.143714685127648, 32.626421422764352 ], [ -91.143876461934767, 32.626428322027998 ], [ -91.144039544487342, 32.626428643492225 ], [ -91.144200910582043, 32.626422489628027 ], [ -91.144363540180009, 32.626419377975118 ], [ -91.14452565032768, 32.626438064471152 ], [ -91.144687277071156, 32.626467886735824 ], [ -91.144849549430091, 32.626472060097306 ], [ -91.145012686049995, 32.626435275240304 ], [ -91.145175635597937, 32.626428064774288 ], [ -91.145337738297471, 32.626456645938347 ], [ -91.145499787110666, 32.626457659314056 ], [ -91.145662517846233, 32.626462322812117 ], [ -91.145824442398066, 32.626485434557026 ], [ -91.145987110111108, 32.626483117689965 ], [ -91.14615031414111, 32.626439459681407 ], [ -91.146312670942194, 32.626417025736494 ], [ -91.146474929777199, 32.626430431780229 ], [ -91.146637082562179, 32.626450133331204 ], [ -91.146798829507688, 32.626457358154013 ], [ -91.146961945655605, 32.626465041898314 ], [ -91.147123823870544, 32.626457918806182 ], [ -91.14728715245225, 32.626449631880078 ], [ -91.147449096785948, 32.62644981832689 ], [ -91.14761119653032, 32.62646363692712 ], [ -91.147773419677932, 32.626455191519092 ], [ -91.147936931943505, 32.626452838694981 ], [ -91.148098635882306, 32.62647682902832 ], [ -91.148261149040522, 32.626482397716082 ], [ -91.148423451864474, 32.626482746498617 ], [ -91.148585751228339, 32.626489883373324 ], [ -91.148747742275575, 32.626491690066622 ], [ -91.14891069967274, 32.626474799962764 ], [ -91.14907283028127, 32.626474021852651 ], [ -91.149234582719359, 32.62650320441184 ], [ -91.149396788077709, 32.626525100485289 ], [ -91.149559069757885, 32.626508791043783 ], [ -91.149722043435105, 32.626500751235966 ], [ -91.149884755811186, 32.626496092627519 ], [ -91.150046502188218, 32.626492429297102 ], [ -91.150209279531808, 32.626505718025058 ], [ -91.150371614985872, 32.626516810079458 ], [ -91.150533613866372, 32.626512320290466 ], [ -91.150695621673648, 32.626515965708016 ], [ -91.150858423637047, 32.626535464598767 ], [ -91.151020166006504, 32.626538507161136 ], [ -91.151183434034806, 32.626541401612478 ], [ -91.151345661814787, 32.626533610730142 ], [ -91.151508675541422, 32.626515700633298 ], [ -91.151670720520613, 32.626491227483385 ], [ -91.151832889848862, 32.626509107006711 ], [ -91.151995424096967, 32.626509944715949 ], [ -91.152157914849241, 32.626505888771064 ], [ -91.152320620887849, 32.626514942469285 ], [ -91.152482740940584, 32.626516633488741 ], [ -91.152644586929185, 32.626527423712233 ], [ -91.15280790478613, 32.626521520182344 ], [ -91.152970169990482, 32.62651774058974 ], [ -91.153131644266693, 32.626541284975978 ], [ -91.153293522441729, 32.626555592729353 ], [ -91.153456376610777, 32.62657374070902 ], [ -91.153618601877596, 32.626569081345018 ], [ -91.153780898747044, 32.626561643953877 ], [ -91.153943869869963, 32.626549860083507 ], [ -91.154106358127052, 32.626549155192833 ], [ -91.154268776613165, 32.626547928442328 ], [ -91.154430676368918, 32.626553961150464 ], [ -91.15459316198573, 32.626570818776095 ], [ -91.154755393617236, 32.626591828546978 ], [ -91.154917296020216, 32.626605253949535 ], [ -91.155078877305641, 32.626618983326068 ], [ -91.155242538865707, 32.62661524576194 ], [ -91.155404694939961, 32.626592416350121 ], [ -91.155566813592429, 32.626593938376352 ], [ -91.155730029752931, 32.626576928626896 ], [ -91.155892301183428, 32.626556131247845 ], [ -91.15605458550975, 32.626572274122395 ], [ -91.156217186378811, 32.626587369599378 ], [ -91.156379551322374, 32.626594495960859 ], [ -91.156541655817577, 32.626594587568185 ], [ -91.156703665164613, 32.62659825317251 ], [ -91.156866522128425, 32.626602434212444 ], [ -91.157028436779214, 32.626599365849216 ], [ -91.157191771750348, 32.626584771880182 ], [ -91.157353722090889, 32.626582114957294 ], [ -91.1575163110045, 32.626603090855632 ], [ -91.157678966261329, 32.626606420925789 ], [ -91.157840612036622, 32.626595299871148 ], [ -91.158002358674452, 32.626620046320951 ], [ -91.15816431354439, 32.626653311701993 ], [ -91.15832687916766, 32.626682285103108 ], [ -91.158488859485189, 32.626668714604342 ] ] } },
{ "type": "Feature", "properties": { "station_id": 1, "station_ft": -4106.4, "width_ft": 1681.7, "flag": "ok", "lon": -91.156029, "lat": 32.629675, "survey_id": "LM_07_FMB_20250619_CS_4694_4676", "date": "2025-06-19 00:00:00+00:00", "method": "lines" }, "geometry": { "type": "LineString", "coordinates": [ [ -91.137056741555, 32.627486960257968 ], [ -91.137220575764758, 32.627487697845808 ], [ -91.137381808472739, 32.62750615210031 ], [ -91.137540717908237, 32.627537320207701 ], [ -91.137703542046708, 32.627544851919531 ], [ -91.137866391377571, 32.627544358689249 ], [ -91.138025557587852, 32.627578712180252 ], [ -91.138186797725908, 32.627594389799562 ], [ -91.138344911198999, 32.627627182410073 ], [ -91.138503162580164, 32.627660964044466 ], [ -91.13866494061206, 32.627675043325077 ], [ -91.138825424750195, 32.627700509731135 ], [ -91.138985117708714, 32.627728289457082 ], [ -91.13915472041532, 32.627731158890938 ], [ -91.139314581416457, 32.627755913589795 ], [ -91.139470672325658, 32.627766043552008 ], [ -91.139628382807061, 32.627804554144802 ], [ -91.139787665478508, 32.627826343430307 ], [ -91.139949265011865, 32.627845892140407 ], [ -91.140110412730962, 32.627865552655024 ], [ -91.140271346113394, 32.627879608234075 ], [ -91.140432952936422, 32.627892587111184 ], [ -91.140595602269443, 32.627898714886115 ], [ -91.140756999516384, 32.627917301699476 ], [ -91.14091900312043, 32.627931019528496 ], [ -91.141080819787931, 32.627942071911392 ], [ -91.141244715623699, 32.627942226730802 ], [ -91.141405201245718, 32.627964171235782 ], [ -91.141563419946962, 32.627994128541332 ], [ -91.141721509314863, 32.628031260705612 ], [ -91.141881706538527, 32.628057247142586 ], [ -91.142045236048389, 32.628060013804877 ], [ -91.142207122929221, 32.628075159973314 ], [ -91.142364357421698, 32.628114825303498 ], [ -91.142526990108749, 32.62812259995664 ], [ -91.142690845532414, 32.628121901003226 ], [ -91.142847927743574, 32.628162610918594 ], [ -91.143004477638982, 32.628209040183776 ], [ -91.143165206296089, 32.628229002449757 ], [ -91.143327953779263, 32.628238726682575 ], [ -91.143495044830047, 32.628251062065509 ], [ -91.143653764832621, 32.628282359783938 ], [ -91.143807423185692, 32.628314240031123 ], [ -91.144751680407666, 32.628407555608604 ], [ -91.144912574270393, 32.628427678678513 ], [ -91.145078057039299, 32.628420094846334 ], [ -91.145234378940415, 32.628470014315418 ], [ -91.145397229969888, 32.628476739617682 ], [ -91.145553544525129, 32.628522040936296 ], [ -91.145715796330563, 32.628534376703591 ], [ -91.146527802989723, 32.628631639119348 ], [ -91.146687871547229, 32.628657510219192 ], [ -91.146851388240719, 32.628658732328155 ], [ -91.147013081214013, 32.628666617256293 ], [ -91.147175902881457, 32.628673697524668 ], [ -91.147337566484723, 32.628685512897441 ], [ -91.14749983270832, 32.628699384623843 ], [ -91.147660686290592, 32.628722116754005 ], [ -91.147818011096035, 32.628757018868704 ], [ -91.147977376243972, 32.62879116631963 ], [ -91.148136884445449, 32.628812394351954 ], [ -91.148299281495724, 32.628826319198474 ], [ -91.148460369814188, 32.62884621732136 ], [ -91.148621156265321, 32.628861609412979 ], [ -91.148786138111632, 32.628856085312279 ], [ -91.148951850061565, 32.628845059263234 ], [ -91.149110707406507, 32.628873326536983 ], [ -91.149268864275953, 32.628906710107763 ], [ -91.149429298554509, 32.628933290399942 ], [ -91.149590351035059, 32.628949311635608 ], [ -91.149751118089128, 32.628966048695595 ], [ -91.149912066789767, 32.628992102917771 ], [ -91.150071162020126, 32.629014237415348 ], [ -91.150233901421586, 32.629026482098439 ], [ -91.150396713728213, 32.62902880338256 ], [ -91.150557140335906, 32.629050846540942 ], [ -91.15071954187718, 32.629065181214706 ], [ -91.150880339586365, 32.629078096867381 ], [ -91.151042093015263, 32.62908899972529 ], [ -91.151200156928624, 32.629126339179798 ], [ -91.151358894205799, 32.629159084206648 ], [ -91.151519672402486, 32.629180601733964 ], [ -91.151680707181271, 32.629198104653675 ], [ -91.15184238819829, 32.629211672483038 ], [ -91.152002393424155, 32.629237455134778 ], [ -91.152161487373505, 32.629266486169506 ], [ -91.152323528870198, 32.629283926690825 ], [ -91.152485168243189, 32.629293014133516 ], [ -91.152648179626354, 32.629299234811789 ], [ -91.152812632736513, 32.629296209380371 ], [ -91.152973366243586, 32.629316269026816 ], [ -91.153134191225419, 32.629332095117775 ], [ -91.153297476167921, 32.629339906534369 ], [ -91.153458341982571, 32.62935669409535 ], [ -91.15361720565474, 32.629388912421042 ], [ -91.153772513817771, 32.629437288548353 ], [ -91.153934213157612, 32.62945640554814 ], [ -91.154099909213002, 32.62944721505167 ], [ -91.154260673507494, 32.629466969859429 ], [ -91.154422854925755, 32.629471296401618 ], [ -91.154584069909433, 32.629494181381119 ], [ -91.154744193764671, 32.629511467195144 ], [ -91.154904922801236, 32.629538065585393 ], [ -91.155068282011044, 32.629539607139435 ], [ -91.155231891675328, 32.629536722020923 ], [ -91.155391474716353, 32.62956942933765 ], [ -91.155547955803925, 32.629607378717623 ], [ -91.155706429363036, 32.629650178817322 ], [ -91.155866352069339, 32.629673730678 ], [ -91.15602873501804, 32.629675113258877 ], [ -91.156191242994012, 32.6296866636904 ], [ -91.15635215423643, 32.62970468351395 ], [ -91.156513948544415, 32.629723357412246 ], [ -91.156674340918045, 32.629741490234935 ], [ -91.156835395373122, 32.629761047761718 ], [ -91.156998963568739, 32.629764070588031 ], [ -91.157158983979755, 32.62978415658683 ], [ -91.157318490273909, 32.629808368492441 ], [ -91.157479540460443, 32.629830920785629 ], [ -91.157639818851806, 32.629854248020706 ], [ -91.157797961519677, 32.629889050139589 ], [ -91.157955992366951, 32.629918850862232 ], [ -91.158119071854216, 32.629928855774324 ], [ -91.158284643581482, 32.629923728298799 ], [ -91.158447070077457, 32.629929807308876 ], [ -91.158608097758332, 32.629946256249305 ], [ -91.158767223352996, 32.629974894529511 ], [ -91.158925065020526, 32.630008762100211 ], [ -91.159086566641292, 32.630030843157996 ], [ -91.159247261687582, 32.630042951604416 ], [ -91.159412056252521, 32.630045083119803 ], [ -91.159570769628175, 32.630074739345261 ], [ -91.159730046150941, 32.63009504697353 ], [ -91.159893488248244, 32.630109087867226 ], [ -91.160055062307705, 32.630114318263409 ], [ -91.16021571822985, 32.630139756085754 ], [ -91.160377900330985, 32.630154546773333 ], [ -91.160540602764385, 32.630155234281908 ], [ -91.160702790339144, 32.630174201353022 ] ] } },
{ "type": "Feature", "properties": { "station_id": 2, "station_ft": -3118.9, "width_ft": 1129.0, "flag": "ok", "lon": -91.155359, "lat": 32.63282, "survey_id": "LM_07_FMB_20250619_CS_4694_4676", "date": "2025-06-19 00:00:00+00:00", "method": "lines" }, "geometry": { "type": "LineString", "coordinates": [ [ -91.136416616745024, 32.628238346308848 ], [ -91.136559236186997, 32.628270966125569 ], [ -91.136713168224034, 32.628311923012951 ], [ -91.136868862086871, 32.628353858544273 ], [ -91.137019096823707, 32.628406273656374 ], [ -91.13716935667523, 32.628465173727356 ], [ -91.137325886776125, 32.628498802832745 ], [ -91.13748750827375, 32.628520608006546 ], [ -91.137642745225818, 32.628562133401829 ], [ -91.137801715704654, 32.628592639790448 ], [ -91.137965122524051, 32.628606957499038 ], [ -91.138124545464208, 32.628633585808714 ], [ -91.138279621900935, 32.628675220550299 ], [ -91.138429386687591, 32.628733078059717 ], [ -91.13857920682743, 32.628789836716201 ], [ -91.138731479727895, 32.628837617986541 ], [ -91.13889295585318, 32.628861291576335 ], [ -91.139052364107314, 32.628889650131157 ], [ -91.139208602876707, 32.62892687938259 ], [ -91.139362210439543, 32.628971325706097 ], [ -91.139515651083556, 32.629018769386839 ], [ -91.139669183434449, 32.629061924525395 ], [ -91.13982412899388, 32.629103421119034 ], [ -91.139983941180404, 32.629133370161334 ], [ -91.140144795819623, 32.629156331046175 ], [ -91.140306018032604, 32.629180581552177 ], [ -91.14046132577927, 32.629218804423139 ], [ -91.140611629630882, 32.629271406821836 ], [ -91.140770220276963, 32.629302681953043 ], [ -91.140927890051913, 32.629336299208042 ], [ -91.141078996083863, 32.629391314343124 ], [ -91.141227833440681, 32.629450465734159 ], [ -91.14138591423864, 32.629482815528291 ], [ -91.141551873175899, 32.62948823451439 ], [ -91.141713396021345, 32.629513222495866 ], [ -91.141860458807187, 32.629577250331003 ], [ -91.142010767826804, 32.629630153087184 ], [ -91.142168613926742, 32.629665251896988 ], [ -91.142325686714983, 32.629697414021308 ], [ -91.142484419546051, 32.629729895286303 ], [ -91.142641144694849, 32.629766622947486 ], [ -91.14279772230924, 32.629801508211187 ], [ -91.142954368591248, 32.62983666876719 ], [ -91.143111665412206, 32.629871989948889 ], [ -91.147090194628802, 32.630845595452101 ], [ -91.147232422492763, 32.630873642803905 ], [ -91.147393919150986, 32.630895298898515 ], [ -91.147554856935898, 32.630916188325315 ], [ -91.147711913511998, 32.630953291600996 ], [ -91.147868374068139, 32.630989051350255 ], [ -91.148024142815075, 32.63103089039317 ], [ -91.14818360255498, 32.631057147622052 ], [ -91.148340485194467, 32.63109287698758 ], [ -91.148486908366209, 32.631157258215069 ], [ -91.148640627122035, 32.631202242428806 ], [ -91.148800983266582, 32.63123058327335 ], [ -91.148965953332905, 32.631241137842082 ], [ -91.149122308549352, 32.631279508131328 ], [ -91.149270608654618, 32.631339368458107 ], [ -91.149429778307749, 32.631365736892853 ], [ -91.149586004848985, 32.631404326558247 ], [ -91.149736732010027, 32.631459498652752 ], [ -91.149892316887318, 32.63149886218882 ], [ -91.150050763730889, 32.631527845961031 ], [ -91.150211624633585, 32.631554394467344 ], [ -91.150366525638503, 32.631593513883224 ], [ -91.15052705250082, 32.63161904789964 ], [ -91.150680830017023, 32.63166314911745 ], [ -91.150827655251945, 32.631728570079687 ], [ -91.15098317578969, 32.631767904718259 ], [ -91.151147252804293, 32.631783712133114 ], [ -91.151305958270228, 32.631812444649135 ], [ -91.15146278814359, 32.631849242592608 ], [ -91.151614187560654, 32.631903252906397 ], [ -91.151766496631481, 32.631950056741012 ], [ -91.151922731460303, 32.631989221434729 ], [ -91.15208081203096, 32.632020650524936 ], [ -91.152241594765371, 32.632042084980419 ], [ -91.152401265697591, 32.632069792647506 ], [ -91.152549240290995, 32.63213272971177 ], [ -91.152704349530566, 32.632173082043828 ], [ -91.152868456999684, 32.632188611969774 ], [ -91.153027842667356, 32.632217008721653 ], [ -91.153176412099654, 32.632277439739156 ], [ -91.153328638081902, 32.63232572646222 ], [ -91.153483835675587, 32.632365060088027 ], [ -91.153642028989694, 32.632397970720184 ], [ -91.15379923574001, 32.632433113984966 ], [ -91.153955425660854, 32.632470792165321 ], [ -91.15411024510891, 32.632511254652393 ], [ -91.154266514097785, 32.632550444137237 ], [ -91.154424569715772, 32.632582447530311 ], [ -91.1545853178187, 32.632607039778456 ], [ -91.154738631526214, 32.632653283345682 ], [ -91.154897497530527, 32.632681570194308 ], [ -91.155047303993186, 32.632738611173274 ], [ -91.155199095351236, 32.632788821854888 ], [ -91.155358633859706, 32.632819522169363 ], [ -91.155516810564365, 32.632846961502999 ], [ -91.155670317528234, 32.63289652825857 ], [ -91.15582044659125, 32.632949717583394 ], [ -91.155975044205846, 32.632990564246086 ], [ -91.156128965168818, 32.633035592893059 ], [ -91.156284194082019, 32.633078084309503 ], [ -91.156437296237669, 32.63312594939201 ], [ -91.156595375230339, 32.633156822709026 ], [ -91.156758002151079, 32.633177057078782 ], [ -91.156916688054878, 32.633203199110156 ], [ -91.157073864637255, 32.633241856112868 ], [ -91.157226701918802, 32.633289116897807 ], [ -91.157380616664099, 32.633329857186581 ], [ -91.157546393757443, 32.633339350021302 ], [ -91.157710989590981, 32.633354596252026 ], [ -91.157871246341472, 32.63337847241749 ], [ -91.158029165520091, 32.633413083564065 ], [ -91.158182855656932, 32.633457506124508 ], [ -91.158334260595211, 32.633507908491197 ], [ -91.158480985986017, 32.6335755744946 ], [ -91.158635409174124, 32.633618535374637 ], [ -91.158791795762269, 32.633652357591757 ], [ -91.158950081569643, 32.633687927311676 ], [ -91.159106510765639, 32.633722766011445 ], [ -91.159262458136141, 32.633761868384369 ], [ -91.159419529465893, 32.633795933286891 ], [ -91.159576530661695, 32.633833021971874 ], [ -91.159733135448533, 32.633869287980254 ], [ -91.159890299302859, 32.633902829575916 ], [ -91.1600503134691, 32.633928436773076 ], [ -91.160202084118211, 32.633979356562349 ], [ -91.160352923742508, 32.634031573583542 ], [ -91.160511196125526, 32.634065547141084 ], [ -91.160673326839841, 32.634084515447661 ], [ -91.160836155895353, 32.634101774661964 ], [ -91.160989140700721, 32.63415056911645 ], [ -91.161140663099928, 32.634202670670007 ], [ -91.161298222095326, 32.634236647932077 ], [ -91.16145797492284, 32.634262007070205 ], [ -91.161614723393271, 32.634296126342292 ], [ -91.161770389421733, 32.634336162531334 ], [ -91.161923941129203, 32.634382889827414 ], [ -91.162075679006165, 32.634433642529025 ], [ -91.162226196401946, 32.634489432980651 ], [ -91.162390246079283, 32.634501543121821 ], [ -91.162550519680266, 32.634526897422219 ] ] } },
{ "type": "Feature", "properties": { "station_id": 3, "station_ft": -1971.0, "width_ft": 1148.2, "flag": "ok", "lon": -91.155002, "lat": 32.635839, "survey_id": "LM_07_FMB_20250619_CS_4694_4676", "date": "2025-06-19 00:00:00+00:00", "method": "lines" }, "geometry": { "type": "LineString", "coordinates": [ [ -91.135959942828478, 32.629667794542705 ], [ -91.136118347356728, 32.629703859566192 ], [ -91.136267650323674, 32.629757215707549 ], [ -91.136411402731738, 32.629825502981603 ], [ -91.136550798377613, 32.62990063509821 ], [ -91.136699185981456, 32.629956910090499 ], [ -91.136853207761973, 32.630000422621201 ], [ -91.137007566321103, 32.630045114984298 ], [ -91.137164472309806, 32.630080555246892 ], [ -91.137321917844275, 32.630118164144157 ], [ -91.137477504386936, 32.630158560297588 ], [ -91.137622696222422, 32.63022057077022 ], [ -91.137767893910876, 32.630283213153241 ], [ -91.137915485909943, 32.630341168119458 ], [ -91.13807452391562, 32.630375165220457 ], [ -91.138236050138516, 32.630404143326579 ], [ -91.13838673957919, 32.630456168789046 ], [ -91.138528129412677, 32.630525100872475 ], [ -91.138670459676433, 32.630597518290941 ], [ -91.138824826238519, 32.630639322785186 ], [ -91.138980886758944, 32.630678091790493 ], [ -91.139134191771006, 32.630724602569536 ], [ -91.139288339909513, 32.630767314137074 ], [ -91.139443867106081, 32.630808120305701 ], [ -91.139597768349034, 32.630852263231077 ], [ -91.139750952997119, 32.630899900293151 ], [ -91.139900342772478, 32.630951547223887 ], [ -91.140043653577195, 32.631020933239121 ], [ -91.140197171860692, 32.6310657911569 ], [ -91.140352767269249, 32.631106733716457 ], [ -91.140513257276993, 32.631135798490007 ], [ -91.140660046820017, 32.631194469526967 ], [ -91.140802758394329, 32.631265727818622 ], [ -91.14095435597811, 32.631313538620851 ], [ -91.141109475945484, 32.631355801631962 ], [ -91.141260191902319, 32.631406861282628 ], [ -91.141409882985272, 32.631459356600026 ], [ -91.141557829982688, 32.631516617824822 ], [ -91.141709962884761, 32.631566155594939 ], [ -91.141869134230646, 32.631596573404856 ], [ -91.1420250133569, 32.631636411926067 ], [ -91.142180254648252, 32.631677711568585 ], [ -91.142321606693841, 32.631723910374056 ], [ -91.148308404939513, 32.633724112893319 ], [ -91.148465687805498, 32.633760444510528 ], [ -91.148619354999795, 32.633806418229796 ], [ -91.148760892931435, 32.633876025692167 ], [ -91.14890030495107, 32.633951143786291 ], [ -91.149055437262049, 32.633993864804346 ], [ -91.149224391938986, 32.634006207386584 ], [ -91.149394846208892, 32.634012107909001 ], [ -91.149546101953376, 32.63406422525857 ], [ -91.149682264533965, 32.6341462627814 ], [ -91.149823487339006, 32.634216695265017 ], [ -91.149972780505394, 32.63427454186364 ], [ -91.150129422177415, 32.634311672682983 ], [ -91.150285950513577, 32.634350507422496 ], [ -91.15043962933774, 32.634394032405027 ], [ -91.150593622102107, 32.634439837448397 ], [ -91.15075019254364, 32.634476224920071 ], [ -91.150901270292167, 32.634526528385663 ], [ -91.151049331646917, 32.634584491722677 ], [ -91.151196189232479, 32.634642133590461 ], [ -91.151345634495115, 32.634698603300961 ], [ -91.151496567974306, 32.63475077628037 ], [ -91.151646901573585, 32.634801302809159 ], [ -91.151797639570347, 32.634849876064784 ], [ -91.15194948703919, 32.634898909002892 ], [ -91.152098639134991, 32.634955269705827 ], [ -91.152247850894753, 32.635007397091748 ], [ -91.152405053066602, 32.635048726184785 ], [ -91.152563584045808, 32.635082543064733 ], [ -91.15271796518563, 32.635124412274969 ], [ -91.152865619696072, 32.635183805350245 ], [ -91.153008761713593, 32.635250621041344 ], [ -91.153155572889503, 32.635310047230149 ], [ -91.153315677662505, 32.635338382946273 ], [ -91.153474710255594, 32.635373706698985 ], [ -91.153626770914457, 32.6354210319139 ], [ -91.153779616981666, 32.635469038932953 ], [ -91.153931877230718, 32.63551682956934 ], [ -91.154087100507027, 32.635558224476583 ], [ -91.154238694711324, 32.635604232752883 ], [ -91.154388354585635, 32.635658966063545 ], [ -91.154535704492758, 32.635716764874005 ], [ -91.154689139715472, 32.635761496325536 ], [ -91.154841524273792, 32.635812171489334 ], [ -91.155002363373114, 32.635838960970958 ], [ -91.155158998858226, 32.635878393942811 ], [ -91.155305383338629, 32.635937160310853 ], [ -91.155455460921644, 32.635991175425737 ], [ -91.155580588689205, 32.636034276842295 ], [ -91.155718119395019, 32.636076691827022 ], [ -91.155868458207394, 32.636116577242632 ], [ -91.156025062286218, 32.636170300933763 ], [ -91.156167137554064, 32.636226566055079 ], [ -91.156315754135619, 32.636273498457768 ], [ -91.156470058119879, 32.636313632183544 ], [ -91.156616856818545, 32.636374867747513 ], [ -91.156761852323072, 32.63643770923165 ], [ -91.156912171651427, 32.63648965963209 ], [ -91.157069574953468, 32.636527655909994 ], [ -91.15721647317477, 32.636585482453114 ], [ -91.157362235343157, 32.636650379570092 ], [ -91.157512318290699, 32.63670123067795 ], [ -91.157667836658362, 32.636742564171442 ], [ -91.15782265573651, 32.636785605440586 ], [ -91.157974642855422, 32.636831496566337 ], [ -91.158127098276111, 32.636882414308083 ], [ -91.158275651227797, 32.636936353068393 ], [ -91.158428636607468, 32.636984711440434 ], [ -91.158585123231006, 32.637021831731509 ], [ -91.158741012454641, 32.637060962113935 ], [ -91.158888699158382, 32.637119606580384 ], [ -91.159033388283916, 32.637184178752463 ], [ -91.159178525776952, 32.63724811568958 ], [ -91.159329376634091, 32.637297421189807 ], [ -91.159484270766086, 32.637341367040548 ], [ -91.159644786177708, 32.637371341192406 ], [ -91.159803321014323, 32.63740484674517 ], [ -91.159957100914298, 32.637447645122016 ], [ -91.160103112717621, 32.637511163127726 ], [ -91.160252744964609, 32.637565642472374 ], [ -91.160404649696034, 32.637612960418004 ], [ -91.160559637094735, 32.637656272198889 ], [ -91.160712456099418, 32.637700533175668 ], [ -91.160857641023355, 32.637765815025809 ], [ -91.16099963857971, 32.637834223292209 ], [ -91.161144634861088, 32.637896565491872 ], [ -91.161294587502866, 32.63795051846045 ], [ -91.161449000469858, 32.637994878029907 ], [ -91.161606203874655, 32.638031742716791 ], [ -91.161764977872252, 32.63806648047062 ], [ -91.161916797875151, 32.638114951346161 ], [ -91.162061480074442, 32.638178365807057 ], [ -91.162203399436962, 32.638248642504024 ], [ -91.162348813286755, 32.638313921093577 ], [ -91.162500643412301, 32.638359944781584 ], [ -91.162658660666168, 32.638396885722493 ], [ -91.162813134204669, 32.638440610179273 ], [ -91.162967322506077, 32.638481588744369 ], [ -91.16312254667271, 32.638525665845158 ], [ -91.163275585187236, 32.63856882210235 ], [ -91.163428775249912, 32.638617640060822 ], [ -91.163573179921812, 32.638679075284443 ], [ -91.16371561746881, 32.638748934727879 ], [ -91.163861138803384, 32.638815145027749 ], [ -91.164006355931477, 32.638876438208655 ], [ -91.164174645155896, 32.638889506179979 ], [ -91.164333362482154, 32.638924763135378 ] ] } },
{ "type": "Feature", "properties": { "station_id": 4, "station_ft": -927.3, "width_ft": 1199.0, "flag": "ok", "lon": -91.154187, "lat": 32.63906, "survey_id": "LM_07_FMB_20250619_CS_4694_4676", "date": "2025-06-19 00:00:00+00:00", "method": "lines" }, "geometry": { "type": "LineString", "coordinates": [ [ -91.133360019895804, 32.630783128778702 ], [ -91.133483415449007, 32.630856167806769 ], [ -91.13364034366549, 32.630897686436526 ], [ -91.133777917094903, 32.630972531157745 ], [ -91.133927548706524, 32.631026327116444 ], [ -91.134091416878988, 32.63105551564562 ], [ -91.134233746361787, 32.631120846849917 ], [ -91.134365960931191, 32.631206636129384 ], [ -91.134533364905977, 32.631227996074308 ], [ -91.134667591644373, 32.631309814462547 ], [ -91.134813654021599, 32.631371218453296 ], [ -91.134959180494221, 32.631430701384126 ], [ -91.135111503570386, 32.631480108908363 ], [ -91.135262352454504, 32.631531724098444 ], [ -91.135417349599578, 32.631575040061918 ], [ -91.135572132920629, 32.63161981440701 ], [ -91.13570888763428, 32.63169718978093 ], [ -91.135843913880436, 32.631777407507194 ], [ -91.135992026507125, 32.631831705737092 ], [ -91.136134423424664, 32.631900717922406 ], [ -91.136276802632025, 32.631967722788239 ], [ -91.1364212420211, 32.63202888728307 ], [ -91.136583866557999, 32.632060526898698 ], [ -91.136742443009169, 32.632097084132177 ], [ -91.136889991409902, 32.632153474226598 ], [ -91.137027238962673, 32.632231285033768 ], [ -91.137175144893959, 32.632287809563742 ], [ -91.137321318240424, 32.63234659845395 ], [ -91.137463566560811, 32.632413328664178 ], [ -91.137613494506297, 32.632466980310845 ], [ -91.137768892963862, 32.632511252922399 ], [ -91.137909995033084, 32.632580463429612 ], [ -91.138050700492911, 32.632648796221517 ], [ -91.138200686308551, 32.63270156849471 ], [ -91.138340378226786, 32.632772820967901 ], [ -91.138492670357351, 32.63282200451512 ], [ -91.138636406460989, 32.632887733727827 ], [ -91.138787228593245, 32.63293956482562 ], [ -91.138937170697972, 32.632991044298585 ], [ -91.139080430919023, 32.633058068238732 ], [ -91.139229802732103, 32.633111035277324 ], [ -91.139377354713019, 32.633167586502438 ], [ -91.139525016007312, 32.633225374033664 ], [ -91.139669985667979, 32.633287328470047 ], [ -91.139818528452295, 32.633342004407034 ], [ -91.139966539886274, 32.633398964073351 ], [ -91.140108028851344, 32.633467482462166 ], [ -91.140241149679383, 32.633551720349388 ], [ -91.140390980876575, 32.633605123083591 ], [ -91.140539757756471, 32.633660483774449 ], [ -91.140684725175987, 32.63372191493027 ], [ -91.148471915307994, 32.636750521750088 ], [ -91.148611916840366, 32.636818490005858 ], [ -91.14875188474241, 32.636889893935233 ], [ -91.148901123330418, 32.636944829496287 ], [ -91.149053043594876, 32.636994496646025 ], [ -91.14920855396835, 32.637038946280953 ], [ -91.149365886196279, 32.63707651265247 ], [ -91.149508314010689, 32.637143254895825 ], [ -91.149652079387437, 32.637224885855986 ], [ -91.149798696830118, 32.637287971938093 ], [ -91.149946530862309, 32.637345470893855 ], [ -91.150083462141481, 32.637400677151632 ], [ -91.150226185046449, 32.637467526659272 ], [ -91.150365568410422, 32.63753873959233 ], [ -91.150518710262361, 32.637586831583469 ], [ -91.150669967377382, 32.637638480378804 ], [ -91.150820995183295, 32.637689856355287 ], [ -91.150966541660267, 32.637749265338847 ], [ -91.151114955973313, 32.637806071998511 ], [ -91.151268763180497, 32.637852234426717 ], [ -91.15141113734488, 32.63791993607763 ], [ -91.151550807137312, 32.637990239563379 ], [ -91.151702086470735, 32.638040678629295 ], [ -91.151855550630003, 32.638088298869121 ], [ -91.152002257188371, 32.638146571902816 ], [ -91.152144829388035, 32.63821449234257 ], [ -91.152285130912659, 32.63828278451674 ], [ -91.152434191960012, 32.638339035318275 ], [ -91.152583555613717, 32.638392920517369 ], [ -91.152725240059482, 32.638459581847442 ], [ -91.152872982798158, 32.638517407941102 ], [ -91.153028532394671, 32.638562044603653 ], [ -91.153174760473846, 32.638621089454041 ], [ -91.153318373512789, 32.63868540111438 ], [ -91.153473578018449, 32.638727786036846 ], [ -91.153614583170338, 32.638798242582588 ], [ -91.153751282480158, 32.638873784937921 ], [ -91.153900345905129, 32.638930089867181 ], [ -91.154059095799724, 32.638965826738016 ], [ -91.154186679897435, 32.639060447597679 ], [ -91.154328799107404, 32.639128258467835 ], [ -91.154484303862972, 32.639171410244131 ], [ -91.154634480371826, 32.639225094683006 ], [ -91.154783303038002, 32.639279887915109 ], [ -91.154925605994862, 32.639346377659024 ], [ -91.156038198944685, 32.639791658883603 ], [ -91.156175197549175, 32.639846307904477 ], [ -91.156326329623951, 32.63989762058312 ], [ -91.156473889562946, 32.639956158654904 ], [ -91.15662076003369, 32.640013985996553 ], [ -91.156773802252943, 32.640060970802701 ], [ -91.156931422675399, 32.640100697080371 ], [ -91.157083649574858, 32.640150902439892 ], [ -91.157215179084588, 32.64023603958119 ], [ -91.157360842608782, 32.640296732465018 ], [ -91.157501380300374, 32.640368727805857 ], [ -91.157630675450477, 32.640458028953041 ], [ -91.157786418625065, 32.640501889200785 ], [ -91.157936351791264, 32.640553455766728 ], [ -91.158088092725706, 32.640603636031827 ], [ -91.158243582384515, 32.640648156540202 ], [ -91.158392560673505, 32.640701763142587 ], [ -91.158535437399777, 32.640766485677453 ], [ -91.158685501262894, 32.64082151313935 ], [ -91.158838308744393, 32.640867507739465 ], [ -91.158992163264642, 32.640914347404625 ], [ -91.159123937368662, 32.641000965153822 ], [ -91.159272389459474, 32.641057266738528 ], [ -91.159408973422487, 32.641133518661789 ], [ -91.159551956858252, 32.641199145562446 ], [ -91.159696081840465, 32.641261632158376 ], [ -91.159846204139512, 32.641315778638059 ], [ -91.159997753124259, 32.641366040789322 ], [ -91.160155469350627, 32.64140523933802 ], [ -91.160310669625702, 32.641449787116748 ], [ -91.160449973744733, 32.641521512200399 ], [ -91.160612571088549, 32.64155092214785 ], [ -91.160757286414324, 32.641613952775216 ], [ -91.160894749536155, 32.641690197260445 ], [ -91.161039531300489, 32.641753337130574 ], [ -91.161185924370926, 32.64181146428659 ], [ -91.161324363597018, 32.641884266248887 ], [ -91.161462536305635, 32.641959927408891 ], [ -91.16159410482787, 32.642044977557347 ], [ -91.161746183646869, 32.642096058259845 ], [ -91.161904465419937, 32.642132915363817 ], [ -91.162056758572902, 32.642182702086785 ], [ -91.162202658509457, 32.642243606832437 ], [ -91.162352885782582, 32.64229469901656 ], [ -91.162511601369829, 32.642332651696833 ], [ -91.162667795434288, 32.642375568646443 ], [ -91.162810160286838, 32.642440564653818 ], [ -91.162944428805943, 32.642522324031148 ], [ -91.163079917209387, 32.642602508887023 ], [ -91.163230350489627, 32.642654670807339 ], [ -91.163375151942276, 32.642716021478428 ], [ -91.163523378385477, 32.642771880315173 ], [ -91.163685297843898, 32.642804973408346 ], [ -91.163832667587997, 32.642863008015304 ], [ -91.163969492454513, 32.642940050429836 ], [ -91.164118378813257, 32.642993429831222 ], [ -91.164549456315456, 32.643186323710708 ], [ -91.16469307645022, 32.643253315594258 ], [ -91.164849404114747, 32.643292765354119 ], [ -91.164996260911252, 32.643351407036313 ], [ -91.165137622682934, 32.643419952624157 ], [ -91.165286470948899, 32.643476080259362 ], [ -91.165429239115497, 32.643542114784324 ] ] } },
{ "type": "Feature", "properties": { "station_id": 5, "station_ft": 97.4, "width_ft": 1231.6, "flag": "ok", "lon": -91.153335, "lat": 32.642145, "survey_id": "LM_07_FMB_20250619_CS_4694_4676", "date": "2025-06-19 00:00:00+00:00", "method": "lines" }, "geometry": { "type": "LineString", "coordinates": [ [ -91.132497291313754, 32.632518723870369 ], [ -91.132637254409275, 32.632588166713518 ], [ -91.132774264212941, 32.632661503871986 ], [ -91.132931442402665, 32.632705166091583 ], [ -91.133078363608007, 32.63276439522356 ], [ -91.132092016163725, 32.634441516867625 ], [ -91.133210646533144, 32.632846694622451 ], [ -91.132166036155283, 32.634502832119686 ], [ -91.133334054624612, 32.632942628796052 ], [ -91.132305950401346, 32.634573649843816 ], [ -91.133483742788997, 32.632995132688507 ], [ -91.1324668505749, 32.634615585535478 ], [ -91.133620482710086, 32.633070807029469 ], [ -91.132622505980393, 32.634666678191003 ], [ -91.133745455098151, 32.633163652284523 ], [ -91.132737332674182, 32.634754559110284 ], [ -91.133909109621996, 32.633197735198216 ], [ -91.13287281091641, 32.634830489335236 ], [ -91.134088052574995, 32.633205031658846 ], [ -91.134215633369223, 32.633295248369443 ], [ -91.134370628714308, 32.633341781198453 ], [ -91.134511605437154, 32.63341165549884 ], [ -91.134648162819929, 32.633484856399612 ], [ -91.134775383086463, 32.633574689787409 ], [ -91.134911078763054, 32.633653145813454 ], [ -91.135070652948968, 32.633692117220775 ], [ -91.135224814253576, 32.633739643513763 ], [ -91.135356686414141, 32.633822823326568 ], [ -91.13549027481659, 32.633901731322347 ], [ -91.135643097473292, 32.63395204209727 ], [ -91.135775625089934, 32.634032165792291 ], [ -91.135921117037284, 32.634094506266152 ], [ -91.136066011392884, 32.634155421135574 ], [ -91.13620172261254, 32.634231814269434 ], [ -91.136342410384401, 32.63430171537771 ], [ -91.136481103250148, 32.63437374636613 ], [ -91.136634950594114, 32.634422180060781 ], [ -91.13677582164749, 32.634490816168523 ], [ -91.136916873997336, 32.634557773723536 ], [ -91.137062683739657, 32.63461912161403 ], [ -91.137210449861087, 32.634677680357399 ], [ -91.137343533154436, 32.634757936773134 ], [ -91.137494207561559, 32.634811089574775 ], [ -91.13761912230575, 32.634904041269742 ], [ -91.137765638031354, 32.634964256636657 ], [ -91.137923731782436, 32.635004361032841 ], [ -91.138057754269823, 32.635084170610369 ], [ -91.138196870204709, 32.635156031940774 ], [ -91.138344375446351, 32.635225144933749 ], [ -91.138481344161434, 32.635289241325694 ], [ -91.148190856543394, 32.639794491827764 ], [ -91.148335543247541, 32.639855503675911 ], [ -91.148474810119794, 32.639927957500419 ], [ -91.148603651590847, 32.640014934592429 ], [ -91.148742025964097, 32.640085524612367 ], [ -91.148899642985171, 32.640128888713356 ], [ -91.149058696351787, 32.640169385682114 ], [ -91.149209990582293, 32.64022109094762 ], [ -91.149333366426092, 32.640317640451578 ], [ -91.149459504059408, 32.640407163588868 ], [ -91.149599400032841, 32.640477110639118 ], [ -91.149744857476989, 32.640540617239445 ], [ -91.149894929554279, 32.640593648853283 ], [ -91.150043011429261, 32.64064919464662 ], [ -91.15020437393693, 32.640686211559398 ], [ -91.150350324211757, 32.64074663571779 ], [ -91.150479830961942, 32.640831436038241 ], [ -91.150610816588909, 32.640918039983696 ], [ -91.150743420894031, 32.6410003734524 ], [ -91.15089407388362, 32.641052795910078 ], [ -91.151048583879785, 32.641100630282224 ], [ -91.151197508133549, 32.64115570210879 ], [ -91.151340512790213, 32.641220789125292 ], [ -91.151478591850193, 32.641294208547905 ], [ -91.151620290635179, 32.641362025187028 ], [ -91.151746899802603, 32.641452944198399 ], [ -91.151879188821681, 32.641532640021723 ], [ -91.152030593157193, 32.641585358278526 ], [ -91.152181844946298, 32.641639094502601 ], [ -91.152326145136811, 32.641699994188834 ], [ -91.152466994660188, 32.641770728901633 ], [ -91.152605150648199, 32.641841755158985 ], [ -91.152748123986456, 32.641906566621763 ], [ -91.152897110258593, 32.641961167997096 ], [ -91.153042938105372, 32.642022001867829 ], [ -91.153188540090781, 32.642083057064966 ], [ -91.153335258962173, 32.642145369929352 ], [ -91.153482147083466, 32.64220133149766 ], [ -91.153634442825322, 32.64225538826102 ], [ -91.153768450097417, 32.642334328700912 ], [ -91.153899134524139, 32.642397981963711 ], [ -91.154042632927883, 32.642463255595594 ], [ -91.15784989972893, 32.644227355630164 ], [ -91.157989521256653, 32.644297981190959 ], [ -91.158137279002801, 32.64435591082497 ], [ -91.158277393791195, 32.644423565212534 ], [ -91.158425980669278, 32.6444833024402 ], [ -91.158570339240455, 32.64454600874187 ], [ -91.158705640207046, 32.644623506055567 ], [ -91.158833941079294, 32.644709926822962 ], [ -91.158965662392831, 32.644793796497687 ], [ -91.159114913873225, 32.644848032457048 ], [ -91.159268428975452, 32.644896028140188 ], [ -91.159419471086693, 32.644950581084657 ], [ -91.159565490729918, 32.645010059709719 ], [ -91.159707542689617, 32.645076160464157 ], [ -91.159847561582865, 32.645147276358117 ], [ -91.15998710115295, 32.64521561971295 ], [ -91.160118832862864, 32.645300422281117 ], [ -91.160257118230675, 32.645373610489834 ], [ -91.160401737699615, 32.645436230874076 ], [ -91.160551683170183, 32.645487958217714 ], [ -91.160702792546431, 32.645542564158276 ], [ -91.160844221751518, 32.645607870576654 ], [ -91.160983618072322, 32.645681793676225 ], [ -91.16111875522536, 32.64575868435535 ], [ -91.161258601112294, 32.645828370539903 ], [ -91.161411578076141, 32.645877577242942 ], [ -91.161568221972175, 32.645922772999967 ], [ -91.16170687742509, 32.645993675756316 ], [ -91.161837577073115, 32.64607895129393 ], [ -91.161976540038282, 32.646147900365619 ], [ -91.162126145673, 32.646204850885503 ], [ -91.162265205276753, 32.646273716936449 ], [ -91.162404583027723, 32.646345274206823 ], [ -91.162541195272709, 32.646419845145573 ], [ -91.16268048201529, 32.646492117779303 ], [ -91.162825593290492, 32.646554758227225 ], [ -91.162981830201332, 32.64659792147787 ], [ -91.163128233160762, 32.646659701798029 ], [ -91.16326346423368, 32.646735903284622 ], [ -91.163397773952639, 32.646814336192413 ], [ -91.163535390257195, 32.646888515251057 ], [ -91.16367790947092, 32.646955295466299 ], [ -91.163820130013519, 32.64702133536661 ], [ -91.163966274131141, 32.647079652848632 ], [ -91.164121071880459, 32.647128623231879 ], [ -91.16427290119681, 32.647179757393062 ], [ -91.164418421212261, 32.647240717845662 ], [ -91.16455692475057, 32.647312250518276 ], [ -91.164691741490046, 32.647389167353232 ], [ -91.164830673375917, 32.647461329897475 ], [ -91.164971336850684, 32.647531006457761 ], [ -91.165109816932656, 32.647603363749433 ], [ -91.165259352992749, 32.647659348791194 ] ] } },
{ "type": "Feature", "properties": { "station_id": 6, "station_ft": 2003.7, "width_ft": 1267.2, "flag": "ok", "lon": -91.15223, "lat": 32.645404, "survey_id": "LM_07_FMB_20250619_CS_4694_4676", "date": "2025-06-19 00:00:00+00:00", "method": "lines" }, "geometry": { "type": "LineString", "coordinates": [ [ -91.133006328392653, 32.634923417932967 ], [ -91.133135824134811, 32.63500603809009 ], [ -91.133266929462209, 32.635086997675302 ], [ -91.133396186454618, 32.635171955480722 ], [ -91.133542614823881, 32.635233632659379 ], [ -91.133693075751623, 32.635288578637677 ], [ -91.133835785841654, 32.635355831170678 ], [ -91.133962023485665, 32.635444490328346 ], [ -91.134103301167272, 32.635511202527496 ], [ -91.134241871024514, 32.63558400594237 ], [ -91.134375480117868, 32.635661458649587 ], [ -91.134507810586811, 32.635741062800669 ], [ -91.13464400690782, 32.635817233568581 ], [ -91.13477569588359, 32.635897748673059 ], [ -91.134896981088744, 32.635991825459691 ], [ -91.135042153571149, 32.636054498984961 ], [ -91.135186653551912, 32.63611822084674 ], [ -91.135312191860294, 32.63620825732788 ], [ -91.135434540762077, 32.636301281673397 ], [ -91.135585582036484, 32.63635536949748 ], [ -91.135726762646357, 32.636418314801006 ], [ -91.135877489317963, 32.636473530549829 ], [ -91.147307354166045, 32.642768048422461 ], [ -91.147429096014662, 32.642827588697983 ], [ -91.147572108192037, 32.642893504128999 ], [ -91.147719502973473, 32.642955406195703 ], [ -91.147862628715373, 32.643019342146737 ], [ -91.14798965192341, 32.64310600245512 ], [ -91.148098570026008, 32.643216445276543 ], [ -91.148271193586083, 32.643244678069884 ], [ -91.14839664755489, 32.643333684539165 ], [ -91.148537695071283, 32.643401151769837 ], [ -91.148697145786443, 32.643445466292533 ], [ -91.148818235852715, 32.643540326784731 ], [ -91.148956952335368, 32.643612288497977 ], [ -91.149065656887927, 32.6437241331381 ], [ -91.149195243645707, 32.643806597800399 ], [ -91.149333582069147, 32.643879687811641 ], [ -91.14946966365919, 32.643954689589968 ], [ -91.149610373820806, 32.644024246203074 ], [ -91.149759601550642, 32.644080251897265 ], [ -91.149890686118397, 32.644162981114135 ], [ -91.150028758360222, 32.644235274942382 ], [ -91.15019164773507, 32.644275167408104 ], [ -91.15033402491467, 32.644342156832714 ], [ -91.150467720195138, 32.644418986428107 ], [ -91.150612058521261, 32.644483708429263 ], [ -91.150720116632584, 32.644595499892894 ], [ -91.150856393227883, 32.644670251793102 ], [ -91.150998377697434, 32.644736830012349 ], [ -91.151138166626126, 32.644808424293458 ], [ -91.151273726575496, 32.644882822411731 ], [ -91.151402206116927, 32.644968177510549 ], [ -91.151539939971883, 32.645042369098832 ], [ -91.151674439218212, 32.645121583540643 ], [ -91.151815636163121, 32.645187093789659 ], [ -91.151950431809979, 32.645263227475489 ], [ -91.152085432047556, 32.645340266823943 ], [ -91.152230055556672, 32.645403830849915 ], [ -91.152340013477001, 32.645513465057384 ], [ -91.152470153841136, 32.645595483506057 ], [ -91.152631682830133, 32.645639037271096 ], [ -91.152787154555455, 32.645688045282341 ], [ -91.158523787753026, 32.648854599825484 ], [ -91.158641624829642, 32.648915281855921 ], [ -91.158780969173122, 32.648986540346783 ], [ -91.158913793796586, 32.649066142917306 ], [ -91.159040391916378, 32.649153866734189 ], [ -91.159170102430892, 32.649237281299847 ], [ -91.159298745495178, 32.649321308716722 ], [ -91.159447367617688, 32.64938044021266 ], [ -91.159595887637607, 32.649438995093085 ], [ -91.159741838688902, 32.649500864346741 ], [ -91.159875083481111, 32.64957996806033 ], [ -91.160019467731942, 32.649644458721774 ], [ -91.160141284771299, 32.649738506986729 ], [ -91.160266267815913, 32.649827009353928 ], [ -91.160413770365224, 32.649887905441709 ], [ -91.160545825785363, 32.649968171384096 ], [ -91.160689626757687, 32.650032747161639 ], [ -91.160828832204331, 32.650102795927587 ], [ -91.160963843152715, 32.650179385409693 ], [ -91.161098288191553, 32.650258039836856 ], [ -91.161233378100022, 32.650332622146315 ], [ -91.161367274809336, 32.650411637883472 ], [ -91.161499939001999, 32.650490935733245 ], [ -91.161632581844628, 32.650571360746454 ], [ -91.161764435934558, 32.650650719563323 ], [ -91.161907506421343, 32.650716893004329 ], [ -91.162052275852304, 32.650780609563562 ], [ -91.162188213533298, 32.65085529523823 ], [ -91.162325703831883, 32.65092933839388 ], [ -91.162464435791549, 32.65100045969578 ], [ -91.162603660832602, 32.651072319709776 ], [ -91.162736068597781, 32.651151673826391 ], [ -91.162874842585964, 32.651223811542401 ], [ -91.163022935806381, 32.651281402971641 ], [ -91.163170695767619, 32.651341551937094 ], [ -91.163296502250347, 32.651430705838756 ], [ -91.163413291419062, 32.651531957372804 ], [ -91.163540168313872, 32.65161739331468 ], [ -91.163662122215143, 32.651711491270888 ], [ -91.163800378183353, 32.651783686374188 ], [ -91.163963647904055, 32.651823971206625 ], [ -91.164109701023747, 32.6518855325358 ], [ -91.164246670316402, 32.651959027838039 ], [ -91.164383513862148, 32.652032962964043 ], [ -91.164524691401098, 32.652101235214317 ], [ -91.164664546015771, 32.652170505265296 ], [ -91.164794828017577, 32.652255092272362 ], [ -91.164919107238788, 32.652343952543553 ], [ -91.165049950195524, 32.652425870041796 ], [ -91.165189506130304, 32.65249777994309 ], [ -91.165326477984678, 32.652571356082959 ], [ -91.165449358401787, 32.652663412710531 ], [ -91.165578426092225, 32.652746550636479 ] ] } },
{ "type": "Feature", "properties": { "station_id": 7, "station_ft": 3040.8, "width_ft": 1089.0, "flag": "ok", "lon": -91.15044, "lat": 32.648484, "survey_id": "LM_07_FMB_20250619_CS_4694_4676", "date": "2025-06-19 00:00:00+00:00", "method": "lines" }, "geometry": { "type": "LineString", "coordinates": [ [ -91.130658662926749, 32.635806765519192 ], [ -91.13079806429144, 32.635878413249003 ], [ -91.130931661544736, 32.635940037906728 ], [ -91.131054114430427, 32.636030675403624 ], [ -91.13116418801701, 32.636135573072998 ], [ -91.131285512404745, 32.636227124656116 ], [ -91.131419996282901, 32.636304491996398 ], [ -91.131561367712322, 32.636374615024849 ], [ -91.131702288554706, 32.636445096942893 ], [ -91.131841942959952, 32.636515752674278 ], [ -91.131974850881008, 32.636594723703453 ], [ -91.132048203545907, 32.636741576648554 ], [ -91.132180403519854, 32.636821294086296 ], [ -91.132312672643323, 32.636901450989512 ], [ -91.13242129263196, 32.6370069068292 ], [ -91.132568552276979, 32.637070477069798 ], [ -91.132706316208214, 32.637143836439911 ], [ -91.132833718755364, 32.637228146510218 ], [ -91.132981856089032, 32.637291710668521 ], [ -91.133131819496128, 32.637352431561261 ], [ -91.133263122085765, 32.637433252768453 ], [ -91.133382541614495, 32.637525638594873 ], [ -91.133491595070865, 32.637632272894919 ], [ -91.133625961815099, 32.637710518659944 ], [ -91.133754845067429, 32.637793251114545 ], [ -91.133883843090743, 32.637877714938931 ], [ -91.134014273989067, 32.637958980946479 ], [ -91.134132783934177, 32.638054971573631 ], [ -91.146253296721355, 32.645876966388727 ], [ -91.146398603868093, 32.645941164848971 ], [ -91.146548454877859, 32.646001128010866 ], [ -91.14667444772779, 32.646088428373282 ], [ -91.146796136257521, 32.646181061404654 ], [ -91.146912445003423, 32.646278786110365 ], [ -91.147034962760543, 32.646369599237978 ], [ -91.147170793721344, 32.646445429272482 ], [ -91.147302449563057, 32.646526618187124 ], [ -91.147441036840618, 32.646598170255366 ], [ -91.147567791036451, 32.646683320434057 ], [ -91.147687193882092, 32.646778055819986 ], [ -91.147818634876913, 32.646860482753674 ], [ -91.147955720482898, 32.646934764517979 ], [ -91.148088714342734, 32.647012783325316 ], [ -91.148225100213722, 32.647088717701841 ], [ -91.148351530352585, 32.647173705056915 ], [ -91.148480412866789, 32.647256890020159 ], [ -91.148615927356786, 32.647333269667399 ], [ -91.148751959299815, 32.647409563746102 ], [ -91.148881678704754, 32.647491753648488 ], [ -91.148992621525707, 32.647595447348955 ], [ -91.149118521734465, 32.647682718742594 ], [ -91.149258160264608, 32.647755360241554 ], [ -91.149383258807944, 32.647843735787859 ], [ -91.149515707656718, 32.647922251642882 ], [ -91.149667083216031, 32.647981431919874 ], [ -91.149797944461653, 32.648060423992277 ], [ -91.149912805620772, 32.648162663020337 ], [ -91.150030423626973, 32.648257077689273 ], [ -91.150153796251487, 32.648348542196651 ], [ -91.150292305261502, 32.64842171287556 ], [ -91.150440428393509, 32.648483853925207 ], [ -91.150578574731426, 32.648556476585441 ], [ -91.150704279269888, 32.648643362581403 ], [ -91.150817904762178, 32.648745251714473 ], [ -91.150937099201556, 32.648837840953448 ], [ -91.151070180706895, 32.648917752303021 ], [ -91.151184962441178, 32.649018011340296 ], [ -91.159915955542417, 32.654593956239694 ], [ -91.160033473722123, 32.654689709104659 ], [ -91.160149326785231, 32.654788083339923 ], [ -91.160280132332375, 32.654869483931257 ], [ -91.160422896375138, 32.654937063180391 ], [ -91.160564572585059, 32.655006407812039 ], [ -91.160692200821018, 32.655091924573483 ], [ -91.160811056865398, 32.655188107915059 ], [ -91.16093368930683, 32.655278109211878 ], [ -91.161066675674746, 32.655356223099233 ], [ -91.161206016939147, 32.655429430982601 ], [ -91.161336230333305, 32.655509872204469 ], [ -91.161461326523721, 32.655599114592995 ], [ -91.161587786366937, 32.655684665180473 ], [ -91.161716159094169, 32.655769790920374 ], [ -91.161845892915267, 32.655850948937029 ], [ -91.161981693628348, 32.655927641962549 ], [ -91.162106364389672, 32.656016392350161 ], [ -91.162227657499713, 32.656108847590339 ], [ -91.162353128521445, 32.656196245252907 ], [ -91.162484248720972, 32.656276074201685 ], [ -91.162617358244987, 32.656356714950867 ], [ -91.162750324263342, 32.656435872253198 ], [ -91.162885885323433, 32.656511136616061 ], [ -91.163014054273376, 32.656594943107329 ], [ -91.163144186858432, 32.656676894243574 ], [ -91.163278322578662, 32.656755988234309 ], [ -91.163408460517857, 32.656838352047615 ], [ -91.163538300232474, 32.656920139685226 ], [ -91.163670820886807, 32.657000179025559 ], [ -91.163801114172557, 32.65708174336141 ], [ -91.16392823485883, 32.657167974275978 ], [ -91.164048412683613, 32.657262331429223 ], [ -91.164168266118978, 32.657353282967122 ], [ -91.164296109822928, 32.657440387900408 ], [ -91.164428878758144, 32.65751899462974 ], [ -91.164565241881789, 32.657592713471331 ], [ -91.164704240945156, 32.657666963855604 ], [ -91.164835726246707, 32.657747199961186 ], [ -91.1649712301097, 32.657822792432775 ], [ -91.165103763536422, 32.65790392934953 ], [ -91.165221027439742, 32.65799912884146 ], [ -91.165340177588519, 32.65809459074385 ], [ -91.165462012446994, 32.65818514283648 ], [ -91.165593873066243, 32.658267189922427 ], [ -91.165696587055336, 32.658363035494197 ] ] } },
{ "type": "Feature", "properties": { "station_id": 8, "station_ft": 4069.2, "width_ft": 1063.7, "flag": "ok", "lon": -91.148471, "lat": 32.651182, "survey_id": "LM_07_FMB_20250619_CS_4694_4676", "date": "2025-06-19 00:00:00+00:00", "method": "lines" }, "geometry": { "type": "LineString", "coordinates": [ [ -91.128602955017271, 32.637176327592499 ], [ -91.128718053090196, 32.637254480690885 ], [ -91.128836506207094, 32.637333710739405 ], [ -91.12896592602155, 32.63741512642126 ], [ -91.129105574259185, 32.637488642838207 ], [ -91.129212589823467, 32.637593177442135 ], [ -91.129320073913462, 32.637699083228526 ], [ -91.129426532274167, 32.637806588793332 ], [ -91.12955435477609, 32.637890899540189 ], [ -91.129689752973349, 32.637968619994417 ], [ -91.129819695979492, 32.63805019647176 ], [ -91.129944625032053, 32.638137795769843 ], [ -91.130066476992099, 32.638230141375807 ], [ -91.130184840333044, 32.638324570374209 ], [ -91.130294153158076, 32.638427715192904 ], [ -91.130429612693177, 32.638504858229609 ], [ -91.13056301232028, 32.638584156725784 ], [ -91.130688075287679, 32.638672029442638 ], [ -91.130818376963902, 32.638753574627643 ], [ -91.130956676806989, 32.638828581761558 ], [ -91.131076519373224, 32.638921132096783 ], [ -91.13119153476228, 32.639018769934239 ], [ -91.131310324772343, 32.639113470157618 ], [ -91.131444038822423, 32.639191502361996 ], [ -91.131584778061082, 32.639263003556934 ], [ -91.131708556088384, 32.639352256745603 ], [ -91.131829597495013, 32.639444386622984 ], [ -91.131952308575819, 32.63953416935783 ], [ -91.132069008713842, 32.639631108525052 ], [ -91.132195706258784, 32.639716220804139 ], [ -91.132314332595442, 32.639810508996376 ], [ -91.132420503571055, 32.639917848741455 ], [ -91.132547816933112, 32.640002736710962 ], [ -91.144233112168479, 32.648236504676717 ], [ -91.144327227411907, 32.648304800920094 ], [ -91.144441660434723, 32.648403474198339 ], [ -91.144578786942901, 32.648478666518351 ], [ -91.144716181599691, 32.648554846155221 ], [ -91.1448086210805, 32.648674962927856 ], [ -91.144914168070187, 32.64878237871288 ], [ -91.145048914691088, 32.648860196414461 ], [ -91.145821254306981, 32.649364770761686 ], [ -91.145952816553461, 32.649445988684256 ], [ -91.146090488044393, 32.649520076571136 ], [ -91.146225119111634, 32.649599377983982 ], [ -91.146357997414427, 32.649678718555762 ], [ -91.146478553352026, 32.649771359136409 ], [ -91.146599681223961, 32.649862510735581 ], [ -91.146704807703713, 32.649969708564591 ], [ -91.146805221801785, 32.650083807154445 ], [ -91.146945086400947, 32.650156010572687 ], [ -91.14705925869012, 32.650253913897238 ], [ -91.147194208813019, 32.650332332983851 ], [ -91.147350909382183, 32.650387330799674 ], [ -91.147473657795004, 32.650477866859205 ], [ -91.147603933643197, 32.650560164414706 ], [ -91.147720501929101, 32.650656979415025 ], [ -91.147842593458762, 32.650746695179819 ], [ -91.14796679611581, 32.650836341213591 ], [ -91.148085347339645, 32.650929708289475 ], [ -91.14822251143579, 32.651004758324383 ], [ -91.148356460046358, 32.651083457662594 ], [ -91.148471066587263, 32.651182401051337 ], [ -91.148568063800298, 32.651299076780383 ], [ -91.148693802809746, 32.651386019517027 ], [ -91.148829685761001, 32.651463056499679 ], [ -91.148941251683127, 32.651563338435054 ], [ -91.14907932492882, 32.651638079521881 ], [ -91.149207505410757, 32.651721927343701 ], [ -91.161538260611636, 32.66043643404123 ], [ -91.161655432484622, 32.660514761536113 ], [ -91.161772258483126, 32.660604800183975 ], [ -91.161912249080288, 32.660677068659943 ], [ -91.162033571960691, 32.660775542822456 ], [ -91.162149981546577, 32.660873169221638 ], [ -91.16227306622126, 32.660961736812013 ], [ -91.162397420269556, 32.661050598874283 ], [ -91.16254021101075, 32.661119824630362 ], [ -91.162675319638126, 32.661197977629044 ], [ -91.162797643284179, 32.66128852902024 ], [ -91.162927876077134, 32.661369985446633 ], [ -91.163058709995695, 32.661453251141673 ], [ -91.163164542236245, 32.66155938490035 ], [ -91.163294556072501, 32.66164163951386 ], [ -91.163429701420867, 32.661720149424468 ], [ -91.163548354630066, 32.661814214039019 ], [ -91.163684192329626, 32.661890190634871 ], [ -91.163810312956159, 32.661976593173712 ], [ -91.163924794457046, 32.662076182881059 ], [ -91.164054651510085, 32.662158848913492 ], [ -91.164180641295061, 32.662245086918752 ], [ -91.164300049119461, 32.66233966880867 ], [ -91.164423457386988, 32.662427737938657 ], [ -91.1645352610781, 32.662529268195271 ], [ -91.164650219016167, 32.662627534829952 ], [ -91.164790144922804, 32.66269924949092 ], [ -91.164929796853571, 32.662772780992434 ], [ -91.165054919961037, 32.662859985984923 ], [ -91.16516654128381, 32.662962753141684 ], [ -91.165291170402242, 32.663049054024484 ], [ -91.165421466454077, 32.663133365861114 ], [ -91.165541596491238, 32.663224973246564 ], [ -91.165652566555266, 32.663327525153569 ], [ -91.165772680861025, 32.663420946696625 ], [ -91.16589961309667, 32.663506708676408 ], [ -91.166034099759173, 32.663583763785205 ], [ -91.166174872795352, 32.66365538918788 ], [ -91.166303638468733, 32.663739105179076 ], [ -91.166404625960865, 32.663851123197254 ], [ -91.166523005254049, 32.663946505960631 ], [ -91.166647966703295, 32.664033408311546 ], [ -91.166784724972928, 32.664109951559944 ] ] } },
{ "type": "Feature", "properties": { "station_id": 9, "station_ft": 5902.0, "width_ft": 1055.1, "flag": "ok", "lon": -91.146797, "lat": 32.653979, "survey_id": "LM_07_FMB_20250619_CS_4694_4676", "date": "2025-06-19 00:00:00+00:00", "method": "lines" }, "geometry": { "type": "LineString", "coordinates": [ [ -91.127021933791951, 32.639568156379966 ], [ -91.127133917007626, 32.639668593577838 ], [ -91.127263486455149, 32.639752015486856 ], [ -91.12740065735359, 32.639828106747352 ], [ -91.127527361538156, 32.639914432060422 ], [ -91.127640438639148, 32.640013597635864 ], [ -91.127758219718473, 32.640108362617944 ], [ -91.127886605130314, 32.640193578602947 ], [ -91.128018162650065, 32.640273991558601 ], [ -91.128156208882643, 32.640349718443417 ], [ -91.128283300685752, 32.640435601372815 ], [ -91.128401954328297, 32.640529591026109 ], [ -91.128513734458082, 32.640628928119355 ], [ -91.128637456864567, 32.640719366858143 ], [ -91.12876109335491, 32.64080741551026 ], [ -91.128869478458952, 32.640912023700565 ], [ -91.128972740662945, 32.641021447074841 ], [ -91.129100791305476, 32.641105288755625 ], [ -91.129233112665801, 32.641187317787612 ], [ -91.129356884774367, 32.641275859127305 ], [ -91.129481916132235, 32.641363595220007 ], [ -91.129608337582781, 32.641450498179985 ], [ -91.129736201709733, 32.641535165468284 ], [ -91.129862931791536, 32.641620279865961 ], [ -91.129990614768047, 32.641706459349059 ], [ -91.130111396992405, 32.641798399509504 ], [ -91.130232037995981, 32.641889049159161 ], [ -91.130332018413725, 32.642001734851078 ], [ -91.130432675637294, 32.642113674933938 ], [ -91.130558008862707, 32.64220215013566 ], [ -91.130691380641977, 32.642281394470608 ], [ -91.130838955045093, 32.642346557989498 ], [ -91.130963061641836, 32.64243232002908 ], [ -91.143061664868455, 32.651330431353131 ], [ -91.143186633395132, 32.651419033899472 ], [ -91.143281125064362, 32.65153600406547 ], [ -91.143435497611122, 32.651595859589946 ], [ -91.143573826945641, 32.651670770140882 ], [ -91.14367124601786, 32.651784396410129 ], [ -91.143797473378456, 32.65187191804138 ], [ -91.143952195951073, 32.651930890565744 ], [ -91.144072348870907, 32.652021914704747 ], [ -91.144181351392362, 32.65212672523306 ], [ -91.144302703018226, 32.652217410464026 ], [ -91.144424217473457, 32.652308040417829 ], [ -91.144541139036306, 32.652404553992014 ], [ -91.144680038474192, 32.652477673273971 ], [ -91.14479595380736, 32.652574248113567 ], [ -91.144926556414589, 32.652656655413374 ], [ -91.145054207134734, 32.652743121432508 ], [ -91.145183966995063, 32.652825753930863 ], [ -91.145316601095942, 32.65290641634563 ], [ -91.145451202186294, 32.652985444572458 ], [ -91.145550750589322, 32.653097076240478 ], [ -91.145648822312054, 32.65321064078055 ], [ -91.14574590694474, 32.653326410957725 ], [ -91.145879951211398, 32.653404810198658 ], [ -91.146021262375868, 32.65347829648595 ], [ -91.146157943569776, 32.65355368279026 ], [ -91.146283362716062, 32.653640987061749 ], [ -91.146401061171275, 32.65373683374694 ], [ -91.146520492385207, 32.653830250641768 ], [ -91.146653681714795, 32.65390730738536 ], [ -91.146797252597125, 32.653979102715759 ], [ -91.14690745890951, 32.654079807315711 ], [ -91.14701290286213, 32.654185682570301 ], [ -91.147124514735467, 32.654287229998175 ], [ -91.147247957471336, 32.654378531754219 ], [ -91.147370454499267, 32.654469427426442 ], [ -91.163167527124401, 32.665964273316618 ], [ -91.163280118266442, 32.666062776799343 ], [ -91.163397324574632, 32.666157813155202 ], [ -91.163508804960657, 32.66625915430398 ], [ -91.16362276132844, 32.666357648435984 ], [ -91.163741903308619, 32.666451187403055 ], [ -91.163848422624028, 32.666556985858094 ], [ -91.16396038406441, 32.666657554229992 ], [ -91.1640903913584, 32.666741786315448 ], [ -91.164226688376232, 32.666817457069406 ], [ -91.164367616054932, 32.666891336828932 ], [ -91.164495029979065, 32.666976108662865 ], [ -91.16462839912154, 32.667054765957587 ], [ -91.164748813102094, 32.667148570540775 ], [ -91.164859388462958, 32.667250081460253 ], [ -91.164959711406382, 32.667360317733852 ], [ -91.16508363918004, 32.667451048144578 ], [ -91.165214081197547, 32.667532830660676 ], [ -91.165348836555509, 32.667610213753697 ], [ -91.165478461752841, 32.667694913992122 ], [ -91.165600176881213, 32.667785136449467 ], [ -91.165713761324014, 32.667885142384428 ], [ -91.165836415996154, 32.667975001287878 ], [ -91.165963071875296, 32.668061865024121 ], [ -91.166075222694516, 32.668161358031035 ], [ -91.166192675680236, 32.668254328698261 ], [ -91.166306146873978, 32.668356011145008 ], [ -91.166411991472813, 32.668462169806944 ], [ -91.166568259209441, 32.668518355149068 ], [ -91.166718973907322, 32.668595905788422 ], [ -91.166845727627049, 32.66867911234629 ], [ -91.166968201576466, 32.668756273152965 ], [ -91.167072747861681, 32.668865875454117 ], [ -91.167189669443715, 32.668960993002948 ], [ -91.16731687613094, 32.669047411628902 ], [ -91.167448358331555, 32.669128689797105 ], [ -91.167577872500672, 32.669211547212392 ], [ -91.167701576609588, 32.669302084379588 ], [ -91.167817534772354, 32.669398251933707 ], [ -91.167938389715729, 32.66948982405647 ], [ -91.168068467290496, 32.669573777314021 ], [ -91.168181240838578, 32.669673401294723 ], [ -91.168292631417131, 32.669774463613479 ], [ -91.168412415684188, 32.669866125348022 ], [ -91.168551801647581, 32.669941055657731 ], [ -91.168685510977014, 32.670020586350347 ], [ -91.1688041164916, 32.670114728991138 ], [ -91.168913083617056, 32.670217126105591 ], [ -91.169036201910103, 32.670307198721424 ], [ -91.169171752667054, 32.670385506497354 ], [ -91.169295860945638, 32.670473647966666 ], [ -91.169401133478956, 32.670580576999875 ], [ -91.169518752305848, 32.670676676858733 ] ] } }
]
}
