{
"type": "FeatureCollection",
"name": "LM_07_FMB_20260507_CS_4786_4748_transects",
"crs": { "type": "name", "properties": { "name": "urn:ogc:def:crs:OGC:1.3:CRS84" } },
"features": [
{ "type": "Feature", "properties": { "station_id": 0, "station_ft": -8041.6, "width_ft": 1691.7, "flag": "ok", "lon": -91.064645, "lat": 32.692126, "survey_id": "LM_07_FMB_20260507_CS_4786_4748", "date": "2026-05-07 00:00:00+00:00", "method": "lines" }, "geometry": { "type": "LineString", "coordinates": [ [ -91.062684451782346, 32.69090340581571 ], [ -91.062807594824577, 32.690990064390505 ], [ -91.062934922800068, 32.691071641565493 ], [ -91.063054535194496, 32.691167693070106 ], [ -91.063187596979702, 32.691250774989101 ], [ -91.063335837427587, 32.691309967114165 ], [ -91.063479957271042, 32.691373965853352 ], [ -91.063618501406609, 32.691447807771048 ], [ -91.063730180516046, 32.691543382695208 ], [ -91.063839917985547, 32.691635945303354 ], [ -91.063990161195491, 32.691713347256574 ], [ -91.064121916310398, 32.691791598863368 ], [ -91.064251013748333, 32.691878689298981 ], [ -91.064384789663848, 32.691961463677863 ], [ -91.064517067469424, 32.692043834550063 ], [ -91.064644535520188, 32.69212626127409 ], [ -91.064777755263577, 32.692204558644143 ], [ -91.064909222964758, 32.692283223175096 ], [ -91.065044045145569, 32.692366650803983 ], [ -91.065174280970297, 32.69244562522001 ], [ -91.065307687672004, 32.692526724420524 ], [ -91.065439221351369, 32.692605387999087 ], [ -91.065580053155358, 32.692676219690902 ], [ -91.065715589832777, 32.692751534005964 ], [ -91.065853422799606, 32.692825296401544 ], [ -91.065998614126912, 32.692892665643249 ], [ -91.066125973648781, 32.692969456518185 ], [ -91.066249209558805, 32.693062680234036 ], [ -91.066368630527776, 32.693158427533028 ], [ -91.066493750346496, 32.693243449529966 ], [ -91.066631161917769, 32.693325238059252 ], [ -91.066760723467965, 32.693400834128539 ], [ -91.066896737778038, 32.693478617808317 ], [ -91.067030973449818, 32.693557429800222 ], [ -91.067158891592527, 32.693642708878095 ], [ -91.067274010425535, 32.693736776179975 ], [ -91.067401993208065, 32.693821945515225 ], [ -91.067530002986032, 32.693906344476858 ], [ -91.067659394608611, 32.693996809303229 ], [ -91.067791404540813, 32.694069696468226 ], [ -91.067930394320484, 32.694145318156338 ], [ -91.068067787591744, 32.694220508992231 ], [ -91.068193876133805, 32.694304424363544 ], [ -91.06832024469135, 32.694390728463887 ], [ -91.068455495400542, 32.694474012769824 ], [ -91.068583255679442, 32.694555580645819 ], [ -91.068721448712139, 32.694625159976567 ], [ -91.068858744529237, 32.694700130476505 ], [ -91.068989243280555, 32.694782644925297 ], [ -91.069116301158274, 32.694869604232132 ], [ -91.069232680114766, 32.69495434466895 ], [ -91.069349333121295, 32.69505672853488 ], [ -91.069481670991038, 32.69514530575298 ], [ -91.069637089820702, 32.695190650731526 ] ] } },
{ "type": "Feature", "properties": { "station_id": 1, "station_ft": -6983.1, "width_ft": 1618.8, "flag": "ok", "lon": -91.062995, "lat": 32.694563, "survey_id": "LM_07_FMB_20260507_CS_4786_4748", "date": "2026-05-07 00:00:00+00:00", "method": "lines" }, "geometry": { "type": "LineString", "coordinates": [ [ -91.061585415110017, 32.693880256079964 ], [ -91.061701175535632, 32.693981910215712 ], [ -91.061864536578568, 32.694021364698941 ], [ -91.062010148348918, 32.694084558371117 ], [ -91.062133924889721, 32.694172726063556 ], [ -91.062278267805411, 32.694239692439311 ], [ -91.062431907077666, 32.694294621447796 ], [ -91.062572962394725, 32.694361029477946 ], [ -91.062706501120545, 32.694442295666889 ], [ -91.062851308744868, 32.694498375625116 ], [ -91.06299459002777, 32.694562653854568 ], [ -91.063135616682757, 32.694633431218875 ], [ -91.063262242934428, 32.69471995987417 ], [ -91.063404983221574, 32.694785560014132 ], [ -91.063538819918719, 32.694863304994001 ], [ -91.06367719315007, 32.6949353902735 ], [ -91.06381211229872, 32.695014392886449 ], [ -91.063946552838786, 32.695090512585956 ], [ -91.064071951338391, 32.695181802407006 ], [ -91.064209377686609, 32.695257189348403 ], [ -91.064350959211808, 32.695328017995656 ], [ -91.064486126587056, 32.695397426664321 ], [ -91.064618966819154, 32.695476331399725 ], [ -91.064751635108266, 32.695562107314515 ], [ -91.064892602348664, 32.695633213950465 ], [ -91.065033633377539, 32.695700086406646 ], [ -91.065181894075948, 32.695760705368507 ], [ -91.065322240481166, 32.695823348745179 ], [ -91.065463036166577, 32.695893191498314 ], [ -91.065596212548442, 32.695969316774729 ], [ -91.065734535546497, 32.696050771769109 ], [ -91.065864551526701, 32.696133951446662 ], [ -91.065999638094439, 32.69620910297914 ], [ -91.066139960061449, 32.696272515650023 ], [ -91.066284150758477, 32.696343958950031 ], [ -91.066422043119985, 32.696416290130074 ], [ -91.066567160213097, 32.69649363675375 ], [ -91.066690125833716, 32.696565148645881 ], [ -91.066827201762365, 32.696640974761394 ], [ -91.066969335269903, 32.696715012760158 ], [ -91.067099816228733, 32.696791289237957 ], [ -91.067236830448124, 32.696871348903088 ], [ -91.067368491744332, 32.696944677632317 ], [ -91.067511308675307, 32.697022750777727 ], [ -91.067648810779062, 32.697082989703844 ], [ -91.067804056289432, 32.697150490851087 ], [ -91.067939381864548, 32.69721472786631 ], [ -91.068091144456375, 32.697265785179702 ], [ -91.068242238019891, 32.697318468448131 ], [ -91.068363103850359, 32.697418960099377 ], [ -91.068486837838563, 32.697508549981464 ], [ -91.068628802721435, 32.697573654471775 ], [ -91.068769646937568, 32.697644866505883 ], [ -91.06890096721169, 32.697727815300752 ], [ -91.069033683585445, 32.697810618702604 ], [ -91.069168803335501, 32.697877356987412 ], [ -91.069309169223359, 32.697949560413385 ], [ -91.069446341022356, 32.698024586819066 ], [ -91.069593540345636, 32.698085645859429 ], [ -91.069733595238546, 32.698151584475497 ] ] } },
{ "type": "Feature", "properties": { "station_id": 2, "station_ft": -6350.4, "width_ft": 1494.9, "flag": "ok", "lon": -91.06163, "lat": 32.697303, "survey_id": "LM_07_FMB_20260507_CS_4786_4748", "date": "2026-05-07 00:00:00+00:00", "method": "lines" }, "geometry": { "type": "LineString", "coordinates": [ [ -91.06021717518567, 32.696629734506644 ], [ -91.060363650457603, 32.696694739326539 ], [ -91.06050490466275, 32.696757245775437 ], [ -91.06063283198435, 32.696847918394511 ], [ -91.060764074596818, 32.696934449820631 ], [ -91.060905607152122, 32.696995167858397 ], [ -91.061053260579328, 32.697057114455504 ], [ -91.061196599884013, 32.697124115790359 ], [ -91.061341838740461, 32.697184811821693 ], [ -91.061481542469949, 32.697252410135896 ], [ -91.061629816732378, 32.697302589304932 ], [ -91.061780826602615, 32.697365504748738 ], [ -91.061921832453237, 32.697429220247194 ], [ -91.06206765789706, 32.697497937462281 ], [ -91.06220400742518, 32.697568661826416 ], [ -91.062343777219724, 32.697636231729675 ], [ -91.062489238958278, 32.697700140705734 ], [ -91.062634147419047, 32.697759985000864 ], [ -91.062779041568817, 32.697830108087345 ], [ -91.062923032107221, 32.697892953847791 ], [ -91.063061865568869, 32.697957120728326 ], [ -91.063195809675349, 32.698035717513079 ], [ -91.063332174761342, 32.698116004340754 ], [ -91.063471162348918, 32.698191163815849 ], [ -91.063611264451026, 32.698259362465471 ], [ -91.063747803869148, 32.698329148918127 ], [ -91.063893952230472, 32.698393300218747 ], [ -91.064028211571824, 32.698474422725894 ], [ -91.064157729188864, 32.698552083000898 ], [ -91.064295446534828, 32.69862667183682 ], [ -91.064445842571899, 32.698681424196444 ], [ -91.064597234951833, 32.698734879280657 ], [ -91.064746175925663, 32.698794505520013 ], [ -91.064886240808192, 32.698861960812138 ], [ -91.065030836049871, 32.698926778994974 ], [ -91.065167793812151, 32.698995819308372 ], [ -91.065300873448095, 32.699075491009893 ], [ -91.065440948029106, 32.699147948439425 ], [ -91.065588295883359, 32.699207444997796 ], [ -91.065753076284196, 32.699240289814419 ], [ -91.06588906907146, 32.699322280264376 ] ] } },
{ "type": "Feature", "properties": { "station_id": 3, "station_ft": -5224.4, "width_ft": 1420.0, "flag": "ok", "lon": -91.059721, "lat": 32.699688, "survey_id": "LM_07_FMB_20260507_CS_4786_4748", "date": "2026-05-07 00:00:00+00:00", "method": "lines" }, "geometry": { "type": "LineString", "coordinates": [ [ -91.05873359930348, 32.69920398747967 ], [ -91.058877335043476, 32.699263485797587 ], [ -91.05900341668449, 32.699354748715812 ], [ -91.059150453207835, 32.699424479445192 ], [ -91.059285114063158, 32.699495325838228 ], [ -91.059429826499951, 32.699558912639247 ], [ -91.059573706823471, 32.699624153362421 ], [ -91.059721283598876, 32.699688190335984 ], [ -91.059862707935778, 32.699747205841753 ], [ -91.060019513750504, 32.699798793750809 ], [ -91.060165644256514, 32.699848794051796 ], [ -91.060309743997422, 32.69992084976387 ], [ -91.060451908418756, 32.699986868590997 ], [ -91.060593352529381, 32.700052150205053 ], [ -91.060735260961195, 32.700114432499291 ], [ -91.060882777368889, 32.700182921204316 ], [ -91.061027707126271, 32.700245020619647 ], [ -91.061156216570609, 32.700322634816821 ], [ -91.061295183033764, 32.700394856229586 ], [ -91.061439785167309, 32.700460529736148 ], [ -91.061587784027793, 32.700524204944934 ], [ -91.061731224352044, 32.70059095792071 ], [ -91.061868727702176, 32.700659146511285 ], [ -91.062017233985927, 32.700721141933776 ], [ -91.062159640788309, 32.700776521426867 ], [ -91.062314118426656, 32.70083729961992 ], [ -91.062453545630277, 32.700894097388677 ], [ -91.062599923147545, 32.700954153133573 ], [ -91.062748267448242, 32.701020106334113 ], [ -91.062886308697415, 32.701086201345099 ], [ -91.063027749335092, 32.701154558714741 ], [ -91.063177198163316, 32.701208465916721 ], [ -91.06333064694266, 32.701254435133961 ], [ -91.063488534625677, 32.701302631755006 ], [ -91.063630253682945, 32.701365268916938 ], [ -91.063757238656066, 32.701458720129182 ], [ -91.063909210321157, 32.701510881327557 ], [ -91.064048652895693, 32.701577296912617 ], [ -91.064201647048876, 32.701631210177482 ], [ -91.064349613012425, 32.701690375405853 ], [ -91.064494690097632, 32.701749941437399 ], [ -91.064638496954885, 32.701809349687949 ], [ -91.064781480746774, 32.701875304653868 ], [ -91.064930434620493, 32.701939904491233 ], [ -91.065067782042405, 32.702004380696692 ], [ -91.065208780017002, 32.702073918523091 ], [ -91.065358811420055, 32.702139007510283 ], [ -91.065499063791151, 32.702200771899506 ], [ -91.065642585915597, 32.702268893200497 ], [ -91.065778334544106, 32.702340413280744 ], [ -91.065923826559143, 32.702406791421119 ], [ -91.066066309013493, 32.702466893770449 ], [ -91.066214209574099, 32.702525699162649 ], [ -91.066365365602337, 32.702585062461132 ], [ -91.066508677298685, 32.702643207200452 ], [ -91.066654884880421, 32.702705540529351 ], [ -91.066799372872708, 32.702764283117894 ], [ -91.066943306147166, 32.70283080713984 ], [ -91.067082200941286, 32.702905219984338 ], [ -91.067223097405702, 32.702973850763975 ] ] } },
{ "type": "Feature", "properties": { "station_id": 4, "station_ft": -4254.8, "width_ft": 1552.1, "flag": "ok", "lon": -91.058013, "lat": 32.702243, "survey_id": "LM_07_FMB_20260507_CS_4786_4748", "date": "2026-05-07 00:00:00+00:00", "method": "lines" }, "geometry": { "type": "LineString", "coordinates": [ [ -91.0563953838586, 32.701603237444729 ], [ -91.056537411721365, 32.701676407731206 ], [ -91.056668837526942, 32.701761183010369 ], [ -91.056817012122167, 32.701810433270417 ], [ -91.056981039881819, 32.701842441789132 ], [ -91.057137144459986, 32.701883400449368 ], [ -91.057270140026944, 32.701957089117613 ], [ -91.057412576131796, 32.70203641308769 ], [ -91.057559321955779, 32.702085863681127 ], [ -91.057720701591819, 32.702131903082368 ], [ -91.057872380826396, 32.702184320375352 ], [ -91.058012703999836, 32.702243454294639 ], [ -91.058168129508246, 32.702296838783077 ], [ -91.058316435720286, 32.702350154217982 ], [ -91.058457009278484, 32.702416047393804 ], [ -91.058603493563695, 32.702481274113644 ], [ -91.05874336902076, 32.702549150308272 ], [ -91.058885540679853, 32.702611598144088 ], [ -91.059030090748152, 32.702674692124475 ], [ -91.059174309776978, 32.702741002535738 ], [ -91.059315600612848, 32.702806946491123 ], [ -91.059470689163547, 32.702854724310477 ], [ -91.059631150119785, 32.702891338911613 ], [ -91.059783964472686, 32.702931132026158 ], [ -91.059935281338085, 32.702986819486192 ], [ -91.060089208134684, 32.703035400397702 ], [ -91.060235715162889, 32.703091060356542 ], [ -91.06037446528596, 32.70317232657591 ], [ -91.060507619406522, 32.703244883670365 ], [ -91.060651063227525, 32.703315567562043 ], [ -91.060797717163936, 32.70337727303415 ], [ -91.060947757847629, 32.703435605134075 ], [ -91.061090621553916, 32.703490845170997 ], [ -91.061243250477119, 32.703543719927616 ], [ -91.061394669216867, 32.703591489589762 ], [ -91.061544917577763, 32.70363932086871 ], [ -91.061697958484729, 32.703698733854786 ], [ -91.061843698750053, 32.70375585356733 ], [ -91.061988196347485, 32.703815947935567 ], [ -91.062135080667645, 32.703881772312933 ], [ -91.062270643962037, 32.70394653604918 ], [ -91.062411074588496, 32.704018060498512 ], [ -91.062554440686057, 32.70408698334986 ], [ -91.062702171113514, 32.704156678688506 ], [ -91.062848805853491, 32.704207689078729 ], [ -91.063001357805803, 32.704258693725258 ], [ -91.063155872594564, 32.704303309698723 ], [ -91.063306348650727, 32.704354875206697 ], [ -91.063456881215956, 32.704409298700185 ], [ -91.063607728747769, 32.704458635298792 ], [ -91.063760522801232, 32.704511368030388 ], [ -91.063908070721354, 32.704570508196575 ], [ -91.06405329739809, 32.704632053109933 ], [ -91.064190278674559, 32.704690952423633 ], [ -91.064334010229516, 32.704760448192644 ], [ -91.064481988376045, 32.704828435685279 ], [ -91.064624091351391, 32.704893433744914 ], [ -91.064767046904038, 32.70495532019568 ], [ -91.064914229659024, 32.705009404368433 ], [ -91.065062950556353, 32.705064797727097 ], [ -91.06521181538524, 32.705121730228747 ], [ -91.065361608285016, 32.705180882613547 ], [ -91.065511215866806, 32.705241218072061 ], [ -91.065649958994555, 32.705300792605016 ], [ -91.065799376001507, 32.705353680507528 ], [ -91.065955374324275, 32.705408206107712 ], [ -91.066104359532005, 32.705460024905712 ], [ -91.066256882922829, 32.705515010476091 ], [ -91.066400505920811, 32.705566831399757 ], [ -91.066551506036063, 32.705626306225966 ], [ -91.06669684943428, 32.705685785090743 ], [ -91.066839510766599, 32.705747231724629 ], [ -91.066981461567707, 32.705813190116537 ], [ -91.067136426287874, 32.705872338054512 ], [ -91.067278389716463, 32.705927933310072 ], [ -91.067437175110243, 32.705977301756114 ], [ -91.067589269571741, 32.706015522267379 ], [ -91.067732292189561, 32.706093071618774 ] ] } },
{ "type": "Feature", "properties": { "station_id": 5, "station_ft": -3362.0, "width_ft": 1485.3, "flag": "ok", "lon": -91.05668, "lat": 32.704985, "survey_id": "LM_07_FMB_20260507_CS_4786_4748", "date": "2026-05-07 00:00:00+00:00", "method": "lines" }, "geometry": { "type": "LineString", "coordinates": [ [ -91.054312340908922, 32.70413757661413 ], [ -91.054430179141576, 32.704185821869672 ], [ -91.054572987681098, 32.704250717327078 ], [ -91.054733881775192, 32.704288600825791 ], [ -91.054883159161534, 32.704337324877876 ], [ -91.055046191684198, 32.704370275805246 ], [ -91.055793551119265, 32.704648957059071 ], [ -91.055934550547278, 32.704706990150292 ], [ -91.056083991320264, 32.704767612910558 ], [ -91.056229884370694, 32.704827760887376 ], [ -91.056384229850934, 32.704863701591186 ], [ -91.056530934141364, 32.70492362451359 ], [ -91.056679861871658, 32.704985073699142 ], [ -91.056818070766838, 32.705055600081586 ], [ -91.056967145046173, 32.705115069670349 ], [ -91.057123299013838, 32.705169495398948 ], [ -91.057262890161496, 32.705221983126236 ], [ -91.057414995181972, 32.705274206378697 ], [ -91.057559104951181, 32.705338760844455 ], [ -91.057699210615851, 32.70541051156615 ], [ -91.057843386979741, 32.705471244667145 ], [ -91.057996640428726, 32.705520574119603 ], [ -91.058146755583152, 32.705571928781033 ], [ -91.058299781428872, 32.70563329732785 ], [ -91.058447488355114, 32.705676172110991 ], [ -91.05861218803247, 32.705705783128884 ], [ -91.058773076416458, 32.705746519029283 ], [ -91.058915775369272, 32.705801268307141 ], [ -91.059066495863846, 32.705854815880947 ], [ -91.059219656134061, 32.705920663232554 ], [ -91.059353722027993, 32.705989121442634 ], [ -91.059493915039099, 32.706063453995775 ], [ -91.059633419657388, 32.706136910283526 ], [ -91.059776575557393, 32.706199736361867 ], [ -91.059924198386526, 32.706252036603303 ], [ -91.06007838138251, 32.70630350242299 ], [ -91.060230708946108, 32.706346705395553 ], [ -91.060385795055097, 32.706389287125923 ], [ -91.060537151395422, 32.706444863537286 ], [ -91.060677092933233, 32.706512049964466 ], [ -91.060821007305421, 32.706575914644738 ], [ -91.06097394825963, 32.706630464174424 ], [ -91.061120037260068, 32.706681920655178 ], [ -91.061272795005735, 32.706737900127862 ], [ -91.061421275180507, 32.706791540801753 ], [ -91.061577580870733, 32.706832052599964 ], [ -91.06173589659663, 32.70687183835426 ], [ -91.061886811061669, 32.706920874507752 ], [ -91.062031612084468, 32.706977641396286 ], [ -91.062184080913795, 32.70703796507761 ], [ -91.062316688932967, 32.707114481030139 ], [ -91.062469894607077, 32.70716935811285 ], [ -91.06262407903013, 32.707208698754812 ], [ -91.062778438023543, 32.707257548775765 ], [ -91.06292591672964, 32.707307702862749 ], [ -91.063070804258231, 32.707374939866796 ], [ -91.063217413912028, 32.707430183539863 ], [ -91.06337081605173, 32.707485085418547 ], [ -91.063515992801257, 32.70754401975973 ], [ -91.063661916420799, 32.707602702506264 ], [ -91.063814218117088, 32.707650106018022 ], [ -91.063970135899709, 32.707698588390713 ], [ -91.064118242222108, 32.707749808663117 ], [ -91.064262323759664, 32.70781375132951 ], [ -91.064402598865769, 32.707885273445754 ], [ -91.06454876328462, 32.707953463424815 ], [ -91.06469586515405, 32.708012990221206 ], [ -91.064843440817953, 32.708058798713921 ], [ -91.064999900502357, 32.708101779664709 ], [ -91.065153841148586, 32.708154696890915 ], [ -91.065297450314603, 32.708212346108056 ], [ -91.065458567125731, 32.708264204817823 ], [ -91.06560544606927, 32.708304271529578 ], [ -91.065754702674738, 32.708356886228295 ], [ -91.065904485422053, 32.708414086594622 ], [ -91.066049971207207, 32.708470514753465 ], [ -91.066204039382853, 32.708522962833797 ], [ -91.066349497162875, 32.708584008580509 ] ] } },
{ "type": "Feature", "properties": { "station_id": 6, "station_ft": -2415.4, "width_ft": 1351.0, "flag": "ok", "lon": -91.054696, "lat": 32.707334, "survey_id": "LM_07_FMB_20260507_CS_4786_4748", "date": "2026-05-07 00:00:00+00:00", "method": "lines" }, "geometry": { "type": "LineString", "coordinates": [ [ -91.053013172438867, 32.706827264658131 ], [ -91.053167062781952, 32.706866949594463 ], [ -91.053317836517465, 32.706923335223728 ], [ -91.053457981085288, 32.706992066934944 ], [ -91.053616331308589, 32.707024332384542 ], [ -91.053766376916329, 32.707079099430103 ], [ -91.053928008756202, 32.707107194948222 ], [ -91.054081499940736, 32.707149656585337 ], [ -91.054224404502037, 32.707225930807439 ], [ -91.054390918681094, 32.707238413885889 ], [ -91.054546864754712, 32.70728303221064 ], [ -91.054695584285369, 32.707334453111429 ], [ -91.054841737117869, 32.707394134059577 ], [ -91.054996046971908, 32.707445302414776 ], [ -91.055143555363941, 32.707495658487595 ], [ -91.05529276109975, 32.707558894003817 ], [ -91.055436354111862, 32.707615428408175 ], [ -91.055580875532058, 32.707678223450571 ], [ -91.055732376519288, 32.707731853471245 ], [ -91.055893672938737, 32.707762311815344 ], [ -91.056048778530567, 32.707799182691922 ], [ -91.056204473371764, 32.707848665239943 ], [ -91.056357388841818, 32.707896157258297 ], [ -91.056508926046817, 32.707937912989863 ], [ -91.056657492190396, 32.708002304771526 ], [ -91.05679434800247, 32.708065692669848 ], [ -91.056954951630146, 32.708111023230565 ], [ -91.057107553506057, 32.708151671973106 ], [ -91.05726524417291, 32.708198531152746 ], [ -91.057415372311837, 32.708250984871491 ], [ -91.057561906089106, 32.708301040715313 ], [ -91.05771677236622, 32.708348354776973 ], [ -91.057873105828705, 32.708388074783038 ], [ -91.058029338144166, 32.708427272171626 ], [ -91.058178727247252, 32.708484649098502 ], [ -91.058331317085688, 32.708535796198476 ], [ -91.058479762329924, 32.708584960718355 ], [ -91.058633431657384, 32.708636870384083 ], [ -91.058774764364884, 32.708702923681507 ], [ -91.058919283106704, 32.708760932952465 ], [ -91.059073703726824, 32.708801101660363 ], [ -91.059232778884493, 32.708842040367429 ], [ -91.059389844288347, 32.708887663291229 ], [ -91.059538609729103, 32.708936054610717 ], [ -91.059686338993004, 32.708992917229644 ], [ -91.059829249444078, 32.709036862299421 ], [ -91.059995631537589, 32.709080836219584 ], [ -91.060146189976663, 32.709121658992153 ], [ -91.060306456318457, 32.709169020586856 ], [ -91.060458412868869, 32.709209916934519 ], [ -91.060609458392932, 32.709266814232329 ], [ -91.060752662132913, 32.709322739677013 ], [ -91.060904483157231, 32.709378944996054 ], [ -91.061056508062592, 32.709432125433466 ], [ -91.061208200604355, 32.709476402995229 ], [ -91.061361702022722, 32.709523281290927 ], [ -91.061511332348417, 32.709569823886604 ], [ -91.061663063720545, 32.709626962993902 ], [ -91.061813450676013, 32.709678503648369 ], [ -91.06196347184077, 32.70972504342884 ], [ -91.062115018030582, 32.709767341429078 ], [ -91.062273585756955, 32.709809378408131 ], [ -91.062428994270476, 32.709850746431684 ], [ -91.062575931386434, 32.709909864548912 ], [ -91.062730627014147, 32.70996739810721 ], [ -91.062876937325839, 32.710017338966217 ], [ -91.063030478937449, 32.710064874133124 ], [ -91.063183141646817, 32.710112386271753 ], [ -91.063333316126148, 32.710169587403144 ], [ -91.063484228580606, 32.710221645078114 ], [ -91.063627069310002, 32.710272539449555 ], [ -91.063787150824865, 32.710324625417563 ], [ -91.063939737161704, 32.710370516656326 ], [ -91.064088601916424, 32.710414531245917 ], [ -91.064248007527837, 32.710459530231034 ], [ -91.064399985235184, 32.710502537102798 ], [ -91.064552858765609, 32.710555709212841 ], [ -91.064695316834388, 32.710611332372835 ], [ -91.064849212733904, 32.710666228580827 ], [ -91.06499530555439, 32.710717075355134 ], [ -91.065150256583067, 32.710761769138415 ], [ -91.065305489151712, 32.710809181613719 ], [ -91.065454948045613, 32.710862041607442 ], [ -91.065605413385626, 32.710918744140308 ], [ -91.065752583201188, 32.710977939191551 ], [ -91.065902705113288, 32.711024418619793 ], [ -91.066060900233452, 32.71106018680215 ], [ -91.066216845734445, 32.711099183510377 ], [ -91.066368064087655, 32.711156429873057 ], [ -91.066513001774368, 32.711212943593807 ], [ -91.0666653565725, 32.711261992510266 ], [ -91.066828479212006, 32.711292041869214 ], [ -91.066988554809612, 32.7113231530479 ], [ -91.067115161180922, 32.711387990800468 ] ] } },
{ "type": "Feature", "properties": { "station_id": 7, "station_ft": -1425.7, "width_ft": 1301.4, "flag": "ok", "lon": -91.053171, "lat": 32.710175, "survey_id": "LM_07_FMB_20260507_CS_4786_4748", "date": "2026-05-07 00:00:00+00:00", "method": "lines" }, "geometry": { "type": "LineString", "coordinates": [ [ -91.050709449828275, 32.709542341632734 ], [ -91.050843342397044, 32.709577003882188 ], [ -91.050995827552029, 32.709615352283862 ], [ -91.051160517780602, 32.709639174032446 ], [ -91.051311058211439, 32.709690368466269 ], [ -91.051467708608243, 32.709737212930484 ], [ -91.051617390566165, 32.709770546749461 ], [ -91.051769243188303, 32.709831297807639 ], [ -91.051919800540105, 32.709888511384342 ], [ -91.052077727772442, 32.709920258142702 ], [ -91.05223960154575, 32.709945358839242 ], [ -91.052393137718397, 32.709976828289705 ], [ -91.052551052670012, 32.710019101363869 ], [ -91.052700039240364, 32.710075057870945 ], [ -91.05285366115406, 32.710125133545546 ], [ -91.053008071418375, 32.710160060783316 ], [ -91.053171161485082, 32.710174763510274 ], [ -91.054269138781834, 32.710467876067739 ], [ -91.054415875659828, 32.710494545212768 ], [ -91.054571471255727, 32.710531085014793 ], [ -91.054729169507283, 32.71057852350706 ], [ -91.054878412813977, 32.710633761751765 ], [ -91.055032089341992, 32.710682405172548 ], [ -91.055188919150652, 32.710714787320427 ], [ -91.05534684750333, 32.710758403058342 ], [ -91.055493282786813, 32.7108200878967 ], [ -91.055646213254931, 32.710852573981285 ], [ -91.055812446647678, 32.710873824282324 ], [ -91.055970259162038, 32.710894930818405 ], [ -91.056132920617969, 32.710924775862445 ], [ -91.056287169024557, 32.710967478323674 ], [ -91.056439600598992, 32.711022805422694 ], [ -91.056594276990225, 32.711066164202279 ], [ -91.056746530522148, 32.71110335267683 ], [ -91.056900154595809, 32.711157298990969 ], [ -91.057047273096856, 32.711214882380062 ], [ -91.05720108782586, 32.711264127385625 ], [ -91.057361877742338, 32.711291509074279 ], [ -91.057519395991662, 32.711316325080936 ], [ -91.057686212895604, 32.711337294486889 ], [ -91.057842782461535, 32.711369289757471 ], [ -91.057989669163987, 32.711426186249234 ], [ -91.058145928912225, 32.711472200376164 ], [ -91.058303088145422, 32.711516916922562 ], [ -91.058455935389517, 32.711559018830137 ], [ -91.058613408336242, 32.71159422348957 ], [ -91.058767082221564, 32.711626014322782 ], [ -91.058923799504328, 32.711660205806133 ], [ -91.059084659953101, 32.711692064676853 ], [ -91.059238683499203, 32.711726820509639 ], [ -91.05939201144345, 32.711771942899119 ], [ -91.059547059302403, 32.711812767397312 ], [ -91.059715148365768, 32.711853928254683 ], [ -91.059857818911439, 32.711895868267149 ], [ -91.060013977456492, 32.711945233278414 ], [ -91.06016733665831, 32.711986093841105 ], [ -91.060327779201415, 32.712014434965887 ], [ -91.06048532823759, 32.712042792662707 ], [ -91.060633170340736, 32.712112983758225 ], [ -91.060780727770805, 32.712171990328052 ], [ -91.06093809889893, 32.712206367552625 ], [ -91.061097340088807, 32.712234852622039 ], [ -91.061252062871517, 32.712271444146971 ], [ -91.061415936020865, 32.712301825318939 ], [ -91.061568293967596, 32.712335351664784 ], [ -91.06172085266914, 32.712385560523536 ], [ -91.061875436393834, 32.712424927616084 ], [ -91.06203350018032, 32.712460563662709 ], [ -91.062192041833228, 32.712502875867756 ], [ -91.062340758846148, 32.71254832350261 ], [ -91.062501869782636, 32.712590703335778 ], [ -91.062656495816782, 32.712627320730206 ], [ -91.062812211635602, 32.712661788173968 ], [ -91.06297318043616, 32.712714695054068 ], [ -91.063114220299212, 32.712763512024026 ], [ -91.063268900373842, 32.712810627219007 ], [ -91.063425023273766, 32.712847207893482 ], [ -91.063583654481661, 32.712884377926464 ], [ -91.063739101744204, 32.712921787227302 ], [ -91.063892849636403, 32.712958106120439 ], [ -91.06404711009499, 32.713005470768778 ], [ -91.064198151492278, 32.713052688970244 ], [ -91.064354508292169, 32.713094049004745 ], [ -91.064510357415571, 32.713136703985903 ], [ -91.06467063290313, 32.713172131719595 ], [ -91.064829846757789, 32.713200969265358 ], [ -91.06498186305717, 32.713240127453602 ], [ -91.065138859870856, 32.7132799714648 ], [ -91.065292015988717, 32.713323356257142 ], [ -91.065445600282445, 32.713363383915748 ], [ -91.065606301305621, 32.713398972978169 ], [ -91.065756144043775, 32.713454524689119 ], [ -91.065910509913081, 32.713498642877994 ], [ -91.066064493196635, 32.713531825095096 ], [ -91.066223978857948, 32.713561813489157 ], [ -91.066384953663245, 32.713595063557847 ], [ -91.066539758330649, 32.71362925663874 ], [ -91.066706887622701, 32.713643836004607 ], [ -91.066860355433064, 32.713697247915938 ], [ -91.067006735485023, 32.713746606339519 ], [ -91.06715734176322, 32.713800007573639 ], [ -91.06731432680337, 32.713838309652566 ], [ -91.06748230574847, 32.713865141156617 ], [ -91.067630676633385, 32.713903548274573 ], [ -91.067781120091567, 32.713964728049262 ], [ -91.067933632250075, 32.714012538161569 ], [ -91.068092139870785, 32.714046130511093 ] ] } },
{ "type": "Feature", "properties": { "station_id": 8, "station_ft": -520.4, "width_ft": 1173.9, "flag": "ok", "lon": -91.052111, "lat": 32.713059, "survey_id": "LM_07_FMB_20260507_CS_4786_4748", "date": "2026-05-07 00:00:00+00:00", "method": "lines" }, "geometry": { "type": "LineString", "coordinates": [ [ -91.050214733147413, 32.712686531264957 ], [ -91.050373887619202, 32.712704476574444 ], [ -91.05052916108535, 32.712741132313951 ], [ -91.05068323515205, 32.712786371112479 ], [ -91.050839704259218, 32.712826318167693 ], [ -91.050997705984187, 32.712858505852253 ], [ -91.05116478148382, 32.712870962857131 ], [ -91.051325580995339, 32.712895272795372 ], [ -91.051480992149635, 32.712932916664485 ], [ -91.051638140990519, 32.712964174226123 ], [ -91.051796964204314, 32.712993525650383 ], [ -91.05195759029489, 32.713016379467888 ], [ -91.052111382827505, 32.713058951686243 ], [ -91.052269832009927, 32.713094158707875 ], [ -91.052430890492658, 32.713118355725655 ], [ -91.052586923095348, 32.713152256965657 ], [ -91.05274594362416, 32.71318166105565 ], [ -91.052903850696737, 32.713210136234409 ], [ -91.053061925072569, 32.713247212792297 ], [ -91.053225291024361, 32.713271259379439 ], [ -91.053386485516299, 32.71327978856506 ], [ -91.053547466074804, 32.713302308267217 ], [ -91.05370641713516, 32.713322998982456 ], [ -91.053862492700972, 32.713358161708967 ], [ -91.054019070644785, 32.713411215353581 ], [ -91.054177493043881, 32.713451146992242 ], [ -91.054328925463579, 32.713486913835929 ], [ -91.054491282573593, 32.713506648870101 ], [ -91.054651278832779, 32.713531894240866 ], [ -91.054810951996046, 32.713553430632288 ], [ -91.054971511450248, 32.713576006828326 ], [ -91.055134290663361, 32.713607721733666 ], [ -91.055289880243308, 32.713634860944616 ], [ -91.055450257008332, 32.713654853208901 ], [ -91.05560955188804, 32.713689886099814 ], [ -91.055765313657957, 32.713738351523986 ], [ -91.055920547833466, 32.71378181787815 ], [ -91.056073853242381, 32.713815840481217 ], [ -91.056232937780266, 32.713844963826958 ], [ -91.056395166034534, 32.713860629409645 ], [ -91.056553242457753, 32.713881650676221 ], [ -91.056714206527218, 32.713909829274755 ], [ -91.056873105119308, 32.713940052991951 ], [ -91.057032576865396, 32.713976649354557 ], [ -91.05719092670104, 32.714011273586621 ], [ -91.05735098588228, 32.714044238478081 ], [ -91.057508882473968, 32.71406696294693 ], [ -91.057673977922633, 32.714087311045915 ], [ -91.057827890745159, 32.714120062852459 ], [ -91.057974165835063, 32.714156954277776 ], [ -91.058137973534855, 32.714195036376061 ], [ -91.058300751809128, 32.714226363015754 ], [ -91.058462619595446, 32.714245600664057 ], [ -91.058625224981057, 32.714267665278307 ], [ -91.058786305928351, 32.714286137880173 ], [ -91.058945449966018, 32.714298162368806 ], [ -91.059107743494977, 32.714317781758197 ], [ -91.059265517969521, 32.71436153132278 ], [ -91.059416179727876, 32.714397983569206 ], [ -91.059577603828572, 32.714430717677409 ], [ -91.059739383315048, 32.714455039054826 ], [ -91.059892158261064, 32.714479495355576 ], [ -91.060054985962623, 32.71450875715734 ], [ -91.060211673772997, 32.714538632348393 ], [ -91.060374023884989, 32.71456921663912 ], [ -91.060530860082807, 32.714601316045531 ], [ -91.060688008227118, 32.71463569573104 ], [ -91.060837104449163, 32.714667592572518 ], [ -91.061472101176506, 32.714813177069495 ], [ -91.061636178662198, 32.714848037425497 ], [ -91.061786904360005, 32.714880198695028 ], [ -91.061952097263301, 32.71490042965813 ], [ -91.062115318788997, 32.714913937720688 ], [ -91.062278890321608, 32.714930605010366 ], [ -91.062436726340948, 32.714953544523127 ], [ -91.062593801120869, 32.714982809409271 ], [ -91.062752165929538, 32.715018799830986 ], [ -91.062909778757572, 32.715058313888839 ], [ -91.063069879767312, 32.715095806010538 ], [ -91.063212660866029, 32.715130457289057 ], [ -91.06337693413758, 32.715165369220756 ], [ -91.063546688144228, 32.715182493005059 ], [ -91.063701675398462, 32.715198961345386 ], [ -91.063867284146596, 32.71523004331074 ], [ -91.064017079788471, 32.715263609497541 ], [ -91.064175730263869, 32.715298662251115 ], [ -91.064339942662698, 32.715333875349529 ], [ -91.0644819672751, 32.715367348314508 ], [ -91.064654027986492, 32.715400288859698 ], [ -91.0648144602538, 32.715418482440747 ], [ -91.064974492253853, 32.715439509590958 ], [ -91.065134886520042, 32.71546100151938 ], [ -91.065294744857937, 32.715480599125428 ], [ -91.065453503136837, 32.715512682023203 ], [ -91.065611417617802, 32.715553097144145 ], [ -91.065768134254412, 32.715589973450136 ], [ -91.065924269581828, 32.7156234444072 ], [ -91.066084133194153, 32.71565158939314 ], [ -91.066240234969356, 32.715680800367537 ], [ -91.066400210603092, 32.715714661275904 ], [ -91.066561303058307, 32.715749944693975 ], [ -91.066720754825056, 32.715775287786933 ], [ -91.06687381156442, 32.715805917069517 ], [ -91.067032301702952, 32.715840940073925 ], [ -91.067195560507514, 32.715866782387359 ], [ -91.06735801874548, 32.715886033003365 ], [ -91.067514323294276, 32.715920106040997 ], [ -91.067670737899377, 32.715959785207971 ], [ -91.067827204345761, 32.71600160819353 ], [ -91.067983067912664, 32.716021528738459 ], [ -91.068152287498293, 32.716020922244994 ], [ -91.068312635561995, 32.716048401468967 ], [ -91.068466852627424, 32.716085646118856 ], [ -91.068618227470253, 32.716132939913876 ] ] } },
{ "type": "Feature", "properties": { "station_id": 9, "station_ft": 331.3, "width_ft": 1077.4, "flag": "ok", "lon": -91.050347, "lat": 32.715888, "survey_id": "LM_07_FMB_20260507_CS_4786_4748", "date": "2026-05-07 00:00:00+00:00", "method": "lines" }, "geometry": { "type": "LineString", "coordinates": [ [ -91.048859519054702, 32.715761256734361 ], [ -91.048888173394133, 32.715758647721366 ], [ -91.049048369131683, 32.715792391602363 ], [ -91.049208645979633, 32.715811705273019 ], [ -91.0493699340212, 32.715823400528834 ], [ -91.049543420795018, 32.715795226988241 ], [ -91.049704428262345, 32.715800244275606 ], [ -91.049860084681285, 32.715823321194065 ], [ -91.050023610279453, 32.715846435901859 ], [ -91.050181183946407, 32.715869282340847 ], [ -91.050346656704647, 32.715887905682152 ], [ -91.050506218597107, 32.715903264069858 ], [ -91.050670879098703, 32.715913811193907 ], [ -91.050826879142377, 32.715934988596715 ], [ -91.05098847449014, 32.71596462720909 ], [ -91.051152096474297, 32.715979467385807 ], [ -91.051311010694178, 32.716007278687485 ], [ -91.051465960991408, 32.716043440898133 ], [ -91.051628743633088, 32.71606705281139 ], [ -91.051791974846225, 32.716081811429326 ], [ -91.051954828299117, 32.716094016486856 ], [ -91.052112913689825, 32.716107539946201 ], [ -91.052274471830145, 32.716124340933618 ], [ -91.052450404419474, 32.716129571194799 ], [ -91.052598434171472, 32.716141997489743 ], [ -91.05276477599601, 32.716159403421045 ], [ -91.052924861702607, 32.716179180522296 ], [ -91.053083338024891, 32.71620083594928 ], [ -91.053242998994051, 32.716212205516811 ], [ -91.053406632640787, 32.716216185808889 ], [ -91.05357478895337, 32.716224674725993 ], [ -91.053733694329807, 32.716247261961655 ], [ -91.0538994022926, 32.716270688192616 ], [ -91.054049421070118, 32.71629986726515 ], [ -91.054210734911251, 32.716330767556236 ], [ -91.054372634641254, 32.71634962613259 ], [ -91.054536326949091, 32.716360859954861 ], [ -91.054697793165531, 32.716362157548247 ], [ -91.05485857429953, 32.716379317655253 ], [ -91.055020437292143, 32.716409746643023 ], [ -91.055184197279104, 32.716421282210469 ], [ -91.05534171313252, 32.716436673258556 ], [ -91.055500657063902, 32.716455739462887 ], [ -91.055663004163961, 32.716469563925259 ], [ -91.055827741572472, 32.716485353708244 ], [ -91.055988611892488, 32.716505452399431 ], [ -91.056146964023313, 32.716527818830038 ], [ -91.056308464258706, 32.716549425684462 ], [ -91.056471751585107, 32.7165668442954 ], [ -91.056629121288509, 32.716584158862482 ], [ -91.056795043779417, 32.7166058495907 ], [ -91.056952811314545, 32.716628163367155 ], [ -91.057112351069563, 32.716636395173808 ], [ -91.057276876965759, 32.716638083872112 ], [ -91.057439969217711, 32.716643464211955 ], [ -91.057599817950745, 32.71666576515382 ], [ -91.057759940653142, 32.716697931970238 ], [ -91.057918326378584, 32.716724227517126 ], [ -91.05808100254535, 32.716746456498768 ], [ -91.058241276870419, 32.716765154442619 ], [ -91.058405462092409, 32.716784955830626 ], [ -91.058566596984008, 32.71680136699738 ], [ -91.05872546271047, 32.716806660095379 ], [ -91.058888369150523, 32.716809070216804 ], [ -91.059050389611997, 32.716826547796565 ], [ -91.059212704791832, 32.71684418847736 ], [ -91.059376321850564, 32.716862150541694 ], [ -91.059537894457819, 32.716884494028548 ], [ -91.059696268734498, 32.716909275182211 ], [ -91.059852498288677, 32.716938301294256 ], [ -91.060017261495489, 32.716965106383626 ], [ -91.060175472586479, 32.716981834501695 ], [ -91.06033900109999, 32.716996718205714 ], [ -91.060497923653841, 32.717021055118416 ], [ -91.060659241452768, 32.717044003695051 ], [ -91.060823564442785, 32.717052533058542 ], [ -91.060982195059779, 32.71705691661127 ], [ -91.061144806030185, 32.717066884734059 ], [ -91.061308133296365, 32.717088996626444 ], [ -91.061465426625148, 32.717116777367977 ], [ -91.061631449217785, 32.717142390844131 ], [ -91.061788208417084, 32.717156404827691 ], [ -91.061952982506227, 32.717168557756779 ], [ -91.062117476914509, 32.717174252985544 ], [ -91.062272365374938, 32.717194048322405 ], [ -91.062439561133488, 32.717204125172664 ], [ -91.06259629952342, 32.717215554801662 ], [ -91.06275932621044, 32.717244564797859 ], [ -91.062922094089032, 32.717269811354726 ], [ -91.063079579010918, 32.71728500076636 ], [ -91.063242778903401, 32.717299359581226 ], [ -91.063403039814432, 32.717324153007425 ], [ -91.063562017154922, 32.717350987109072 ], [ -91.063723911956998, 32.717356750371053 ], [ -91.063888488323258, 32.717360408486904 ], [ -91.064047132993636, 32.717378339304638 ], [ -91.064211778339597, 32.717406403777709 ], [ -91.06436761807953, 32.717423195419059 ], [ -91.064534207725998, 32.717446630361394 ], [ -91.064693688258117, 32.717467221004156 ], [ -91.064855187765417, 32.717480323404104 ], [ -91.065015430986236, 32.717494890125309 ], [ -91.065176398199554, 32.717514509328979 ], [ -91.065335337135124, 32.717532490898108 ], [ -91.065496090988404, 32.71755378815714 ], [ -91.065659764672773, 32.717570285369916 ], [ -91.065824043184321, 32.717585211625021 ], [ -91.065982001311653, 32.717598663291497 ], [ -91.066142868045446, 32.717613774981388 ], [ -91.066311815126127, 32.717627079049493 ], [ -91.06647228855222, 32.717634001282057 ], [ -91.066636480773468, 32.717630402696265 ], [ -91.06679468876554, 32.717638519935051 ], [ -91.066955439738123, 32.717659402341603 ], [ -91.067113423920333, 32.717691762646311 ], [ -91.067276210347387, 32.717722939523426 ], [ -91.067436727883731, 32.717747066206137 ], [ -91.067592627969205, 32.71777108175656 ], [ -91.067754880395256, 32.717796545058341 ], [ -91.067913376825643, 32.717820022898451 ], [ -91.068080178280368, 32.71784125345058 ], [ -91.068242274973002, 32.717847696803993 ], [ -91.068317488481284, 32.717987785433657 ], [ -91.068400334832504, 32.717853558550665 ], [ -91.06844285187357, 32.717911797420008 ] ] } },
{ "type": "Feature", "properties": { "station_id": 10, "station_ft": 1042.2, "width_ft": 1569.2, "flag": "ok", "lon": -91.048487, "lat": 32.719242, "survey_id": "LM_07_FMB_20260507_CS_4786_4748", "date": "2026-05-07 00:00:00+00:00", "method": "lines" }, "geometry": { "type": "LineString", "coordinates": [ [ -91.046372304412714, 32.719257486144492 ], [ -91.046534877402138, 32.719282727131834 ], [ -91.046693977596362, 32.719288446202128 ], [ -91.046861567446612, 32.719290378173021 ], [ -91.047023366233702, 32.71927571491986 ], [ -91.047181447127684, 32.719259533366149 ], [ -91.047342747126649, 32.71925564735232 ], [ -91.047503572771788, 32.719261574690869 ], [ -91.047673603614967, 32.719263959672809 ], [ -91.047833876274041, 32.719253508851608 ], [ -91.047992904461339, 32.719233748211032 ], [ -91.048158705889932, 32.719235881612754 ], [ -91.048322727953078, 32.719243081861364 ], [ -91.048486715102328, 32.719241761617319 ], [ -91.048646679015249, 32.719237550610892 ], [ -91.048807553071796, 32.719225089660732 ], [ -91.04897300677176, 32.719212134366991 ], [ -91.049127933529206, 32.719187749968555 ], [ -91.049290672564283, 32.719168681575148 ], [ -91.049457014431312, 32.719165175244349 ], [ -91.049619796865855, 32.719192115305205 ], [ -91.049781222450335, 32.719220244177023 ], [ -91.049945485099869, 32.719200698229081 ], [ -91.050107977284782, 32.719175061061392 ], [ -91.050270348306796, 32.71915882314017 ], [ -91.050435587540079, 32.71917189566939 ], [ -91.050592915217635, 32.719175393549641 ], [ -91.050757375056875, 32.719164255875782 ], [ -91.050918067786455, 32.71914945596621 ], [ -91.051076037885238, 32.719143934939041 ], [ -91.051245987141229, 32.719144281234335 ], [ -91.051409224100766, 32.719142824401125 ], [ -91.05157096739633, 32.719133349586322 ], [ -91.051734650576591, 32.719126749895786 ], [ -91.051896259003584, 32.719124807609688 ], [ -91.052056255716266, 32.719128727502088 ], [ -91.052216187845588, 32.719128717808438 ], [ -91.052384635181582, 32.719132259698803 ], [ -91.052545100408963, 32.719133812838393 ], [ -91.052709757058764, 32.719126904211031 ], [ -91.052870050390766, 32.719115155557937 ], [ -91.053032313619227, 32.719109881557685 ], [ -91.053193793444322, 32.719091941597242 ], [ -91.053357817888624, 32.719071155376049 ], [ -91.053516889679443, 32.719057021516477 ], [ -91.053684103180274, 32.719052790401228 ], [ -91.053834594903918, 32.719043240245554 ], [ -91.05400237248098, 32.719048405127161 ], [ -91.054170587443025, 32.71905145090286 ], [ -91.054331756408033, 32.719055637082548 ], [ -91.054496616184537, 32.719053726853929 ], [ -91.054655283505241, 32.719050065699882 ], [ -91.054817926333627, 32.719031291874948 ], [ -91.054977653508686, 32.719030098569377 ], [ -91.055141351860456, 32.719033388157989 ], [ -91.055303341461581, 32.719034571906803 ], [ -91.055471114807105, 32.719031132317149 ], [ -91.055633246134022, 32.719017610269375 ], [ -91.05577892126847, 32.719003413651166 ], [ -91.05595391494947, 32.718992290532249 ], [ -91.056120219993744, 32.718992239132234 ], [ -91.056280564572816, 32.71899499831266 ], [ -91.056443780780143, 32.718999086112262 ], [ -91.056608709407271, 32.719001763430789 ], [ -91.056768139087595, 32.718995840875166 ], [ -91.056920736481132, 32.718985423633868 ], [ -91.057420320391159, 32.718939471086607 ], [ -91.057579536920656, 32.71893135030755 ], [ -91.057741587997739, 32.718928022791353 ], [ -91.05790556424067, 32.71893350649129 ], [ -91.058058565163336, 32.718932787274362 ], [ -91.058227145412872, 32.718928789278223 ], [ -91.058390814933347, 32.718928530080937 ], [ -91.058553916430057, 32.718930445326968 ], [ -91.058716728211124, 32.71892463869888 ], [ -91.058877080286834, 32.718916345588504 ], [ -91.059042827799175, 32.718907800121585 ], [ -91.05920637152623, 32.71889596955841 ], [ -91.059364262698551, 32.718888871341264 ], [ -91.059529186476297, 32.71888294141862 ], [ -91.059690955838406, 32.718873044797299 ], [ -91.059855480915587, 32.718866099601392 ], [ -91.060015135049582, 32.718867922910434 ], [ -91.060179153078337, 32.718874613518913 ], [ -91.060342201218759, 32.718877983045793 ], [ -91.060505537737271, 32.718884814241669 ], [ -91.060669104439597, 32.71887597719342 ], [ -91.060830013711879, 32.718860147087582 ], [ -91.060993372300317, 32.718841718197119 ], [ -91.061155260011205, 32.71883421039518 ], [ -91.061317756151666, 32.71882977646392 ], [ -91.061478531959878, 32.718833514792031 ], [ -91.061638708783875, 32.718839675740377 ], [ -91.061804093931812, 32.718842507688777 ], [ -91.06196447458295, 32.718829785667268 ], [ -91.062125938681433, 32.71881821045902 ], [ -91.062288450569554, 32.718811658813401 ], [ -91.062456229091993, 32.718816949438697 ], [ -91.062616872559644, 32.718812552551206 ], [ -91.062781661998557, 32.71881808014858 ], [ -91.062946293625487, 32.71882033786531 ], [ -91.063106976559112, 32.718812669538181 ], [ -91.063270456676506, 32.718797315490846 ], [ -91.063429309923833, 32.718780586880207 ], [ -91.063589204408245, 32.718776055143749 ], [ -91.06375135596835, 32.718777144978695 ], [ -91.063919962086615, 32.718772342050073 ], [ -91.064075131052391, 32.718774351339626 ], [ -91.064244747023125, 32.718753821294257 ], [ -91.06440422042111, 32.718733514271619 ], [ -91.064565294404559, 32.718718118463634 ], [ -91.06472753208439, 32.718717749335738 ], [ -91.064889587629835, 32.718719112385735 ], [ -91.065050218040639, 32.718717075898034 ], [ -91.065212035671735, 32.718693098548655 ], [ -91.065373387873322, 32.718679926456097 ], [ -91.065540284020315, 32.718680766255936 ], [ -91.06569988912841, 32.718684588966866 ], [ -91.065867804400042, 32.718666952205076 ] ] } },
{ "type": "Feature", "properties": { "station_id": 11, "station_ft": 1920.5, "width_ft": 1715.6, "flag": "ok", "lon": -91.048596, "lat": 32.723112, "survey_id": "LM_07_FMB_20260507_CS_4786_4748", "date": "2026-05-07 00:00:00+00:00", "method": "lines" }, "geometry": { "type": "LineString", "coordinates": [ [ -91.047270696221076, 32.723454015160961 ], [ -91.047345183283966, 32.723412747910629 ], [ -91.047501233397838, 32.723373353344641 ], [ -91.047655503025965, 32.723326876601703 ], [ -91.047802245784396, 32.723270273722314 ], [ -91.047971069951629, 32.723258977713137 ], [ -91.048127339310014, 32.723226808508834 ], [ -91.048285763597974, 32.723199877611648 ], [ -91.048443943507479, 32.723154504771003 ], [ -91.048595934841785, 32.723111915517499 ], [ -91.048753787781493, 32.723082677953286 ], [ -91.048912680845973, 32.723053325145067 ], [ -91.049070853308947, 32.723015371917221 ], [ -91.049227679404666, 32.72297154597986 ], [ -91.049380207651268, 32.722927083422476 ], [ -91.049531969538549, 32.72287204412779 ], [ -91.049687111366467, 32.722825092817011 ], [ -91.04983989148225, 32.72279591082787 ], [ -91.049999219815462, 32.722764271875675 ], [ -91.050156594600665, 32.72272420637897 ], [ -91.050311636273932, 32.722689073880197 ], [ -91.050476495258593, 32.722666088184894 ], [ -91.050630502135434, 32.722623649964618 ], [ -91.050782215342664, 32.72256682311059 ], [ -91.050931352881577, 32.722525401586331 ], [ -91.051090152850321, 32.722484777611051 ], [ -91.051249705434671, 32.722465008904308 ], [ -91.051412057729848, 32.722445719913459 ], [ -91.051567510286702, 32.722405278622432 ], [ -91.051722682174656, 32.722354064847949 ], [ -91.051870863687299, 32.722299015297111 ], [ -91.052029046288325, 32.722254408018323 ], [ -91.052181288179298, 32.722219124248831 ], [ -91.052339286076986, 32.722175863925969 ], [ -91.052496099809431, 32.722139124312314 ], [ -91.052659093506875, 32.722118784925641 ], [ -91.052817588704741, 32.722093002134478 ], [ -91.05298660718654, 32.722065756549519 ], [ -91.053133597158691, 32.722032508127199 ], [ -91.053290076080998, 32.721994532269512 ], [ -91.053442451335897, 32.721939594754645 ], [ -91.053593878181388, 32.721887988092959 ], [ -91.053761155634959, 32.72185855214402 ], [ -91.053918784381068, 32.721826203824101 ], [ -91.0540686572878, 32.721787687855752 ], [ -91.054220332324022, 32.721746852912794 ], [ -91.054377699584265, 32.721698097599692 ], [ -91.05452854237538, 32.721658998397828 ], [ -91.054692268053032, 32.721636865834974 ], [ -91.054854032367899, 32.721617437820136 ], [ -91.055016153463228, 32.721581790789436 ], [ -91.05516358843316, 32.721539357800765 ], [ -91.055319656419897, 32.721487007271982 ], [ -91.055473382654029, 32.721442586345148 ], [ -91.055630885246657, 32.721406801008001 ], [ -91.055784398550117, 32.721368289078242 ], [ -91.055939076695282, 32.721333096738533 ], [ -91.056105979505375, 32.721297778734346 ], [ -91.056252740302725, 32.721260625294462 ], [ -91.056407309843507, 32.721207924972148 ], [ -91.056562121023831, 32.72116522778586 ], [ -91.056714969640936, 32.721128917880769 ], [ -91.056880423801815, 32.721099626270508 ], [ -91.057036224055508, 32.721070610187247 ], [ -91.057196873952364, 32.721054319111964 ], [ -91.058610106899181, 32.720706824155904 ], [ -91.058764157603861, 32.720674655482682 ], [ -91.058924223947272, 32.720634645513869 ], [ -91.05907319959671, 32.720594260392893 ], [ -91.059225668993463, 32.720551682596607 ], [ -91.059384330218066, 32.720510773936958 ], [ -91.0595382400532, 32.720473410253739 ], [ -91.059696331114452, 32.720438523565093 ], [ -91.059859577355823, 32.720413747685974 ], [ -91.060022242860668, 32.720389717987906 ], [ -91.060168705555782, 32.720340138549105 ], [ -91.060317693807605, 32.720277379008785 ], [ -91.060468442443039, 32.72022716930956 ], [ -91.060623793908221, 32.720183281826991 ], [ -91.060782644817721, 32.720141985266174 ], [ -91.060942003865904, 32.720095105638407 ], [ -91.061091776443746, 32.720064938245173 ], [ -91.061255031104849, 32.720033454326398 ], [ -91.061407043087243, 32.720002833511899 ], [ -91.061566458065229, 32.719962906926561 ], [ -91.06172203096277, 32.719926437156069 ], [ -91.061877477402348, 32.719890435927056 ], [ -91.06203637923916, 32.719847406163517 ], [ -91.062183485263461, 32.719801366254558 ], [ -91.062348096037184, 32.719768718818401 ], [ -91.062506118287985, 32.719745592095492 ], [ -91.062666285927506, 32.719714510239903 ], [ -91.062821291694533, 32.719676229027073 ], [ -91.062978217860291, 32.719634335832708 ], [ -91.063132851283953, 32.719590449434023 ], [ -91.063286945010944, 32.719548160249538 ], [ -91.063449266212572, 32.719521984709878 ], [ -91.063604804792945, 32.719497331813017 ], [ -91.063760664952255, 32.719464376408446 ] ] } },
{ "type": "Feature", "properties": { "station_id": 12, "station_ft": 2663.1, "width_ft": 1744.9, "flag": "ok", "lon": -91.051478, "lat": 32.726596, "survey_id": "LM_07_FMB_20260507_CS_4786_4748", "date": "2026-05-07 00:00:00+00:00", "method": "lines" }, "geometry": { "type": "LineString", "coordinates": [ [ -91.050384006524979, 32.727185072036029 ], [ -91.050525480863882, 32.727115577886309 ], [ -91.050661159018617, 32.727037020070135 ], [ -91.050787707753074, 32.726955325828548 ], [ -91.050923048983208, 32.726879380172768 ], [ -91.051064338022911, 32.726807110046991 ], [ -91.051201559262594, 32.72673458892838 ], [ -91.051345349060213, 32.726666125708626 ], [ -91.051478231994679, 32.726595965522066 ], [ -91.051615280785967, 32.726514127345581 ], [ -91.051743978376749, 32.726432941936679 ], [ -91.051874332752291, 32.726355649596783 ], [ -91.052012464514235, 32.726283232389243 ], [ -91.05215846213575, 32.726214617622027 ], [ -91.052298859722995, 32.72614092288179 ], [ -91.052427501236693, 32.72605701567052 ], [ -91.05254762353735, 32.72597714285444 ], [ -91.05268713849577, 32.725894850223121 ], [ -91.052811929928694, 32.725817533827353 ], [ -91.052950646542413, 32.725733129121352 ], [ -91.053092229495846, 32.725665472807194 ], [ -91.053238229776937, 32.725605515205217 ], [ -91.053400496148654, 32.72556679177648 ], [ -91.053540808270299, 32.725490814763631 ], [ -91.053661935594164, 32.725398704022368 ], [ -91.053792234842973, 32.725314950912605 ], [ -91.053921266223782, 32.725235272667931 ], [ -91.054055619094697, 32.725150369725036 ], [ -91.054179930921038, 32.725062115823953 ], [ -91.054308454558608, 32.724976036002722 ], [ -91.054432668936471, 32.724891905131258 ], [ -91.054573295199546, 32.724822989331486 ], [ -91.054722419816699, 32.724755480774434 ], [ -91.054865935768248, 32.724698118143714 ], [ -91.055016236807106, 32.724639507071551 ], [ -91.055158609399186, 32.724569508408059 ], [ -91.055282039304544, 32.724477025769517 ], [ -91.05540398783252, 32.724394281228903 ], [ -91.055539300720497, 32.724311817576265 ], [ -91.055675154030965, 32.724231713202542 ], [ -91.055801798566847, 32.724150920523563 ], [ -91.055936860807705, 32.724069611204087 ], [ -91.05607974696683, 32.724003044140169 ], [ -91.056215768021474, 32.723931815768026 ], [ -91.056352910854784, 32.723858575328549 ], [ -91.056494245370104, 32.723785145546223 ], [ -91.056630607303347, 32.723715921114255 ], [ -91.056771046811321, 32.723636339159832 ], [ -91.056897735715566, 32.723557304404117 ], [ -91.05703195056789, 32.723480011510013 ], [ -91.05717246637974, 32.723405870620425 ], [ -91.057321135178299, 32.723342951439349 ], [ -91.057459454806562, 32.723270747207685 ], [ -91.057587988942899, 32.723194723707266 ], [ -91.057721506811575, 32.723107760326407 ], [ -91.0578502179591, 32.723029674177155 ], [ -91.057986487924822, 32.722953440551535 ], [ -91.058125003772773, 32.722877413818424 ], [ -91.058267711334807, 32.722809251047778 ], [ -91.058401478697192, 32.722737319178954 ], [ -91.058541394377045, 32.722665626634402 ], [ -91.058677010773607, 32.722593134623871 ], [ -91.058810838849837, 32.722512709459181 ], [ -91.058940829902724, 32.722428237744175 ], [ -91.059060638792346, 32.722339042947844 ], [ -91.05920503886685, 32.72226325599857 ], [ -91.059336873897351, 32.722193698666281 ], [ -91.059481100200529, 32.722124563581687 ], [ -91.059621205199605, 32.722048553054925 ], [ -91.059753467565983, 32.721971654518136 ], [ -91.059888442102192, 32.721900373245454 ], [ -91.060032425480813, 32.721825466952808 ], [ -91.06017030306306, 32.721759556400812 ], [ -91.060318701977579, 32.721695921081469 ], [ -91.060450314536624, 32.721619271754982 ], [ -91.060584208455396, 32.721535243712921 ], [ -91.060721766618641, 32.721462023169252 ], [ -91.060852279086333, 32.721394093240669 ], [ -91.060989921268572, 32.721311307247362 ], [ -91.061125072821625, 32.721230019811678 ], [ -91.061262043567211, 32.721156692077621 ], [ -91.061397700632654, 32.721081750509249 ], [ -91.061531346580352, 32.721011520301644 ], [ -91.061674796092674, 32.720935323054299 ], [ -91.061804435480823, 32.720856101217827 ], [ -91.0619426662264, 32.72078595394855 ], [ -91.062081247102938, 32.720714814391279 ], [ -91.06221742445473, 32.720640005981174 ], [ -91.062348943252871, 32.720552224242134 ], [ -91.062476154706658, 32.720474445077429 ], [ -91.062612690491946, 32.720395923529956 ], [ -91.062742693602942, 32.720309689452662 ], [ -91.062882837889688, 32.720239062924961 ], [ -91.063024457556111, 32.720170048969386 ], [ -91.063155972266273, 32.720093864488426 ], [ -91.063293627181466, 32.720021135629672 ], [ -91.063436168957622, 32.719949642393388 ], [ -91.063575946503349, 32.719878000078076 ], [ -91.063714326417028, 32.71981054347291 ], [ -91.063854968155766, 32.719737273599002 ], [ -91.063986286095115, 32.71966106234747 ], [ -91.064113871235904, 32.719573714685176 ] ] } },
{ "type": "Feature", "properties": { "station_id": 13, "station_ft": 3029.0, "width_ft": 1665.7, "flag": "ok", "lon": -91.054598, "lat": 32.728732, "survey_id": "LM_07_FMB_20260507_CS_4786_4748", "date": "2026-05-07 00:00:00+00:00", "method": "lines" }, "geometry": { "type": "LineString", "coordinates": [ [ -91.053546924517875, 32.729563591979733 ], [ -91.053647090750118, 32.729484464880422 ], [ -91.053772638332944, 32.729399447817883 ], [ -91.053875199875193, 32.729286719985787 ], [ -91.053991539580821, 32.729197109907091 ], [ -91.054107724036839, 32.729100300288941 ], [ -91.054221909622939, 32.729001577762958 ], [ -91.054346023734823, 32.728908404998627 ], [ -91.054462522741034, 32.728814451732795 ], [ -91.054598203755589, 32.728732261099942 ], [ -91.054730859435352, 32.728645882956464 ], [ -91.054843696275597, 32.72855761148088 ], [ -91.054958453213217, 32.728457428703564 ], [ -91.055074147593459, 32.728364523709097 ], [ -91.055195612536636, 32.728261608626497 ], [ -91.055307605774132, 32.72817361662117 ], [ -91.055433028524362, 32.72808571218296 ], [ -91.055556152360921, 32.727994935323139 ], [ -91.055670687164096, 32.727899673023479 ], [ -91.055780542494716, 32.727796713354365 ], [ -91.055889551456247, 32.727689636653196 ], [ -91.056001087673977, 32.727593566250889 ], [ -91.056126398328146, 32.727503985450717 ], [ -91.056251565058616, 32.727412729037283 ], [ -91.056368825210967, 32.727320913036742 ], [ -91.056484025918124, 32.727223776868442 ], [ -91.056609601178906, 32.727138948891671 ], [ -91.056728203851051, 32.727040281572258 ], [ -91.056845556761274, 32.726943956837893 ], [ -91.056953034062573, 32.726840762795604 ], [ -91.057068415832319, 32.726745989388007 ], [ -91.057214910105401, 32.726678767185753 ], [ -91.057347230209331, 32.726595905883293 ], [ -91.057467524824304, 32.726505610593058 ], [ -91.057592208624698, 32.726411305081392 ], [ -91.05769572317746, 32.726308738359947 ], [ -91.057794976389062, 32.726193993045811 ], [ -91.057902650234936, 32.72608725144989 ], [ -91.058013647073579, 32.725993326701577 ], [ -91.058142022338444, 32.725905292492556 ], [ -91.058282716217931, 32.725828813848921 ], [ -91.058396780045982, 32.725736162308657 ], [ -91.058509206742897, 32.725634230497064 ], [ -91.058632865346055, 32.725542183313223 ], [ -91.058748155483457, 32.725448507207695 ], [ -91.058870950031533, 32.725354155455555 ], [ -91.05899199221443, 32.725268307135138 ], [ -91.059120127020364, 32.725182967696377 ], [ -91.059251795387198, 32.725096259579786 ], [ -91.059377939867446, 32.725014174029532 ], [ -91.059512351607779, 32.724933140581669 ], [ -91.059637249792004, 32.724845812110175 ], [ -91.059747420477422, 32.724738560325569 ], [ -91.059849870245841, 32.724629675964529 ], [ -91.059956827988657, 32.724531320161091 ], [ -91.060077104672956, 32.724431457820003 ], [ -91.060191801338149, 32.72433717967472 ], [ -91.060304820287669, 32.724240602720329 ], [ -91.060414596280651, 32.724137090317662 ], [ -91.060524417510479, 32.724027091402071 ], [ -91.06064261694533, 32.723935898093728 ], [ -91.060772065988459, 32.723852692769377 ], [ -91.060897312000805, 32.72376846659558 ], [ -91.061016912997843, 32.723673665091134 ], [ -91.061134662101537, 32.723575217701892 ], [ -91.061253990227769, 32.723483000115642 ], [ -91.061374259281578, 32.723394625543044 ], [ -91.061496058534559, 32.723298463632645 ], [ -91.061622772636198, 32.723214970337615 ], [ -91.06175269513561, 32.723130277007158 ], [ -91.061869961465263, 32.723040600173796 ], [ -91.061995469834898, 32.722944828320109 ], [ -91.062117016267024, 32.722853806247585 ], [ -91.062234496747024, 32.722758547915781 ], [ -91.062353157160715, 32.722664382726336 ], [ -91.062471094678983, 32.72256950565432 ], [ -91.062588516951905, 32.722475182426876 ], [ -91.062704432544137, 32.722387518125132 ], [ -91.063653155986856, 32.721615883548068 ], [ -91.06377165112815, 32.721537795861131 ], [ -91.063904575038862, 32.721450856454737 ], [ -91.064028391663385, 32.721363612897719 ], [ -91.064142064713252, 32.72126436227208 ], [ -91.064256872346277, 32.721164829901745 ], [ -91.064377635443222, 32.721073948182621 ], [ -91.064499216259691, 32.720983693693299 ], [ -91.064617355580594, 32.720886120867078 ], [ -91.064731231599524, 32.720796076108101 ], [ -91.064852979731754, 32.720702494715646 ], [ -91.064965780485494, 32.720608195336347 ], [ -91.065090761620311, 32.720504590136933 ], [ -91.065203946705651, 32.720417572489723 ], [ -91.065329084144167, 32.720325070065179 ], [ -91.065449623380573, 32.720238916405883 ], [ -91.065558521892612, 32.720136778886641 ], [ -91.065667618274787, 32.720034997203321 ], [ -91.065792938214926, 32.719941064008083 ], [ -91.065920441959349, 32.719855803408457 ], [ -91.066050097649992, 32.719771272229877 ], [ -91.066169725188558, 32.719685205267979 ], [ -91.066288225885017, 32.719588424993781 ], [ -91.066411603373197, 32.719491782014465 ], [ -91.066528694367662, 32.71939773118239 ], [ -91.066640669255236, 32.719306294525595 ], [ -91.066761288679643, 32.719214229194982 ], [ -91.067376851568156, 32.718736815765979 ], [ -91.067487446824956, 32.718655692325662 ], [ -91.067613416323297, 32.718566124212735 ], [ -91.067736923147436, 32.718481572303801 ], [ -91.067869490566366, 32.718391854377906 ], [ -91.067991051711644, 32.718312041397567 ], [ -91.068099487148714, 32.718201548951349 ], [ -91.068195079361189, 32.718095089382501 ] ] } },
{ "type": "Feature", "properties": { "station_id": 14, "station_ft": 3356.9, "width_ft": 1458.2, "flag": "ok", "lon": -91.058248, "lat": 32.730187, "survey_id": "LM_07_FMB_20260507_CS_4786_4748", "date": "2026-05-07 00:00:00+00:00", "method": "lines" }, "geometry": { "type": "LineString", "coordinates": [ [ -91.068558601701753, 32.719033736773923 ], [ -91.06844159291731, 32.719133588039028 ], [ -91.068355449819435, 32.719254476908219 ], [ -91.06828388345167, 32.71937684658517 ], [ -91.068190159252339, 32.719489204309546 ], [ -91.068069858689327, 32.719588277390613 ], [ -91.067967077270296, 32.719690573299545 ], [ -91.067867639119044, 32.719803981414408 ], [ -91.067772967705196, 32.719916069348379 ], [ -91.067672157000899, 32.720020854876005 ], [ -91.067567330244856, 32.720123602482019 ], [ -91.067457707507188, 32.720228329428089 ], [ -91.067356964362133, 32.720333636410089 ], [ -91.067255139743352, 32.720445765829758 ], [ -91.067157499747537, 32.720560646205399 ], [ -91.067059411753775, 32.720664618176173 ], [ -91.066953136727989, 32.720769408051645 ], [ -91.066847585112299, 32.720871252157345 ], [ -91.066737712725498, 32.720973451481825 ], [ -91.066647017111777, 32.721086916602012 ], [ -91.066558924925033, 32.721204655066565 ], [ -91.066458439607629, 32.721313834560497 ], [ -91.066364177980802, 32.721424654808679 ], [ -91.066280895250259, 32.7215460755842 ], [ -91.066174639274919, 32.721645476845204 ], [ -91.066060671497084, 32.721744208913101 ], [ -91.065972982237895, 32.721863647981458 ], [ -91.065883886041675, 32.721978038298886 ], [ -91.065776335436581, 32.72208621522315 ], [ -91.065671093700558, 32.722186517275773 ], [ -91.065564594559618, 32.722292103515564 ], [ -91.06545638727772, 32.722391680582767 ], [ -91.065345616100387, 32.722499710927714 ], [ -91.065247396619, 32.722608079995716 ], [ -91.065146220240763, 32.722716493297604 ], [ -91.065050737283002, 32.72283344875602 ], [ -91.064962950596907, 32.72293733191956 ], [ -91.064853554218175, 32.723050712797722 ], [ -91.06475477860603, 32.723154741987273 ], [ -91.064657768877339, 32.723260025026207 ], [ -91.064552832350969, 32.723366151350746 ], [ -91.064451836158156, 32.723476981485859 ], [ -91.064362965659015, 32.723591616481229 ], [ -91.064268069909645, 32.72370507822005 ], [ -91.064159783878708, 32.723803362450468 ], [ -91.064053022563883, 32.723909168960866 ], [ -91.06395700988385, 32.724017222078245 ], [ -91.063860815186715, 32.72413503291456 ], [ -91.063765059491331, 32.724246794109895 ], [ -91.063661585733954, 32.72434510578308 ], [ -91.063555419208626, 32.724456240342882 ], [ -91.063463058374296, 32.724565783114727 ], [ -91.063374518143789, 32.724685363285026 ], [ -91.063287428798546, 32.724795424386542 ], [ -91.06317627073733, 32.724900513625833 ], [ -91.063069260555579, 32.725004095276958 ], [ -91.062964410858029, 32.725105381982416 ], [ -91.062854002554147, 32.725210934572388 ], [ -91.062747871948289, 32.725310744301289 ], [ -91.062636170399998, 32.725417238417577 ], [ -91.062538814493607, 32.725528430878377 ], [ -91.062442757177919, 32.725639560706085 ], [ -91.062360274972832, 32.725752590823951 ], [ -91.06227654459876, 32.72587219725547 ], [ -91.062181129477963, 32.725990359356402 ], [ -91.062081437840106, 32.726094418821511 ], [ -91.061976929951584, 32.726198150014959 ], [ -91.061868846060605, 32.726305830743954 ], [ -91.061770119294508, 32.726416728494279 ], [ -91.061664025393767, 32.726521374882459 ], [ -91.061562293858714, 32.726626737966988 ], [ -91.061462412290709, 32.72673162312838 ], [ -91.061368172573793, 32.726846590165394 ], [ -91.061286067385552, 32.726962337908724 ], [ -91.061184349275194, 32.727081415938088 ], [ -91.061070748298704, 32.727182696864816 ], [ -91.060968985955554, 32.72727643362974 ], [ -91.060860707111217, 32.727380514913392 ], [ -91.060755396170606, 32.727485816058575 ], [ -91.060638776014997, 32.727583788529572 ], [ -91.060535243435083, 32.727691909707467 ], [ -91.060434300607113, 32.727798559484846 ], [ -91.060324954042613, 32.727903470682101 ], [ -91.060223893687223, 32.728003716878703 ], [ -91.060135784508446, 32.728121092939958 ], [ -91.06005802881802, 32.728244290914581 ], [ -91.05996854523292, 32.728364835391602 ], [ -91.059871809763706, 32.7284732187061 ], [ -91.059768269175152, 32.728580460110315 ], [ -91.059667985551528, 32.728684439033565 ], [ -91.059563006627982, 32.728790918523671 ], [ -91.059466229649175, 32.728902325270035 ], [ -91.059375358436526, 32.729020321854954 ], [ -91.05928797841581, 32.729131701996174 ], [ -91.059189390882025, 32.729244493250825 ], [ -91.059077105189004, 32.72934018575355 ], [ -91.058961115652224, 32.729440407346935 ], [ -91.058848558029766, 32.729546710083724 ], [ -91.058747869482929, 32.729645083653679 ], [ -91.0586400841715, 32.72975465712107 ], [ -91.058530560080357, 32.729858221500905 ], [ -91.058423777707404, 32.729955090807465 ], [ -91.05832390531944, 32.730066102485864 ], [ -91.058247782977602, 32.730186651424397 ], [ -91.058159550777063, 32.73030562106694 ], [ -91.058065058079521, 32.730418387763613 ], [ -91.057964474252231, 32.730530062433537 ] ] } },
{ "type": "Feature", "properties": { "station_id": 15, "station_ft": 4218.6, "width_ft": 1878.0, "flag": "ok", "lon": -91.061293, "lat": 32.731908, "survey_id": "LM_07_FMB_20260507_CS_4786_4748", "date": "2026-05-07 00:00:00+00:00", "method": "lines" }, "geometry": { "type": "LineString", "coordinates": [ [ -91.069044832191651, 32.720458831437533 ], [ -91.068965340369928, 32.720578115369619 ], [ -91.068892022040373, 32.720696950041592 ], [ -91.068822691321898, 32.720822329489756 ], [ -91.068752620036136, 32.720944581529793 ], [ -91.068671336266092, 32.721063462790752 ], [ -91.068260842515201, 32.721661382785697 ], [ -91.068188944096519, 32.721787079910399 ], [ -91.068117811345658, 32.721903015774551 ], [ -91.068029941673714, 32.722023941563869 ], [ -91.067943138099722, 32.722140134170282 ], [ -91.067848396534345, 32.722255658146743 ], [ -91.067761592284427, 32.722367919984954 ], [ -91.067676634046663, 32.722487042142234 ], [ -91.06759654180253, 32.722608994232623 ], [ -91.067522907260425, 32.722725328544882 ], [ -91.06744465883142, 32.722846087570829 ], [ -91.067369633763519, 32.722959407331061 ], [ -91.067021520967998, 32.723438443494551 ], [ -91.066941482827104, 32.723555227927314 ], [ -91.066869387432277, 32.723677077752278 ], [ -91.066796209018506, 32.723805695049968 ], [ -91.0667196967145, 32.723920232339403 ], [ -91.066628364289443, 32.724039665192606 ], [ -91.066545353618281, 32.724158858146289 ], [ -91.066472009866217, 32.72427532719761 ], [ -91.066398971635792, 32.724401387934897 ], [ -91.066330253561731, 32.724526790356528 ], [ -91.066252268637882, 32.724644414476806 ], [ -91.066166422719917, 32.724766893427692 ], [ -91.066073736002323, 32.724879930598973 ], [ -91.065989720824945, 32.724991789864426 ], [ -91.065907984466989, 32.725112046202284 ], [ -91.065822571114495, 32.725231829820395 ], [ -91.065729961909469, 32.725342584904865 ], [ -91.065641712493488, 32.725457657191519 ], [ -91.065559463838952, 32.725578905491936 ], [ -91.065482769928465, 32.725691436729868 ], [ -91.065404245384187, 32.725822914957739 ], [ -91.065334731487752, 32.725942742464589 ], [ -91.0652646296341, 32.726070406700437 ], [ -91.065195012554142, 32.726197628021694 ], [ -91.065119787165372, 32.726318972996602 ], [ -91.065037701161131, 32.726432496677106 ], [ -91.064957573910831, 32.726554942319957 ], [ -91.064874595606142, 32.726674600164166 ], [ -91.06479517583972, 32.726788109029094 ], [ -91.064718582784465, 32.726913364430779 ], [ -91.064638593928066, 32.72703300467775 ], [ -91.064539106434637, 32.727145915362662 ], [ -91.064448907144609, 32.727261548232661 ], [ -91.064369330585322, 32.727379894624107 ], [ -91.064301073765904, 32.727506749523037 ], [ -91.06422818134169, 32.727627311178615 ], [ -91.064142563287092, 32.727746626838666 ], [ -91.064057399052714, 32.727861707070936 ], [ -91.063972605316053, 32.72797436754594 ], [ -91.063887130190636, 32.728095331463017 ], [ -91.063800664470847, 32.728210364098544 ], [ -91.063716954195527, 32.728332471831088 ], [ -91.063638392570368, 32.728451883999405 ], [ -91.063557469022427, 32.728568836428259 ], [ -91.063478112884596, 32.728686630909564 ], [ -91.063406474113293, 32.728809685279877 ], [ -91.063329344077488, 32.728933376644605 ], [ -91.063250709422448, 32.729055866599069 ], [ -91.063175412390351, 32.729173088099614 ], [ -91.063093562273934, 32.729296146729283 ], [ -91.063019001082779, 32.7294199320568 ], [ -91.062939329780221, 32.729539158172443 ], [ -91.062857369775429, 32.729652734687633 ], [ -91.062768958176633, 32.729768768030368 ], [ -91.06267699337198, 32.729883831882042 ], [ -91.062595553818326, 32.730001528810995 ], [ -91.062531325941833, 32.730128607270629 ], [ -91.062467862213325, 32.730253646948029 ], [ -91.062376242269806, 32.730371210873948 ], [ -91.062271129359004, 32.730480991001109 ], [ -91.062172812948234, 32.730590760382618 ], [ -91.062098431909774, 32.730712977803769 ], [ -91.062045226677256, 32.730848072339228 ], [ -91.061981789284786, 32.730976493102233 ], [ -91.061899919795266, 32.731093504053455 ], [ -91.061794624361923, 32.73120108642253 ], [ -91.061673412158811, 32.731298675324112 ], [ -91.061607059083428, 32.731428514124154 ], [ -91.061565343334294, 32.731564997998035 ], [ -91.061483111430192, 32.731685722302601 ], [ -91.061388845476799, 32.731794147407562 ], [ -91.061292540353477, 32.73190766914022 ], [ -91.061202313096317, 32.732024893182192 ], [ -91.061119115514217, 32.732142819374154 ], [ -91.061036028255145, 32.732258462590728 ], [ -91.060963940090232, 32.732383029456273 ], [ -91.060896965814266, 32.732508721716364 ], [ -91.060839198532435, 32.732638895310487 ], [ -91.060724383264514, 32.73274381150619 ], [ -91.060636546888887, 32.732859261990008 ], [ -91.06063536115181, 32.732861440235766 ] ] } },
{ "type": "Feature", "properties": { "station_id": 16, "station_ft": 4719.6, "width_ft": 1830.3, "flag": "ok", "lon": -91.064813, "lat": 32.732919, "survey_id": "LM_07_FMB_20260507_CS_4786_4748", "date": "2026-05-07 00:00:00+00:00", "method": "lines" }, "geometry": { "type": "LineString", "coordinates": [ [ -91.069972636847837, 32.722368086405972 ], [ -91.069927831765028, 32.722502530810502 ], [ -91.069860856401647, 32.722629711241964 ], [ -91.069839022050203, 32.722769957667289 ], [ -91.0697854440659, 32.722901210023373 ], [ -91.069704937452556, 32.723019812328673 ], [ -91.069620540253922, 32.723135826918416 ], [ -91.069555634136165, 32.723265551437152 ], [ -91.069482208944066, 32.72338738259343 ], [ -91.069410472321707, 32.723512860311274 ], [ -91.069357250561509, 32.723640206793974 ], [ -91.069329663028753, 32.723780816924112 ], [ -91.069279061897518, 32.723910484371281 ], [ -91.069193944002436, 32.724029965545917 ], [ -91.069127198388585, 32.724157585171163 ], [ -91.069079326807682, 32.724287016493165 ], [ -91.06903166357263, 32.724422219453082 ], [ -91.068965704486686, 32.724546562894488 ], [ -91.06890660364644, 32.724674823759699 ], [ -91.068847394005303, 32.724801546881558 ], [ -91.068770639172115, 32.724925953550127 ], [ -91.068705399996546, 32.725051144763469 ], [ -91.06865640491921, 32.725178604107555 ], [ -91.068594962644482, 32.725310754191177 ], [ -91.068523260602419, 32.72543284969408 ], [ -91.068456961039175, 32.725555655602577 ], [ -91.068393127810594, 32.725681855556999 ], [ -91.068327561933614, 32.72580688346661 ], [ -91.06825632681209, 32.72593046032496 ], [ -91.068190059220029, 32.726057251550664 ], [ -91.068128008846827, 32.726186821504207 ], [ -91.068061266616098, 32.726311196098521 ], [ -91.067990691647694, 32.726432240481394 ], [ -91.067932893475131, 32.726564863926207 ], [ -91.067884058881617, 32.726692349967614 ], [ -91.067819991040196, 32.726825779267514 ], [ -91.067765027018268, 32.726951266864887 ], [ -91.067706294370183, 32.727077078591805 ], [ -91.067632617751002, 32.727204572979197 ], [ -91.067560683506301, 32.727326531314155 ], [ -91.067489098044518, 32.72744733425148 ], [ -91.067427398811205, 32.727576379688344 ], [ -91.067381417454115, 32.72770695437692 ], [ -91.067348548125977, 32.727846384820772 ], [ -91.06730522010092, 32.72797922441935 ], [ -91.067234052876543, 32.728103652418596 ], [ -91.067154844356949, 32.72822697323015 ], [ -91.067053478149688, 32.728340556937376 ], [ -91.066970980514085, 32.728455321425947 ], [ -91.066910248033054, 32.728587301485206 ], [ -91.066867696801779, 32.728719889306078 ], [ -91.066827170483521, 32.728853675385658 ], [ -91.06675891857104, 32.728980834526581 ], [ -91.066686789238503, 32.729103124424242 ], [ -91.066619578343378, 32.729234345103194 ], [ -91.066569231987813, 32.72936013517905 ], [ -91.06651706479083, 32.729486100898939 ], [ -91.066442635832431, 32.729613488056536 ], [ -91.066370698541874, 32.72973550161727 ], [ -91.066295080991978, 32.729856794529148 ], [ -91.066209285237349, 32.729978036885001 ], [ -91.066142171069075, 32.730101423405721 ], [ -91.066093026438551, 32.730231191003924 ], [ -91.066052170416143, 32.730364538699391 ], [ -91.066004258069583, 32.730501913266643 ], [ -91.065943013575733, 32.73062732672679 ], [ -91.065884853454321, 32.730752255036577 ], [ -91.065835548632379, 32.730886394148499 ], [ -91.065772146698023, 32.731010528850206 ], [ -91.065700915682001, 32.731139574090165 ], [ -91.065633267686238, 32.731261534205473 ], [ -91.065553268788278, 32.731384171484244 ], [ -91.065477031096307, 32.731505467514204 ], [ -91.065397434167849, 32.731625517986558 ], [ -91.065326932997337, 32.73174856675211 ], [ -91.065290395244872, 32.731885352513075 ], [ -91.065250402108916, 32.732025043971475 ], [ -91.065197520844634, 32.732151507434992 ], [ -91.065133824119684, 32.732279601217826 ], [ -91.065071754221179, 32.732403782784125 ], [ -91.065010317772376, 32.732529911063402 ], [ -91.064942982009654, 32.732658466029882 ], [ -91.064877754542948, 32.732782362943666 ], [ -91.064812860486498, 32.732919149007721 ], [ -91.064761297384749, 32.733039942625503 ], [ -91.064696000211882, 32.733167386351965 ], [ -91.06463245998151, 32.7332907782408 ], [ -91.064563037935272, 32.733418878071689 ], [ -91.064487166129808, 32.733537532890686 ], [ -91.064423632144695, 32.733661886780375 ], [ -91.064368833903913, 32.733792813801202 ], [ -91.064310293581812, 32.733923433485927 ], [ -91.06424870695696, 32.734047363837895 ] ] } },
{ "type": "Feature", "properties": { "station_id": 17, "station_ft": 5236.2, "width_ft": 1816.0, "flag": "ok", "lon": -91.068109, "lat": 32.733798, "survey_id": "LM_07_FMB_20260507_CS_4786_4748", "date": "2026-05-07 00:00:00+00:00", "method": "lines" }, "geometry": { "type": "LineString", "coordinates": [ [ -91.071474845022209, 32.723746905172263 ], [ -91.071445499624645, 32.723878976779162 ], [ -91.071403627698615, 32.724014091517823 ], [ -91.071352003910064, 32.72414552506941 ], [ -91.071295801598595, 32.724273742924261 ], [ -91.07124220272074, 32.724402302515372 ], [ -91.071197444404049, 32.724538423365118 ], [ -91.071153269812541, 32.724666295337975 ], [ -91.071103685913187, 32.724800823237224 ], [ -91.071059524366859, 32.724922538081394 ], [ -91.071004803577267, 32.725064956549261 ], [ -91.070961817083173, 32.725191172193099 ], [ -91.070919617946672, 32.725330108408883 ], [ -91.070897007586069, 32.725462911222444 ], [ -91.07086999844671, 32.725594501830571 ], [ -91.070829128626556, 32.725733101058303 ], [ -91.07078787398089, 32.725864363350681 ], [ -91.070743312604748, 32.726000730836411 ], [ -91.070699236877516, 32.726132998887195 ], [ -91.070655866858871, 32.726264054451867 ], [ -91.070611576215313, 32.726393960297301 ], [ -91.070570730503036, 32.726523653799418 ], [ -91.070521100426873, 32.72666057310532 ], [ -91.070472071942149, 32.726787648270111 ], [ -91.070421336379496, 32.726920808407556 ], [ -91.070376306459039, 32.727055721307913 ], [ -91.070332890141742, 32.727189167508648 ], [ -91.070284853821491, 32.727314368376817 ], [ -91.07023728893428, 32.727445668462614 ], [ -91.07019855381732, 32.727575019391686 ], [ -91.070154477050011, 32.727715258532449 ], [ -91.07009686625517, 32.727842741965155 ], [ -91.070044608747168, 32.727976735063208 ], [ -91.069995592915348, 32.72810551422274 ], [ -91.069958257260822, 32.728231284191523 ], [ -91.069921453039484, 32.728370188331205 ], [ -91.069886273781393, 32.728509000853741 ], [ -91.06985431654337, 32.728644221780797 ], [ -91.069804688824021, 32.728773911592768 ], [ -91.069764414005732, 32.728905964883381 ], [ -91.069723296971077, 32.729038491104291 ], [ -91.069692791767011, 32.729176368967437 ], [ -91.069653901663486, 32.729306902784316 ], [ -91.069607441314744, 32.729438223171265 ], [ -91.069542881300833, 32.729571134078036 ], [ -91.069491094469967, 32.729699269227737 ], [ -91.069439129903344, 32.729829550613836 ], [ -91.069384078428257, 32.729960041267809 ], [ -91.069333178157066, 32.730089271253497 ], [ -91.069304803102384, 32.730225405180299 ], [ -91.069279786804856, 32.730358605891844 ], [ -91.069252281492496, 32.730497648185782 ], [ -91.069213746962461, 32.730631999489567 ], [ -91.069170153902121, 32.730764210007607 ], [ -91.069130556341605, 32.730899832648689 ], [ -91.069062891157159, 32.731023003899487 ], [ -91.068990071903997, 32.731148129649576 ], [ -91.068955283363493, 32.731275451541336 ], [ -91.068930073360036, 32.731420883465404 ], [ -91.068890032619606, 32.731554062229684 ], [ -91.068837864032787, 32.731687532156627 ], [ -91.068805161871211, 32.731819403609229 ], [ -91.068773770542435, 32.73195657223711 ], [ -91.068718814337018, 32.732083214334921 ], [ -91.068675565793114, 32.732217924039979 ], [ -91.068634463536952, 32.732352620237656 ], [ -91.068582416958336, 32.732481169496069 ], [ -91.068524199373798, 32.732598788086584 ], [ -91.068465170850601, 32.732740324372365 ], [ -91.068419507119799, 32.732870072400182 ], [ -91.068382062106295, 32.733006671352442 ], [ -91.068341361885203, 32.733135071916045 ], [ -91.068299847746317, 32.733267269009488 ], [ -91.068259648080513, 32.733397150855417 ], [ -91.06821678849559, 32.733535732836927 ], [ -91.068160628096422, 32.733662491743608 ], [ -91.068108638519945, 32.733798159611169 ], [ -91.068083358788968, 32.733931306571115 ], [ -91.06805314966266, 32.734066103724665 ], [ -91.06801589891225, 32.734202838475063 ], [ -91.067965923022797, 32.734330304066233 ], [ -91.067910495741643, 32.734463297621673 ], [ -91.0678670871729, 32.734594516458749 ], [ -91.067840020728781, 32.734728031813781 ], [ -91.067813656594751, 32.734867836215138 ], [ -91.067749553964163, 32.734997719961605 ], [ -91.067706126807536, 32.735075343659666 ] ] } },
{ "type": "Feature", "properties": { "station_id": 18, "station_ft": 5677.8, "width_ft": 1949.1, "flag": "ok", "lon": -91.071406, "lat": 32.734697, "survey_id": "LM_07_FMB_20260507_CS_4786_4748", "date": "2026-05-07 00:00:00+00:00", "method": "lines" }, "geometry": { "type": "LineString", "coordinates": [ [ -91.073298897778074, 32.725073700582612 ], [ -91.073246705941543, 32.725206869549069 ], [ -91.073223197089291, 32.725336764567437 ], [ -91.073218098453353, 32.725475290504036 ], [ -91.073182812926476, 32.725608497630802 ], [ -91.073180567474409, 32.725749947265697 ], [ -91.073146135424736, 32.725884083533735 ], [ -91.073109676875433, 32.726016858412905 ], [ -91.073085292045121, 32.726154921022577 ], [ -91.073060159295224, 32.726288975338932 ], [ -91.073032516322385, 32.726426260028035 ], [ -91.072992841150338, 32.726559437980363 ], [ -91.072959895481659, 32.726692521212492 ], [ -91.072937850395576, 32.726830404962449 ], [ -91.072914418324672, 32.72696582344259 ], [ -91.072905752574997, 32.727105606650561 ], [ -91.072881497251046, 32.727239655739609 ], [ -91.072862617209978, 32.727374965293485 ], [ -91.072841966092327, 32.727512455753072 ], [ -91.072821937942265, 32.727650464633932 ], [ -91.072777333077454, 32.727781418154017 ], [ -91.072728229723907, 32.727914871632798 ], [ -91.072693225270228, 32.728046784748301 ], [ -91.072654148185279, 32.728181608306613 ], [ -91.072633827172453, 32.728319729786485 ], [ -91.07263263346114, 32.728458809723101 ], [ -91.072620389181949, 32.728598476923189 ], [ -91.072600798092864, 32.728730437074262 ], [ -91.072570768364798, 32.728870182088414 ], [ -91.072540254249276, 32.729002563718474 ], [ -91.072507751453387, 32.729138172632958 ], [ -91.072494597202208, 32.72927399749269 ], [ -91.072468365588605, 32.729413032961496 ], [ -91.072432380655655, 32.729552290038541 ], [ -91.072404279150589, 32.729681551844209 ], [ -91.072380667814315, 32.729815074896294 ], [ -91.072360781612261, 32.729950774399121 ], [ -91.072343243785596, 32.73009129783275 ], [ -91.072317834802618, 32.7302236763473 ], [ -91.072279766228363, 32.730362726529627 ], [ -91.072242924939033, 32.730492918988453 ], [ -91.072216359799725, 32.730627174477981 ], [ -91.072193632688808, 32.730765391180739 ], [ -91.072155675910764, 32.730906144927097 ], [ -91.072124037703489, 32.731032514004589 ], [ -91.072098023659692, 32.731170502979957 ], [ -91.072068283585836, 32.731302220734079 ], [ -91.072054915467021, 32.731439778090703 ], [ -91.072050222341588, 32.731584375525337 ], [ -91.07202365795051, 32.731714782370474 ], [ -91.071994220292652, 32.731851638174035 ], [ -91.071950986998829, 32.731987585152993 ], [ -91.07191465841332, 32.732116950290305 ], [ -91.071873728416023, 32.732256154241298 ], [ -91.071837167237973, 32.732385025673416 ], [ -91.071802686980348, 32.732521608146897 ], [ -91.071783731373358, 32.732663981140242 ], [ -91.071762517435801, 32.732796554812182 ], [ -91.071741357881677, 32.732931849577035 ], [ -91.071727834670966, 32.733066467244171 ], [ -91.071713220485151, 32.73320683534881 ], [ -91.071694450254085, 32.733347915045847 ], [ -91.071684522393511, 32.733480863162931 ], [ -91.071655303373674, 32.733616672466276 ], [ -91.071623740612708, 32.733752385553061 ], [ -91.071596959574265, 32.733888235485566 ], [ -91.071566965102662, 32.734020860814361 ], [ -91.071536783872887, 32.734158407969737 ], [ -91.071493287393636, 32.734294218342065 ], [ -91.071445872452458, 32.734420102992509 ], [ -91.071409006362956, 32.734555518108571 ], [ -91.071405846182174, 32.734696862913218 ], [ -91.07139648505715, 32.73483546870245 ], [ -91.071383686006186, 32.734971181243004 ], [ -91.071372012107872, 32.73510930649428 ], [ -91.071347922867119, 32.735244343374553 ], [ -91.071318735791607, 32.735376386762582 ], [ -91.07127667495979, 32.735512903660677 ], [ -91.071232744585473, 32.735647453154577 ], [ -91.07118921135006, 32.735778811780122 ] ] } },
{ "type": "Feature", "properties": { "station_id": 19, "station_ft": 6382.5, "width_ft": 2019.9, "flag": "ok", "lon": -91.074824, "lat": 32.735415, "survey_id": "LM_07_FMB_20260507_CS_4786_4748", "date": "2026-05-07 00:00:00+00:00", "method": "lines" }, "geometry": { "type": "LineString", "coordinates": [ [ -91.075944159672503, 32.727173096674761 ], [ -91.075891987563239, 32.727308437924137 ], [ -91.075859100680049, 32.727444132929627 ], [ -91.075841286830368, 32.727582047082912 ], [ -91.075829558205669, 32.727720502298851 ], [ -91.075813193801906, 32.727856841554278 ], [ -91.075820861111367, 32.72799727029907 ], [ -91.075810981887116, 32.728135165398704 ], [ -91.075784661574318, 32.728270821480933 ], [ -91.075752394362439, 32.728406814851915 ], [ -91.075737077728093, 32.728543972060812 ], [ -91.075715290437003, 32.728681084623133 ], [ -91.075710136193194, 32.728820298004514 ], [ -91.075696939765351, 32.728958294780071 ], [ -91.075674143547531, 32.729095331244672 ], [ -91.07564604147187, 32.729231794960818 ], [ -91.075618589134322, 32.729368144810429 ], [ -91.075605525082281, 32.729506305799056 ], [ -91.075590145274333, 32.729643738371323 ], [ -91.075572589566804, 32.729781485901135 ], [ -91.075572829397728, 32.729920364337808 ], [ -91.07558134731967, 32.730061366025829 ], [ -91.0755460119438, 32.730196058249106 ], [ -91.075513847871918, 32.730332903050126 ], [ -91.075492413592812, 32.730469574309687 ], [ -91.075467570383239, 32.73060697991319 ], [ -91.075426091599468, 32.730742038495215 ], [ -91.075389103641328, 32.730877427564344 ], [ -91.075371900926001, 32.731014705858804 ], [ -91.075360684767944, 32.731152305798702 ], [ -91.075355300933694, 32.731291438418921 ], [ -91.075357653279852, 32.731430112253541 ], [ -91.075350386970555, 32.731569695152245 ], [ -91.075336634262214, 32.731707228035312 ], [ -91.075307491023281, 32.731843724845298 ], [ -91.075287423445033, 32.731980607975942 ], [ -91.075268365763463, 32.732117705145896 ], [ -91.075222202664818, 32.732252653395875 ], [ -91.075186638107084, 32.732387401845166 ], [ -91.075201169268652, 32.732528229957857 ], [ -91.075200431735482, 32.732666895003938 ], [ -91.075167313398495, 32.732802426092576 ], [ -91.075129151984925, 32.732937711984874 ], [ -91.075102869037622, 32.733074163847924 ], [ -91.075085443307529, 32.733212048442766 ], [ -91.075069772602959, 32.733349812637407 ], [ -91.075062166640564, 32.733487611167057 ], [ -91.075062799452027, 32.733626872243548 ], [ -91.075043228484134, 32.733764934531507 ], [ -91.075004846548438, 32.733901100860969 ], [ -91.074969671516854, 32.734035846917536 ], [ -91.074968583097004, 32.734175338188649 ], [ -91.074961345934838, 32.734314536702698 ], [ -91.074953131839223, 32.734453520069515 ], [ -91.074938039619241, 32.734590456621873 ], [ -91.074911819887518, 32.734726770979243 ], [ -91.074878744021731, 32.734863702993231 ], [ -91.074859069310023, 32.73500102372121 ], [ -91.074846256759315, 32.735138467966749 ], [ -91.074837090699404, 32.735276412739481 ], [ -91.07482360623419, 32.735415181082729 ], [ -91.074800027890632, 32.735552413969245 ], [ -91.074770014469649, 32.73569009790269 ], [ -91.074744666977011, 32.735825774935606 ], [ -91.074735215524612, 32.735964711473883 ], [ -91.074721595578197, 32.736102737570292 ], [ -91.074710377335762, 32.736240393275395 ], [ -91.074679499953746, 32.736375827963741 ], [ -91.074674497869836, 32.736514051055551 ], [ -91.074659080905619, 32.736651153571685 ], [ -91.074625020999363, 32.736787267126267 ], [ -91.074583214161578, 32.73692235432511 ], [ -91.074595617464283, 32.737061463673619 ] ] } }
]
}
