{
"type": "FeatureCollection",
"name": "LM_06_MBV_20220621_CS_4470_4414_transects",
"crs": { "type": "name", "properties": { "name": "urn:ogc:def:crs:OGC:1.3:CRS84" } },
"features": [
{ "type": "Feature", "properties": { "station_id": 0, "station_ft": 4520.4, "width_ft": 1530.6, "flag": "ok", "lon": -90.999679, "lat": 32.35395, "survey_id": "LM_06_MBV_20220621_CS_4470_4414", "date": "2022-06-21 00:00:00+00:00", "method": "lines" }, "geometry": { "type": "LineString", "coordinates": [ [ -91.000587317857025, 32.352983133263812 ], [ -91.000469322233542, 32.353080647430012 ], [ -91.000372481393086, 32.353192728028404 ], [ -91.000276586084411, 32.353301366835247 ], [ -91.000168558390158, 32.353407018960858 ], [ -91.000056890121101, 32.353506368698561 ], [ -90.999972609500489, 32.353626765624647 ], [ -90.999869764023629, 32.353728295081581 ], [ -90.999770841432678, 32.353839341045877 ], [ -90.999678557495898, 32.353950379815686 ], [ -90.999586453519058, 32.354068316251592 ], [ -90.999460511146751, 32.354155591963796 ], [ -90.999369884033953, 32.354271871971875 ], [ -90.999263154499445, 32.354373750598235 ], [ -90.999199071493663, 32.354506602281965 ], [ -90.999105888840603, 32.354618853773594 ], [ -90.998992935325276, 32.354720050808325 ], [ -90.998889000797419, 32.354823481676029 ], [ -90.998799821615265, 32.354938626396802 ], [ -90.998691965510218, 32.355041802747678 ], [ -90.99858798169069, 32.355151803158655 ], [ -90.998494572578949, 32.355260015379436 ], [ -90.998401502073563, 32.355374603195287 ], [ -90.998278280223488, 32.355466590563239 ], [ -90.998168432658687, 32.355567688423974 ], [ -90.998091931831922, 32.355689801567827 ], [ -90.997991482617223, 32.35580071711081 ], [ -90.997883296097129, 32.355898782272661 ], [ -90.997785966594392, 32.356011275576684 ], [ -90.997687306431956, 32.356118937718513 ], [ -90.997578620325996, 32.356224041908213 ], [ -90.99747417513916, 32.356328848627193 ], [ -90.997378629054396, 32.356441854361393 ], [ -90.997285018007986, 32.356549269568319 ], [ -90.997183340777298, 32.356656398009619 ], [ -90.997089345311281, 32.356773353312917 ], [ -90.996997671214203, 32.356884661053741 ], [ -90.996900816873008, 32.356991516798672 ], [ -90.996800300408296, 32.357106856823556 ], [ -90.9966966224723, 32.357206271577986 ], [ -90.996590518894578, 32.357310508242094 ], [ -90.99648713439278, 32.357419184453938 ], [ -90.996388377904452, 32.357527313213005 ], [ -90.996288441430977, 32.35763363460056 ], [ -90.996184646114344, 32.357743769112638 ], [ -90.996087604505504, 32.357851861569721 ], [ -90.995999691401494, 32.357964056921688 ], [ -90.995906593354988, 32.358080044418557 ], [ -90.995792823909809, 32.358176927822711 ], [ -90.995685053095315, 32.358279386040572 ], [ -90.995581846213113, 32.358386054098688 ], [ -90.995490227496504, 32.358500769212682 ], [ -90.995400847352968, 32.358616241733962 ], [ -90.995300321324237, 32.358721878270927 ], [ -90.995183437387908, 32.358818172374143 ], [ -90.995076351041845, 32.358925821684331 ], [ -90.994996709761978, 32.359044679534421 ], [ -90.99489831386596, 32.359153932470704 ], [ -90.99479219176358, 32.359256217152883 ], [ -90.994711786998934, 32.359376975287461 ], [ -90.994585678370882, 32.359469771381605 ] ] } },
{ "type": "Feature", "properties": { "station_id": 1, "station_ft": 3595.4, "width_ft": 1403.8, "flag": "ok", "lon": -90.996564, "lat": 32.352327, "survey_id": "LM_06_MBV_20220621_CS_4470_4414", "date": "2022-06-21 00:00:00+00:00", "method": "lines" }, "geometry": { "type": "LineString", "coordinates": [ [ -90.997247826174018, 32.35123705058524 ], [ -90.997174082698066, 32.351359644706697 ], [ -90.99709710887069, 32.351478819064326 ], [ -90.997012086602098, 32.351595562115115 ], [ -90.996934366447434, 32.351719083316759 ], [ -90.996850249983098, 32.351835684419946 ], [ -90.996776082400515, 32.351957950481356 ], [ -90.996707951864025, 32.352082218282469 ], [ -90.99664485293826, 32.352208136011676 ], [ -90.996564410407728, 32.352326916163257 ], [ -90.996491841224952, 32.352450823022117 ], [ -90.99640979645217, 32.352572112159564 ], [ -90.996332082535957, 32.352692198036159 ], [ -90.996259362286281, 32.352813245979348 ], [ -90.996181692263974, 32.352935035011086 ], [ -90.996105948640391, 32.353054560300464 ], [ -90.996029946063061, 32.353174003939671 ], [ -90.99596169202546, 32.353299371259169 ], [ -90.99588250351421, 32.35342166316353 ], [ -90.995799669271037, 32.35354141759364 ], [ -90.995727441157484, 32.353663561921117 ], [ -90.995662643952485, 32.353787839595384 ], [ -90.995589895409566, 32.353914137510721 ], [ -90.99551779854076, 32.354036584027583 ], [ -90.995429320570665, 32.35415076051634 ], [ -90.995341534104696, 32.35426655473006 ], [ -90.995260716118409, 32.354383275422158 ], [ -90.995183433865449, 32.354505280930034 ], [ -90.995118836705714, 32.354634889548237 ], [ -90.995053935653061, 32.354758535293648 ], [ -90.994973440233579, 32.354879541211858 ], [ -90.994883885018567, 32.354992760756872 ], [ -90.994802147669105, 32.355112370796881 ], [ -90.994735548519202, 32.355238553897415 ], [ -90.994670172482884, 32.355363631267522 ], [ -90.994578797065472, 32.355480433026273 ], [ -90.994493662543505, 32.355596130677959 ], [ -90.994423016282468, 32.355717991809648 ], [ -90.994358157913467, 32.355847738470011 ], [ -90.994291110326827, 32.355970267828198 ], [ -90.994215847960021, 32.356094269530544 ], [ -90.994149236101165, 32.356218913026986 ], [ -90.994071378726574, 32.356337925112825 ], [ -90.993980336932651, 32.356456429067151 ], [ -90.993900101134727, 32.356573502935206 ], [ -90.99382268828009, 32.356695728316858 ], [ -90.993751521172769, 32.356817646801915 ], [ -90.993670801535472, 32.356939423179412 ], [ -90.993584397724462, 32.357054631774197 ], [ -90.993515685688322, 32.357180110159057 ], [ -90.99343679902401, 32.35730025447203 ], [ -90.993363303019038, 32.357422597040902 ], [ -90.993294693873167, 32.357544474823264 ], [ -90.993220849764256, 32.357667946365012 ], [ -90.993143611873464, 32.357787888882299 ], [ -90.993071622347841, 32.357912669949656 ], [ -90.993000981402758, 32.358035767496013 ], [ -90.992931292936376, 32.358160865598727 ], [ -90.992853155202027, 32.358281802805308 ], [ -90.992776989752414, 32.358362269996874 ] ] } },
{ "type": "Feature", "properties": { "station_id": 2, "station_ft": 2604.9, "width_ft": 1307.0, "flag": "ok", "lon": -90.993285, "lat": 32.350912, "survey_id": "LM_06_MBV_20220621_CS_4470_4414", "date": "2022-06-21 00:00:00+00:00", "method": "lines" }, "geometry": { "type": "LineString", "coordinates": [ [ -90.993753204304056, 32.349737036666511 ], [ -90.993706092795762, 32.34987106024149 ], [ -90.993649511152739, 32.349998481771053 ], [ -90.993596551064456, 32.350129870227988 ], [ -90.993547332073973, 32.35025901256072 ], [ -90.99351493736755, 32.35039529646621 ], [ -90.993429915637577, 32.350517149393703 ], [ -90.993342842646712, 32.350637446587818 ], [ -90.993332005973059, 32.350781615609577 ], [ -90.993284640113615, 32.350911930382203 ], [ -90.993219290151089, 32.351036071783781 ], [ -90.993143155977236, 32.35116007748212 ], [ -90.993086269044198, 32.351290441079016 ], [ -90.99304684165925, 32.351421483460321 ], [ -90.993020046094202, 32.351562080956924 ], [ -90.99295682594807, 32.351685275921383 ], [ -90.992880814109938, 32.351808401571141 ], [ -90.992819738328194, 32.351937275544678 ], [ -90.992758114742827, 32.352066372388059 ], [ -90.992695962162259, 32.352189645502705 ], [ -90.992655226053614, 32.352323470300433 ], [ -90.99261555888441, 32.352457482478833 ], [ -90.992566583338231, 32.352593741857007 ], [ -90.992518868936216, 32.352720952379563 ], [ -90.992453598946781, 32.352847649523049 ], [ -90.992405890456254, 32.352980109286023 ], [ -90.992365461990474, 32.353111925890545 ], [ -90.99226948932511, 32.353228943026316 ], [ -90.992193500189927, 32.353351105921512 ], [ -90.99217987182459, 32.353494574263671 ], [ -90.992113424656509, 32.353619793027462 ], [ -90.992040964157752, 32.353746335424276 ], [ -90.991982477687472, 32.353875140440941 ], [ -90.991932723612877, 32.354002718487756 ], [ -90.991895035460445, 32.354137379292673 ], [ -90.991849665899437, 32.354271145935577 ], [ -90.991788744225715, 32.354399277309142 ], [ -90.991720192113945, 32.354524615962916 ], [ -90.991658364167549, 32.354648243956952 ], [ -90.991598868011096, 32.354776559875873 ], [ -90.991548579914763, 32.354910929218363 ], [ -90.991507908776555, 32.355040768265276 ], [ -90.991450998424611, 32.355172945605048 ], [ -90.991395565317063, 32.355298903685629 ], [ -90.991340728967131, 32.355426892162001 ], [ -90.991279947343415, 32.355561069044562 ], [ -90.991223747680195, 32.355684227381751 ], [ -90.991156943927194, 32.355809749580942 ], [ -90.991098172719731, 32.35593993087975 ], [ -90.991036961183937, 32.356068529610411 ], [ -90.99099237511399, 32.356198993993146 ], [ -90.990945388135756, 32.356333317909488 ], [ -90.990884326876525, 32.356460432335211 ], [ -90.990817710352033, 32.356585101180691 ], [ -90.990753631360604, 32.356711324072499 ], [ -90.990705121293161, 32.35684109368141 ], [ -90.990662484464849, 32.356972509085814 ], [ -90.990601216911713, 32.357102648142153 ], [ -90.990540073824945, 32.357227398329172 ], [ -90.990471517719769, 32.357352709245987 ] ] } },
{ "type": "Feature", "properties": { "station_id": 3, "station_ft": 1636.6, "width_ft": 1331.1, "flag": "ok", "lon": -90.990003, "lat": 32.350046, "survey_id": "LM_06_MBV_20220621_CS_4470_4414", "date": "2022-06-21 00:00:00+00:00", "method": "lines" }, "geometry": { "type": "LineString", "coordinates": [ [ -90.990346671075201, 32.348845733440101 ], [ -90.990315297428936, 32.348980581029942 ], [ -90.990286066618594, 32.349116187578474 ], [ -90.990238441564131, 32.349246996799522 ], [ -90.990170832044271, 32.349377003768367 ], [ -90.990147841337787, 32.349511313474999 ], [ -90.990081791902796, 32.349637765528925 ], [ -90.990056509741223, 32.349777694476934 ], [ -90.990039463628875, 32.349914638898859 ], [ -90.99000301503294, 32.350046352042177 ], [ -90.989957860823438, 32.350178577619225 ], [ -90.989904037461656, 32.350312250587471 ], [ -90.989851765977022, 32.350440912322526 ], [ -90.989809431356861, 32.350573646204118 ], [ -90.989771990260806, 32.350706875837375 ], [ -90.989741428234808, 32.350842214115723 ], [ -90.989711458780022, 32.350974443536067 ], [ -90.989666760298363, 32.351107078743105 ], [ -90.989616698536324, 32.35124158419508 ], [ -90.989564210419772, 32.351367443261694 ], [ -90.989503757855033, 32.351497906795103 ], [ -90.989474991407533, 32.351635270094455 ], [ -90.989448026769807, 32.351771028746008 ], [ -90.989411717537024, 32.351904308278584 ], [ -90.989366817752426, 32.35203625725017 ], [ -90.989322181492497, 32.35216867286249 ], [ -90.989280155785849, 32.35229967259793 ], [ -90.989252915670136, 32.352437660050995 ], [ -90.989210072960873, 32.352572071871712 ], [ -90.989141202992769, 32.352698428950077 ], [ -90.989106518724356, 32.352832634187173 ], [ -90.989091530243684, 32.352967753332145 ], [ -90.989062591676159, 32.353103935162785 ], [ -90.989017519617846, 32.353239101573493 ], [ -90.988961830381896, 32.353365801242255 ], [ -90.988913838851715, 32.353500268570656 ], [ -90.98887154336272, 32.353634238245959 ], [ -90.98883078924905, 32.353762015420926 ], [ -90.988794252321924, 32.353899748066446 ], [ -90.988749218916098, 32.354031395386478 ], [ -90.988713161669821, 32.354163930301709 ], [ -90.98866416981862, 32.354294443865733 ], [ -90.988612804516251, 32.354428213477433 ], [ -90.988570771519377, 32.354558333739263 ], [ -90.988532448376645, 32.354690963331628 ], [ -90.98849298661932, 32.354822911661287 ], [ -90.988451069596479, 32.354960177055943 ], [ -90.988408090810552, 32.355094013032975 ], [ -90.988375141659262, 32.355226449630877 ], [ -90.988345695439449, 32.355359802280311 ], [ -90.98830818153543, 32.355497045654396 ], [ -90.988268937285497, 32.355627865536214 ], [ -90.988222820690027, 32.355762156905939 ], [ -90.988186021143491, 32.355895081466045 ], [ -90.988146583919104, 32.356026149396598 ], [ -90.988109299562055, 32.356159350591554 ], [ -90.988061669638029, 32.356290406916926 ], [ -90.988033116210943, 32.356430846514456 ], [ -90.987965454239514, 32.356541308914217 ] ] } },
{ "type": "Feature", "properties": { "station_id": 4, "station_ft": 585.1, "width_ft": 1443.1, "flag": "ok", "lon": -90.986573, "lat": 32.349143, "survey_id": "LM_06_MBV_20220621_CS_4470_4414", "date": "2022-06-21 00:00:00+00:00", "method": "lines" }, "geometry": { "type": "LineString", "coordinates": [ [ -90.98687060104325, 32.347933918784044 ], [ -90.98682987680327, 32.348061475236889 ], [ -90.986801971881548, 32.348197486285059 ], [ -90.986784799017727, 32.348335475267206 ], [ -90.986742651667015, 32.348467712137314 ], [ -90.986717293850873, 32.348602225618627 ], [ -90.986688532314943, 32.348740742636949 ], [ -90.986644723475834, 32.348871695808562 ], [ -90.98660342777039, 32.349005274586915 ], [ -90.986573104796548, 32.349142974520873 ], [ -90.986531974828765, 32.34927259445508 ], [ -90.986533907925988, 32.349415487577595 ], [ -90.986490721215247, 32.349547344665666 ], [ -90.986433702057482, 32.349678394112352 ], [ -90.986421554279602, 32.3498174021762 ], [ -90.986398229171044, 32.349951052854998 ], [ -90.98635210087933, 32.350083722300582 ], [ -90.986310596037725, 32.350219967740443 ], [ -90.986295687836602, 32.350357917843674 ], [ -90.986283315951908, 32.350492832011874 ], [ -90.986242487634968, 32.350628496774952 ], [ -90.986208381442879, 32.350762478256641 ], [ -90.986181744145625, 32.3508949096693 ], [ -90.986138792404532, 32.35102813972798 ], [ -90.986088260766422, 32.351161106897287 ], [ -90.986065805906023, 32.351298738000487 ], [ -90.986032647796492, 32.35143403383745 ], [ -90.985999359002435, 32.351569193267686 ], [ -90.985986104341023, 32.351703011769615 ], [ -90.985947237723011, 32.351836962786919 ], [ -90.985906879643153, 32.351975236572699 ], [ -90.985886601628039, 32.352109531467434 ], [ -90.985856522976604, 32.352240853356513 ], [ -90.985824136364798, 32.35237996511551 ], [ -90.985793842706613, 32.352512882462669 ], [ -90.985761934695432, 32.352651057470986 ], [ -90.98573798990337, 32.352784299068858 ], [ -90.985711798902173, 32.352920465961574 ], [ -90.985674998045596, 32.353053719027947 ], [ -90.985639250123967, 32.353189221111279 ], [ -90.985607807226344, 32.353324617052749 ], [ -90.985589653428491, 32.353461594538508 ], [ -90.985546404950128, 32.353589878672771 ], [ -90.985490391958862, 32.353721911701022 ], [ -90.985459080329363, 32.353857444892427 ], [ -90.985435350247769, 32.353993764014255 ], [ -90.985404724872822, 32.35413020084038 ], [ -90.985366866587256, 32.354260572636242 ], [ -90.985336781594853, 32.354395797347863 ], [ -90.985306487073487, 32.35453322259864 ], [ -90.985276719028533, 32.354667483443428 ], [ -90.985255160885032, 32.354804066337067 ], [ -90.985225356276487, 32.354937695199666 ], [ -90.98518696918984, 32.355071148373113 ], [ -90.985160591416815, 32.355208580388648 ], [ -90.985121905666603, 32.355341155836797 ] ] } },
{ "type": "Feature", "properties": { "station_id": 5, "station_ft": -444.1, "width_ft": 1494.3, "flag": "ok", "lon": -90.983153, "lat": 32.349033, "survey_id": "LM_06_MBV_20220621_CS_4470_4414", "date": "2022-06-21 00:00:00+00:00", "method": "lines" }, "geometry": { "type": "LineString", "coordinates": [ [ -90.983451481644579, 32.347541485756132 ], [ -90.98342374496778, 32.347674526543024 ], [ -90.98343145598993, 32.347815575606077 ], [ -90.983378070916885, 32.347948116405178 ], [ -90.98335438184985, 32.348085809391932 ], [ -90.983340440101287, 32.348219109118901 ], [ -90.983299192895998, 32.348355655310158 ], [ -90.983261126949628, 32.348488887245544 ], [ -90.983232342279351, 32.348624902070178 ], [ -90.983194670313893, 32.348758736151495 ], [ -90.983170119894027, 32.348893848995111 ], [ -90.983152561242477, 32.34903304970225 ], [ -90.983138825657562, 32.34916805181129 ], [ -90.983129987911283, 32.349304156825575 ], [ -90.98310899070411, 32.349442522138318 ], [ -90.983068723132533, 32.349575792393608 ], [ -90.983049588825892, 32.349712032494928 ], [ -90.983020993879336, 32.349847634155154 ], [ -90.982986531050429, 32.349982138790274 ], [ -90.982950488681468, 32.350117723777863 ], [ -90.982915887993371, 32.350251101861303 ], [ -90.982899599143167, 32.350386860147061 ], [ -90.982881718255314, 32.350526254530166 ], [ -90.982858027486657, 32.350659439336717 ], [ -90.982829198187758, 32.350798450011197 ], [ -90.982801651150254, 32.35093107751333 ], [ -90.982779740190779, 32.351068651166656 ], [ -90.982755255827186, 32.351203955631476 ], [ -90.982745272718702, 32.351343117235736 ], [ -90.982737239205377, 32.351478584984719 ], [ -90.982718217418522, 32.351617160961887 ], [ -90.982690352067323, 32.351750642256661 ], [ -90.982647466281847, 32.351884805066646 ], [ -90.982607868072492, 32.352016834435183 ], [ -90.982577321592643, 32.352151291710427 ], [ -90.982552575549505, 32.35229094138878 ], [ -90.982529007733675, 32.352427781329268 ], [ -90.982494527753488, 32.352560114365893 ], [ -90.982475765146148, 32.352694152948317 ], [ -90.982468748583315, 32.352836267027115 ], [ -90.982458369290782, 32.352974331334458 ], [ -90.982434881895273, 32.353104326243042 ], [ -90.982396109912898, 32.353243415899279 ], [ -90.982367922555554, 32.353377310871494 ], [ -90.982373281550636, 32.353515541265608 ], [ -90.982345608632301, 32.353653501556451 ], [ -90.982283727165878, 32.353780423188184 ] ] } },
{ "type": "Feature", "properties": { "station_id": 6, "station_ft": -1509.4, "width_ft": 1593.6, "flag": "ok", "lon": -90.979752, "lat": 32.348224, "survey_id": "LM_06_MBV_20220621_CS_4470_4414", "date": "2022-06-21 00:00:00+00:00", "method": "lines" }, "geometry": { "type": "LineString", "coordinates": [ [ -90.97993572565683, 32.346856035723519 ], [ -90.979924621550722, 32.346997511560964 ], [ -90.979899938349888, 32.347132652475381 ], [ -90.979852429846076, 32.347263595300007 ], [ -90.979847963809974, 32.347405037100692 ], [ -90.979832778173432, 32.347541750737584 ], [ -90.979839221218711, 32.347682751555737 ], [ -90.979800996883668, 32.347812464520281 ], [ -90.97977559278479, 32.347951154933803 ], [ -90.979754496815431, 32.348085425226806 ], [ -90.979751724804771, 32.348223697548057 ], [ -90.979749178779258, 32.348362078726744 ], [ -90.979731431604833, 32.348498201260036 ], [ -90.979707161759166, 32.348636884932951 ], [ -90.979698828233467, 32.348771859934821 ], [ -90.979684016716647, 32.348906565125773 ], [ -90.979668218470948, 32.349048174971934 ], [ -90.979659427734305, 32.349182657222684 ], [ -90.979640665066768, 32.349317190564754 ], [ -90.97962190010341, 32.349456039885204 ], [ -90.979606164534744, 32.349592893346028 ], [ -90.97960350567358, 32.349728883522531 ], [ -90.979605368082915, 32.349867846280752 ], [ -90.979567137373422, 32.350001463025286 ], [ -90.979544139902899, 32.35014168037933 ], [ -90.97954286008023, 32.350275904084683 ], [ -90.979526587478318, 32.350414657639313 ], [ -90.979507521680688, 32.350552188241259 ], [ -90.979501087615404, 32.350690204220946 ], [ -90.979481569588174, 32.350823312042877 ], [ -90.979447756220736, 32.350963584769794 ], [ -90.979439276895747, 32.35110084108566 ], [ -90.979424272702815, 32.351235740173017 ], [ -90.979404784660829, 32.351373245853388 ], [ -90.979389069698712, 32.351508450672057 ], [ -90.979388398004176, 32.351646354147448 ], [ -90.979388620850358, 32.351782466590656 ], [ -90.979351306240261, 32.351921960024875 ], [ -90.979312665600702, 32.352052775091181 ], [ -90.979316706161654, 32.352193018015008 ], [ -90.979316621899443, 32.352331523569106 ], [ -90.979299253350277, 32.352466544745994 ], [ -90.979285810590753, 32.35260250712188 ] ] } },
{ "type": "Feature", "properties": { "station_id": 7, "station_ft": -2577.2, "width_ft": 1965.3, "flag": "ok", "lon": -90.976407, "lat": 32.347055, "survey_id": "LM_06_MBV_20220621_CS_4470_4414", "date": "2022-06-21 00:00:00+00:00", "method": "lines" }, "geometry": { "type": "LineString", "coordinates": [ [ -90.97647086696324, 32.345819497466337 ], [ -90.976486389093296, 32.345958638742658 ], [ -90.976473119713646, 32.346092263556017 ], [ -90.976447720576758, 32.346232162649422 ], [ -90.976457687783309, 32.346368583579121 ], [ -90.976455193369802, 32.346505809311452 ], [ -90.976412405414266, 32.346640959831909 ], [ -90.976438599232736, 32.346782740342761 ], [ -90.976421246433873, 32.346915808806301 ], [ -90.976407268162589, 32.347054523313091 ], [ -90.976397668611853, 32.347189613737818 ], [ -90.976363220518508, 32.347327607446985 ], [ -90.976362082678264, 32.347464249997991 ], [ -90.976375284016541, 32.34760477651033 ], [ -90.976366606847691, 32.347742171707807 ], [ -90.976352245682293, 32.347877094307243 ], [ -90.976349435755424, 32.348015393844996 ], [ -90.976333962254742, 32.348153318760353 ], [ -90.976316880333513, 32.348288090189101 ], [ -90.976286000430846, 32.348427027880582 ], [ -90.976291378016384, 32.348564598507792 ], [ -90.976282231690959, 32.348699824558217 ], [ -90.976253552987757, 32.348838640995844 ], [ -90.976268499051244, 32.348974101350272 ], [ -90.976267115883275, 32.349112723647025 ], [ -90.976237687782003, 32.349250746709444 ], [ -90.976233686374655, 32.349385534401449 ], [ -90.976221912396966, 32.34952462176733 ], [ -90.976208522904997, 32.349659704391954 ], [ -90.976197390846622, 32.349797936285789 ], [ -90.976189691213776, 32.349936315710401 ], [ -90.976177341560856, 32.350071833098397 ], [ -90.976167116551792, 32.350210198332718 ], [ -90.976154099687633, 32.350347670589557 ], [ -90.976158433024068, 32.350484202229339 ], [ -90.976149167727783, 32.35062083022212 ], [ -90.976126948280708, 32.350757360101341 ], [ -90.976120435517345, 32.350894139087352 ], [ -90.976116451098179, 32.351031207285864 ], [ -90.976110379991923, 32.35117095361295 ], [ -90.976108876124883, 32.351306359788822 ], [ -90.976096331607323, 32.351446358232856 ], [ -90.976092363859479, 32.351581283678854 ], [ -90.976080764197334, 32.351708578280565 ], [ -90.976081360679927, 32.351834079291912 ], [ -90.976070317782202, 32.351966648331342 ] ] } },
{ "type": "Feature", "properties": { "station_id": 8, "station_ft": -3688.0, "width_ft": 2380.2, "flag": "ok", "lon": -90.973029, "lat": 32.345164, "survey_id": "LM_06_MBV_20220621_CS_4470_4414", "date": "2022-06-21 00:00:00+00:00", "method": "lines" }, "geometry": { "type": "LineString", "coordinates": [ [ -90.973061974857742, 32.344350901434453 ], [ -90.973061244931898, 32.344477234503472 ], [ -90.973066082233984, 32.344617116720471 ], [ -90.973063333232957, 32.344751045899294 ], [ -90.973066769138001, 32.344889533831989 ], [ -90.973049528102052, 32.345025405011114 ], [ -90.97302861557823, 32.34516412643093 ], [ -90.973012172574869, 32.345298235058486 ], [ -90.972995682619299, 32.345435037572493 ], [ -90.973019114046679, 32.34557606274084 ], [ -90.973013433319551, 32.345712150325646 ], [ -90.97299342352936, 32.345850262947934 ], [ -90.972991308130034, 32.345986689556781 ], [ -90.972978242313843, 32.34612234745169 ], [ -90.972989572624826, 32.346260136116783 ], [ -90.97296055194947, 32.34639686417345 ], [ -90.972959321885313, 32.346535018623648 ], [ -90.972957465738759, 32.346671609832939 ], [ -90.972956273433041, 32.346810450349402 ], [ -90.972953028978168, 32.346947515720537 ], [ -90.972935855141287, 32.347083799524498 ], [ -90.972934308011631, 32.347222944833241 ], [ -90.972932770699259, 32.347358654262386 ], [ -90.972913006068936, 32.347499513356503 ], [ -90.972908541037754, 32.347633424120886 ], [ -90.972918145753312, 32.347774464351559 ], [ -90.972888686782468, 32.347913448163624 ], [ -90.972876480549715, 32.348047068111761 ], [ -90.972880617102376, 32.348183986014632 ], [ -90.972873712601057, 32.348320876928888 ], [ -90.972863369114236, 32.348456988091804 ], [ -90.972855346570299, 32.348596084137839 ], [ -90.9728615627469, 32.348734145779297 ], [ -90.972863828416948, 32.34887195240016 ], [ -90.972839042884004, 32.349007999698564 ], [ -90.972828044604455, 32.349143014880703 ], [ -90.972839013890635, 32.349284570303006 ], [ -90.972820633092482, 32.349419705871988 ], [ -90.972807239128954, 32.349554870261983 ], [ -90.972809661728988, 32.349696716998665 ], [ -90.972817410200051, 32.349836035161815 ], [ -90.97280853092164, 32.349968593022673 ], [ -90.972784649197848, 32.350108730742832 ], [ -90.972768564331091, 32.350243469584427 ], [ -90.972771007617112, 32.350379048751712 ], [ -90.972772053989843, 32.350518565906263 ], [ -90.972762578556768, 32.350653683351403 ], [ -90.972755884894895, 32.350793102664873 ], [ -90.972742729223725, 32.35092986018028 ], [ -90.97272833686192, 32.351065854732681 ], [ -90.972715347038871, 32.351203243554963 ], [ -90.97271608371554, 32.351340123621114 ] ] } },
{ "type": "Feature", "properties": { "station_id": 9, "station_ft": -4723.6, "width_ft": 2496.2, "flag": "ok", "lon": -90.969459, "lat": 32.347844, "survey_id": "LM_06_MBV_20220621_CS_4470_4414", "date": "2022-06-21 00:00:00+00:00", "method": "lines" }, "geometry": { "type": "LineString", "coordinates": [ [ -90.969737292645277, 32.34372604105733 ], [ -90.969721221532751, 32.343863253218522 ], [ -90.969714041945508, 32.343998524050974 ], [ -90.969727699784571, 32.344136465479266 ], [ -90.969733324634376, 32.344273953245796 ], [ -90.969691921305767, 32.344409396717225 ], [ -90.969673638800586, 32.344549863761955 ], [ -90.969673758118986, 32.344687104247946 ], [ -90.969699473301077, 32.344826744238368 ], [ -90.969678206115773, 32.344961811068295 ], [ -90.969643310315575, 32.345097138720085 ], [ -90.969624298774065, 32.345235162858849 ], [ -90.969618882752087, 32.345372761307161 ], [ -90.969632658167725, 32.34550897068123 ], [ -90.969643725762751, 32.345646843087565 ], [ -90.969638172340368, 32.345787878049492 ], [ -90.969630765775662, 32.345923232046502 ], [ -90.969598812173956, 32.346058105655111 ], [ -90.969557334291707, 32.346196847282393 ], [ -90.969549135867553, 32.34633003464706 ], [ -90.969571769238044, 32.346468865930653 ], [ -90.969584835326131, 32.346610109060215 ], [ -90.969571558019851, 32.346744063307902 ], [ -90.969550588020439, 32.346884488834114 ], [ -90.969543717485564, 32.347017833613428 ], [ -90.969533271560792, 32.34715837108017 ], [ -90.969519114617881, 32.347296287713895 ], [ -90.96951334869145, 32.34743006698708 ], [ -90.969503799389798, 32.347569252643694 ], [ -90.969471230569496, 32.347704211356792 ], [ -90.969458671309951, 32.347843660176849 ], [ -90.969451455880247, 32.34797860104019 ], [ -90.969458006256644, 32.348114159646137 ], [ -90.969462785727686, 32.348255636622106 ], [ -90.969448978937649, 32.348392618105876 ], [ -90.969425928867025, 32.348527500834408 ], [ -90.969411525951543, 32.348667206021261 ], [ -90.969423530449347, 32.348804743597981 ], [ -90.969417735432643, 32.34893910013043 ], [ -90.969364270503178, 32.349077215826867 ], [ -90.969375000175461, 32.34921308339657 ], [ -90.969387962535578, 32.349353446859318 ], [ -90.969394525171722, 32.349490599745366 ], [ -90.969389648364427, 32.349626683974549 ], [ -90.969359634502624, 32.349765862749081 ], [ -90.96933829771416, 32.349900462652542 ], [ -90.969322489762035, 32.350038305472033 ], [ -90.969320508372348, 32.350176298610677 ], [ -90.96931647807989, 32.350312981853946 ], [ -90.969309645117207, 32.350451769578385 ], [ -90.969299580738863, 32.350586806808479 ], [ -90.96929314370594, 32.350721908711414 ], [ -90.96929955312136, 32.350860546694769 ], [ -90.969292738405301, 32.350987981660708 ], [ -90.96928107955037, 32.351098757001473 ] ] } }
]
}
