{
"type": "FeatureCollection",
"name": "LM_03_KGC_20220628_CS_3800_3742_transects",
"crs": { "type": "name", "properties": { "name": "urn:ogc:def:crs:OGC:1.3:CRS84" } },
"features": [
{ "type": "Feature", "properties": { "station_ft": 551.2, "width_ft": 0, "flag": "waypoint", "lon": -91.363368, "lat": 31.787896, "survey_id": "LM_03_KGC_20220628_CS_3800_3742", "date": "2022-06-28 00:00:00+00:00", "method": "blob", "station_id": 0 }, "geometry": { "type": "LineString", "coordinates": [ [ -91.363368007385901, 31.787896293277786 ], [ -91.363368007385901, 31.787896293277786 ] ] } },
{ "type": "Feature", "properties": { "station_ft": 1624.1, "width_ft": 0, "flag": "waypoint", "lon": -91.36332, "lat": 31.785016, "survey_id": "LM_03_KGC_20220628_CS_3800_3742", "date": "2022-06-28 00:00:00+00:00", "method": "blob", "station_id": 1 }, "geometry": { "type": "LineString", "coordinates": [ [ -91.363319509323375, 31.78501553365124 ], [ -91.363319509323375, 31.78501553365124 ] ] } },
{ "type": "Feature", "properties": { "station_ft": 2729.8, "width_ft": 0, "flag": "waypoint", "lon": -91.363075, "lat": 31.782088, "survey_id": "LM_03_KGC_20220628_CS_3800_3742", "date": "2022-06-28 00:00:00+00:00", "method": "blob", "station_id": 2 }, "geometry": { "type": "LineString", "coordinates": [ [ -91.363075150507996, 31.782087962543937 ], [ -91.363075150507996, 31.782087962543937 ] ] } },
{ "type": "Feature", "properties": { "station_ft": 3914.7, "width_ft": 0, "flag": "waypoint", "lon": -91.361784, "lat": 31.779024, "survey_id": "LM_03_KGC_20220628_CS_3800_3742", "date": "2022-06-28 00:00:00+00:00", "method": "blob", "station_id": 3 }, "geometry": { "type": "LineString", "coordinates": [ [ -91.361783541666938, 31.779024251964984 ], [ -91.361783541666938, 31.779024251964984 ] ] } },
{ "type": "Feature", "properties": { "station_ft": 5051.3, "width_ft": 0, "flag": "waypoint", "lon": -91.361162, "lat": 31.776014, "survey_id": "LM_03_KGC_20220628_CS_3800_3742", "date": "2022-06-28 00:00:00+00:00", "method": "blob", "station_id": 4 }, "geometry": { "type": "LineString", "coordinates": [ [ -91.361161612571081, 31.776013521666105 ], [ -91.361161612571081, 31.776013521666105 ] ] } },
{ "type": "Feature", "properties": { "station_ft": 6140.1, "width_ft": 0, "flag": "waypoint", "lon": -91.360941, "lat": 31.773044, "survey_id": "LM_03_KGC_20220628_CS_3800_3742", "date": "2022-06-28 00:00:00+00:00", "method": "blob", "station_id": 5 }, "geometry": { "type": "LineString", "coordinates": [ [ -91.360940921699111, 31.773043598163547 ], [ -91.360940921699111, 31.773043598163547 ] ] } },
{ "type": "Feature", "properties": { "station_ft": 7397.3, "width_ft": 0, "flag": "waypoint", "lon": -91.359321, "lat": 31.769971, "survey_id": "LM_03_KGC_20220628_CS_3800_3742", "date": "2022-06-28 00:00:00+00:00", "method": "blob", "station_id": 6 }, "geometry": { "type": "LineString", "coordinates": [ [ -91.359321101173691, 31.769971191364888 ], [ -91.359321101173691, 31.769971191364888 ] ] } }
]
}
