{
"type": "FeatureCollection",
"name": "LM_08_MVF_20220603_CS_4946_4786_A_transects",
"crs": { "type": "name", "properties": { "name": "urn:ogc:def:crs:OGC:1.3:CRS84" } },
"features": [
{ "type": "Feature", "properties": { "station_id": 0, "station_ft": -3779.7, "width_ft": 2151.0, "flag": "ok", "lon": -91.074828, "lat": 32.735398, "survey_id": "LM_08_MVF_20220603_CS_4946_4786_A", "date": "2022-06-03 00:00:00+00:00", "method": "lines" }, "geometry": { "type": "LineString", "coordinates": [ [ -91.07594541447456, 32.727206840085529 ], [ -91.075917667215649, 32.72734275173768 ], [ -91.075915193364239, 32.727479805865478 ], [ -91.075887803344955, 32.727615715390307 ], [ -91.075836041655407, 32.727749515828172 ], [ -91.075842790003989, 32.72788898787077 ], [ -91.07580267583252, 32.728023598493472 ], [ -91.075813515888981, 32.728162360083346 ], [ -91.075770992290202, 32.728296792892657 ], [ -91.075777602862843, 32.728435221540309 ], [ -91.075744329774352, 32.728571495890733 ], [ -91.075703624732441, 32.728705532863309 ], [ -91.075681212256583, 32.728841879943737 ], [ -91.075682451372458, 32.728979544164574 ], [ -91.075661922805253, 32.729115633007254 ], [ -91.07564136513588, 32.729252079101428 ], [ -91.075614819320407, 32.729388010590149 ], [ -91.075601777930217, 32.729525045183756 ], [ -91.075597098928739, 32.729662798535358 ], [ -91.075564760660654, 32.729798160143332 ], [ -91.075543970090081, 32.729934085487074 ], [ -91.075520423102731, 32.730070824272318 ], [ -91.075510247151115, 32.730208391032903 ], [ -91.075504070315333, 32.730345906161283 ], [ -91.075486790945646, 32.730481755693425 ], [ -91.075483118501324, 32.730619338948401 ], [ -91.075458531142246, 32.730756083868606 ], [ -91.075432180327141, 32.730892069143806 ], [ -91.075404692311551, 32.731028199107314 ], [ -91.075381965493932, 32.73116586718389 ], [ -91.075353738435481, 32.731299088019156 ], [ -91.075358264174582, 32.731437144830707 ], [ -91.075335691376736, 32.731573849834838 ], [ -91.075306839799268, 32.731710262863494 ], [ -91.075287508913917, 32.731845794453157 ], [ -91.075269294730049, 32.731982584554395 ], [ -91.075246031181166, 32.732118359429741 ], [ -91.07524201355784, 32.73225759304966 ], [ -91.075233679047415, 32.732393692555775 ], [ -91.075168862287882, 32.73252613976824 ], [ -91.07514527581769, 32.732662246559549 ], [ -91.075118232845099, 32.732797219584 ], [ -91.075140338678651, 32.7329377828516 ], [ -91.075161317838294, 32.733079617904593 ], [ -91.075135124925168, 32.733215217104636 ], [ -91.07511405163774, 32.733352464120486 ], [ -91.075097867002825, 32.733487041941189 ], [ -91.075070927349188, 32.733622674394908 ], [ -91.07504809218743, 32.733759243798282 ], [ -91.075054255785616, 32.733898774223526 ], [ -91.075034294062831, 32.734036810863287 ], [ -91.074981653124837, 32.734167180470948 ], [ -91.074970796190854, 32.734305108223687 ], [ -91.074962699068976, 32.734442497544357 ], [ -91.074956529654088, 32.734581029670061 ], [ -91.074914911165564, 32.734715236713534 ], [ -91.074893332835146, 32.734850451451699 ], [ -91.074897782996317, 32.734991285077285 ], [ -91.074877798218935, 32.735126463328804 ], [ -91.074849647780781, 32.735261304839533 ], [ -91.074827655487795, 32.735397704171803 ], [ -91.074807974451929, 32.735534282796621 ], [ -91.074781453536133, 32.735669581742151 ], [ -91.074781491349128, 32.735807637077087 ], [ -91.07476050837532, 32.735944195434215 ], [ -91.074711783911965, 32.736080395759629 ], [ -91.074699447352501, 32.736216353811358 ], [ -91.074692551136152, 32.736353625964995 ], [ -91.074682525767045, 32.736490009482729 ], [ -91.074667759602775, 32.736627108151389 ], [ -91.07464742184041, 32.736763030547607 ], [ -91.074616312702474, 32.736898081544105 ], [ -91.074578373050471, 32.73703287174483 ] ] } },
{ "type": "Feature", "properties": { "station_id": 1, "station_ft": -2690.6, "width_ft": 2674.3, "flag": "ok", "lon": -91.07823, "lat": 32.736613, "survey_id": "LM_08_MVF_20220603_CS_4946_4786_A", "date": "2022-06-03 00:00:00+00:00", "method": "lines" }, "geometry": { "type": "LineString", "coordinates": [ [ -91.078960818080645, 32.729217318779824 ], [ -91.078959824394218, 32.729355792423895 ], [ -91.078936070390725, 32.729490471695961 ], [ -91.078880597051182, 32.729623443262753 ], [ -91.078854823933071, 32.729761652168456 ], [ -91.078842305154012, 32.729898463919781 ], [ -91.078831129414922, 32.730036420992249 ], [ -91.078812754769174, 32.730172854565915 ], [ -91.07879516759121, 32.730310080580416 ], [ -91.078800119167752, 32.730447914690437 ], [ -91.078782647287071, 32.730583491651572 ], [ -91.078761878302203, 32.730721313680107 ], [ -91.078765422836398, 32.730858138998997 ], [ -91.078769405543838, 32.730996720982503 ], [ -91.078757953967184, 32.731132838336414 ], [ -91.078708068494677, 32.731269129205344 ], [ -91.078688160382299, 32.731405049754656 ], [ -91.078686766881546, 32.731542317413194 ], [ -91.078686551659345, 32.731680539306211 ], [ -91.078670771649186, 32.731816270284433 ], [ -91.078672216661701, 32.731954647317103 ], [ -91.078663516222008, 32.73209319467751 ], [ -91.078629079654704, 32.732226068973908 ], [ -91.078598912137096, 32.73236389181568 ], [ -91.078593543727237, 32.732500302997231 ], [ -91.078599146620405, 32.732638215254667 ], [ -91.078589888611361, 32.732776188804969 ], [ -91.078582908300064, 32.732914285873967 ], [ -91.078579013358265, 32.733051870450304 ], [ -91.0785583285261, 32.733188235607088 ], [ -91.078530773158562, 32.733323596496852 ], [ -91.078511229467281, 32.733460311942189 ], [ -91.078486646357931, 32.733597222353843 ], [ -91.078468886658484, 32.733733460087933 ], [ -91.078466029623002, 32.73387079050007 ], [ -91.078454204149153, 32.734008861334971 ], [ -91.078423710658669, 32.734142866318763 ], [ -91.078414009234024, 32.734282216696982 ], [ -91.07841257679398, 32.734418824460548 ], [ -91.078407247592509, 32.7345561424994 ], [ -91.078400784560955, 32.73469387936418 ], [ -91.078391332006646, 32.734831991078757 ], [ -91.078379392546012, 32.7349680562195 ], [ -91.078347969737223, 32.73510377095851 ], [ -91.078326408868833, 32.735240470377491 ], [ -91.078325534192999, 32.735377706917561 ], [ -91.078335510863397, 32.73551762743179 ], [ -91.078348033213047, 32.735654729338734 ], [ -91.078325071004187, 32.735790997933655 ], [ -91.07827832505221, 32.73592595067236 ], [ -91.078240166664528, 32.736061182393506 ], [ -91.078245647195089, 32.736200057463549 ], [ -91.078246014007448, 32.736338028728291 ], [ -91.078242473389352, 32.736475309041268 ], [ -91.078229860418944, 32.736612669413624 ], [ -91.078215718386204, 32.736750012718169 ], [ -91.078181065055333, 32.736884426451539 ], [ -91.078156148501236, 32.737020403626254 ], [ -91.078175298280996, 32.737160682603324 ], [ -91.078183439573408, 32.73729877176612 ], [ -91.078168116511918, 32.737434857847006 ], [ -91.078197082365648, 32.737574527527016 ], [ -91.078148674606268, 32.737677855639177 ] ] } },
{ "type": "Feature", "properties": { "station_id": 2, "station_ft": -1624.2, "width_ft": 2557.3, "flag": "ok", "lon": -91.081736, "lat": 32.736712, "survey_id": "LM_08_MVF_20220603_CS_4946_4786_A", "date": "2022-06-03 00:00:00+00:00", "method": "lines" }, "geometry": { "type": "LineString", "coordinates": [ [ -91.082040119372095, 32.730394965671621 ], [ -91.082066875843353, 32.730534345695446 ], [ -91.082052446562557, 32.730671498251283 ], [ -91.082047486777, 32.730809446381777 ], [ -91.082029213297943, 32.730945797708458 ], [ -91.082002974487295, 32.731082250703089 ], [ -91.081991272964089, 32.731218892804037 ], [ -91.081970245136873, 32.731356441828162 ], [ -91.081992930433572, 32.731495021977388 ], [ -91.081987273539852, 32.731631269984881 ], [ -91.082013318419513, 32.731771121335626 ], [ -91.081975820620073, 32.731906653254832 ], [ -91.081979864104994, 32.732044244609824 ], [ -91.081969854255533, 32.732180986597825 ], [ -91.081930900373749, 32.732317460481418 ], [ -91.081917056642595, 32.732454774507168 ], [ -91.08192021512717, 32.732591409894987 ], [ -91.081926965574581, 32.732729810154204 ], [ -91.081942429314537, 32.732868103371572 ], [ -91.081934470843493, 32.733005218128135 ], [ -91.081914965795391, 32.733142097949965 ], [ -91.081903103460377, 32.733279070093118 ], [ -91.08190724853786, 32.733417073806145 ], [ -91.081897017055766, 32.733554641264341 ], [ -91.081878841705489, 32.733691073988368 ], [ -91.081868569043522, 32.733827679540738 ], [ -91.081874640912432, 32.733966578876583 ], [ -91.081850025547496, 32.734102857975415 ], [ -91.081843663762157, 32.734240456413175 ], [ -91.081868526088144, 32.734378776444863 ], [ -91.081893977249905, 32.734517587098829 ], [ -91.081884349567204, 32.73465350166699 ], [ -91.081880176779762, 32.734792214183344 ], [ -91.081844018127654, 32.73492870015869 ], [ -91.081809995501601, 32.735063935294981 ], [ -91.081822367589524, 32.735201834844638 ], [ -91.081849778696238, 32.735341650934743 ], [ -91.081814910082343, 32.73547678200736 ], [ -91.081811089137389, 32.735614970303345 ], [ -91.081796583159516, 32.735750858965851 ], [ -91.081772796254413, 32.735889056455854 ], [ -91.081770198168769, 32.736025616134128 ], [ -91.081773276430155, 32.736164395336282 ], [ -91.081764335821518, 32.736300855814946 ], [ -91.081741508835236, 32.736437124171715 ], [ -91.081731234580516, 32.736573591703525 ], [ -91.081735512790075, 32.736711951641226 ], [ -91.081746855046688, 32.736851204491678 ], [ -91.081752469178483, 32.736989831473281 ], [ -91.081739233723056, 32.737125986641971 ], [ -91.081705475316511, 32.737261798141773 ], [ -91.081689934743039, 32.737398408007351 ], [ -91.081673153254883, 32.737534502274663 ], [ -91.08167684128955, 32.737672205652466 ], [ -91.081677476056385, 32.73781045025742 ], [ -91.081664793724528, 32.737946685059498 ], [ -91.081643726743309, 32.738083602925606 ] ] } },
{ "type": "Feature", "properties": { "station_id": 3, "station_ft": -525.8, "width_ft": 2501.4, "flag": "ok", "lon": -91.08531, "lat": 32.734741, "survey_id": "LM_08_MVF_20220603_CS_4946_4786_A", "date": "2022-06-03 00:00:00+00:00", "method": "lines" }, "geometry": { "type": "LineString", "coordinates": [ [ -91.085563365008568, 32.730898502783567 ], [ -91.085559063302654, 32.731036804137574 ], [ -91.085560806836128, 32.731174657124875 ], [ -91.085561635876687, 32.731312103506632 ], [ -91.085546235653467, 32.731449125166471 ], [ -91.085523449223956, 32.731585723143475 ], [ -91.08549464027486, 32.731721423058303 ], [ -91.085460790990624, 32.731857071147587 ], [ -91.085469430252957, 32.73199526778513 ], [ -91.085486139744162, 32.732134158120886 ], [ -91.085466475145637, 32.7322706823389 ], [ -91.08546557865661, 32.732407836972619 ], [ -91.085454250743325, 32.732545795409713 ], [ -91.085440533079677, 32.732681981857134 ], [ -91.085401721386376, 32.732819280993425 ], [ -91.085414131084022, 32.732957234972183 ], [ -91.085427248349816, 32.733094195505572 ], [ -91.085440810042201, 32.733233763870729 ], [ -91.085428270796285, 32.733370795366099 ], [ -91.085401274718421, 32.733505715177131 ], [ -91.085381753271633, 32.73364383275252 ], [ -91.085375946785504, 32.733781098870587 ], [ -91.085360123929632, 32.73391817800141 ], [ -91.085345951487085, 32.73405436714043 ], [ -91.085354522316621, 32.734192152058782 ], [ -91.085336164060635, 32.734329438456683 ], [ -91.085326544159116, 32.73446565528053 ], [ -91.085308876891759, 32.734603926719736 ], [ -91.085309933987446, 32.734741371664185 ], [ -91.085277062384321, 32.734877480881906 ], [ -91.085266570113063, 32.735014390040263 ], [ -91.085271728669895, 32.735152387480042 ], [ -91.085272656266667, 32.735289915247385 ], [ -91.085280447362791, 32.735427841883897 ], [ -91.085282385234393, 32.735565611560013 ], [ -91.085266065508293, 32.735701758533359 ], [ -91.085252721094363, 32.735839783988446 ], [ -91.085226283319642, 32.735975360433912 ], [ -91.085219108638711, 32.736112359677577 ], [ -91.085219330028153, 32.736251045872585 ], [ -91.085210370735936, 32.736388467904078 ], [ -91.085213998215238, 32.736526199473182 ], [ -91.085179847824861, 32.736661052082333 ], [ -91.085180032177689, 32.736799271393259 ], [ -91.085203275690773, 32.736937737429727 ], [ -91.085187511504145, 32.737074266072149 ], [ -91.085140907010611, 32.737209276319305 ], [ -91.085148710736348, 32.737348577079771 ], [ -91.085156560180124, 32.737485568238093 ], [ -91.085134688916114, 32.737622875614157 ], [ -91.085112911676404, 32.73775982533602 ], [ -91.085114617635966, 32.73789718336576 ], [ -91.085133564027998, 32.738035043050708 ], [ -91.085125424133068, 32.738173257252853 ], [ -91.085105435453173, 32.738310141230393 ], [ -91.085095297726852, 32.738446774054786 ], [ -91.085064538956431, 32.738582979589545 ], [ -91.085039478005299, 32.738720003979232 ], [ -91.085040075384384, 32.738856984502377 ], [ -91.085062317304889, 32.738996198645665 ], [ -91.085077355670307, 32.739133421686738 ], [ -91.085068143032487, 32.73926397400777 ] ] } },
{ "type": "Feature", "properties": { "station_id": 4, "station_ft": 570.3, "width_ft": 2415.1, "flag": "ok", "lon": -91.088754, "lat": 32.735568, "survey_id": "LM_08_MVF_20220603_CS_4946_4786_A", "date": "2022-06-03 00:00:00+00:00", "method": "lines" }, "geometry": { "type": "LineString", "coordinates": [ [ -91.088992498428297, 32.732136872376131 ], [ -91.088983841695708, 32.73227478793757 ], [ -91.088985723034057, 32.732412915001206 ], [ -91.088965097810799, 32.732550655626085 ], [ -91.088964293466802, 32.732686462495849 ], [ -91.088943143604112, 32.732823738277695 ], [ -91.088942481303775, 32.732961083535017 ], [ -91.088926935004636, 32.73309942564098 ], [ -91.08894194063167, 32.733236126399866 ], [ -91.088931260047531, 32.733373174949811 ], [ -91.088928485530644, 32.733510669989442 ], [ -91.088934508105083, 32.73365014629924 ], [ -91.088927701698267, 32.733787747692567 ], [ -91.088899568692625, 32.733922097951101 ], [ -91.088877243447627, 32.734058694568191 ], [ -91.088871943527536, 32.734197579046615 ], [ -91.088875871713284, 32.734335528718546 ], [ -91.088864529727289, 32.734471344057262 ], [ -91.088827273160035, 32.734607425587669 ], [ -91.088817280980919, 32.734745046156348 ], [ -91.088828004863601, 32.734882954862378 ], [ -91.088808959774951, 32.735019146643026 ], [ -91.088786895478222, 32.735155988724742 ], [ -91.088773022732425, 32.735292451402415 ], [ -91.088769673080989, 32.73543110407693 ], [ -91.088753850874539, 32.735567798516946 ], [ -91.088736278629241, 32.73570521856837 ], [ -91.088727917428599, 32.735843461390857 ], [ -91.088731241736085, 32.735979271265968 ], [ -91.088738385977379, 32.736116899445598 ], [ -91.088738157639341, 32.736255505338676 ], [ -91.088739314369391, 32.736392619540439 ], [ -91.08874526684987, 32.736531629124713 ], [ -91.088713376148746, 32.736667870317483 ], [ -91.088668438799374, 32.736803310932295 ], [ -91.088644310229668, 32.736938351119669 ], [ -91.088637798944518, 32.737076226582523 ], [ -91.08863342220566, 32.737212797005355 ], [ -91.08862843390601, 32.737349975267428 ], [ -91.088619878233047, 32.737488468098249 ], [ -91.088602529363598, 32.737625363746815 ], [ -91.088607238202641, 32.73776341866229 ], [ -91.088589429775382, 32.737899849978071 ], [ -91.088589036179059, 32.738038237710136 ], [ -91.088582524063739, 32.738176030193813 ], [ -91.088564965876316, 32.738311277826334 ], [ -91.088540073921664, 32.738448466873002 ], [ -91.088529682635993, 32.738585155558631 ], [ -91.08852476859137, 32.738723570511191 ], [ -91.08852260005871, 32.738859743457297 ], [ -91.08851787613338, 32.738997552199628 ], [ -91.088515718946951, 32.739135071349963 ], [ -91.088515907744124, 32.739273070509789 ], [ -91.088475814539123, 32.739408591839698 ], [ -91.088470694399689, 32.739545606731298 ] ] } },
{ "type": "Feature", "properties": { "station_id": 5, "station_ft": 1592.4, "width_ft": 2141.4, "flag": "ok", "lon": -91.091984, "lat": 32.73589, "survey_id": "LM_08_MVF_20220603_CS_4946_4786_A", "date": "2022-06-03 00:00:00+00:00", "method": "lines" }, "geometry": { "type": "LineString", "coordinates": [ [ -91.092302060127778, 32.732189631343466 ], [ -91.092310084376805, 32.732326896042856 ], [ -91.092294010902776, 32.732463840441291 ], [ -91.092250576867528, 32.732599300315158 ], [ -91.09226069291492, 32.73273778951588 ], [ -91.092259328956871, 32.73287621115049 ], [ -91.092243384534996, 32.733013043838383 ], [ -91.09222372786644, 32.733149431899967 ], [ -91.092225986531361, 32.7332854122604 ], [ -91.092206993823169, 32.73342336349716 ], [ -91.092186682439291, 32.733559178403233 ], [ -91.092183599889836, 32.733698132523983 ], [ -91.092190488772559, 32.733835624093359 ], [ -91.092181344660247, 32.733972992694383 ], [ -91.092148611484632, 32.734108937784157 ], [ -91.092096454726033, 32.734243516189473 ], [ -91.092084873866369, 32.734381284563135 ], [ -91.092094437297902, 32.734519777083847 ], [ -91.092088858440519, 32.734655750754484 ], [ -91.092071518606758, 32.734793031876436 ], [ -91.092082030741722, 32.734932177809348 ], [ -91.09209507180114, 32.735070484252034 ], [ -91.092074955393215, 32.735206325882977 ], [ -91.092047984827587, 32.735343005218873 ], [ -91.092026437755365, 32.735478992559116 ], [ -91.092019667703951, 32.735616429706617 ], [ -91.092012935131592, 32.735754388724175 ], [ -91.091983874991556, 32.735890146494199 ], [ -91.09197892652648, 32.736027764674887 ], [ -91.091992092098067, 32.736165274125909 ], [ -91.091975181792534, 32.73630343179012 ], [ -91.091955587775516, 32.736439654353759 ], [ -91.091946820555137, 32.73657548225966 ], [ -91.091938947494384, 32.736713338145449 ], [ -91.091939889124149, 32.736851305699226 ], [ -91.091928757631493, 32.736988274160908 ], [ -91.091926712532825, 32.737126946899835 ], [ -91.091911178280398, 32.737262457756373 ], [ -91.091891880872254, 32.737399091488179 ], [ -91.091878835081317, 32.737536675676282 ], [ -91.091868258864721, 32.737673970791199 ], [ -91.091888492333268, 32.737812920787064 ], [ -91.091916601072668, 32.737952401123977 ], [ -91.091882041648049, 32.738087834125771 ], [ -91.091849345068539, 32.738224410955588 ], [ -91.091853303397514, 32.738361563096966 ], [ -91.091834009892111, 32.738498691823509 ], [ -91.091819789334366, 32.738635788946311 ], [ -91.091821662809082, 32.738772431595876 ], [ -91.091806886850961, 32.738909339103117 ], [ -91.091804258097113, 32.73904815329616 ], [ -91.091792589489032, 32.739183228621464 ], [ -91.091798621974164, 32.739323281672661 ], [ -91.091789442172399, 32.739460458284995 ], [ -91.091762820212082, 32.739596283242079 ], [ -91.09172011606104, 32.73973009004478 ], [ -91.091699500809355, 32.739868682109261 ], [ -91.091697510355161, 32.740006035228831 ], [ -91.091720457491178, 32.740142852428093 ], [ -91.09171412276018, 32.740281881084293 ], [ -91.09169231651552, 32.740418061912152 ], [ -91.091696283520776, 32.74055612109688 ], [ -91.091714789528666, 32.740694504401233 ], [ -91.091684469932304, 32.740800833675458 ] ] } },
{ "type": "Feature", "properties": { "station_id": 6, "station_ft": 2702.8, "width_ft": 2035.0, "flag": "ok", "lon": -91.095589, "lat": 32.736344, "survey_id": "LM_08_MVF_20220603_CS_4946_4786_A", "date": "2022-06-03 00:00:00+00:00", "method": "lines" }, "geometry": { "type": "LineString", "coordinates": [ [ -91.095832560795671, 32.732224550497001 ], [ -91.09584971715725, 32.732364288720987 ], [ -91.095838237598684, 32.732501726781443 ], [ -91.095823047009503, 32.732638610304832 ], [ -91.09582899490178, 32.732775833247672 ], [ -91.095810073513505, 32.732913728651411 ], [ -91.095798995946822, 32.733048773773639 ], [ -91.095789893880294, 32.733186664450457 ], [ -91.095780107063078, 32.733324203106356 ], [ -91.095761405348142, 32.733461355035004 ], [ -91.095743147082217, 32.73359696591492 ], [ -91.09572518983272, 32.733733729169735 ], [ -91.095747312892385, 32.733872365013717 ], [ -91.095767267498815, 32.734012305312127 ], [ -91.095754010995336, 32.734151211330797 ], [ -91.095725138910353, 32.734285402505073 ], [ -91.095710527034711, 32.734421512386135 ], [ -91.095696883106186, 32.734560667820524 ], [ -91.0956884749735, 32.734696136709637 ], [ -91.095691461018347, 32.734832964636965 ], [ -91.095683889078103, 32.734971038934418 ], [ -91.095667234680917, 32.735107986299134 ], [ -91.095661376973055, 32.735245033016859 ], [ -91.095661483553357, 32.735383500651132 ], [ -91.095651368272357, 32.735520848281347 ], [ -91.095629696385927, 32.735656698984947 ], [ -91.095604500038903, 32.735794880437176 ], [ -91.095592647879826, 32.735930617312071 ], [ -91.095600297219306, 32.736069066117139 ], [ -91.095599451841295, 32.736206631484336 ], [ -91.095588587499421, 32.736343736575293 ], [ -91.095580229472333, 32.736481238511246 ], [ -91.095570818837245, 32.736617289654212 ], [ -91.095562300238868, 32.736754984627723 ], [ -91.095556500377469, 32.736891206777528 ], [ -91.0955455778454, 32.737029136383313 ], [ -91.095537670347213, 32.737166058458229 ], [ -91.095535745832436, 32.737306708858753 ], [ -91.095531852904358, 32.737441600174925 ], [ -91.095523723024044, 32.737579099796086 ], [ -91.095499562491085, 32.737716835752536 ], [ -91.095493373555541, 32.737853114349491 ], [ -91.095487805708231, 32.737989912168423 ], [ -91.095474948040845, 32.7381297777969 ], [ -91.095450887036634, 32.738263938684959 ], [ -91.095436019627044, 32.738400848039888 ], [ -91.095438461779864, 32.738538724303801 ], [ -91.095436705930595, 32.738676268102736 ], [ -91.095437352618248, 32.738813412254309 ], [ -91.095429929847199, 32.738950029261431 ], [ -91.095410766257359, 32.739086496724184 ], [ -91.095396753840944, 32.739224473013032 ], [ -91.095389367099443, 32.739361446874327 ], [ -91.095373814997075, 32.739498167393961 ], [ -91.095349033, 32.739635549079246 ], [ -91.095328298853971, 32.739774802480262 ], [ -91.095319355747733, 32.739908569330645 ], [ -91.095326319648763, 32.740046583092891 ], [ -91.095328724442993, 32.7401839645038 ], [ -91.095335456319631, 32.740321538725659 ], [ -91.095342680376447, 32.740459522942494 ], [ -91.095353105431641, 32.740599274015054 ], [ -91.095348601703279, 32.74073502110403 ], [ -91.095345167093015, 32.740874031349492 ], [ -91.095298058523966, 32.741009405326139 ], [ -91.09524902015032, 32.741143580897607 ], [ -91.095225434716809, 32.741280213134495 ], [ -91.09522449273409, 32.741417889891615 ], [ -91.095212003814353, 32.741555416812076 ], [ -91.09521957925061, 32.741692820867854 ], [ -91.095228035971516, 32.741830468439431 ] ] } },
{ "type": "Feature", "properties": { "station_id": 7, "station_ft": 3754.7, "width_ft": 1938.7, "flag": "ok", "lon": -91.099107, "lat": 32.735075, "survey_id": "LM_08_MVF_20220603_CS_4946_4786_A", "date": "2022-06-03 00:00:00+00:00", "method": "lines" }, "geometry": { "type": "LineString", "coordinates": [ [ -91.099163605894233, 32.732328751265733 ], [ -91.099167081330265, 32.732465191088302 ], [ -91.099154993882792, 32.732603183173175 ], [ -91.099153317443651, 32.7327417437644 ], [ -91.09916040673653, 32.732878601543938 ], [ -91.099166260331671, 32.733015549827805 ], [ -91.099189356629154, 32.733153491973347 ], [ -91.099188095182726, 32.733291169931974 ], [ -91.0991582106968, 32.733427979453985 ], [ -91.099127193936994, 32.733565510051356 ], [ -91.099119526627419, 32.733703282139075 ], [ -91.099140696921438, 32.733840301854414 ], [ -91.099143398226772, 32.733977406438271 ], [ -91.09913354965218, 32.734114862713213 ], [ -91.099125976715683, 32.734252195072337 ], [ -91.099103151120886, 32.73438934557732 ], [ -91.099102796515126, 32.734526660886189 ], [ -91.099097183200328, 32.734664970458695 ], [ -91.099100235771914, 32.734801358712744 ], [ -91.099093960627044, 32.734938380148009 ], [ -91.099107163620133, 32.735075393504921 ], [ -91.099099962317169, 32.735214399882373 ], [ -91.099094019597118, 32.735352244358097 ], [ -91.099084883164991, 32.735489284162171 ], [ -91.099087874681217, 32.735626138964442 ], [ -91.099083618178767, 32.735763423978987 ], [ -91.099073086121876, 32.735900829383105 ], [ -91.09907205178402, 32.736038505895735 ], [ -91.09906118385193, 32.736174567067458 ], [ -91.099068880110082, 32.736314004515911 ], [ -91.099073335018105, 32.736450933320178 ], [ -91.099071551319355, 32.736588313222022 ], [ -91.0990627007304, 32.736724608230588 ], [ -91.099053610262743, 32.736863296981305 ], [ -91.099053877010761, 32.737000910520223 ], [ -91.099051244552214, 32.737138102625593 ], [ -91.099044323056063, 32.737275540949184 ], [ -91.099035445547486, 32.737412441164864 ], [ -91.099033796298002, 32.737550452334972 ], [ -91.099035192098953, 32.737687097722272 ], [ -91.099039322970995, 32.737824055529295 ], [ -91.099038071486433, 32.737962915490328 ], [ -91.099044544988416, 32.738100079903823 ], [ -91.099048780988866, 32.738237972149271 ], [ -91.099038660933971, 32.738374055757909 ], [ -91.099042963668992, 32.73851213965758 ], [ -91.099042851074515, 32.738647309997013 ], [ -91.099016664225587, 32.738787037328976 ], [ -91.09901507369166, 32.738924305088545 ], [ -91.099018652806635, 32.739061487162743 ], [ -91.099025357752424, 32.739199006321186 ], [ -91.099020780394113, 32.739336842370101 ], [ -91.099020975527949, 32.739473688022933 ], [ -91.099020196807587, 32.739610813746424 ], [ -91.098998140583262, 32.739746887278329 ], [ -91.098987495520149, 32.739886354630428 ], [ -91.099001436437419, 32.740021988247548 ], [ -91.098986422402632, 32.740160108051285 ], [ -91.098988483867473, 32.740298480631033 ], [ -91.09900230787278, 32.740435655100711 ], [ -91.099007596567475, 32.740544544067248 ], [ -91.099000342879549, 32.741673768192697 ], [ -91.099007144232431, 32.741811177596546 ], [ -91.098998672600317, 32.741949916561097 ], [ -91.098979996098322, 32.742085750280182 ], [ -91.098980305742671, 32.742224628566376 ], [ -91.098964101684373, 32.742360501278448 ], [ -91.09896867784731, 32.7424735181568 ] ] } }
]
}
