{
"type": "FeatureCollection",
"name": "LM_07_FMB_20250622_CS_4602_4570_transects",
"crs": { "type": "name", "properties": { "name": "urn:ogc:def:crs:OGC:1.3:CRS84" } },
"features": [
{ "type": "Feature", "properties": { "station_id": 0, "station_ft": 8024.0, "width_ft": 1281.2, "flag": "ok", "lon": -91.096778, "lat": 32.535108, "survey_id": "LM_07_FMB_20250622_CS_4602_4570", "date": "2025-06-22 00:00:00+00:00", "method": "lines" }, "geometry": { "type": "LineString", "coordinates": [ [ -91.094714524672369, 32.53485129458906 ], [ -91.094862318583935, 32.534862850231555 ], [ -91.095017114518242, 32.534869691295988 ], [ -91.095177111321178, 32.53488153065323 ], [ -91.095337979253316, 32.534900592998078 ], [ -91.095500325633637, 32.534913956100517 ], [ -91.095657292895623, 32.53493977598422 ], [ -91.095817844571343, 32.53497505589403 ], [ -91.095980638789953, 32.534991632219722 ], [ -91.096138718626904, 32.535014668248294 ], [ -91.096296785093841, 32.535047571163219 ], [ -91.096456703295573, 32.53507309710551 ], [ -91.09661729625472, 32.535086387341671 ], [ -91.096778313187016, 32.535107508344879 ], [ -91.096940682429647, 32.535112184639935 ], [ -91.097104735041867, 32.535116273378023 ], [ -91.097268933875512, 32.535118519629854 ], [ -91.097424169279719, 32.535161855393774 ], [ -91.097583540360219, 32.535191726074167 ], [ -91.097740130903361, 32.535230380315078 ], [ -91.097897750355756, 32.535267956819091 ], [ -91.098062808443274, 32.53526428760717 ], [ -91.098226480772894, 32.535261779951981 ], [ -91.098390022236558, 32.535270708034169 ], [ -91.098546950500733, 32.535307078672702 ], [ -91.098701987326891, 32.535361408253223 ], [ -91.098857976050468, 32.53540168701376 ], [ -91.09901665275622, 32.535433676514046 ], [ -91.099178112141303, 32.535453362456906 ], [ -91.099338721766955, 32.535472256216593 ], [ -91.099499722452308, 32.535491312409015 ], [ -91.099662801897566, 32.535491527988924 ], [ -91.099822376926426, 32.535518563065295 ], [ -91.099984523573525, 32.535527386653271 ], [ -91.100145231581706, 32.535550182476257 ], [ -91.100302495060319, 32.535583772364589 ], [ -91.100463885044476, 32.535599114223558 ], [ -91.100623872795921, 32.535624936507645 ], [ -91.1007868146975, 32.535631858717863 ], [ -91.10095205719189, 32.535623153693663 ], [ -91.10111473632999, 32.535629719086053 ], [ -91.101274066789969, 32.535654582381362 ], [ -91.101431433444972, 32.535692596033158 ], [ -91.101589133657782, 32.53572788595347 ], [ -91.101748507347153, 32.535754040594639 ], [ -91.101908444580843, 32.535777608061835 ], [ -91.102072889674091, 32.535774376479807 ], [ -91.102234719458423, 32.535787789928605 ], [ -91.102394680362195, 32.535810366504329 ], [ -91.102553669190073, 32.535840782362904 ], [ -91.102713578495212, 32.535868773882306 ], [ -91.102875040678569, 32.53588086948664 ], [ -91.10303735093143, 32.535889798141433 ], [ -91.103197840336378, 32.535913387635695 ], [ -91.103356309359995, 32.535939847856994 ], [ -91.103514162896431, 32.535974008120725 ], [ -91.10367623005844, 32.535984861781138 ], [ -91.103838722430467, 32.535996014714648 ], [ -91.103998459917406, 32.536018893600641 ], [ -91.104158943545158, 32.53604187682155 ], [ -91.10432084462839, 32.536055946322911 ], [ -91.104480209633465, 32.536077067555667 ], [ -91.104637987499999, 32.536117493155992 ], [ -91.104798782827714, 32.536135059512588 ], [ -91.104960067705889, 32.536149241982493 ], [ -91.105121311063542, 32.536162298208836 ], [ -91.105282020260859, 32.536181100779302 ], [ -91.105441288982107, 32.536206097119859 ], [ -91.105602193284227, 32.536228773821065 ], [ -91.105762523153217, 32.536252608990999 ], [ -91.105921775712659, 32.536279418247027 ], [ -91.106081981924163, 32.536300230186058 ], [ -91.106242515535342, 32.536313645524487 ], [ -91.106405276164821, 32.536321962877466 ], [ -91.106568393890981, 32.53633033283068 ], [ -91.106727647748812, 32.536357251068296 ], [ -91.106885741727183, 32.536388931186913 ], [ -91.107046796113053, 32.536406438058854 ], [ -91.10720788085321, 32.536427353167149 ], [ -91.107366874725528, 32.53645047941415 ], [ -91.107526371060274, 32.536475333733478 ], [ -91.107688202766354, 32.536488740130949 ], [ -91.107851272453686, 32.536499032152676 ], [ -91.108012679042616, 32.536512137760653 ], [ -91.108173179490549, 32.536529179489392 ], [ -91.108333162640051, 32.536554030683831 ], [ -91.108491809417657, 32.536582049656822 ], [ -91.108650820098902, 32.536610781275805 ], [ -91.10881218680106, 32.536630482429267 ], [ -91.108971301546902, 32.536656190320599 ], [ -91.10913102585252, 32.536681096197 ], [ -91.109295646815994, 32.536679228343736 ], [ -91.109456638987425, 32.536693104747648 ], [ -91.109615476282656, 32.536720433984634 ], [ -91.109773746403079, 32.536757304370724 ], [ -91.109934073469105, 32.536776873431755 ], [ -91.110098267359518, 32.536774347981662 ], [ -91.110260351479823, 32.536786924395656 ], [ -91.110417873393516, 32.536823523554844 ], [ -91.110577991988166, 32.536848893159707 ], [ -91.110737704008159, 32.536872284822273 ], [ -91.110897138300729, 32.536897410267031 ], [ -91.111056439896288, 32.536925779936915 ], [ -91.111219167350711, 32.536930078445131 ], [ -91.111381042855726, 32.536941005393402 ], [ -91.111543213333633, 32.536955889005348 ], [ -91.111698580991998, 32.537002311862764 ], [ -91.111859058291842, 32.537024021900407 ], [ -91.11202394081991, 32.537018603155801 ], [ -91.112184052005745, 32.537039324919384 ], [ -91.11234491955129, 32.537061086925036 ] ] } },
{ "type": "Feature", "properties": { "station_id": 1, "station_ft": 7082.9, "width_ft": 1627.4, "flag": "ok", "lon": -91.096377, "lat": 32.531999, "survey_id": "LM_07_FMB_20250622_CS_4602_4570", "date": "2025-06-22 00:00:00+00:00", "method": "lines" }, "geometry": { "type": "LineString", "coordinates": [ [ -91.094307088974134, 32.53168775280345 ], [ -91.094460953607353, 32.531704220170624 ], [ -91.09461594500462, 32.531746489680046 ], [ -91.094778142003605, 32.531762136119269 ], [ -91.094941106089479, 32.531772556537668 ], [ -91.09510253655057, 32.531789691489479 ], [ -91.095262500639237, 32.531809776644486 ], [ -91.095423931040074, 32.531834579713092 ], [ -91.09558093478617, 32.531869139347194 ], [ -91.095739157019167, 32.531894319450835 ], [ -91.095905169986437, 32.53189691363476 ], [ -91.096056949433731, 32.531950606238496 ], [ -91.096219160723578, 32.531967872984538 ], [ -91.096376914502414, 32.531999046387831 ], [ -91.096531427553785, 32.532042113575855 ], [ -91.096691150562449, 32.532068217586918 ], [ -91.096857496252227, 32.532067949925761 ], [ -91.097017575088941, 32.532086272817573 ], [ -91.097178257699525, 32.532110776076912 ], [ -91.097334694195567, 32.532143330548834 ], [ -91.097492947650181, 32.532175983798808 ], [ -91.097651865363446, 32.532206489338748 ], [ -91.097810234399944, 32.532233534369482 ], [ -91.097970110565257, 32.532258536577984 ], [ -91.098130676145416, 32.532276827133266 ], [ -91.098288502895372, 32.532308684819817 ], [ -91.098447150510793, 32.53234180247582 ], [ -91.098603582568657, 32.53237762605373 ], [ -91.098761762371666, 32.532409150951885 ], [ -91.098918502306276, 32.532446731586148 ], [ -91.099074618240564, 32.53248351957324 ], [ -91.099232146300011, 32.53251848353181 ], [ -91.099392019723396, 32.532542933869173 ], [ -91.099551239922008, 32.53256315514335 ], [ -91.099712777399489, 32.532584984351402 ], [ -91.099870557038017, 32.532615053950892 ], [ -91.100032262611506, 32.532633720168654 ], [ -91.100189801858747, 32.532666044317224 ], [ -91.100345340423743, 32.532707314157292 ], [ -91.10049991364555, 32.532753343745121 ], [ -91.100655224827591, 32.532794503669876 ], [ -91.100816553481749, 32.532810725614176 ], [ -91.100982807292652, 32.532810893100404 ], [ -91.101147430917379, 32.532814010942886 ], [ -91.101306181485427, 32.532843742761685 ], [ -91.101461558588682, 32.532881081448501 ], [ -91.101621055771574, 32.532910835359857 ], [ -91.101779750722429, 32.532937873375097 ], [ -91.101938040293945, 32.532966672990497 ], [ -91.102098759147339, 32.532991224717939 ], [ -91.102260386822323, 32.533008240127117 ], [ -91.10241743891136, 32.53304031736743 ], [ -91.102574302745097, 32.533073274772924 ], [ -91.102734019501895, 32.533101982591781 ], [ -91.10289257645465, 32.533127865793766 ], [ -91.103050362762517, 32.533162356252525 ], [ -91.103205252186882, 32.533207144250717 ], [ -91.103360056230201, 32.533245775397631 ], [ -91.103518665638759, 32.533281497432249 ], [ -91.10367462582289, 32.533314871994222 ], [ -91.103835356517635, 32.533340685678276 ], [ -91.103995625991956, 32.533361967058006 ], [ -91.104154092363061, 32.533392356185679 ], [ -91.104310720945634, 32.533424049495494 ], [ -91.104474588968685, 32.533437391696744 ], [ -91.104632828193544, 32.533467699551267 ], [ -91.1047904330173, 32.533499743367784 ], [ -91.104946532544872, 32.533530393993189 ], [ -91.105107827622078, 32.533550046301684 ], [ -91.105270717698119, 32.533566499106257 ], [ -91.105431839269684, 32.533588625575504 ], [ -91.105591099042343, 32.533609251929853 ], [ -91.105751987608258, 32.533634484158846 ], [ -91.106358270312043, 32.533762635038009 ], [ -91.106502676274033, 32.533787830550821 ], [ -91.106660088422601, 32.533819983209739 ], [ -91.106817815415582, 32.533854826372476 ], [ -91.106976070130457, 32.53388304270392 ], [ -91.107134886692776, 32.533912464630568 ], [ -91.107295717981927, 32.533930907721953 ], [ -91.107452958938026, 32.533961905289019 ], [ -91.10761137453801, 32.533993692576956 ], [ -91.107771727408732, 32.534016892952813 ], [ -91.107932061128494, 32.534037728841639 ], [ -91.108090293317147, 32.534070808866595 ], [ -91.108246804682452, 32.534107527051994 ], [ -91.108405925028393, 32.534130706255695 ], [ -91.108564290882455, 32.534160348271612 ], [ -91.108721723321594, 32.534198545373336 ], [ -91.108880927926336, 32.534220101197782 ], [ -91.109045770232512, 32.534225680835561 ], [ -91.109206982086064, 32.534242964879923 ], [ -91.109366005643238, 32.53426993623853 ], [ -91.109525330050744, 32.534297839755318 ], [ -91.109681642598218, 32.534333980249045 ], [ -91.109834817105266, 32.534390039831138 ], [ -91.1099899353799, 32.534430613121323 ], [ -91.110147513364581, 32.534462841523151 ], [ -91.11031155758964, 32.534469881660698 ], [ -91.110481816345995, 32.534452558366816 ], [ -91.110640899964224, 32.534475047820521 ], [ -91.110796430566495, 32.534518200185154 ], [ -91.110949200354426, 32.53457239156517 ], [ -91.111103641685133, 32.534620910306799 ], [ -91.111265553901958, 32.534636455099907 ], [ -91.111427883140962, 32.534647765172949 ], [ -91.11158730329376, 32.534675390436064 ], [ -91.111748119019609, 32.534695476311576 ], [ -91.111910769195134, 32.534702633000293 ], [ -91.112068666526, 32.534737936494452 ], [ -91.112227241338189, 32.534769084820368 ] ] } },
{ "type": "Feature", "properties": { "station_id": 2, "station_ft": 6199.4, "width_ft": 1479.8, "flag": "ok", "lon": -91.097733, "lat": 32.529263, "survey_id": "LM_07_FMB_20250622_CS_4602_4570", "date": "2025-06-22 00:00:00+00:00", "method": "lines" }, "geometry": { "type": "LineString", "coordinates": [ [ -91.095877978028341, 32.528809129239946 ], [ -91.096017728804455, 32.528841346531195 ], [ -91.096182321587136, 32.528856922576715 ], [ -91.096342115250252, 32.528884510055398 ], [ -91.096502981321663, 32.528908243931511 ], [ -91.096660535415296, 32.528943238992461 ], [ -91.096818514227621, 32.528974822638972 ], [ -91.096965482062359, 32.529039318500388 ], [ -91.097122616087063, 32.52907456351145 ], [ -91.097283937003283, 32.529094499933606 ], [ -91.097437987004341, 32.529137100869093 ], [ -91.097580464311648, 32.529211491200357 ], [ -91.09773260911895, 32.529262871120281 ], [ -91.097894477662479, 32.529282309263721 ], [ -91.098048299219585, 32.529324636699833 ], [ -91.098199856759649, 32.529375497503636 ], [ -91.098350789968976, 32.529417732117899 ], [ -91.098506872922826, 32.529474255099373 ], [ -91.098663416902525, 32.529519972947668 ], [ -91.098816903374711, 32.52955721647384 ], [ -91.098973618047893, 32.52958487433456 ], [ -91.099123337930379, 32.529636955357979 ], [ -91.099282394107163, 32.529668941429208 ], [ -91.099445329064665, 32.529683973208648 ], [ -91.099601858164263, 32.529720318024296 ], [ -91.099756266381632, 32.529762858906473 ], [ -91.09990998097517, 32.529807686168603 ], [ -91.100054637014964, 32.529878431716682 ], [ -91.100213314802488, 32.529907890386724 ], [ -91.100373699087342, 32.529935854158097 ], [ -91.100526374136948, 32.529980411964786 ], [ -91.100673970341575, 32.530042068999713 ], [ -91.100835027614494, 32.530065136049224 ], [ -91.100999651982292, 32.530080319614555 ], [ -91.1011517917443, 32.530126831321986 ], [ -91.101302399093484, 32.53018000354875 ], [ -91.101452790060961, 32.530234496182757 ], [ -91.101609314449078, 32.530269958396048 ], [ -91.101764671403529, 32.530309440357442 ], [ -91.10191763727633, 32.53035374670079 ], [ -91.102074322329301, 32.530392780103661 ], [ -91.102231729047077, 32.530425295519436 ], [ -91.102389091448629, 32.53046009244872 ], [ -91.102543806579945, 32.530500127435751 ], [ -91.102697913420045, 32.530545085026816 ], [ -91.102853747723657, 32.530587009174056 ], [ -91.103004834099224, 32.530639104224051 ], [ -91.10315643573152, 32.530683198270147 ], [ -91.106547044071277, 32.531521018408185 ], [ -91.106681537283322, 32.531578763120024 ], [ -91.106836254468135, 32.53162244848486 ], [ -91.106994892479463, 32.531650387445104 ], [ -91.107160327223639, 32.531665035804245 ], [ -91.107310720651881, 32.531715398527737 ], [ -91.107459480663479, 32.531775611070152 ], [ -91.10761003918104, 32.531826192443496 ], [ -91.107767011336236, 32.53186411769196 ], [ -91.107923496087849, 32.531898197958427 ], [ -91.108075698443841, 32.531947394370391 ], [ -91.10822221415188, 32.532010807528124 ], [ -91.108382051078735, 32.532038407297136 ], [ -91.108547427290063, 32.532049976494591 ], [ -91.10870858080294, 32.532072208604504 ], [ -91.108853874407941, 32.532140493519016 ], [ -91.108992818610957, 32.532225006621204 ], [ -91.109148941777093, 32.532262221177376 ], [ -91.109316866641166, 32.532268193579213 ], [ -91.109475216350944, 32.532300143975831 ], [ -91.109625461399617, 32.532351797034082 ], [ -91.109769151189568, 32.532425807899855 ], [ -91.109923822167204, 32.532467620381659 ], [ -91.110087011912597, 32.532485137294501 ], [ -91.11025147903797, 32.532500173493474 ], [ -91.11041201848785, 32.532522654281621 ], [ -91.11056323718897, 32.532574162224627 ], [ -91.110711993369094, 32.532633517842605 ], [ -91.110859178434424, 32.532695083276032 ], [ -91.111028381538546, 32.532694998317119 ], [ -91.111189040288394, 32.5327198967762 ], [ -91.111338909048186, 32.532776606231081 ], [ -91.111490544274787, 32.532827423334709 ], [ -91.111648884071059, 32.532858024717655 ], [ -91.111795286750507, 32.53292280863927 ] ] } },
{ "type": "Feature", "properties": { "station_id": 3, "station_ft": 5189.8, "width_ft": 1548.8, "flag": "ok", "lon": -91.099101, "lat": 32.526399, "survey_id": "LM_07_FMB_20250622_CS_4602_4570", "date": "2025-06-22 00:00:00+00:00", "method": "lines" }, "geometry": { "type": "LineString", "coordinates": [ [ -91.09728722215759, 32.525798738968625 ], [ -91.09745212566223, 32.525821099941439 ], [ -91.097596226705903, 32.525884733343531 ], [ -91.097732853935682, 32.525966249642082 ], [ -91.09789672987263, 32.525989770520702 ], [ -91.098046482998129, 32.52604278693186 ], [ -91.098192255533647, 32.526100719397157 ], [ -91.098346881261349, 32.52614675237276 ], [ -91.098495892508552, 32.526200211910457 ], [ -91.098646127745113, 32.526252510475572 ], [ -91.098798937786398, 32.526298635997826 ], [ -91.098950070757198, 32.526345925789279 ], [ -91.099101382362733, 32.52639882142924 ], [ -91.0992705977025, 32.526409197364792 ], [ -91.09941709020859, 32.526467646126846 ], [ -91.099559085160479, 32.526539068627457 ], [ -91.099716743556797, 32.526575295570566 ], [ -91.099878253475254, 32.526602786976085 ], [ -91.100016688395854, 32.526678957655406 ], [ -91.10015163130582, 32.526764164324149 ], [ -91.100314372416875, 32.526787551882528 ], [ -91.100471907188833, 32.526824301643153 ], [ -91.100623603730114, 32.526872822273546 ], [ -91.100783155016956, 32.526906343677716 ], [ -91.100927253170298, 32.526969286094946 ], [ -91.10107611458433, 32.527023815644469 ], [ -91.101221045912226, 32.527089308210478 ], [ -91.101372041620024, 32.527139179430392 ], [ -91.101525451717364, 32.527182934440766 ], [ -91.101679518811849, 32.527227701527501 ], [ -91.101825522468587, 32.527289532020838 ], [ -91.101970090228022, 32.527350215968568 ], [ -91.102122034234313, 32.52740085058214 ], [ -91.102269245485687, 32.527459676637733 ], [ -91.102427885315663, 32.527492596431571 ], [ -91.102586983702508, 32.52752622740983 ], [ -91.102735328891271, 32.527580786084954 ], [ -91.102889772143428, 32.527623955069501 ], [ -91.103045560028448, 32.527664890100887 ], [ -91.103188653160657, 32.5277313537933 ], [ -91.103315030139001, 32.527834943036829 ], [ -91.103465143979975, 32.527887593620036 ], [ -91.103623431085978, 32.527920953207456 ], [ -91.103775717326641, 32.527969687313572 ], [ -91.103925061438815, 32.528023386290215 ], [ -91.104075886031282, 32.528071936008793 ], [ -91.104226556035542, 32.528121310696619 ], [ -91.104387764488123, 32.528150914533931 ], [ -91.104536620587766, 32.528208215576072 ], [ -91.107607907527893, 32.529232806645517 ], [ -91.107762702624754, 32.529274704062551 ], [ -91.107907249658041, 32.529339834094174 ], [ -91.108049670786983, 32.529406653414888 ], [ -91.108202239201631, 32.529453593989928 ], [ -91.108358603069277, 32.529493033637891 ], [ -91.108511962548405, 32.52953760455776 ], [ -91.10866193894482, 32.529588820435819 ], [ -91.108813819025187, 32.529638705127653 ], [ -91.108964346991542, 32.529689779271649 ], [ -91.109114936038694, 32.529740385747772 ], [ -91.109271429699348, 32.529779714337785 ], [ -91.109422207225776, 32.529829549180882 ], [ -91.109569615105073, 32.529887459111862 ], [ -91.109720671242911, 32.529939573312802 ], [ -91.109866642774676, 32.5300002403063 ], [ -91.110015053277124, 32.530053991839495 ], [ -91.110164644743435, 32.530109139031048 ], [ -91.110312642024837, 32.530163937894812 ], [ -91.110461146972739, 32.530220931922905 ], [ -91.110618308331254, 32.530258523326253 ], [ -91.110777592542846, 32.53029008129576 ], [ -91.110928275699209, 32.530340135826883 ], [ -91.111079407592129, 32.530389499361803 ] ] } },
{ "type": "Feature", "properties": { "station_id": 4, "station_ft": 4236.8, "width_ft": 1435.1, "flag": "ok", "lon": -91.100561, "lat": 32.523762, "survey_id": "LM_07_FMB_20250622_CS_4602_4570", "date": "2025-06-22 00:00:00+00:00", "method": "lines" }, "geometry": { "type": "LineString", "coordinates": [ [ -91.098667543709354, 32.522996299197182 ], [ -91.098811457737341, 32.523038439036526 ], [ -91.098948910196739, 32.523114231919848 ], [ -91.099092148609202, 32.523179957382872 ], [ -91.09925072060102, 32.523217444585882 ], [ -91.099404678631515, 32.523261830172352 ], [ -91.09954073662449, 32.523341397528704 ], [ -91.099677109268541, 32.523416123992305 ], [ -91.09981790824105, 32.523488515736851 ], [ -91.09997641109733, 32.523525534425154 ], [ -91.100129658196494, 32.52356995140169 ], [ -91.100279964528596, 32.523623511896176 ], [ -91.100419074860895, 32.523695747331502 ], [ -91.100560630743331, 32.523761646380677 ], [ -91.10069718498427, 32.523838404974491 ], [ -91.10085410017021, 32.523879362987763 ], [ -91.100999920978737, 32.523939299248099 ], [ -91.101142360483877, 32.52400612645912 ], [ -91.101288586763971, 32.524068011305289 ], [ -91.101438036431475, 32.524119788347484 ], [ -91.101591088907924, 32.524168025453008 ], [ -91.101737783789559, 32.524227624563004 ], [ -91.101870583476924, 32.524309132706669 ], [ -91.10201747950201, 32.52436955536318 ], [ -91.102169930379318, 32.524415431929611 ], [ -91.102317191137587, 32.524473020488003 ], [ -91.102469005988681, 32.524524287667575 ], [ -91.1026162168111, 32.524579595635785 ], [ -91.102760640585899, 32.524642946107818 ], [ -91.102901291886411, 32.524712860831691 ], [ -91.103040336940822, 32.524784489544004 ], [ -91.103180289033688, 32.524856112548015 ], [ -91.103323256529919, 32.524919718358262 ], [ -91.103477625583025, 32.524966048687745 ], [ -91.103625282887364, 32.525024128329662 ], [ -91.10377404916747, 32.525079177415421 ], [ -91.103910285575182, 32.525156182391605 ], [ -91.104054864610831, 32.525218430261667 ], [ -91.10420266123873, 32.525273787765244 ], [ -91.104356769279946, 32.525319843567601 ], [ -91.104511149742336, 32.525363506052749 ], [ -91.104664858208608, 32.525412092447191 ], [ -91.104806224330545, 32.525477905751416 ], [ -91.104947267563816, 32.525547760740643 ], [ -91.10508731530777, 32.525618803878963 ], [ -91.105224312884715, 32.525678294249019 ], [ -91.105375738038092, 32.525729120211452 ], [ -91.105527256969495, 32.525794622388403 ], [ -91.105677296750486, 32.525846582781739 ], [ -91.10768312524641, 32.526605741870007 ], [ -91.107804527436045, 32.526654743308264 ], [ -91.107944581174493, 32.52671833468078 ], [ -91.108092305817351, 32.526783720026543 ], [ -91.108245025435508, 32.5268299445856 ], [ -91.108385926808026, 32.52689028662359 ], [ -91.108520344128877, 32.526969990374027 ], [ -91.108665450584596, 32.527032587616553 ], [ -91.10881786161913, 32.527080599750853 ], [ -91.108959249835522, 32.527148331625519 ], [ -91.109096048832981, 32.527225767477326 ], [ -91.109242385714765, 32.527284178623667 ], [ -91.109393435159035, 32.527336046240592 ], [ -91.109540230203493, 32.527394839258285 ], [ -91.109679540110619, 32.52746610088311 ], [ -91.109827773998504, 32.527522466171874 ], [ -91.109972486397595, 32.527584212158885 ], [ -91.110113681584437, 32.52765208097388 ], [ -91.110261077782482, 32.527709000087434 ], [ -91.110410748136076, 32.527762497243287 ], [ -91.110557575975065, 32.527821233847419 ], [ -91.110704475786335, 32.527880766082539 ], [ -91.110844778507797, 32.527950316844489 ], [ -91.11098395937033, 32.528021331619556 ], [ -91.111147339935286, 32.528050665359871 ], [ -91.111296061967266, 32.52810688790818 ] ] } },
{ "type": "Feature", "properties": { "station_id": 5, "station_ft": 3182.9, "width_ft": 1535.0, "flag": "ok", "lon": -91.101474, "lat": 32.520714, "survey_id": "LM_07_FMB_20250622_CS_4602_4570", "date": "2025-06-22 00:00:00+00:00", "method": "lines" }, "geometry": { "type": "LineString", "coordinates": [ [ -91.09990704525147, 32.519990649824209 ], [ -91.10004112353748, 32.520070750000421 ], [ -91.100176593789556, 32.520146663704871 ], [ -91.100317102390392, 32.520216005194612 ], [ -91.100469573513337, 32.520265319493042 ], [ -91.100611063385614, 32.52033185110286 ], [ -91.100739249471857, 32.520420837205116 ], [ -91.100877402188942, 32.520491648768449 ], [ -91.10103714724157, 32.520530253808261 ], [ -91.101179852282527, 32.520594522959485 ], [ -91.101319718031789, 32.520664445261325 ], [ -91.101473585023186, 32.520713666843164 ], [ -91.101612941386847, 32.520784718218692 ], [ -91.101762691172695, 32.520838114474152 ], [ -91.101906469766632, 32.520902597160692 ], [ -91.102048997488723, 32.52096890075746 ], [ -91.102200129086924, 32.52102063962959 ], [ -91.102342737096166, 32.521084825975201 ], [ -91.102478288574986, 32.521162248906265 ], [ -91.102612178549705, 32.521242512463502 ], [ -91.102748266109813, 32.521318090432068 ], [ -91.102888196971008, 32.521387761677509 ], [ -91.103026345332324, 32.521457692556801 ], [ -91.103167827606697, 32.521526639801159 ], [ -91.103322904654789, 32.521572938110474 ], [ -91.10347593541313, 32.521622767409276 ], [ -91.103624322264096, 32.521679551349933 ], [ -91.103760796618928, 32.521754629869349 ], [ -91.103906842157912, 32.521814643475665 ], [ -91.104052945662232, 32.521873694380929 ], [ -91.104191382087066, 32.521946754896518 ], [ -91.104330500028425, 32.522015963285455 ], [ -91.104473033251722, 32.522082374072113 ], [ -91.10461933477427, 32.522141835198184 ], [ -91.104763423843409, 32.522204306256803 ], [ -91.104900411322703, 32.522278446151198 ], [ -91.105045571968034, 32.522340965315351 ], [ -91.105191802431051, 32.52239949198249 ], [ -91.105331844715863, 32.522470451997755 ], [ -91.105473225573277, 32.522538600979154 ], [ -91.105616964473938, 32.522601677371078 ], [ -91.105759878501786, 32.522666847128832 ], [ -91.105900868443925, 32.522734640025185 ], [ -91.106047271035948, 32.52279423681383 ], [ -91.106179743889427, 32.522875165293136 ], [ -91.106311461189264, 32.522958818870663 ], [ -91.106444058010496, 32.523039004158171 ], [ -91.106587319273757, 32.523102934517858 ], [ -91.106717779393563, 32.523164744040528 ], [ -91.107557109538405, 32.523472943276992 ], [ -91.107686118999155, 32.523546910065242 ], [ -91.107810309202861, 32.523615052194664 ], [ -91.107960437696917, 32.523670060897508 ], [ -91.108108997757725, 32.523731180359228 ], [ -91.10824532453293, 32.523807244962853 ], [ -91.108393624336003, 32.523864408782948 ], [ -91.108528072853247, 32.523948400259279 ], [ -91.108673013831563, 32.524003578039753 ], [ -91.108814882056336, 32.524071142173767 ], [ -91.108951781496685, 32.524145718177053 ], [ -91.10909267463353, 32.524213095931316 ], [ -91.109238829298477, 32.524273542637886 ], [ -91.109383735787475, 32.524335865310903 ], [ -91.109532351257954, 32.524391925679609 ], [ -91.109686531671301, 32.524438716643836 ], [ -91.109820164962045, 32.524518149763814 ], [ -91.109955216658165, 32.524596391779284 ], [ -91.110093289780423, 32.524667633597119 ], [ -91.11022913864953, 32.524744331092876 ], [ -91.110378139649995, 32.524799783890153 ], [ -91.110521855339485, 32.524863184775562 ], [ -91.110663371134834, 32.52493091398923 ], [ -91.110816023825095, 32.524980955704635 ], [ -91.110959668195164, 32.525043422304897 ], [ -91.111088663960686, 32.525130413280934 ], [ -91.111232288547683, 32.525194363975821 ], [ -91.111382224891059, 32.525249011728839 ], [ -91.111534747120899, 32.525298752181556 ], [ -91.111679104637005, 32.52536110261947 ], [ -91.111815188861243, 32.525438401993 ] ] } },
{ "type": "Feature", "properties": { "station_id": 6, "station_ft": 2140.9, "width_ft": 1727.3, "flag": "ok", "lon": -91.104161, "lat": 32.51863, "survey_id": "LM_07_FMB_20250622_CS_4602_4570", "date": "2025-06-22 00:00:00+00:00", "method": "lines" }, "geometry": { "type": "LineString", "coordinates": [ [ -91.101357181775569, 32.517276835027758 ], [ -91.101486712925592, 32.517329943035406 ], [ -91.101623088952962, 32.517405960625197 ], [ -91.101780414047553, 32.517450460825998 ], [ -91.101913441255874, 32.517529246207154 ], [ -91.102059137628999, 32.517591077638336 ], [ -91.10220646034395, 32.517649519172153 ], [ -91.102350350952875, 32.51771259850927 ], [ -91.102484933705796, 32.517791098729113 ], [ -91.102616943206939, 32.517872226027102 ], [ -91.102754750007094, 32.517944577894575 ], [ -91.102910617812981, 32.517989250599662 ], [ -91.103065795204287, 32.518036565875498 ], [ -91.103178072288799, 32.518147058196696 ], [ -91.103323565662208, 32.518207707179414 ], [ -91.103454322250414, 32.518290023453517 ], [ -91.103611613941339, 32.518334191496997 ], [ -91.103764884903271, 32.518386108417104 ], [ -91.103901562033727, 32.518458960088502 ], [ -91.104028299678319, 32.518549271002229 ], [ -91.104160699060444, 32.518630146275861 ], [ -91.104295398858412, 32.518706803317798 ], [ -91.104428375590857, 32.518786932619037 ], [ -91.104571032406525, 32.518853205548837 ], [ -91.104713372335453, 32.518916621688838 ], [ -91.104854451872725, 32.51898422323444 ], [ -91.104998413446481, 32.519047546138928 ], [ -91.105145877512598, 32.519106835470446 ], [ -91.10529398356077, 32.519165377639467 ], [ -91.105428429876682, 32.519242556216462 ], [ -91.105548882657345, 32.519341149801697 ], [ -91.105693038866178, 32.519404333636103 ], [ -91.105850813108916, 32.519447699629971 ], [ -91.106000531841786, 32.519501174000091 ], [ -91.106138727195074, 32.519572804614619 ], [ -91.106260782207855, 32.519668941193018 ], [ -91.106386298974954, 32.51976013639122 ], [ -91.106550365332183, 32.519795656321534 ], [ -91.106704643474444, 32.519843522647946 ], [ -91.106852905363624, 32.519900989807837 ], [ -91.106988987029666, 32.51997571106601 ], [ -91.107128781591797, 32.52004450012457 ], [ -91.107282979497143, 32.520094344679876 ], [ -91.10741684622181, 32.520171716732293 ], [ -91.10753556790938, 32.520272216317721 ], [ -91.10766880098312, 32.520351351321892 ], [ -91.10780867499129, 32.520421705472117 ], [ -91.107948256184216, 32.520491896245836 ], [ -91.108080492439484, 32.520571999117358 ], [ -91.108235197777887, 32.520631569311043 ], [ -91.108359456552762, 32.520711969011565 ], [ -91.108519636494023, 32.520763012379533 ], [ -91.10867603536569, 32.520796872441132 ], [ -91.108798218180652, 32.520892263566019 ], [ -91.108939375680308, 32.520960794191261 ], [ -91.109078889400408, 32.521030489942426 ], [ -91.10922558495723, 32.521090327425469 ], [ -91.109362792962088, 32.521163527776345 ], [ -91.109510480036832, 32.521221655387997 ], [ -91.109655923146022, 32.521282820260971 ], [ -91.109786093144365, 32.52136752399494 ], [ -91.109932019984541, 32.521428328462029 ], [ -91.11007640070406, 32.521490516580997 ], [ -91.110199301017403, 32.521586011895792 ], [ -91.110342978778462, 32.521649330337823 ], [ -91.110489187890948, 32.521708951104422 ], [ -91.110618339324802, 32.52179572166547 ], [ -91.110774614609895, 32.52184126119549 ], [ -91.110932287577114, 32.521883466213986 ], [ -91.111055017962101, 32.521977972498114 ], [ -91.11119146662719, 32.522053016897985 ], [ -91.11132432127755, 32.522132645358461 ], [ -91.111478295679618, 32.522182183994317 ], [ -91.111618680957591, 32.522251046381399 ], [ -91.111749357319525, 32.522333738501679 ], [ -91.111892256667261, 32.522400578612917 ], [ -91.112045864262399, 32.522448964568213 ], [ -91.112174204027312, 32.522535244361158 ], [ -91.112311478409879, 32.522608083028693 ], [ -91.112446117624671, 32.522680057753035 ], [ -91.112584021240878, 32.522758170194237 ] ] } },
{ "type": "Feature", "properties": { "station_id": 7, "station_ft": 1090.9, "width_ft": 2014.5, "flag": "ok", "lon": -91.104914, "lat": 32.515494, "survey_id": "LM_07_FMB_20250622_CS_4602_4570", "date": "2025-06-22 00:00:00+00:00", "method": "lines" }, "geometry": { "type": "LineString", "coordinates": [ [ -91.1036759507179, 32.514840267008857 ], [ -91.103819021897792, 32.514906510401815 ], [ -91.103948085407424, 32.5149886165852 ], [ -91.104068644011605, 32.515085259668503 ], [ -91.104201447526862, 32.515164704128956 ], [ -91.10435740730307, 32.51521302935565 ], [ -91.104520088789215, 32.515250704908411 ], [ -91.104658928061625, 32.515322745421457 ], [ -91.104784210189379, 32.515410178050558 ], [ -91.104913873276061, 32.515494010918708 ], [ -91.105047206162098, 32.515574468403969 ], [ -91.105174725924016, 32.515661749839808 ], [ -91.105327666464589, 32.515713418954078 ], [ -91.10548634924892, 32.515757521158676 ], [ -91.105627487744528, 32.515825066540799 ], [ -91.105775135416394, 32.515883749001993 ], [ -91.105915280025613, 32.515952509415143 ], [ -91.106038627784542, 32.516044982647685 ], [ -91.106160701900066, 32.516140075068449 ], [ -91.106298407933323, 32.51621195567806 ], [ -91.106430133066198, 32.516293932891173 ], [ -91.106572164543906, 32.516359438243782 ], [ -91.106721226123412, 32.516416268595577 ], [ -91.106868819950336, 32.516476049324844 ], [ -91.107005496479985, 32.516548760584904 ], [ -91.107141194005891, 32.51662469338055 ], [ -91.107280517093812, 32.516695820802624 ], [ -91.107429870089646, 32.516752511442512 ], [ -91.107575143633866, 32.516813899914752 ], [ -91.107700641649345, 32.516903225541377 ], [ -91.107832111848708, 32.516985367847425 ], [ -91.107966710743554, 32.517061608587653 ], [ -91.108103266260841, 32.517135143582777 ], [ -91.108245639573695, 32.517202485393696 ], [ -91.108393962720058, 32.517259923360932 ], [ -91.108536037296702, 32.517326388367799 ], [ -91.108674964062843, 32.517396472425865 ], [ -91.108814567209166, 32.517465975033829 ], [ -91.108949605128842, 32.517544080435286 ], [ -91.109081727342328, 32.517622589621553 ], [ -91.109218322904184, 32.517696865282154 ], [ -91.109348484078012, 32.517781075459141 ], [ -91.109479915773306, 32.517862254069648 ], [ -91.109618171933832, 32.517933385437367 ], [ -91.109758653927756, 32.518003046575238 ], [ -91.109902373283816, 32.51806806967339 ], [ -91.110033064571681, 32.518149802336119 ], [ -91.110168505313439, 32.518225375389761 ], [ -91.110312253220798, 32.518289930725288 ], [ -91.110460357118512, 32.518347999702961 ], [ -91.110605936426211, 32.518410371954552 ], [ -91.110749385870861, 32.518474186481996 ], [ -91.110873389295165, 32.518566431681187 ], [ -91.110997573646401, 32.51865691630973 ], [ -91.111145009521181, 32.518716390828963 ], [ -91.111290705873515, 32.518777277260334 ], [ -91.111429455945711, 32.518848953617535 ], [ -91.111570090059914, 32.518917044503318 ], [ -91.111700182776616, 32.519000510472743 ], [ -91.111839159127371, 32.519071936986236 ], [ -91.111987559011339, 32.519130250288725 ], [ -91.112136660643444, 32.519187101831349 ], [ -91.112275153144253, 32.519258750879374 ], [ -91.112408756701399, 32.519335377986991 ], [ -91.112539554246851, 32.519417602397375 ], [ -91.112677828913903, 32.519490324530338 ], [ -91.112831962198143, 32.519539969691664 ], [ -91.112979395346301, 32.519598699899873 ], [ -91.113112414629782, 32.519678902623724 ], [ -91.113231474797303, 32.519776783205046 ], [ -91.113367342038202, 32.519837316031612 ], [ -91.113490058605237, 32.519911535062214 ] ] } },
{ "type": "Feature", "properties": { "station_id": 8, "station_ft": 50.3, "width_ft": 1839.9, "flag": "ok", "lon": -91.10689, "lat": 32.513096, "survey_id": "LM_07_FMB_20250622_CS_4602_4570", "date": "2025-06-22 00:00:00+00:00", "method": "lines" }, "geometry": { "type": "LineString", "coordinates": [ [ -91.105684531591137, 32.512454650175826 ], [ -91.105808639070148, 32.512515098559589 ], [ -91.105941621859259, 32.512566504494941 ], [ -91.106073853920407, 32.512647571897624 ], [ -91.106225695172867, 32.512700290973243 ], [ -91.106356602139655, 32.512781916286009 ], [ -91.106478625462529, 32.512875414488683 ], [ -91.10661107007229, 32.512954721581139 ], [ -91.106759708825294, 32.513012049632046 ], [ -91.106890277506494, 32.513095819933781 ], [ -91.107006182173492, 32.513198123021148 ], [ -91.10715766413648, 32.513250349000501 ], [ -91.107308028293289, 32.513308352918834 ], [ -91.107441614832908, 32.513384518487058 ], [ -91.107578589741038, 32.513458518677879 ], [ -91.107713415675335, 32.513535445522415 ], [ -91.107854545200112, 32.51360216339264 ], [ -91.107996791726606, 32.513670414424624 ], [ -91.108122752952923, 32.513757509517362 ], [ -91.108258057647276, 32.513833443590023 ], [ -91.108397660460867, 32.513903468871703 ], [ -91.108534599222324, 32.513976919053825 ], [ -91.108668173539598, 32.514055144784791 ], [ -91.108800127446912, 32.51413736522376 ], [ -91.108935062595492, 32.514211651517833 ], [ -91.109082399366031, 32.514271870429909 ], [ -91.109222879688488, 32.51434205438909 ], [ -91.109354242822079, 32.514423288651066 ], [ -91.109497210481166, 32.514488481961592 ], [ -91.109632230891123, 32.514564883390896 ], [ -91.109756269032999, 32.514654381038078 ], [ -91.109883494189475, 32.514740945309711 ], [ -91.110002163763738, 32.514839874858581 ], [ -91.110173557583835, 32.514868226450055 ], [ -91.110330558335406, 32.514912800037791 ], [ -91.110472963661948, 32.514980250085742 ], [ -91.110609041677264, 32.515055076659628 ], [ -91.110731621105629, 32.515148265110462 ], [ -91.110862129112917, 32.515231619471621 ], [ -91.111005530115008, 32.515294087759692 ], [ -91.111144571125521, 32.515366339846608 ], [ -91.111293992227033, 32.515423382581986 ], [ -91.111446795208664, 32.51547380786976 ], [ -91.1115834913154, 32.515548548388068 ], [ -91.111711972391163, 32.515633782829127 ], [ -91.111835638865415, 32.515724819976562 ], [ -91.1119695134973, 32.515803424420177 ], [ -91.112117770386064, 32.515860831365124 ], [ -91.112262443821152, 32.515923894496154 ], [ -91.112404145870443, 32.515992252939121 ], [ -91.112536370650815, 32.516071224983136 ], [ -91.112673733762875, 32.516144117873239 ], [ -91.112815143678489, 32.516212340587721 ], [ -91.112955996475449, 32.516279988567589 ], [ -91.113093209041253, 32.516354229148071 ], [ -91.113229002751808, 32.516429412592096 ], [ -91.113361079931153, 32.51650986805528 ], [ -91.113491476825232, 32.516591186859017 ], [ -91.113636488835468, 32.516655620559419 ], [ -91.113784173496114, 32.516714018285988 ], [ -91.113909831538848, 32.516802456556654 ], [ -91.114035813236981, 32.516890755622711 ], [ -91.114170969792227, 32.516967151238106 ], [ -91.114312991410813, 32.517034571288143 ] ] } },
{ "type": "Feature", "properties": { "station_id": 9, "station_ft": -1029.7, "width_ft": 1905.9, "flag": "ok", "lon": -91.108899, "lat": 32.510831, "survey_id": "LM_07_FMB_20250622_CS_4602_4570", "date": "2025-06-22 00:00:00+00:00", "method": "lines" }, "geometry": { "type": "LineString", "coordinates": [ [ -91.106833233770743, 32.509741659720561 ], [ -91.106971840111626, 32.509809906441454 ], [ -91.107111038767115, 32.509879193599353 ], [ -91.107273394501775, 32.509921457649057 ], [ -91.107403661649585, 32.51000454221014 ], [ -91.10751869327612, 32.51010770243802 ], [ -91.107651822327185, 32.510187773484716 ], [ -91.107794462765753, 32.510253465924812 ], [ -91.1079318659812, 32.510325071709744 ], [ -91.108076147947344, 32.510389159410757 ], [ -91.108221652164488, 32.510452167225672 ], [ -91.10836451443059, 32.510517197556197 ], [ -91.108492366066528, 32.510602083129342 ], [ -91.108621393479055, 32.510687785529669 ], [ -91.10876098444875, 32.510757095463418 ], [ -91.108898570180983, 32.510830816374252 ], [ -91.109041081267407, 32.510896342250668 ], [ -91.109180461437305, 32.510967550308074 ], [ -91.109322394616385, 32.511033767465378 ], [ -91.109458082230219, 32.511109175827869 ], [ -91.109592519397921, 32.511186295176394 ], [ -91.109731825132897, 32.511256293814355 ], [ -91.109876583877352, 32.511318947187895 ], [ -91.110010673835959, 32.511397195420599 ], [ -91.11014304584269, 32.511475509122491 ], [ -91.110280905724977, 32.511550655183335 ], [ -91.110412978563957, 32.511628036222284 ], [ -91.110543063138735, 32.511711915742261 ], [ -91.110671082963805, 32.511796990086125 ], [ -91.110801196988518, 32.511880402040383 ], [ -91.110941229660583, 32.511951658182156 ], [ -91.111107472932417, 32.5119852354198 ], [ -91.111249023972491, 32.512051836876168 ], [ -91.111379902373642, 32.512133567127279 ], [ -91.111515503232283, 32.512209880028983 ], [ -91.111655078889314, 32.512280589019547 ], [ -91.111798167456712, 32.51234495479823 ], [ -91.11192417594367, 32.512433503032156 ], [ -91.112050368409015, 32.512520895748679 ], [ -91.112189946622081, 32.512591797094181 ], [ -91.112329387747536, 32.512661956083278 ], [ -91.112463349238269, 32.5127397632872 ], [ -91.112593001884534, 32.51282202195685 ], [ -91.112735282788236, 32.512890293554712 ], [ -91.112879821295607, 32.512953274820404 ], [ -91.113025864115897, 32.513013827180693 ], [ -91.113163161202323, 32.513087215083573 ], [ -91.113289910938136, 32.513174933116687 ], [ -91.113423352651566, 32.513252631583946 ], [ -91.113554647487447, 32.513333229744788 ], [ -91.113688835788665, 32.513410814181249 ], [ -91.113828352190566, 32.513481768163196 ], [ -91.113962536665284, 32.513558857261081 ], [ -91.114104833624097, 32.51362503961564 ], [ -91.11425476201812, 32.513680811447088 ], [ -91.114398904578877, 32.513746596956999 ], [ -91.114535399713873, 32.513820647496331 ], [ -91.114653188780864, 32.51390347183122 ], [ -91.114766606324054, 32.51396480279012 ] ] } },
{ "type": "Feature", "properties": { "station_id": 10, "station_ft": -2235.5, "width_ft": 2013.0, "flag": "ok", "lon": -91.11156, "lat": 32.508684, "survey_id": "LM_07_FMB_20250622_CS_4602_4570", "date": "2025-06-22 00:00:00+00:00", "method": "lines" }, "geometry": { "type": "LineString", "coordinates": [ [ -91.107564795327761, 32.506615424394319 ], [ -91.10769896583345, 32.506658685617957 ], [ -91.107834209816716, 32.506732558383405 ], [ -91.107966372568825, 32.506813927349846 ], [ -91.108109059671023, 32.506878216992973 ], [ -91.108258149301435, 32.506936200719913 ], [ -91.108384212942383, 32.507025027371704 ], [ -91.108526170160573, 32.507090997398315 ], [ -91.108683632275742, 32.507138181874573 ], [ -91.108814655991083, 32.507218979826753 ], [ -91.108935842814944, 32.507313937267 ], [ -91.109083387474627, 32.507373166736784 ], [ -91.109233564559787, 32.507429355300708 ], [ -91.109365936164778, 32.507508385024416 ], [ -91.109475583067336, 32.507619107305167 ], [ -91.109619115888307, 32.507683335883129 ], [ -91.109748623824885, 32.507768731238862 ], [ -91.109885780435704, 32.50784212374321 ], [ -91.110022635174147, 32.507914170732676 ], [ -91.110170768075776, 32.507973916490457 ], [ -91.110323954107685, 32.508025139011842 ], [ -91.110463156253942, 32.508094861615497 ], [ -91.11058525712501, 32.508190087718965 ], [ -91.110731017919719, 32.508252953114969 ], [ -91.110867641247708, 32.508324423473653 ], [ -91.110999221733593, 32.50840543568976 ], [ -91.11113318067855, 32.508483820668971 ], [ -91.111242469829179, 32.508594132372437 ], [ -91.111392807386039, 32.508649658140016 ], [ -91.111559860322416, 32.5086837790139 ], [ -91.111698621277483, 32.508754685158323 ], [ -91.111813079942863, 32.508858780116213 ], [ -91.111940325802621, 32.508944654273073 ], [ -91.112088491780426, 32.509004068389693 ], [ -91.112228034377949, 32.509075299143078 ], [ -91.112353923442171, 32.50916184135874 ], [ -91.112489459001694, 32.509238539635511 ], [ -91.112615433844439, 32.509327444557492 ], [ -91.112752240157718, 32.509400891052579 ], [ -91.112903080646461, 32.509454377507105 ], [ -91.113051558650369, 32.509512167178137 ], [ -91.113194378266599, 32.509579555784342 ], [ -91.11332924903985, 32.509654167888478 ], [ -91.113461012713685, 32.509737181846859 ], [ -91.113597549030032, 32.509809281854935 ], [ -91.113732984653964, 32.50988551137339 ], [ -91.113868024721484, 32.50996089103662 ], [ -91.114007977209695, 32.510030330854597 ], [ -91.114151332246379, 32.510095709524563 ], [ -91.114292667567582, 32.510163793212747 ], [ -91.114419693201725, 32.510250052124633 ], [ -91.114552308395716, 32.510330036037018 ], [ -91.114676996208757, 32.510419716939168 ] ] } },
{ "type": "Feature", "properties": { "station_id": 11, "station_ft": -3233.8, "width_ft": 2062.3, "flag": "ok", "lon": -91.11208, "lat": 32.505908, "survey_id": "LM_07_FMB_20250622_CS_4602_4570", "date": "2025-06-22 00:00:00+00:00", "method": "lines" }, "geometry": { "type": "LineString", "coordinates": [ [ -91.108323768053481, 32.504285685141717 ], [ -91.108469623916633, 32.504345419973916 ], [ -91.108618579112459, 32.504399611365024 ], [ -91.108762069529163, 32.504463290292293 ], [ -91.108891114606067, 32.504552181084016 ], [ -91.109042769467592, 32.504603440841727 ], [ -91.109181300951988, 32.504674984332411 ], [ -91.109322620305917, 32.504742634716393 ], [ -91.109461777468468, 32.504811644601958 ], [ -91.10960412895966, 32.504878491143174 ], [ -91.109762513199541, 32.504920061493387 ], [ -91.109908419381952, 32.504977869970993 ], [ -91.110052202231074, 32.505041436486493 ], [ -91.110197827021707, 32.50510422226229 ], [ -91.11034582522143, 32.505160092956473 ], [ -91.110491658969949, 32.505220650656163 ], [ -91.110634157511413, 32.505285625761935 ], [ -91.110782833521526, 32.505341052591476 ], [ -91.110931501314298, 32.505395380050921 ], [ -91.111086355279497, 32.505441176335026 ], [ -91.111220868510927, 32.505520547098541 ], [ -91.111365830247635, 32.5055814112511 ], [ -91.111513822867479, 32.505640167114827 ], [ -91.111647773488883, 32.50571814046301 ], [ -91.111784849726135, 32.505793509888456 ], [ -91.111944053246788, 32.505832048798929 ], [ -91.112080161921838, 32.50590808397196 ], [ -91.112215512025031, 32.505986459243488 ], [ -91.112359145962202, 32.506047440468457 ], [ -91.11250890589956, 32.506104150737535 ], [ -91.112656658264214, 32.506161147395879 ], [ -91.112804363128006, 32.506216440752375 ], [ -91.112949417924895, 32.506276615337512 ], [ -91.113088743074485, 32.506349330839257 ], [ -91.113228987663831, 32.506419676977579 ], [ -91.113379909206671, 32.506471761094282 ], [ -91.113533750632811, 32.506516405455905 ], [ -91.113683955522461, 32.506571847284611 ], [ -91.113833425777216, 32.506624764059232 ], [ -91.113978302596621, 32.506686724927597 ], [ -91.114119557990733, 32.506753710150051 ], [ -91.114264234057643, 32.50681492978358 ], [ -91.114403095527123, 32.506886355367541 ], [ -91.114539100573168, 32.506964999065076 ], [ -91.114675772584249, 32.507038169311464 ], [ -91.114824571581423, 32.507092189204904 ], [ -91.114962558841768, 32.507163701650327 ], [ -91.115101955500563, 32.507240647289592 ], [ -91.115241124730133, 32.507291289922939 ], [ -91.115389782949549, 32.507358832766499 ] ] } },
{ "type": "Feature", "properties": { "station_id": 12, "station_ft": -4199.1, "width_ft": 2233.5, "flag": "ok", "lon": -91.11441, "lat": 32.503828, "survey_id": "LM_07_FMB_20250622_CS_4602_4570", "date": "2025-06-22 00:00:00+00:00", "method": "lines" }, "geometry": { "type": "LineString", "coordinates": [ [ -91.108689887867058, 32.501986233861537 ], [ -91.108815398281379, 32.50201508945208 ], [ -91.108952262974881, 32.502070591328732 ], [ -91.109107911231717, 32.50211152024896 ], [ -91.10926398188046, 32.502148707678998 ], [ -91.109425018557587, 32.502178663740452 ], [ -91.10958948908231, 32.50220054480382 ], [ -91.109730714714289, 32.502269101633487 ], [ -91.109869540419623, 32.502345150495387 ], [ -91.110017868805969, 32.502402228862827 ], [ -91.110167616418209, 32.502454544220015 ], [ -91.11032252809207, 32.502496300378851 ], [ -91.110483866499337, 32.502523614665861 ], [ -91.110637531207544, 32.502567466608497 ], [ -91.110786418125898, 32.50262146290806 ], [ -91.110937832164566, 32.502671458540817 ], [ -91.111082944707846, 32.502735317799129 ], [ -91.111241439610438, 32.502767485716099 ], [ -91.111387031587597, 32.502830627462565 ], [ -91.111528485157436, 32.502902644489943 ], [ -91.111680830127341, 32.502947575498148 ], [ -91.111830376486338, 32.503002748673175 ], [ -91.111985336734151, 32.503042413090817 ], [ -91.112143654093316, 32.503076477357936 ], [ -91.112297457092708, 32.50312123446772 ], [ -91.112437480337007, 32.50319655704385 ], [ -91.112589738380905, 32.503246353365931 ], [ -91.112738798796187, 32.503297624747503 ], [ -91.112892744151452, 32.503339933770157 ], [ -91.113039960332657, 32.503399297773797 ], [ -91.113190829580802, 32.50344962318313 ], [ -91.113341802948781, 32.503500772872748 ], [ -91.113495967371705, 32.503545827448733 ], [ -91.113649836467829, 32.503586733775258 ], [ -91.113801404815192, 32.503635377741006 ], [ -91.113949157935295, 32.503692840940339 ], [ -91.114096623623624, 32.503754702719284 ], [ -91.114255423810164, 32.503788130079457 ], [ -91.114410417860555, 32.503827736265819 ], [ -91.114559256318373, 32.503879446903127 ], [ -91.114707933610816, 32.503934897051373 ], [ -91.114856652037844, 32.503991391001804 ], [ -91.115006147549053, 32.504047769931994 ], [ -91.11515775992487, 32.504093828436545 ], [ -91.115315815845804, 32.504127340230305 ], [ -91.115476677921308, 32.504158992990519 ], [ -91.115618478237096, 32.504229271824599 ], [ -91.115754929734635, 32.504311155113825 ], [ -91.115914245527861, 32.504340288396421 ], [ -91.116074774346671, 32.504370871170082 ], [ -91.116222553654268, 32.504427369329896 ], [ -91.116367305343303, 32.504490097463169 ] ] } },
{ "type": "Feature", "properties": { "station_id": 13, "station_ft": -5158.4, "width_ft": 2034.2, "flag": "ok", "lon": -91.116018, "lat": 32.501255, "survey_id": "LM_07_FMB_20250622_CS_4602_4570", "date": "2025-06-22 00:00:00+00:00", "method": "lines" }, "geometry": { "type": "LineString", "coordinates": [ [ -91.108975434837035, 32.499635109001247 ], [ -91.109126158520937, 32.499688436835271 ], [ -91.109273306542292, 32.499752120694382 ], [ -91.109429721709802, 32.499788261607549 ], [ -91.10959514248627, 32.499796778193549 ], [ -91.109743632677336, 32.499858089706557 ], [ -91.109901717982808, 32.499888557579354 ], [ -91.11005774261757, 32.499928355847132 ], [ -91.110218689549981, 32.499948306476291 ], [ -91.110371597791968, 32.499995297084993 ], [ -91.110523344124914, 32.500046610500398 ], [ -91.110685594345668, 32.500063528881782 ], [ -91.110842331454151, 32.500099363948628 ], [ -91.111003132849874, 32.500124976611758 ], [ -91.11115449122309, 32.500172690032997 ], [ -91.11130865789616, 32.500218792499219 ], [ -91.111463558136421, 32.500255902409393 ], [ -91.111619126273041, 32.500295179431149 ], [ -91.111778436104615, 32.500324593120077 ], [ -91.1119361019054, 32.500358936774418 ], [ -91.112091951060549, 32.500396946301066 ], [ -91.112252177255499, 32.500419675290942 ], [ -91.112409363679632, 32.500451079779559 ], [ -91.112570075434704, 32.500477405176419 ], [ -91.11272905019888, 32.500505528411772 ], [ -91.112885704119094, 32.500538942013094 ], [ -91.113037414528179, 32.500589647512818 ], [ -91.113192848836562, 32.500632139074916 ], [ -91.113349233538301, 32.50066822026313 ], [ -91.11350266251381, 32.50071135600345 ], [ -91.113654591051883, 32.500760878095683 ], [ -91.11381090009553, 32.500799487705279 ], [ -91.11396613635263, 32.500841512421566 ], [ -91.114126979364798, 32.500864179274629 ], [ -91.114285990134164, 32.500892519433968 ], [ -91.114446478759362, 32.500915409007128 ], [ -91.114601970209236, 32.500953170541287 ], [ -91.114760511638352, 32.500983437364035 ], [ -91.11491386254805, 32.501028605319711 ], [ -91.115067548676691, 32.501071298382939 ], [ -91.115224250652105, 32.501110178819118 ], [ -91.1153861565911, 32.501128192492324 ], [ -91.115542874324191, 32.501161245269763 ], [ -91.115699646560586, 32.501200702700082 ], [ -91.115858774860499, 32.501227500827994 ], [ -91.116017905398579, 32.501254546723217 ], [ -91.116167108210433, 32.501315048089708 ], [ -91.116317447301256, 32.50136801252593 ], [ -91.116468171134329, 32.501420534327842 ], [ -91.116630795403196, 32.501438954023385 ], [ -91.116793093997387, 32.501453555688919 ], [ -91.11695638341503, 32.501470129430814 ], [ -91.117115690239473, 32.501498766237866 ], [ -91.117258586797803, 32.501576155829397 ], [ -91.11740446106765, 32.50164533513059 ], [ -91.117564742146556, 32.501670309566315 ], [ -91.117726585118021, 32.501692059292999 ], [ -91.117877523850524, 32.501739273009775 ] ] } },
{ "type": "Feature", "properties": { "station_id": 14, "station_ft": -6103.2, "width_ft": 2298.9, "flag": "ok", "lon": -91.116825, "lat": 32.498464, "survey_id": "LM_07_FMB_20250622_CS_4602_4570", "date": "2025-06-22 00:00:00+00:00", "method": "lines" }, "geometry": { "type": "LineString", "coordinates": [ [ -91.10933502503093, 32.497606483133559 ], [ -91.109431465875659, 32.497615948373657 ], [ -91.109592923475645, 32.497631800909296 ], [ -91.109757086116332, 32.497626363144661 ], [ -91.10991852878405, 32.497640346006982 ], [ -91.110072469450913, 32.497698489931217 ], [ -91.110231676925835, 32.497727851261686 ], [ -91.110391802190705, 32.497750830383012 ], [ -91.110553124919122, 32.497769761120779 ], [ -91.110715573101018, 32.497776151148273 ], [ -91.110881351195843, 32.497762428295033 ], [ -91.111045113303007, 32.497759519855769 ], [ -91.111209623408456, 32.4977568545631 ], [ -91.1113723524861, 32.497762004792428 ], [ -91.111532745588349, 32.497782067218758 ], [ -91.111687705345787, 32.497834100647836 ], [ -91.111848066126925, 32.497854217877361 ], [ -91.112005427302165, 32.497895077688668 ], [ -91.112159228273853, 32.497951872677547 ], [ -91.112321482085193, 32.497962082582795 ], [ -91.112481236177615, 32.497990778484585 ], [ -91.112646751368075, 32.497980490633644 ], [ -91.112814175344255, 32.497958344334549 ], [ -91.112976925877533, 32.497958408234624 ], [ -91.113133928653212, 32.497998965857043 ], [ -91.113290256277168, 32.498044008306522 ], [ -91.113446815541849, 32.498093309032534 ], [ -91.113607750719567, 32.498108500453363 ], [ -91.113772919716212, 32.498095574720743 ], [ -91.113937851130231, 32.498089026581781 ], [ -91.114096263086992, 32.498120065208425 ], [ -91.114255289092114, 32.498154424607954 ], [ -91.11441440116721, 32.498180015471014 ], [ -91.11457473700294, 32.498200926522173 ], [ -91.11473602842662, 32.498219742059241 ], [ -91.114894395575433, 32.498245419900414 ], [ -91.115055941113795, 32.498267394111508 ], [ -91.115216254570555, 32.498281872236774 ], [ -91.115377693644206, 32.498295216865031 ], [ -91.115540946671103, 32.498297087755958 ], [ -91.115703561520078, 32.4983075931343 ], [ -91.115864361604864, 32.498325778142778 ], [ -91.116022163991218, 32.498357450256904 ], [ -91.116184133122061, 32.498375819657944 ], [ -91.116344666171614, 32.498393126497128 ], [ -91.11650395177162, 32.498412474360428 ], [ -91.116664456003832, 32.498433930862078 ], [ -91.116824810168168, 32.498464211799032 ], [ -91.116980283697799, 32.498466541362255 ], [ -91.117790793463968, 32.498556152211989 ], [ -91.117950128544905, 32.498588608594062 ], [ -91.118108692539039, 32.49861068042479 ], [ -91.118269318673057, 32.498631143980646 ], [ -91.118429621833513, 32.498659251747178 ], [ -91.118591913567997, 32.498666017610425 ], [ -91.118755705658174, 32.498662740936702 ], [ -91.118916366205866, 32.498683342319971 ], [ -91.119072501732731, 32.498724557991949 ] ] } },
{ "type": "Feature", "properties": { "station_id": 15, "station_ft": -7111.6, "width_ft": 2348.5, "flag": "ok", "lon": -91.118065, "lat": 32.495669, "survey_id": "LM_07_FMB_20250622_CS_4602_4570", "date": "2025-06-22 00:00:00+00:00", "method": "lines" }, "geometry": { "type": "LineString", "coordinates": [ [ -91.110121423642369, 32.495545454684532 ], [ -91.110283617638288, 32.495552946122579 ], [ -91.110446261260961, 32.495559885403004 ], [ -91.110606821917585, 32.495581102271544 ], [ -91.110768945295703, 32.495606844227666 ], [ -91.11093162449346, 32.495599105623796 ], [ -91.111093810071992, 32.495590516796376 ], [ -91.111256352195966, 32.495585774264939 ], [ -91.111418231130472, 32.495590517623903 ], [ -91.111580818165436, 32.495602237815795 ], [ -91.111741888004673, 32.495592226667114 ], [ -91.111905251891201, 32.495562328147251 ], [ -91.112067698802832, 32.49555395737989 ], [ -91.112229556612149, 32.495571315438092 ], [ -91.112391106687852, 32.495598269009349 ], [ -91.11255424763624, 32.495587583911352 ], [ -91.112715161227413, 32.495582051523442 ], [ -91.112878595820376, 32.49557914276172 ], [ -91.113039491408117, 32.495597798859613 ], [ -91.113202064607705, 32.495611715528916 ], [ -91.113362793612708, 32.495625974365048 ], [ -91.113524811125458, 32.495643055628477 ], [ -91.113689138651765, 32.495597152517057 ], [ -91.1138503934326, 32.495601072407986 ], [ -91.114012416523138, 32.495611280702349 ], [ -91.114175059725355, 32.495618133101232 ], [ -91.114336496670319, 32.495620593995525 ], [ -91.114499022684512, 32.495628903043404 ], [ -91.114662293700931, 32.495599688668349 ], [ -91.11482430096865, 32.495600551987465 ], [ -91.114986560308111, 32.4955968506315 ], [ -91.115147947886484, 32.495608491599796 ], [ -91.115309873164676, 32.495622382514945 ], [ -91.11547195305333, 32.495627944516094 ], [ -91.115633796890506, 32.495647414702361 ], [ -91.115795536309022, 32.495658503479682 ], [ -91.115958278355492, 32.495654384862817 ], [ -91.116120583385822, 32.495637158983079 ], [ -91.116283593941432, 32.495626579878305 ], [ -91.116444912669621, 32.495607902475534 ], [ -91.116607473233401, 32.495642649956586 ], [ -91.116769331097288, 32.495648733785636 ], [ -91.116931888703419, 32.495645687249457 ], [ -91.117094175449495, 32.495633985305687 ], [ -91.117256062995537, 32.495628524007287 ], [ -91.117417969098454, 32.495636365130821 ], [ -91.117579614486274, 32.495659160634609 ], [ -91.117741733942708, 32.495665461610578 ], [ -91.117904187666824, 32.495661727325519 ], [ -91.118065405519843, 32.495668720645668 ], [ -91.118228465601263, 32.495682490707765 ], [ -91.11839001211186, 32.495678927377597 ], [ -91.118551520750458, 32.495682151614027 ], [ -91.118714375278614, 32.495672257475391 ], [ -91.118877111267793, 32.495671132567416 ], [ -91.119038513038731, 32.495673202594723 ], [ -91.119200390038472, 32.495688931090115 ], [ -91.119362877762129, 32.495692781204482 ], [ -91.119506287373412, 32.495692022383047 ], [ -91.119645133513373, 32.495696184856243 ], [ -91.119788893399075, 32.495709633435304 ], [ -91.119951717024321, 32.495688743648728 ], [ -91.120112312311392, 32.495698761832095 ], [ -91.120274961939074, 32.495706292537456 ], [ -91.120436526233107, 32.495719684939012 ], [ -91.120599183095692, 32.495728039386577 ], [ -91.120761844209468, 32.495729551053692 ], [ -91.120915232495108, 32.495731229660628 ], [ -91.121068881250878, 32.495733126479038 ] ] } },
{ "type": "Feature", "properties": { "station_id": 16, "station_ft": -8126.6, "width_ft": 2250.7, "flag": "ok", "lon": -91.118689, "lat": 32.49268, "survey_id": "LM_07_FMB_20250622_CS_4602_4570", "date": "2025-06-22 00:00:00+00:00", "method": "lines" }, "geometry": { "type": "LineString", "coordinates": [ [ -91.110450723078287, 32.493181906044249 ], [ -91.110603117244551, 32.493193086310406 ], [ -91.110763017797581, 32.493156971414585 ], [ -91.110923341448043, 32.493128495214123 ], [ -91.111084062236884, 32.493112302831967 ], [ -91.11124690550497, 32.493109069839626 ], [ -91.111407654199922, 32.493092298844417 ], [ -91.111568790945569, 32.4930754981917 ], [ -91.111731283801376, 32.493080513332437 ], [ -91.111894211240454, 32.493075821738763 ], [ -91.112053590930103, 32.4930433100592 ], [ -91.112213926788186, 32.493012495684475 ], [ -91.112375285819724, 32.493002756108652 ], [ -91.112536768169576, 32.492995847087776 ], [ -91.112700095225733, 32.49300371348896 ], [ -91.1128651943405, 32.493025201501965 ], [ -91.113028361966997, 32.493037026286522 ], [ -91.113191976427672, 32.493036754592723 ], [ -91.113352508296245, 32.493017481881466 ], [ -91.113511835220919, 32.492986452081553 ], [ -91.11367178128117, 32.492944451944062 ], [ -91.113830954078026, 32.492918150622657 ], [ -91.113992001244796, 32.492902281651403 ], [ -91.114154460716733, 32.492899762376261 ], [ -91.114317249095507, 32.492901445754562 ], [ -91.114480669785692, 32.492905131411952 ], [ -91.114642768962, 32.492898352929515 ], [ -91.114802628672422, 32.492868967510518 ], [ -91.114964471836615, 32.492862740277467 ], [ -91.115127295327767, 32.492860986686772 ], [ -91.115289686965625, 32.492854453538925 ], [ -91.115452049240233, 32.492859408778472 ], [ -91.115617789039092, 32.492898699843181 ], [ -91.11577997967791, 32.492891315149166 ], [ -91.115939865703226, 32.492853709490632 ], [ -91.11609871737511, 32.492809101590474 ], [ -91.11625916911882, 32.492777017088557 ], [ -91.116418407489292, 32.49274711136983 ], [ -91.116579054531854, 32.492737590870554 ], [ -91.116742779939273, 32.492742701885255 ], [ -91.116906698770805, 32.492755149097306 ], [ -91.117071054859991, 32.492776911250218 ], [ -91.117233333355301, 32.492768534006842 ], [ -91.117394488415002, 32.492739082227487 ], [ -91.117551859819841, 32.492703387496938 ], [ -91.117713803892499, 32.492678932451518 ], [ -91.117874565247149, 32.492663858358391 ], [ -91.11803541935295, 32.492651998253343 ], [ -91.11819939817002, 32.492656527765476 ], [ -91.11836190830779, 32.492667387557191 ], [ -91.118526490450563, 32.492677795053552 ], [ -91.11868869451844, 32.492679504379161 ], [ -91.118851021238967, 32.492661779821837 ], [ -91.119009996573951, 32.49263528022172 ], [ -91.119171422038463, 32.492618303026781 ], [ -91.119332941740993, 32.492608499431597 ], [ -91.119495341223583, 32.492610425625152 ], [ -91.119656936620061, 32.492590616125334 ], [ -91.119816342339462, 32.492561529280565 ], [ -91.119976967870031, 32.492542164589061 ], [ -91.120139851723948, 32.492536309252692 ], [ -91.120301381097875, 32.492531313436508 ], [ -91.120463214947165, 32.49252035217674 ], [ -91.120624693112518, 32.492505818361941 ], [ -91.12078708773744, 32.492499635205526 ], [ -91.120949436005603, 32.492495705625373 ], [ -91.12111701381184, 32.492485174686699 ], [ -91.121272706548268, 32.492487827712871 ], [ -91.121432272784318, 32.492454780002028 ] ] } }
]
}
