{
"type": "FeatureCollection",
"name": "LM_14_VBO_20240517_CS_5938_5904_transects",
"crs": { "type": "name", "properties": { "name": "urn:ogc:def:crs:OGC:1.3:CRS84" } },
"features": [
{ "type": "Feature", "properties": { "station_id": 0, "station_ft": -9231.7, "width_ft": 1278.4, "flag": "ok", "lon": -91.069747, "lat": 33.875178, "survey_id": "LM_14_VBO_20240517_CS_5938_5904", "date": "2024-05-17 00:00:00+00:00", "method": "lines" }, "geometry": { "type": "LineString", "coordinates": [ [ -91.055983777350022, 33.871033039364086 ], [ -91.056126136473168, 33.871057788300689 ], [ -91.05628072942541, 33.871083812248266 ], [ -91.056440666656201, 33.871134260572312 ], [ -91.056593767330753, 33.87119041065548 ], [ -91.056738790090535, 33.871249630019328 ], [ -91.056888892485944, 33.87131340926841 ], [ -91.057036250389217, 33.871376104536601 ], [ -91.057191364010848, 33.871424657158919 ], [ -91.057353019672107, 33.871459981214421 ], [ -91.057513892187259, 33.871480497802978 ], [ -91.057674367109854, 33.871516377427916 ], [ -91.057833032574138, 33.871556444443321 ], [ -91.057974844317101, 33.871617551066741 ], [ -91.058140237555634, 33.871658430105029 ], [ -91.058290739544688, 33.8717070084558 ], [ -91.058439833915315, 33.87177213776701 ], [ -91.058591207581642, 33.871830191502923 ], [ -91.058741191531936, 33.871879816362039 ], [ -91.058899545482902, 33.871933513724876 ], [ -91.059051956740419, 33.871974000949635 ], [ -91.059208701464868, 33.872008774470764 ], [ -91.059371904043473, 33.872043646783837 ], [ -91.059527336676013, 33.872086945636831 ], [ -91.059675940287889, 33.872132868434363 ], [ -91.059835856136544, 33.872187984362732 ], [ -91.059988602569192, 33.87224075230074 ], [ -91.060142110547645, 33.872286177699252 ], [ -91.060296610906377, 33.872335938999449 ], [ -91.060454208268183, 33.872385599788551 ], [ -91.060610432507104, 33.872424990610384 ], [ -91.060772864569003, 33.872458189589189 ], [ -91.060930727730934, 33.872492624329951 ], [ -91.061087026371581, 33.872536658077578 ], [ -91.061246728950493, 33.872574351533032 ], [ -91.061399763717546, 33.87262983603231 ], [ -91.061548969472454, 33.872684326899638 ], [ -91.061701098075346, 33.87273399044826 ], [ -91.061853564694928, 33.872788433721503 ], [ -91.062003883103571, 33.872838080547027 ], [ -91.062159139629884, 33.872887423005025 ], [ -91.062309779418527, 33.872943937494831 ], [ -91.062469141383076, 33.872980064445187 ], [ -91.062630895132045, 33.873022387929488 ], [ -91.062779231932439, 33.873075315511805 ], [ -91.062932504440155, 33.873119777729549 ], [ -91.06309412392028, 33.873157951483073 ], [ -91.063250617805977, 33.873201542245248 ], [ -91.063400114059377, 33.873259051182096 ], [ -91.063551752544299, 33.873312728204155 ], [ -91.063707861769018, 33.873361348698943 ], [ -91.063866191878191, 33.873403828779963 ], [ -91.064024394381875, 33.873439053602141 ], [ -91.064179941207257, 33.873487320709891 ], [ -91.0643345086377, 33.87353669153773 ], [ -91.064488388284758, 33.873586506215275 ], [ -91.064643645977114, 33.873627931555752 ], [ -91.064795402776966, 33.873672125454824 ], [ -91.06495867966872, 33.873711276828217 ], [ -91.065114273310726, 33.873753386570925 ], [ -91.065261465401363, 33.873814588909362 ], [ -91.065420551016544, 33.873860552455852 ], [ -91.065576693729611, 33.873901338454445 ], [ -91.065728699724886, 33.873951437680965 ], [ -91.06588316352908, 33.8740039130629 ], [ -91.066042089698755, 33.874042648888263 ], [ -91.066192619597331, 33.874093361265217 ], [ -91.066352845567096, 33.874133902909165 ], [ -91.066507441119271, 33.874178571855829 ], [ -91.066658170945217, 33.874225682514229 ], [ -91.066818392450088, 33.874269438561527 ], [ -91.066973776813214, 33.874313773151705 ], [ -91.067125889374523, 33.874360737061721 ], [ -91.06727695163768, 33.874415923915109 ], [ -91.067414835834455, 33.874486467028618 ], [ -91.067569533570278, 33.874558202654974 ], [ -91.067723619617311, 33.874600894159698 ], [ -91.06789328916723, 33.874612990784961 ], [ -91.068065213777061, 33.874618945783993 ], [ -91.068221044763021, 33.874669212039841 ], [ -91.068376303717031, 33.874717914586448 ], [ -91.068531438716178, 33.874756174831838 ], [ -91.068690255498765, 33.874797106790759 ], [ -91.068843922228723, 33.874848511223384 ], [ -91.068998700066928, 33.874894852845557 ], [ -91.069144451672685, 33.874952899108891 ], [ -91.069292805035502, 33.875022141538061 ], [ -91.069447352593087, 33.875072440940855 ], [ -91.069598660135398, 33.875117483540528 ], [ -91.069747107380351, 33.875178452984962 ], [ -91.069894367093838, 33.875246987175956 ], [ -91.070048067123224, 33.875305863876513 ], [ -91.070207860767823, 33.875337637126229 ], [ -91.070383587089637, 33.875333508272746 ], [ -91.070544986058877, 33.875364282464133 ], [ -91.070699466595315, 33.875410403728793 ], [ -91.070857273061563, 33.8754601589402 ], [ -91.071014850579999, 33.87549848436192 ], [ -91.071162920186254, 33.8755499193825 ], [ -91.071309596059763, 33.875623127275837 ], [ -91.071456739064317, 33.875685531432914 ], [ -91.071609809362954, 33.875736083977358 ], [ -91.071766350344603, 33.875780213512407 ], [ -91.071922366636159, 33.875820883076969 ], [ -91.07207707301113, 33.87587007829049 ], [ -91.072228295186918, 33.875935370923322 ] ] } },
{ "type": "Feature", "properties": { "station_id": 1, "station_ft": -8168.1, "width_ft": 890.5, "flag": "ok", "lon": -91.067021, "lat": 33.878172, "survey_id": "LM_14_VBO_20240517_CS_5938_5904", "date": "2024-05-17 00:00:00+00:00", "method": "lines" }, "geometry": { "type": "LineString", "coordinates": [ [ -91.055328130321882, 33.873724163544651 ], [ -91.055475672162729, 33.873788700556602 ], [ -91.05563420420485, 33.873836026061518 ], [ -91.055801614047212, 33.873853786502487 ], [ -91.055944830076868, 33.873928873206204 ], [ -91.056090820156157, 33.873992842471111 ], [ -91.056240369833404, 33.874053107776703 ], [ -91.056376284251925, 33.874125625864558 ], [ -91.056524633547994, 33.874191916727554 ], [ -91.056679510259201, 33.874235387389653 ], [ -91.057288076698867, 33.87445530687161 ], [ -91.05743889036853, 33.874505066332823 ], [ -91.057588913904809, 33.874558897221362 ], [ -91.057745819215512, 33.874608345523711 ], [ -91.057879975565029, 33.874686808184073 ], [ -91.058654925042447, 33.874930722202251 ], [ -91.058806424907317, 33.874979760992474 ], [ -91.058951649098645, 33.875046259331505 ], [ -91.059094134765473, 33.875116098604693 ], [ -91.059239472324535, 33.87518814597874 ], [ -91.059385723304175, 33.875247410789335 ], [ -91.05953685245224, 33.875303100814158 ], [ -91.059684310887874, 33.875360929167087 ], [ -91.059831157440769, 33.875432114958578 ], [ -91.059976575196004, 33.875494103999223 ], [ -91.060129027765853, 33.875546433460052 ], [ -91.060279058952986, 33.875600755052211 ], [ -91.060433143711876, 33.875659038369548 ], [ -91.060587435713202, 33.875702864546156 ], [ -91.060736353951199, 33.87575397715684 ], [ -91.060879871149098, 33.875824825216405 ], [ -91.061025320078443, 33.875890192794898 ], [ -91.061173449218401, 33.875949251432971 ], [ -91.061331529937704, 33.875989180259168 ], [ -91.061500765240723, 33.876031240988524 ], [ -91.061644810597841, 33.876094280161965 ], [ -91.061770858945678, 33.876183339282434 ], [ -91.061916165383167, 33.876255191607576 ], [ -91.062062192337294, 33.876314756553811 ], [ -91.062220336262897, 33.876361992856339 ], [ -91.062371850167281, 33.876404268090091 ], [ -91.062535958888489, 33.876439954788601 ], [ -91.062695620112677, 33.876475667591087 ], [ -91.062845922907243, 33.87653053437392 ], [ -91.063002008434054, 33.876583470736058 ], [ -91.063153446240648, 33.87663995233742 ], [ -91.063297635725306, 33.876704169754603 ], [ -91.063439659782475, 33.876773264683408 ], [ -91.063589125996515, 33.876834236406573 ], [ -91.063736393682035, 33.876888460130765 ], [ -91.063884804265953, 33.87695298270728 ], [ -91.064034620071681, 33.877023953788758 ], [ -91.064179131819088, 33.877075611233401 ], [ -91.064333820194406, 33.877130670153058 ], [ -91.064479797779924, 33.877188005626486 ], [ -91.064637688392821, 33.877251454069921 ], [ -91.064779547980493, 33.877304967540873 ], [ -91.064927647312444, 33.877363746814666 ], [ -91.065077004095897, 33.877423178387907 ], [ -91.065224125135288, 33.877479242183576 ], [ -91.065371541587083, 33.877542916871946 ], [ -91.065521417609233, 33.877601437840049 ], [ -91.065672658914991, 33.877657669547425 ], [ -91.065834893246247, 33.877701002828402 ], [ -91.065989461663435, 33.877741770537497 ], [ -91.066142381910993, 33.877790132728634 ], [ -91.066303643952196, 33.877835367163506 ], [ -91.06644869721957, 33.877896058701587 ], [ -91.066590908737936, 33.877967209816489 ], [ -91.066728893939469, 33.878041242981084 ], [ -91.066874226534864, 33.878111386170339 ], [ -91.067020758047462, 33.878171546219399 ], [ -91.06717489428587, 33.878227071833216 ], [ -91.067320856307049, 33.878282151883781 ], [ -91.067473056139676, 33.87833845769061 ], [ -91.067623270811822, 33.878393786119069 ], [ -91.067784704111176, 33.878439484587602 ], [ -91.067939769103347, 33.878476509878247 ], [ -91.068101715258337, 33.878508987915311 ], [ -91.068259507233009, 33.878552646490434 ], [ -91.068405779915892, 33.878613053448042 ], [ -91.068545225677141, 33.878695760622513 ], [ -91.068689070617893, 33.878761155662581 ], [ -91.068833088791706, 33.878827566464658 ], [ -91.068979402884594, 33.878896602272441 ], [ -91.069124122940622, 33.878960232618411 ], [ -91.06927528743266, 33.879018549242709 ], [ -91.069425289537264, 33.879075662721917 ], [ -91.069573934865161, 33.879132098031626 ], [ -91.069730767792478, 33.879175128436749 ] ] } },
{ "type": "Feature", "properties": { "station_id": 2, "station_ft": -7054.7, "width_ft": 751.5, "flag": "ok", "lon": -91.064253, "lat": 33.880845, "survey_id": "LM_14_VBO_20240517_CS_5938_5904", "date": "2024-05-17 00:00:00+00:00", "method": "lines" }, "geometry": { "type": "LineString", "coordinates": [ [ -91.053821411602186, 33.87613884079137 ], [ -91.053971222596203, 33.876202542258532 ], [ -91.054100964268301, 33.876285184751424 ], [ -91.054242100126416, 33.876355394551247 ], [ -91.054383844619892, 33.87643137155743 ], [ -91.054531279160102, 33.876490387271083 ], [ -91.054685255629337, 33.87653606459245 ], [ -91.054844381812316, 33.876582920569604 ], [ -91.055002076845454, 33.876628080759104 ], [ -91.055146731624362, 33.876693459942288 ], [ -91.055281882433007, 33.87677656354613 ], [ -91.055419982465153, 33.876853797645083 ], [ -91.055565177054348, 33.87691683720616 ], [ -91.055714863541724, 33.876973145307744 ], [ -91.055855896995354, 33.877034889922676 ], [ -91.055999692603208, 33.877111540010965 ], [ -91.056131969915569, 33.877193642550047 ], [ -91.056272278245856, 33.877274682664421 ], [ -91.05640923014505, 33.877348486500352 ], [ -91.056562624596594, 33.877402902852673 ], [ -91.056719337363987, 33.877448451554947 ], [ -91.056866625048571, 33.877513236231955 ], [ -91.057009527812582, 33.877573676587502 ], [ -91.057162548408712, 33.877630705318403 ], [ -91.057313707962493, 33.877681726832741 ], [ -91.057455531781315, 33.877754869769326 ], [ -91.057591715620973, 33.877819305900594 ], [ -91.057739630574574, 33.877895874720913 ], [ -91.057885499074715, 33.877963936489586 ], [ -91.058020692299806, 33.878035907849707 ], [ -91.05817115029835, 33.878093555334686 ], [ -91.058317977709507, 33.8781582309703 ], [ -91.058459392137422, 33.878229423250687 ], [ -91.05860392137744, 33.878291089111642 ], [ -91.05875373730467, 33.878350552706237 ], [ -91.058909283253442, 33.87840195843448 ], [ -91.059053245437767, 33.878470497038435 ], [ -91.059194373525912, 33.87853888808101 ], [ -91.059339061958084, 33.878595743175303 ], [ -91.05947518137701, 33.878671774425761 ], [ -91.059627427731328, 33.878741995441054 ], [ -91.059766292032933, 33.878811387278716 ], [ -91.059908016707652, 33.878887797916313 ], [ -91.060044731003217, 33.87895228316593 ], [ -91.060197983842727, 33.879016671608191 ], [ -91.060341938234529, 33.879080097750766 ], [ -91.060485701879898, 33.879144458871309 ], [ -91.060639114245589, 33.879204255942334 ], [ -91.060794486120557, 33.879250247287281 ], [ -91.060963526745397, 33.879276536032975 ], [ -91.061096983030879, 33.879360578083713 ], [ -91.061226583741202, 33.879452364677277 ], [ -91.061356527805884, 33.879534146225076 ], [ -91.061495381231751, 33.879613649919762 ], [ -91.061634802724953, 33.879682377283018 ], [ -91.061799991663548, 33.879724269404655 ], [ -91.061961191876406, 33.879762062027012 ], [ -91.062113515821778, 33.879817549682613 ], [ -91.06225531822254, 33.879887279220512 ], [ -91.062388928330421, 33.87996601592571 ], [ -91.062527790315855, 33.880046204480486 ], [ -91.062664586245262, 33.880119837195672 ], [ -91.062807202073131, 33.880192062217766 ], [ -91.062953674465945, 33.880252804431123 ], [ -91.063101067599391, 33.88031730595484 ], [ -91.06324942263042, 33.880374656691743 ], [ -91.063392160772963, 33.880434102408174 ], [ -91.06354613053189, 33.880493095528777 ], [ -91.063680006805654, 33.880579605239468 ], [ -91.063821718565862, 33.880630537638929 ], [ -91.063971961707196, 33.880704474129956 ], [ -91.064113701356618, 33.880774228916401 ], [ -91.064252516661526, 33.880844797868079 ], [ -91.064395934504958, 33.880910256326274 ], [ -91.06454549012733, 33.880969247324025 ], [ -91.064701205115213, 33.881020122648913 ], [ -91.064852726098664, 33.881073770646111 ], [ -91.064988727972306, 33.881154248340103 ], [ -91.065129421641544, 33.881224750140881 ], [ -91.065269206439467, 33.881304490111461 ], [ -91.065413647573564, 33.881362384367016 ], [ -91.065572064754676, 33.881417144500695 ], [ -91.065718660583542, 33.881476426623344 ], [ -91.065876942621401, 33.881522915299811 ], [ -91.066030665117381, 33.881575696764571 ], [ -91.06617042070242, 33.88164034997488 ], [ -91.066306998468988, 33.881722444682069 ], [ -91.066442311871953, 33.881799241945828 ], [ -91.066583213344941, 33.881870648702737 ], [ -91.066730915405216, 33.88193978795239 ], [ -91.066866851113048, 33.882004463096521 ], [ -91.067015362460396, 33.882071866176894 ], [ -91.067156208351904, 33.882148162690399 ], [ -91.067287916375079, 33.882219320453721 ], [ -91.067437091496913, 33.882294852987336 ], [ -91.06758563802741, 33.882354643244227 ], [ -91.067735151191229, 33.882411789578427 ], [ -91.067882737823837, 33.882467243255533 ], [ -91.068029249184065, 33.882531662019744 ], [ -91.068167329270906, 33.882604153918749 ], [ -91.068305875142869, 33.882688707628397 ], [ -91.068460635035976, 33.882739143881594 ] ] } },
{ "type": "Feature", "properties": { "station_id": 3, "station_ft": -5880.5, "width_ft": 1709.4, "flag": "ok", "lon": -91.059568, "lat": 33.882555, "survey_id": "LM_14_VBO_20240517_CS_5938_5904", "date": "2024-05-17 00:00:00+00:00", "method": "lines" }, "geometry": { "type": "LineString", "coordinates": [ [ -91.052607721113418, 33.878626727462951 ], [ -91.052733677720937, 33.878717362391257 ], [ -91.052876354505585, 33.878790257692046 ], [ -91.053016629559494, 33.878855664913353 ], [ -91.053158997339509, 33.878927104754368 ], [ -91.053287278552617, 33.879011900501659 ], [ -91.053410782422461, 33.879104555039724 ], [ -91.053534329995429, 33.879198391149501 ], [ -91.053669769174917, 33.879284133672066 ], [ -91.053806686006794, 33.87935750061061 ], [ -91.053944661691148, 33.879435286092253 ], [ -91.054077835906426, 33.879510214487134 ], [ -91.054220188631291, 33.879587342054684 ], [ -91.054353076168965, 33.879663342885273 ], [ -91.054494812695182, 33.879729866802919 ], [ -91.054648424520209, 33.879794204162238 ], [ -91.05479269851412, 33.879856755902694 ], [ -91.054935807609823, 33.879925744267297 ], [ -91.055072919712444, 33.879998559578368 ], [ -91.055203687169183, 33.880084876800794 ], [ -91.055332326803637, 33.880168788347312 ], [ -91.055462887646399, 33.880253870451362 ], [ -91.055621151110216, 33.880310870319811 ], [ -91.055766364794692, 33.880371353512643 ], [ -91.055900585471591, 33.880448883803936 ], [ -91.05603117309974, 33.880541000061186 ], [ -91.05615861644965, 33.880627335745579 ], [ -91.056286667569182, 33.880723286541844 ], [ -91.056406228669502, 33.880808789182353 ], [ -91.056534809166791, 33.88090105370874 ], [ -91.056677867155798, 33.880967456426283 ], [ -91.056832699763618, 33.881019858836872 ], [ -91.056988460088292, 33.88107662369174 ], [ -91.057134030691998, 33.88113622412552 ], [ -91.057273401504347, 33.881210837629808 ], [ -91.057415834344866, 33.881285130955675 ], [ -91.057558076041175, 33.881352252376345 ], [ -91.057697343165344, 33.881426151060666 ], [ -91.057836810191517, 33.881500268391747 ], [ -91.057969983305242, 33.881574285537937 ], [ -91.058112206111275, 33.88165478926873 ], [ -91.058245554730803, 33.881726112101312 ], [ -91.058380021511837, 33.881804874242434 ], [ -91.058514248755372, 33.881886469462962 ], [ -91.058643455809687, 33.881974523152877 ], [ -91.058768284784847, 33.882062905405746 ], [ -91.058893033099437, 33.882153348983977 ], [ -91.059025602888013, 33.882237590475746 ], [ -91.059163568103898, 33.882313034113309 ], [ -91.059305028306397, 33.882388731979837 ], [ -91.059444483320618, 33.882468866383327 ], [ -91.059567681256851, 33.882555168491294 ], [ -91.059704601545477, 33.882627732659749 ], [ -91.059847350554378, 33.882699904384829 ], [ -91.059996088191554, 33.882763385592312 ], [ -91.060139612628404, 33.882829809426219 ], [ -91.060274636751416, 33.882904032198255 ], [ -91.060415729071167, 33.882982643897641 ], [ -91.060554768328558, 33.883056348606679 ], [ -91.060694107122529, 33.883122522412194 ], [ -91.060834941346727, 33.883194072280773 ], [ -91.060977215201078, 33.883264294493564 ], [ -91.061111579975432, 33.883342176075651 ], [ -91.06124047143868, 33.883431190820779 ], [ -91.061371624898058, 33.883515026091317 ], [ -91.061512011064139, 33.883587897712111 ], [ -91.061655250119571, 33.883655420448036 ], [ -91.061800208619886, 33.883719690819582 ], [ -91.061937324406486, 33.883795356301974 ], [ -91.062053558653801, 33.883899064810485 ], [ -91.065059952409129, 33.885514480033031 ], [ -91.0651994734759, 33.885574161720733 ], [ -91.065344345328981, 33.885639115366608 ], [ -91.065492355160814, 33.885708831192588 ], [ -91.065615009968127, 33.885795845298723 ], [ -91.06573986342292, 33.88589331518309 ], [ -91.065876266281521, 33.88597354236105 ], [ -91.066012396312388, 33.886044840105086 ], [ -91.066154660225536, 33.886120690179574 ], [ -91.066292094763114, 33.88619038498237 ], [ -91.066438537685727, 33.886253898995101 ], [ -91.066583079220734, 33.886326245057631 ], [ -91.066716887043597, 33.886399533863838 ], [ -91.066855570150707, 33.88647644844167 ], [ -91.066989224381629, 33.886554849733692 ], [ -91.067131953031065, 33.88662316602462 ] ] } },
{ "type": "Feature", "properties": { "station_id": 4, "station_ft": -4783.0, "width_ft": 2120.0, "flag": "ok", "lon": -91.057903, "lat": 33.885482, "survey_id": "LM_14_VBO_20240517_CS_5938_5904", "date": "2024-05-17 00:00:00+00:00", "method": "lines" }, "geometry": { "type": "LineString", "coordinates": [ [ -91.050313790050197, 33.880871402291625 ], [ -91.050468859870278, 33.880920979528163 ], [ -91.050599925593644, 33.881007794871834 ], [ -91.050725989484221, 33.881087440182675 ], [ -91.050862628395464, 33.881170814871012 ], [ -91.050993952189458, 33.881256858345623 ], [ -91.051120781524858, 33.881345209724024 ], [ -91.05124784608482, 33.881430123727391 ], [ -91.051386873095836, 33.881511340884359 ], [ -91.051517669714315, 33.881581558955702 ], [ -91.051669039713389, 33.881645638993177 ], [ -91.05181612998534, 33.881713920755452 ], [ -91.051959701885295, 33.881782964848554 ], [ -91.052105628368764, 33.881853946027121 ], [ -91.052226402613712, 33.881942880619299 ], [ -91.052348542747282, 33.88204139708327 ], [ -91.052468799629821, 33.882135473379677 ], [ -91.052596036373956, 33.882224891890026 ], [ -91.052731105205282, 33.882305195681859 ], [ -91.052868851635168, 33.8823787796386 ], [ -91.052998056581941, 33.882463185242173 ], [ -91.053124397966002, 33.882547936506867 ], [ -91.053255898084871, 33.882630899443839 ], [ -91.053391629183409, 33.882715513524602 ], [ -91.053528027886458, 33.882793225666383 ], [ -91.053664045204044, 33.882864757843542 ], [ -91.053802062749412, 33.882942873130204 ], [ -91.053937248078256, 33.883017349873157 ], [ -91.054080896472883, 33.883091172010595 ], [ -91.054198043859159, 33.883183230834256 ], [ -91.054328536701433, 33.883275486431728 ], [ -91.054449390723335, 33.883361698301407 ], [ -91.054582700554846, 33.883451958199117 ], [ -91.054719084159728, 33.883527609006563 ], [ -91.054857583634657, 33.883600196370516 ], [ -91.054986263638568, 33.883684327941445 ], [ -91.055132454480116, 33.883754698972794 ], [ -91.055260479785986, 33.883839329046616 ], [ -91.055384192696835, 33.883932227273881 ], [ -91.055518026450088, 33.884010035145181 ], [ -91.055648631086143, 33.884087916793746 ], [ -91.055786785105838, 33.884174079998822 ], [ -91.05592736220828, 33.884238740010545 ], [ -91.056062084865943, 33.884324291927989 ], [ -91.056199134068507, 33.884400486216549 ], [ -91.056329734602869, 33.884481582137553 ], [ -91.056462613261871, 33.884567061484148 ], [ -91.056599468405537, 33.884643613477991 ], [ -91.05673076125818, 33.884724677854443 ], [ -91.056860346913993, 33.884810286087529 ], [ -91.056991688566796, 33.884889260965579 ], [ -91.057134653382278, 33.884959538536783 ], [ -91.057258320793821, 33.885050457071102 ], [ -91.057379953597774, 33.885150153357863 ], [ -91.057491884856731, 33.885240398627836 ], [ -91.057615758993762, 33.88533227754921 ], [ -91.057763699526376, 33.885410192943645 ], [ -91.057902989418352, 33.885482140176713 ], [ -91.058036912148523, 33.88556211570522 ], [ -91.058150925148624, 33.885660619080177 ], [ -91.058294529098518, 33.885736030444541 ], [ -91.058430580350674, 33.885810552064264 ], [ -91.058562077287334, 33.885895900191564 ], [ -91.058696757388972, 33.88597567759539 ], [ -91.058835940371353, 33.886046415384868 ], [ -91.058973430280844, 33.886119526890489 ], [ -91.059113151465894, 33.886195427162171 ], [ -91.059246151657902, 33.886271257780834 ], [ -91.059379221062414, 33.886355357904975 ], [ -91.059508967671391, 33.886443793259595 ], [ -91.059630535915872, 33.886539282748465 ], [ -91.059761495453188, 33.886623066717647 ], [ -91.059899356634332, 33.88669705310636 ], [ -91.060029670521558, 33.886778449640893 ], [ -91.060163170407449, 33.886850922479979 ], [ -91.06031092737814, 33.886926114919738 ], [ -91.060438965731237, 33.88701494341958 ], [ -91.060566553753318, 33.887101246452367 ], [ -91.060717345439272, 33.887161223700943 ], [ -91.060864028791443, 33.887222269935883 ], [ -91.061009330284577, 33.887291403080624 ], [ -91.061129545663178, 33.887386240002343 ], [ -91.06136190522362, 33.887591569972052 ], [ -91.061484763254754, 33.887683202987489 ], [ -91.061603645510502, 33.887776234264145 ], [ -91.061741820972102, 33.887855630592611 ], [ -91.061887520535734, 33.88792102334132 ], [ -91.062022530221654, 33.88799623317022 ], [ -91.062160166987866, 33.888074231175302 ], [ -91.062307280659482, 33.888139175091524 ], [ -91.062436606855272, 33.888227966803129 ], [ -91.062561142884036, 33.888315191858979 ], [ -91.0626926853123, 33.888401139264531 ], [ -91.062815284974661, 33.888493103326169 ], [ -91.062951421708078, 33.888565008422148 ], [ -91.063095531044738, 33.888640686073451 ], [ -91.063228260433277, 33.888718766924505 ], [ -91.063358885102275, 33.888805076060329 ], [ -91.063488250784573, 33.88888658356931 ], [ -91.063614424072981, 33.888976299675676 ], [ -91.063743924241336, 33.889058053141873 ], [ -91.063872267371366, 33.889151026089351 ], [ -91.064019312598333, 33.889215308387499 ], [ -91.064185706718334, 33.889257162008334 ], [ -91.064319525055666, 33.889335180206658 ], [ -91.06443642942348, 33.889438909370483 ], [ -91.064549184381988, 33.889539146042729 ], [ -91.064662695677484, 33.889642978065886 ], [ -91.064810619033722, 33.889709535149706 ], [ -91.064955823642023, 33.889777977141271 ] ] } },
{ "type": "Feature", "properties": { "station_id": 5, "station_ft": -3656.7, "width_ft": 1711.0, "flag": "ok", "lon": -91.052487, "lat": 33.885859, "survey_id": "LM_14_VBO_20240517_CS_5938_5904", "date": "2024-05-17 00:00:00+00:00", "method": "lines" }, "geometry": { "type": "LineString", "coordinates": [ [ -91.04818927816585, 33.883074986051327 ], [ -91.048330430400767, 33.88315039543096 ], [ -91.048466399469049, 33.883232265603731 ], [ -91.048601601826974, 33.883309276122084 ], [ -91.048736311984086, 33.883386344342682 ], [ -91.048868236355091, 33.883473211490198 ], [ -91.048992061881492, 33.883560675488432 ], [ -91.049107018168669, 33.883659264823883 ], [ -91.049228617207106, 33.883752401546765 ], [ -91.049358500819437, 33.883835405080625 ], [ -91.049500085152999, 33.88391089442937 ], [ -91.049640884892298, 33.883983144337613 ], [ -91.049769355786054, 33.884070470539775 ], [ -91.049893643099821, 33.884157875028556 ], [ -91.050026784518494, 33.884244183874593 ], [ -91.050162297877819, 33.884318470811479 ], [ -91.050293434968538, 33.884401466047144 ], [ -91.050416101273143, 33.884503664215963 ], [ -91.050536184633572, 33.884592467395962 ], [ -91.0506576886348, 33.884681783290574 ], [ -91.050785895027587, 33.884768642936521 ], [ -91.050914208772312, 33.884852670902717 ], [ -91.051052338435881, 33.884936338628947 ], [ -91.051173913684622, 33.885022164525886 ], [ -91.051307558756108, 33.885105309033136 ], [ -91.051440652110671, 33.885185406609594 ], [ -91.05158459964008, 33.885259394864718 ], [ -91.051715557781563, 33.885344176501206 ], [ -91.051848922846204, 33.885425261061954 ], [ -91.051978407128786, 33.885507220090318 ], [ -91.052100877019825, 33.88559729883228 ], [ -91.05221674904864, 33.885698242851355 ], [ -91.05234190608509, 33.885786684653304 ], [ -91.052486862831188, 33.88585898993373 ], [ -91.052621260447125, 33.885937209649882 ], [ -91.052756203023463, 33.88601361298555 ], [ -91.052888317833975, 33.886098632722359 ], [ -91.053016223711168, 33.886184584775869 ], [ -91.053139816572141, 33.886270918910512 ], [ -91.053273143329292, 33.886354832136519 ], [ -91.053404839893162, 33.886440898666002 ], [ -91.053512835989736, 33.886545295380351 ], [ -91.053639215844157, 33.886633838677383 ], [ -91.053771514131896, 33.886716933333005 ], [ -91.053908378263202, 33.886790438233149 ], [ -91.054047977473004, 33.886863926980027 ], [ -91.05417895226833, 33.886950106876704 ], [ -91.05430917765969, 33.887037252986865 ], [ -91.054432770977783, 33.887127322781431 ], [ -91.054548155019702, 33.887224557461714 ], [ -91.054671939618331, 33.887317511801825 ], [ -91.054791851140877, 33.887408536803655 ], [ -91.054922088726741, 33.887496974122101 ], [ -91.055053226381219, 33.887578782225184 ], [ -91.055187151521707, 33.887659090779295 ], [ -91.055322854810612, 33.887739223778766 ], [ -91.055457656356722, 33.88781776794319 ], [ -91.055594302990471, 33.887896383183758 ], [ -91.055729236056337, 33.887974953321411 ], [ -91.055862237579476, 33.888051089590192 ], [ -91.05600343959992, 33.888130502586804 ], [ -91.056132801558533, 33.888208665888662 ], [ -91.05626229391882, 33.888298286281135 ], [ -91.056383787954587, 33.888396748242918 ], [ -91.056498508400608, 33.888493023874169 ], [ -91.056622743512179, 33.888584323697962 ], [ -91.056756609326101, 33.888661085904623 ], [ -91.056909278700587, 33.888724876706007 ], [ -91.057027687283565, 33.888816760285408 ], [ -91.058566415592779, 33.889830894155736 ], [ -91.058717696000897, 33.889893536852 ], [ -91.05883176504959, 33.889994046034907 ], [ -91.058974809971417, 33.890068634857187 ], [ -91.059106094350412, 33.890147443594778 ], [ -91.05924010284204, 33.890240497092613 ], [ -91.059354958560334, 33.890328717321744 ], [ -91.059474463153649, 33.89042880889388 ], [ -91.059590584337911, 33.890526227316826 ], [ -91.059738390379792, 33.890594907163702 ], [ -91.059878786481093, 33.890663905505392 ], [ -91.060015745000953, 33.890743227943616 ], [ -91.060148390782274, 33.890822988585583 ], [ -91.06026940960156, 33.890915074456835 ], [ -91.060401574512326, 33.891000278600373 ], [ -91.060533248939407, 33.891082050532802 ], [ -91.060650297962127, 33.891179764479112 ], [ -91.060771223644039, 33.891272344451757 ], [ -91.060903633536469, 33.891355210643859 ], [ -91.061034644900005, 33.891440255918631 ], [ -91.061160183525871, 33.891528796291084 ], [ -91.061293488885127, 33.891616191634569 ], [ -91.061427336744984, 33.891693607813522 ], [ -91.061568991547261, 33.891763035817078 ], [ -91.061706091065318, 33.89183922346961 ], [ -91.06184008918737, 33.891922657147838 ], [ -91.061959835508162, 33.892015736956729 ], [ -91.062078329181858, 33.892108824957042 ], [ -91.062208221739638, 33.892193738536591 ], [ -91.062330882742444, 33.892284574769072 ], [ -91.062464955045584, 33.892365011414974 ] ] } },
{ "type": "Feature", "properties": { "station_id": 6, "station_ft": -2540.4, "width_ft": 1793.5, "flag": "ok", "lon": -91.048957, "lat": 33.887164, "survey_id": "LM_14_VBO_20240517_CS_5938_5904", "date": "2024-05-17 00:00:00+00:00", "method": "lines" }, "geometry": { "type": "LineString", "coordinates": [ [ -91.046386310885751, 33.885441551261493 ], [ -91.046520766112124, 33.885519640311088 ], [ -91.046654601886175, 33.885598474786676 ], [ -91.046784750149968, 33.885685436450359 ], [ -91.046910533646866, 33.885774484232627 ], [ -91.047034312720413, 33.885864121397937 ], [ -91.047167015800838, 33.885945324871898 ], [ -91.04729610215584, 33.886035232143215 ], [ -91.047411089347733, 33.886133465813074 ], [ -91.047527525757147, 33.886227596057601 ], [ -91.047669228901626, 33.886305119808256 ], [ -91.047801915163546, 33.886384151709322 ], [ -91.047927330142684, 33.886472184500391 ], [ -91.048069422526524, 33.886545088604052 ], [ -91.048205981482425, 33.886622146607117 ], [ -91.048332991739898, 33.886711735741073 ], [ -91.048458969968095, 33.886800038786546 ], [ -91.048582736139792, 33.886887887530079 ], [ -91.048705226177091, 33.88697667847962 ], [ -91.048835130657409, 33.887069547306375 ], [ -91.048956750089232, 33.887164443952955 ], [ -91.049070178970965, 33.887261036118716 ], [ -91.049191623440706, 33.887358735610327 ], [ -91.04931152343228, 33.887452816052154 ], [ -91.049424590806623, 33.887549519973319 ], [ -91.049560797744206, 33.88763133244538 ], [ -91.049693159678128, 33.887706545117581 ], [ -91.049838600464867, 33.88778140570831 ], [ -91.049973506634487, 33.88786141223094 ], [ -91.050109533959372, 33.887941274141021 ], [ -91.050241206888884, 33.888024596200786 ], [ -91.05035309826529, 33.888122267159943 ], [ -91.050474128840889, 33.888221341749613 ], [ -91.050592264339016, 33.888313014085675 ], [ -91.050715458136153, 33.888402732911935 ], [ -91.0508437527251, 33.888491569927524 ], [ -91.050976957926665, 33.888572821279816 ], [ -91.051115730243353, 33.888649753107515 ], [ -91.051259404090544, 33.888717890292028 ], [ -91.05139529673184, 33.888801241498619 ], [ -91.051514156241467, 33.888896535708298 ], [ -91.051642836234549, 33.888980092763333 ], [ -91.051768975881188, 33.889071112327549 ], [ -91.051879240114417, 33.889174838150325 ], [ -91.051992105301835, 33.889270275934066 ], [ -91.052117137269178, 33.889366660498389 ], [ -91.052238320212339, 33.889455867489218 ], [ -91.052350002611931, 33.889555708771631 ], [ -91.052468773929888, 33.889651964518663 ], [ -91.052595851902339, 33.889740696775597 ], [ -91.052728555928937, 33.889824532102551 ], [ -91.052857003706066, 33.889907678100506 ], [ -91.052988301999292, 33.889996687320803 ], [ -91.053117317207509, 33.890076668838837 ], [ -91.053254438257142, 33.89016061572179 ], [ -91.053380540937994, 33.890246824860569 ], [ -91.05350288040627, 33.890336215850773 ], [ -91.053632995789897, 33.890421439299331 ], [ -91.053760719650384, 33.890508407596954 ], [ -91.053877504674617, 33.890607229502308 ], [ -91.053990034321956, 33.890705470332705 ], [ -91.054113525057375, 33.890790457934763 ], [ -91.054256989165069, 33.890864308707123 ], [ -91.054389516275393, 33.890946247249303 ], [ -91.054505101467925, 33.891043260714781 ], [ -91.057764428209808, 33.893326776805694 ], [ -91.057891455663977, 33.893419873649037 ], [ -91.058021750907471, 33.893498193427007 ], [ -91.058143109550826, 33.893591158363435 ], [ -91.058280873459722, 33.893668060838692 ], [ -91.058423627081638, 33.893738722912765 ], [ -91.05854554904127, 33.893831986152186 ], [ -91.058661107573855, 33.89393658062928 ], [ -91.058789522376159, 33.894022083494932 ], [ -91.058922787247909, 33.894096729871151 ], [ -91.059065319989145, 33.894168354457769 ], [ -91.059209406396576, 33.894240601719318 ] ] } },
{ "type": "Feature", "properties": { "station_id": 7, "station_ft": -1487.9, "width_ft": 2401.8, "flag": "ok", "lon": -91.048928, "lat": 33.891081, "survey_id": "LM_14_VBO_20240517_CS_5938_5904", "date": "2024-05-17 00:00:00+00:00", "method": "lines" }, "geometry": { "type": "LineString", "coordinates": [ [ -91.044052008698742, 33.887579666201084 ], [ -91.044191495980826, 33.887656409739016 ], [ -91.044308324372679, 33.887754305693186 ], [ -91.044432015336582, 33.887849193969878 ], [ -91.044561879652818, 33.887933576593703 ], [ -91.044694048807784, 33.888013769715485 ], [ -91.044807377409455, 33.88811473538837 ], [ -91.044921266107821, 33.888215422740942 ], [ -91.045041118743796, 33.888312284448467 ], [ -91.045164275371818, 33.888402256111426 ], [ -91.045291317333238, 33.888487781211531 ], [ -91.045420052411558, 33.888578764390893 ], [ -91.045542171153542, 33.888666680685027 ], [ -91.04568292017774, 33.888748142116341 ], [ -91.045807401457793, 33.88883085055982 ], [ -91.045925230552612, 33.888925689152991 ], [ -91.046042665694571, 33.889020831933685 ], [ -91.046169200977985, 33.88911267901598 ], [ -91.046291798546918, 33.889202350733527 ], [ -91.046420515011789, 33.889290969945122 ], [ -91.046544738008265, 33.889381950988096 ], [ -91.046664131943331, 33.889474718816771 ], [ -91.046781068291494, 33.889572996703393 ], [ -91.046903134028256, 33.889666022898304 ], [ -91.047034672187081, 33.889749047121782 ], [ -91.047168440395367, 33.889826699374062 ], [ -91.047563999892191, 33.890089916245344 ], [ -91.047682435001335, 33.890174142678426 ], [ -91.047801435548337, 33.890266773717784 ], [ -91.047928495210442, 33.890357791876212 ], [ -91.048070346654043, 33.890428636305955 ], [ -91.048207730178987, 33.89051294433046 ], [ -91.048324032788784, 33.890609904498469 ], [ -91.048433938975421, 33.890714377461606 ], [ -91.048543490274469, 33.89081178861683 ], [ -91.048665821162672, 33.890904537405291 ], [ -91.048794888182101, 33.890991036066431 ], [ -91.048927608350539, 33.891080893340131 ], [ -91.049044545186959, 33.891174772081001 ], [ -91.049165630645049, 33.891260272697728 ], [ -91.049296256100433, 33.891355775617818 ], [ -91.049408136815288, 33.891447759445533 ], [ -91.049531764785002, 33.891545693730919 ], [ -91.049663461575918, 33.89162725723191 ], [ -91.049801532165304, 33.891702683532081 ], [ -91.049922789422851, 33.891796783320906 ], [ -91.050032435484127, 33.891897270505986 ], [ -91.050146462935032, 33.891997568013359 ], [ -91.050266560387684, 33.892094697149986 ], [ -91.050392068367387, 33.892180775745345 ], [ -91.050520470638489, 33.892266204462601 ], [ -91.050664489528671, 33.892339369183745 ], [ -91.050796919110311, 33.892417795142066 ], [ -91.05092076872188, 33.892510339854311 ], [ -91.051036942716635, 33.892610871040525 ], [ -91.051156576745001, 33.892707562022451 ], [ -91.051287366081453, 33.892790613011705 ], [ -91.051400680252655, 33.892892040437765 ], [ -91.051533407763173, 33.892974227884075 ], [ -91.051674346722109, 33.893057219285254 ], [ -91.051792611710184, 33.893143778615382 ], [ -91.0519162754821, 33.893229508454795 ], [ -91.056637881726957, 33.896591751464314 ], [ -91.056782027050119, 33.896666886182011 ], [ -91.056929305733718, 33.896734335422927 ], [ -91.057052878402018, 33.896823798401883 ], [ -91.05715048669208, 33.896940920528749 ], [ -91.057261119752553, 33.89704331922713 ], [ -91.057412051229633, 33.897110087370827 ], [ -91.057585132966878, 33.897150317396488 ], [ -91.057682795442972, 33.897265789808458 ], [ -91.057794732778135, 33.897366449342897 ], [ -91.057902631156722, 33.897472601414542 ], [ -91.058017605773841, 33.897573874871405 ], [ -91.058143797707899, 33.897664804391489 ], [ -91.058282150364718, 33.897740356367585 ], [ -91.058412324101894, 33.897822909185535 ], [ -91.058543254214158, 33.897909084401569 ], [ -91.058657401386469, 33.898013604138882 ], [ -91.058775178403423, 33.898107029385287 ], [ -91.058919178776975, 33.898176144467421 ], [ -91.059055763362764, 33.898256706945247 ], [ -91.059169792134426, 33.898354907831575 ], [ -91.059283525419261, 33.898457121406985 ], [ -91.059406387753555, 33.898547657208063 ], [ -91.059525219184366, 33.898644757489286 ], [ -91.059662786517535, 33.898720697479568 ] ] } },
{ "type": "Feature", "properties": { "station_id": 8, "station_ft": -368.4, "width_ft": 1899.7, "flag": "ok", "lon": -91.044592, "lat": 33.891704, "survey_id": "LM_14_VBO_20240517_CS_5938_5904", "date": "2024-05-17 00:00:00+00:00", "method": "lines" }, "geometry": { "type": "LineString", "coordinates": [ [ -91.042071870023449, 33.889936170997963 ], [ -91.04217674456666, 33.890042794535461 ], [ -91.042301086428722, 33.890136527160792 ], [ -91.042397934510959, 33.890252675756081 ], [ -91.042536641856756, 33.890330442569919 ], [ -91.042681495274238, 33.890398280052942 ], [ -91.042811925650071, 33.890483129125769 ], [ -91.042942457095478, 33.890568141560401 ], [ -91.043068855736422, 33.890655486571987 ], [ -91.043182713314948, 33.890756423591426 ], [ -91.043307890516061, 33.890843334523076 ], [ -91.043428465535257, 33.890935686654771 ], [ -91.043557419219439, 33.891025049457511 ], [ -91.043675866036068, 33.891114912665131 ], [ -91.043821473452923, 33.891189972289808 ], [ -91.043955869049185, 33.891267871428489 ], [ -91.044087201089098, 33.891353977915507 ], [ -91.04421910788497, 33.891433622125604 ], [ -91.044338057065332, 33.89152837367908 ], [ -91.044461632695985, 33.891620679509515 ], [ -91.044592184417326, 33.891703821093877 ], [ -91.044711433262023, 33.891798762580635 ], [ -91.044829406342572, 33.891898739348179 ], [ -91.044972711640639, 33.891970073891102 ], [ -91.045096564474974, 33.89205993151986 ], [ -91.045227876204223, 33.892143178917387 ], [ -91.04535410969045, 33.892225960561397 ], [ -91.045475432261952, 33.892324378363611 ], [ -91.045603955437457, 33.892409042502862 ], [ -91.04573844699982, 33.892490127037441 ], [ -91.045858979188623, 33.892576734005992 ], [ -91.045987263594654, 33.89266821405112 ], [ -91.046119806813536, 33.892752689399707 ], [ -91.046239106321323, 33.892849442124358 ], [ -91.04634621117853, 33.892953712236931 ], [ -91.046495552946212, 33.893021520079081 ], [ -91.046693821081206, 33.893036860042216 ], [ -91.046788379467657, 33.893153981196171 ], [ -91.046897381233904, 33.893260410801247 ], [ -91.047013684025529, 33.893361137985153 ], [ -91.047125532555427, 33.893453124041834 ], [ -91.04723942541014, 33.893557271983646 ], [ -91.04736852941403, 33.893647893826504 ], [ -91.047504636758276, 33.8937287470443 ], [ -91.04762927609741, 33.893813376540869 ], [ -91.047751054334597, 33.893906734324261 ], [ -91.047867484016024, 33.894006635010285 ], [ -91.047989769180944, 33.894097322781136 ], [ -91.048123647829243, 33.894175495253222 ], [ -91.048252913767087, 33.894261719175894 ], [ -91.048401425370656, 33.894328182545493 ], [ -91.048523731039111, 33.894425218476485 ] ] } },
{ "type": "Feature", "properties": { "station_id": 9, "station_ft": 681.2, "width_ft": 1886.2, "flag": "ok", "lon": -91.042676, "lat": 33.894128, "survey_id": "LM_14_VBO_20240517_CS_5938_5904", "date": "2024-05-17 00:00:00+00:00", "method": "lines" }, "geometry": { "type": "LineString", "coordinates": [ [ -91.039221777325068, 33.891790052348462 ], [ -91.039367111980283, 33.89186028191024 ], [ -91.039493214857885, 33.891943950283945 ], [ -91.039621886649456, 33.89203142283268 ], [ -91.039756806540609, 33.892109351502633 ], [ -91.039911205918671, 33.892171834471085 ], [ -91.040052498938692, 33.892243295390699 ], [ -91.040161315659518, 33.892352425979965 ], [ -91.040268950568546, 33.892454032470056 ], [ -91.040390398078245, 33.892552400505053 ], [ -91.040509573288205, 33.892646824487066 ], [ -91.040625224377123, 33.892741377671946 ], [ -91.040750751485419, 33.892830818055835 ], [ -91.040892633117934, 33.892909584507841 ], [ -91.041025812595009, 33.892987878774584 ], [ -91.041161022873254, 33.893068690119101 ], [ -91.041291053176053, 33.89315269016528 ], [ -91.041418277100732, 33.893239949132884 ], [ -91.041547527889605, 33.893325190330863 ], [ -91.041674386093135, 33.893411957072239 ], [ -91.041801361949297, 33.89349710108668 ], [ -91.041932488119372, 33.893581947020245 ], [ -91.042064116256398, 33.893667586006039 ], [ -91.042178731693667, 33.893764122589488 ], [ -91.042290034665996, 33.893870433064855 ], [ -91.042415882883077, 33.893958550873499 ], [ -91.042539123105485, 33.894045941575321 ], [ -91.042675897683495, 33.894128198244736 ], [ -91.042807678418114, 33.894208312548301 ], [ -91.042943952747635, 33.894285844887172 ], [ -91.043073952842079, 33.894369679098659 ], [ -91.043202590650395, 33.894456213094017 ], [ -91.043339281898682, 33.894536216480439 ], [ -91.043465112749843, 33.894621860299353 ], [ -91.043584359016236, 33.894716142881983 ], [ -91.043705605908755, 33.894809286853281 ], [ -91.043830995261047, 33.894901307803615 ], [ -91.043950002697315, 33.89499850435741 ], [ -91.044053045256533, 33.895105713719722 ], [ -91.044163174569107, 33.895217058152888 ], [ -91.044292107940763, 33.895303095218793 ], [ -91.044441156706725, 33.895366949328228 ], [ -91.044579588940749, 33.895441994370543 ], [ -91.044712810184279, 33.89552053225691 ], [ -91.044840913926663, 33.895605748595521 ], [ -91.044965448572512, 33.895701703221192 ], [ -91.045085688564683, 33.895792241584154 ], [ -91.045205628535754, 33.895886326514216 ], [ -91.045338004697214, 33.895970089556513 ], [ -91.045467150089834, 33.896057553120954 ], [ -91.045592153963312, 33.896142292521255 ], [ -91.045727326270608, 33.896225351075927 ], [ -91.045852425158657, 33.896313524619437 ], [ -91.045970500567464, 33.896409158541211 ], [ -91.046110386723157, 33.896488232429661 ], [ -91.046239261981043, 33.896566820822429 ], [ -91.04636118762555, 33.896661745086959 ], [ -91.046482867982974, 33.8967587307231 ] ] } },
{ "type": "Feature", "properties": { "station_id": 10, "station_ft": 1732.4, "width_ft": 2161.8, "flag": "ok", "lon": -91.041417, "lat": 33.896987, "survey_id": "LM_14_VBO_20240517_CS_5938_5904", "date": "2024-05-17 00:00:00+00:00", "method": "lines" }, "geometry": { "type": "LineString", "coordinates": [ [ -91.036815780738266, 33.893867656755376 ], [ -91.036954066242359, 33.893941996345653 ], [ -91.037081542336253, 33.894032308361631 ], [ -91.037211757877856, 33.894115075613776 ], [ -91.037355661241079, 33.894187267574274 ], [ -91.037471410294799, 33.894281933137954 ], [ -91.037574797176205, 33.894392003089273 ], [ -91.037703425959549, 33.894478103855107 ], [ -91.037834613648826, 33.8945586389097 ], [ -91.037968922801454, 33.894642068927617 ], [ -91.038112330635755, 33.894717972764852 ], [ -91.038252335163889, 33.894788729032292 ], [ -91.038373635394009, 33.894881026006175 ], [ -91.03850144726853, 33.894971719565802 ], [ -91.038619443561913, 33.895066839072008 ], [ -91.03874048442033, 33.895159577123913 ], [ -91.038857458914904, 33.895258686264974 ], [ -91.03897995638431, 33.895348118707695 ], [ -91.039100833705632, 33.895440857332488 ], [ -91.039220087325759, 33.895536601041471 ], [ -91.039357194585492, 33.895615368613853 ], [ -91.039499116080464, 33.895690427343268 ], [ -91.039623913744776, 33.895774927003856 ], [ -91.039744056727258, 33.895870362168203 ], [ -91.039865487027086, 33.895966119802154 ], [ -91.039988090122222, 33.896060111631563 ], [ -91.040106098416956, 33.896152371643659 ], [ -91.040243037301735, 33.89623056217372 ], [ -91.040383879131397, 33.896306368047313 ], [ -91.040513065377226, 33.896391335656588 ], [ -91.040638108712045, 33.896477453870183 ], [ -91.040755272105216, 33.896574994056444 ], [ -91.040888086068108, 33.896660187460505 ], [ -91.041015681493164, 33.896743927621259 ], [ -91.041136155918053, 33.89683136350618 ], [ -91.041275371812006, 33.896917564615563 ], [ -91.041416758368527, 33.896987347305654 ], [ -91.041535767637527, 33.897084738181249 ], [ -91.041648640812113, 33.897185297157968 ], [ -91.04178872304189, 33.897260555806504 ], [ -91.041918003898786, 33.897344724381647 ], [ -91.042024669941043, 33.89745169457489 ], [ -91.042160488377249, 33.897533297291702 ], [ -91.042275123641346, 33.8976276626057 ], [ -91.042422183463046, 33.897701698413073 ], [ -91.042549524281199, 33.897786180402981 ], [ -91.042670070732811, 33.897877900377033 ], [ -91.04278832952339, 33.897979911245322 ], [ -91.042926915286188, 33.898053309149084 ], [ -91.043041878423068, 33.898155090820083 ], [ -91.043154068887688, 33.898252465278745 ], [ -91.043274848644899, 33.898348305255261 ], [ -91.043401355711637, 33.898439331099482 ], [ -91.043550225931867, 33.898501017183648 ], [ -91.04368803812288, 33.898580297778402 ], [ -91.043802791204868, 33.89867650285057 ], [ -91.04390098130331, 33.898798029132557 ], [ -91.044024516658226, 33.898888164487651 ], [ -91.044148650195851, 33.898978955307967 ], [ -91.044283849198337, 33.899056905164436 ], [ -91.044412170778841, 33.899143934557294 ], [ -91.044522404012696, 33.899247309027338 ], [ -91.04464963006987, 33.899333328427673 ] ] } },
{ "type": "Feature", "properties": { "station_id": 11, "station_ft": 2812.4, "width_ft": 2288.8, "flag": "ok", "lon": -91.039227, "lat": 33.899395, "survey_id": "LM_14_VBO_20240517_CS_5938_5904", "date": "2024-05-17 00:00:00+00:00", "method": "lines" }, "geometry": { "type": "LineString", "coordinates": [ [ -91.034534671623859, 33.895938731697392 ], [ -91.034656784815525, 33.896029984592218 ], [ -91.03477550856131, 33.896125817683185 ], [ -91.034899851464488, 33.896211642830842 ], [ -91.035007287071622, 33.896317185827449 ], [ -91.03510705313515, 33.896431812416381 ], [ -91.035237431240162, 33.896522192705262 ], [ -91.035369678355707, 33.896599179360514 ], [ -91.035509569726088, 33.896680162216853 ], [ -91.035645013713292, 33.896753255420307 ], [ -91.035766454233666, 33.89684657109914 ], [ -91.03588811044078, 33.896942029348061 ], [ -91.036012118337226, 33.897034973116689 ], [ -91.036134317206418, 33.89712416213959 ], [ -91.036254787312032, 33.897215559820729 ], [ -91.036385376800141, 33.897299259764274 ], [ -91.03651148050281, 33.89739029506449 ], [ -91.036633300558208, 33.897481547622668 ], [ -91.036755264442036, 33.897574089376192 ], [ -91.036881988070988, 33.89766033974611 ], [ -91.037012059910182, 33.897749042950032 ], [ -91.037137043153933, 33.897840001951636 ], [ -91.037254686690218, 33.897940042759046 ], [ -91.037372665491404, 33.898032827539545 ], [ -91.037484570780606, 33.89813221392172 ], [ -91.037604693012824, 33.898229081131511 ], [ -91.037722392251482, 33.898319723243226 ], [ -91.037847844973257, 33.898415514815916 ], [ -91.037991217707471, 33.898486389072893 ], [ -91.038125815452702, 33.898568114115548 ], [ -91.038262019560904, 33.898640843014064 ], [ -91.038388400603935, 33.898729098839084 ], [ -91.0385062780949, 33.898825318048978 ], [ -91.038627365653198, 33.898919017822536 ], [ -91.038733548003904, 33.899027504646448 ], [ -91.03885603494291, 33.899119080202063 ], [ -91.038978096958502, 33.899211015086465 ], [ -91.039097837507398, 33.899309064037482 ], [ -91.039226540531914, 33.899395079713102 ], [ -91.039344421458594, 33.899487423151442 ], [ -91.039465662475024, 33.899583512148823 ], [ -91.039592373002037, 33.899671545737796 ], [ -91.039714828205803, 33.899762982659517 ], [ -91.039829915274638, 33.899860041498869 ], [ -91.039958952113849, 33.899954353381148 ], [ -91.040084224463243, 33.900035551823592 ], [ -91.040221737576445, 33.900114701862066 ], [ -91.040351695295342, 33.900200627092225 ], [ -91.040472874529399, 33.900293032534485 ], [ -91.040600950295271, 33.900378419245634 ], [ -91.040719542548558, 33.900472763230987 ], [ -91.04085075735081, 33.900559174761185 ], [ -91.040978924862998, 33.900647720527644 ], [ -91.041100804972885, 33.9007369892743 ], [ -91.04122142996529, 33.900837888983276 ], [ -91.041334063972272, 33.900928831638183 ], [ -91.041461062750216, 33.901023401551463 ], [ -91.041579654285187, 33.90111730472659 ], [ -91.041706142134288, 33.901205721434906 ], [ -91.041834893386365, 33.901288931980353 ] ] } },
{ "type": "Feature", "properties": { "station_id": 12, "station_ft": 3867.2, "width_ft": 1215.6, "flag": "ok", "lon": -91.036756, "lat": 33.901371, "survey_id": "LM_14_VBO_20240517_CS_5938_5904", "date": "2024-05-17 00:00:00+00:00", "method": "lines" }, "geometry": { "type": "LineString", "coordinates": [ [ -91.032153996538028, 33.898252069747798 ], [ -91.032286672063876, 33.8983330692297 ], [ -91.032417295726631, 33.898417241099132 ], [ -91.032540670609734, 33.898497331110221 ], [ -91.032666628429737, 33.898591036201587 ], [ -91.032795332661763, 33.898682088487597 ], [ -91.032916066619137, 33.898773652007783 ], [ -91.03305471511068, 33.898851621724198 ], [ -91.033196709475661, 33.898919459412582 ], [ -91.033335740352072, 33.898999707595806 ], [ -91.033471175090483, 33.899079509046743 ], [ -91.033584765550302, 33.899175921446265 ], [ -91.033697900982844, 33.899281048151849 ], [ -91.033814527277869, 33.899377910985649 ], [ -91.033940881074727, 33.899467353495346 ], [ -91.034075168667826, 33.899547654848995 ], [ -91.034219629020072, 33.899618665244645 ], [ -91.034352937315873, 33.899700125865465 ], [ -91.034482767345679, 33.899783393038888 ], [ -91.03460978169646, 33.899868709131255 ], [ -91.034718388540796, 33.899972046703247 ], [ -91.034834477101725, 33.900071246661646 ], [ -91.034971493700553, 33.900150680399747 ], [ -91.035102758589943, 33.900235916766277 ], [ -91.035229299337914, 33.900319750926286 ], [ -91.035361365377497, 33.900402152433408 ], [ -91.035494362393166, 33.900485454562507 ], [ -91.03562569245031, 33.900566513037226 ], [ -91.035743112956666, 33.900667189401076 ], [ -91.035852055105522, 33.900774865969183 ], [ -91.03599041562525, 33.900845084103707 ], [ -91.036126161163409, 33.900925869818089 ], [ -91.036250750222877, 33.901016556918457 ], [ -91.036377251872025, 33.901103385094771 ], [ -91.036507731094645, 33.901188844396771 ], [ -91.036632084834523, 33.901278955443779 ], [ -91.036755864139977, 33.90137110267122 ], [ -91.03687511949289, 33.901466353551122 ], [ -91.036999880507366, 33.901557642941235 ], [ -91.037129331815763, 33.90163824349856 ], [ -91.037259985430495, 33.901720788033025 ], [ -91.037399917576067, 33.901801410450744 ], [ -91.037532961691312, 33.901882045036068 ], [ -91.037651355857719, 33.901972436126648 ], [ -91.037775956066497, 33.902068040520632 ], [ -91.037881394844447, 33.902173976320839 ], [ -91.037993295929851, 33.902280260028576 ], [ -91.038118890555594, 33.902364426536352 ], [ -91.038279413693431, 33.90242410127356 ], [ -91.038407721949412, 33.90250962503503 ], [ -91.03852798345288, 33.902598493550727 ], [ -91.038657029430595, 33.902689509662622 ], [ -91.038789385731803, 33.90277033883288 ], [ -91.038913009142405, 33.902855092804018 ], [ -91.039042438712599, 33.902948607245634 ], [ -91.039174904810352, 33.903022593390702 ] ] } },
{ "type": "Feature", "properties": { "station_id": 13, "station_ft": 4922.5, "width_ft": 2513.6, "flag": "ok", "lon": -91.034962, "lat": 33.90386, "survey_id": "LM_14_VBO_20240517_CS_5938_5904", "date": "2024-05-17 00:00:00+00:00", "method": "lines" }, "geometry": { "type": "LineString", "coordinates": [ [ -91.029454843075939, 33.900134740405264 ], [ -91.02960913616019, 33.900199489771673 ], [ -91.029732354063739, 33.900288597313541 ], [ -91.029861960581243, 33.900377255689627 ], [ -91.029990759393215, 33.900459626467928 ], [ -91.030113638730413, 33.900555797496907 ], [ -91.030246290512665, 33.90064589516421 ], [ -91.030373602301339, 33.900723739972989 ], [ -91.030485805440065, 33.900819888988302 ], [ -91.030612491533361, 33.900913784950816 ], [ -91.030742985222162, 33.901005872320667 ], [ -91.03086513922851, 33.901085531811411 ], [ -91.031001973689982, 33.901167141066011 ], [ -91.03113366237109, 33.901251995198315 ], [ -91.031264369631543, 33.901333803850143 ], [ -91.031398009157655, 33.90141147378737 ], [ -91.031531309541748, 33.901491810526174 ], [ -91.031665896700531, 33.901576509710239 ], [ -91.031791975454752, 33.901664444921757 ], [ -91.031903287419482, 33.901764059675173 ], [ -91.032021181215427, 33.901862510938514 ], [ -91.032139122957602, 33.9019628298567 ], [ -91.032272091028787, 33.902038689586867 ], [ -91.032408109527111, 33.902116811917978 ], [ -91.032540874735318, 33.902204185490675 ], [ -91.032661255885671, 33.902292344164429 ], [ -91.032787406437507, 33.902380607897733 ], [ -91.03292232485596, 33.90246516585804 ], [ -91.033056317824588, 33.902545332893268 ], [ -91.03319116481596, 33.902625054964197 ], [ -91.033327978968217, 33.902703474665174 ], [ -91.033452693657878, 33.902789464000641 ], [ -91.03357515390951, 33.902881759847347 ], [ -91.033695776457094, 33.902979094045087 ], [ -91.033822436534876, 33.903060922934664 ], [ -91.033958640994214, 33.903145281291039 ], [ -91.034082393492767, 33.903234298393571 ], [ -91.034201643995701, 33.903332958877435 ], [ -91.034319959759941, 33.90342610157554 ], [ -91.034445381640708, 33.903517527702355 ], [ -91.03457325092964, 33.903602124837711 ], [ -91.034702491292535, 33.903689076130476 ], [ -91.034835960390396, 33.903769134180855 ], [ -91.034962297241748, 33.903859537593235 ], [ -91.035079406209974, 33.903949966396269 ], [ -91.035212633233229, 33.904036675349865 ], [ -91.035343415234621, 33.904118561196192 ], [ -91.035478824615168, 33.904198002527949 ], [ -91.03562047801671, 33.904271198132356 ], [ -91.035752918132403, 33.904350162028564 ], [ -91.035883825892313, 33.904435262453639 ], [ -91.036008570263093, 33.904528201838147 ], [ -91.036122299663461, 33.904628183850598 ], [ -91.036233828289951, 33.904729002342812 ], [ -91.036352710273221, 33.904822386836102 ], [ -91.036471188879858, 33.904926793336244 ], [ -91.036634223487084, 33.904970710008868 ] ] } },
{ "type": "Feature", "properties": { "station_id": 14, "station_ft": 5954.2, "width_ft": 2367.9, "flag": "ok", "lon": -91.033285, "lat": 33.906294, "survey_id": "LM_14_VBO_20240517_CS_5938_5904", "date": "2024-05-17 00:00:00+00:00", "method": "lines" }, "geometry": { "type": "LineString", "coordinates": [ [ -91.027190930579224, 33.902312534294687 ], [ -91.027344981460502, 33.902367394945784 ], [ -91.027462765231235, 33.902465081276439 ], [ -91.027590231649867, 33.90255383700886 ], [ -91.027723976887003, 33.902632445254817 ], [ -91.027860796300232, 33.902708122160831 ], [ -91.027982933553432, 33.902806003417659 ], [ -91.028100656496861, 33.902904157377691 ], [ -91.028218403145303, 33.902992939316476 ], [ -91.028352767659996, 33.903078687375462 ], [ -91.028491082964322, 33.903151745095556 ], [ -91.028635985413828, 33.90322014946279 ], [ -91.02877938962412, 33.903294826191043 ], [ -91.028919724078094, 33.903364794980774 ], [ -91.029054147150404, 33.903445348012795 ], [ -91.029171990000236, 33.903545890296272 ], [ -91.029292088085981, 33.903639851819584 ], [ -91.029416580612562, 33.903727166394297 ], [ -91.029553989045425, 33.903802014024734 ], [ -91.029688869700507, 33.903886026674748 ], [ -91.029818557473845, 33.903971772493541 ], [ -91.029949190353435, 33.904052181873872 ], [ -91.030073190910088, 33.904143592559322 ], [ -91.030194732235657, 33.904236638043081 ], [ -91.030324630950503, 33.904319744144473 ], [ -91.030457001365164, 33.904407067162175 ], [ -91.030591511770098, 33.904481765929219 ], [ -91.030721549220814, 33.904565749843968 ], [ -91.030847588346816, 33.904656488244406 ], [ -91.030975140187152, 33.904746668892287 ], [ -91.031094620854745, 33.904837390084083 ], [ -91.03122619328083, 33.904923453684773 ], [ -91.031349277998899, 33.905011488276863 ], [ -91.031478405699303, 33.905096822566108 ], [ -91.031608948473703, 33.90518195756357 ], [ -91.031736161143016, 33.905270792389679 ], [ -91.031873093617065, 33.905347316090442 ], [ -91.032018608351763, 33.905417223959653 ], [ -91.032141058933306, 33.905504080290079 ], [ -91.03226395310017, 33.905600743002346 ], [ -91.032385587934485, 33.905688537733162 ], [ -91.032512677661245, 33.905778280312461 ], [ -91.032639342793615, 33.905864589305331 ], [ -91.032768814276253, 33.905951322193317 ], [ -91.032899154759676, 33.906035467024388 ], [ -91.03302900135985, 33.906123846463935 ], [ -91.033154961351414, 33.906208289976824 ], [ -91.033285049344997, 33.906293727767085 ], [ -91.033409477166941, 33.906388292568934 ], [ -91.033548152070566, 33.906463815451481 ], [ -91.033681955651971, 33.90654417571853 ], [ -91.033799438385572, 33.906635591673016 ], [ -91.033937111385271, 33.90671345576024 ] ] } },
{ "type": "Feature", "properties": { "station_id": 15, "station_ft": 7024.0, "width_ft": 1473.7, "flag": "ok", "lon": -91.028241, "lat": 33.906803, "survey_id": "LM_14_VBO_20240517_CS_5938_5904", "date": "2024-05-17 00:00:00+00:00", "method": "lines" }, "geometry": { "type": "LineString", "coordinates": [ [ -91.025088887092934, 33.904817101188513 ], [ -91.025224446401083, 33.904887485058332 ], [ -91.025359242697988, 33.904965512025598 ], [ -91.02549640293384, 33.905042344508928 ], [ -91.025630262599421, 33.905122685345816 ], [ -91.025748984744283, 33.905221988999976 ], [ -91.025879749500817, 33.905306633899279 ], [ -91.026009876307199, 33.905393919322265 ], [ -91.026128376941998, 33.905486189835337 ], [ -91.02626263582944, 33.905566801800795 ], [ -91.026396445468592, 33.905644779066961 ], [ -91.026524437883509, 33.905732872927082 ], [ -91.026660139468703, 33.905816499279467 ], [ -91.02679102208802, 33.905895179576333 ], [ -91.026927987886125, 33.905972093571869 ], [ -91.027064867559105, 33.906050491873415 ], [ -91.0272005091701, 33.906126588987924 ], [ -91.027341880476015, 33.906202130760619 ], [ -91.027472425706819, 33.906283725177225 ], [ -91.027604037396728, 33.906366796515996 ], [ -91.027736097431998, 33.906448189174647 ], [ -91.027862348254644, 33.90653653936365 ], [ -91.027979627726822, 33.90663631595875 ], [ -91.02811514632738, 33.90672142568377 ], [ -91.028240950704287, 33.906803430075932 ], [ -91.028380566553281, 33.906885714324758 ], [ -91.028509792141193, 33.906958740283002 ], [ -91.02864498981036, 33.907044813194275 ], [ -91.028776632889233, 33.907127471061621 ], [ -91.028906170315707, 33.90720632074656 ], [ -91.029043918576477, 33.907285756815469 ], [ -91.029179556261568, 33.907365038762741 ], [ -91.029308230689182, 33.90744710787142 ], [ -91.029438367138795, 33.907530625508841 ], [ -91.029569027900493, 33.907617822031938 ], [ -91.029700670702908, 33.907704216779869 ], [ -91.029839378088624, 33.90778386559986 ], [ -91.029971009591463, 33.907856711405536 ], [ -91.030102954524963, 33.907935492097195 ], [ -91.030239120724247, 33.908018616841211 ], [ -91.030367620087077, 33.908099257733063 ], [ -91.030497909515674, 33.908185246353618 ], [ -91.030625031023007, 33.908274687727463 ], [ -91.030760055275195, 33.908355016286308 ], [ -91.030892647239995, 33.908436319536563 ], [ -91.031024712250087, 33.908521528498049 ], [ -91.03115325228184, 33.90860697636537 ], [ -91.031285190711728, 33.908684683842296 ], [ -91.031418887321507, 33.908767931240341 ], [ -91.031547578541208, 33.908851537737952 ], [ -91.031674193915464, 33.908939386908351 ], [ -91.031802534172343, 33.909024313210409 ], [ -91.031940977326158, 33.909103412063963 ], [ -91.032076976594979, 33.909177824769138 ], [ -91.032207507938224, 33.909264690097146 ] ] } },
{ "type": "Feature", "properties": { "station_id": 16, "station_ft": 8056.0, "width_ft": 1766.8, "flag": "ok", "lon": -91.024277, "lat": 33.908071, "survey_id": "LM_14_VBO_20240517_CS_5938_5904", "date": "2024-05-17 00:00:00+00:00", "method": "lines" }, "geometry": { "type": "LineString", "coordinates": [ [ -91.023212419362594, 33.90742446265196 ], [ -91.023350100946359, 33.90750038758712 ], [ -91.023463669389685, 33.907602113222872 ], [ -91.023607132814746, 33.907675586571287 ], [ -91.023755183475288, 33.907737548099981 ], [ -91.023904155507296, 33.907799229305702 ], [ -91.024037324080865, 33.907879328664912 ], [ -91.024155387695927, 33.907974488488854 ], [ -91.02427698744907, 33.908070727368113 ], [ -91.024417819167866, 33.908144572440229 ], [ -91.024558980043977, 33.908218442548531 ], [ -91.024689117133391, 33.908302460173402 ], [ -91.024825184903634, 33.908378117510985 ], [ -91.024980786103939, 33.908432038276715 ], [ -91.025117964485887, 33.908510464066062 ], [ -91.025234578195736, 33.908609395909103 ], [ -91.025360409769405, 33.908694755985216 ], [ -91.025493628587839, 33.90877658355965 ], [ -91.025622841601944, 33.908864315309614 ], [ -91.025762033525695, 33.908938992064719 ], [ -91.025904068025653, 33.909010409748909 ], [ -91.026034097255845, 33.909093079593482 ], [ -91.026171425583271, 33.909173483179707 ], [ -91.026313190729098, 33.909240120902574 ], [ -91.026446912291675, 33.909318784614307 ], [ -91.026574459751231, 33.909408255722141 ], [ -91.026706160232138, 33.909489513504255 ], [ -91.026855153424165, 33.909553169902374 ], [ -91.026998369527433, 33.90962378266812 ], [ -91.027127853557104, 33.909708048372416 ], [ -91.027267743720856, 33.909783159427548 ], [ -91.027392545625943, 33.909875228120946 ], [ -91.027523490878039, 33.909952642293092 ], [ -91.027663920678464, 33.910025001880605 ], [ -91.027799801363727, 33.910105328834796 ], [ -91.027927069474941, 33.91019243618608 ], [ -91.028060997141836, 33.910275878847465 ], [ -91.028189364112166, 33.910360286751256 ], [ -91.028331770101062, 33.910432304442942 ], [ -91.028475384136101, 33.910494862248619 ], [ -91.028613834050688, 33.910574871764048 ], [ -91.028754409116729, 33.910644508346735 ], [ -91.028895276250338, 33.91071373110244 ], [ -91.029029116167578, 33.910798135156334 ], [ -91.029155268371596, 33.910889754434962 ], [ -91.029281825786001, 33.910974254344559 ], [ -91.029411083763264, 33.911062640828611 ], [ -91.029541491036525, 33.911146320824116 ], [ -91.029677702164562, 33.911226423818007 ], [ -91.029805876746366, 33.911303027152712 ], [ -91.029940544235117, 33.911387782535236 ], [ -91.030086234153501, 33.911457938597579 ], [ -91.030209285838893, 33.911548859371372 ], [ -91.030343394011538, 33.911629633458226 ], [ -91.030477541955278, 33.91171101121892 ], [ -91.030633357047265, 33.911765720519384 ] ] } },
{ "type": "Feature", "properties": { "station_id": 17, "station_ft": 9085.1, "width_ft": 1758.0, "flag": "ok", "lon": -91.023567, "lat": 33.911176, "survey_id": "LM_14_VBO_20240517_CS_5938_5904", "date": "2024-05-17 00:00:00+00:00", "method": "lines" }, "geometry": { "type": "LineString", "coordinates": [ [ -91.021346735392555, 33.909989360534496 ], [ -91.021500586593973, 33.910046895401855 ], [ -91.021650112802647, 33.910107532186707 ], [ -91.021793533213497, 33.91017531986855 ], [ -91.021932850838311, 33.910249231206826 ], [ -91.022080731691901, 33.910314273592007 ], [ -91.022207370364825, 33.910401775376947 ], [ -91.022338341538259, 33.910486916838948 ], [ -91.022472829991671, 33.9105627235135 ], [ -91.022612670536134, 33.91063602619419 ], [ -91.022757259578626, 33.910705455158478 ], [ -91.022883366073913, 33.910792107234336 ], [ -91.023027592730116, 33.910861592900396 ], [ -91.023164661177702, 33.910938318380694 ], [ -91.023296110765983, 33.911021285157787 ], [ -91.023436840358357, 33.911098456831333 ], [ -91.023567391992529, 33.911176207384486 ], [ -91.023699300657796, 33.911262909036495 ], [ -91.023840761555817, 33.911332518326496 ], [ -91.023977799116778, 33.911405231097298 ], [ -91.024112946215354, 33.911484714245532 ], [ -91.024249815889945, 33.911561219629917 ], [ -91.024391711848324, 33.911635580687218 ], [ -91.024535431425818, 33.911703006428837 ], [ -91.02467964003533, 33.911773919210987 ], [ -91.024816239962561, 33.911845423591089 ], [ -91.024959440321908, 33.911913813714968 ], [ -91.025097602189362, 33.911990942882419 ], [ -91.025230294051198, 33.912068102620289 ], [ -91.025363126083462, 33.912150400341027 ], [ -91.02549874157647, 33.912238562275043 ], [ -91.025627828410848, 33.9123223376791 ], [ -91.02576108514711, 33.912399960669362 ], [ -91.025911016658199, 33.912465040952519 ], [ -91.026053728129952, 33.912533982487176 ], [ -91.02619015006438, 33.912607520247995 ], [ -91.026325045259213, 33.912687991358972 ], [ -91.026456853384971, 33.912765648781004 ], [ -91.026590156090109, 33.912848904473577 ], [ -91.026725000235132, 33.912926984477743 ], [ -91.026867185505296, 33.912999939976913 ], [ -91.027004968105174, 33.913074541117417 ], [ -91.027145889861941, 33.913145908539278 ], [ -91.027282680532807, 33.91321600803375 ], [ -91.027421683361368, 33.913290711816195 ], [ -91.027549324815368, 33.913378642310413 ], [ -91.027682186807056, 33.913459975345596 ], [ -91.027829408631874, 33.91352787149718 ], [ -91.027978884179689, 33.91359322767611 ], [ -91.028120806790923, 33.913657801347881 ], [ -91.028260270224678, 33.913736183556615 ], [ -91.02839039580094, 33.913813299313915 ] ] } }
]
}
