{
"type": "FeatureCollection",
"name": "LM_19_MEMX_20260506_CS_736_SORT_ACTUALDEPTHS_transects",
"crs": { "type": "name", "properties": { "name": "urn:ogc:def:crs:OGC:1.3:CRS84" } },
"features": [
{ "type": "Feature", "properties": { "station_id": 0, "station_ft": -5024.3, "width_ft": 1675.9, "flag": "ok", "lon": -90.066805, "lat": 35.137967, "survey_id": "LM_19_MEMX_20260506_CS_736_SORT_ACTUALDEPTHS", "date": "2026-05-06 00:00:00+00:00", "method": "lines" }, "geometry": { "type": "LineString", "coordinates": [ [ -90.064258804669734, 35.136780895292539 ], [ -90.064332090620653, 35.136815007050842 ], [ -90.064476422627081, 35.13688224146383 ], [ -90.064620658031942, 35.136949392248852 ], [ -90.064766208379552, 35.137017177727394 ], [ -90.064912647447372, 35.137085398285507 ], [ -90.065061686069527, 35.137154779492533 ], [ -90.065206447614472, 35.137222216354523 ], [ -90.06535005832832, 35.137289075349585 ], [ -90.06549350569054, 35.137355876140909 ], [ -90.065639847165954, 35.137424037597313 ], [ -90.065786155880431, 35.137492171048351 ], [ -90.065936281131826, 35.137562072367643 ], [ -90.066077689101419, 35.137627943377609 ], [ -90.066222781705662, 35.137695497042138 ], [ -90.066370342314045, 35.1377642090454 ], [ -90.066512113313166, 35.137830226260405 ], [ -90.066659871099546, 35.137899052659201 ], [ -90.066804767058073, 35.137966517960514 ], [ -90.066950025664624, 35.138034157721364 ], [ -90.067095119890794, 35.138101737449155 ], [ -90.067241234446286, 35.138169754527432 ], [ -90.067384782836072, 35.138236609668041 ], [ -90.067534845019864, 35.138306480494364 ], [ -90.067682308027841, 35.138375161540637 ], [ -90.06782122032719, 35.138439843479425 ], [ -90.067967598716706, 35.138508003096206 ], [ -90.06811506247881, 35.138576683648608 ], [ -90.068259698441693, 35.138644031902537 ], [ -90.068401670285638, 35.13871013385122 ], [ -90.068551273072842, 35.138779799447583 ], [ -90.068700251228563, 35.138849174838903 ], [ -90.068841369346742, 35.138914870753524 ], [ -90.068983603621774, 35.13898111629458 ], [ -90.069132484746774, 35.139050433839607 ] ] } },
{ "type": "Feature", "properties": { "station_id": 1, "station_ft": -4629.2, "width_ft": 1950.1, "flag": "ok", "lon": -90.067482, "lat": 35.139324, "survey_id": "LM_19_MEMX_20260506_CS_736_SORT_ACTUALDEPTHS", "date": "2026-05-06 00:00:00+00:00", "method": "lines" }, "geometry": { "type": "LineString", "coordinates": [ [ -90.063122043190646, 35.13793829127129 ], [ -90.06327417976469, 35.137986623759886 ], [ -90.063434086230885, 35.138037452787529 ], [ -90.063589463262431, 35.138086824286574 ], [ -90.063744476062567, 35.138136077697418 ], [ -90.063896347873069, 35.138184348919381 ], [ -90.064055362833003, 35.138234879719718 ], [ -90.064212625124838, 35.138284846855299 ], [ -90.064364860862625, 35.138333235384785 ], [ -90.064522718522696, 35.138383408541699 ], [ -90.064678162827633, 35.13843280824242 ], [ -90.064833772964448, 35.138482239708452 ], [ -90.064989779623204, 35.138531817590966 ], [ -90.065139767400495, 35.138579491807711 ], [ -90.0653020569669, 35.138631062085473 ], [ -90.065455220440327, 35.138679746659633 ], [ -90.065615791550186, 35.138730753010492 ], [ -90.065770145238034, 35.13877982296227 ], [ -90.065923508923902, 35.138828539748317 ], [ -90.066076308780609, 35.13887710477924 ], [ -90.066238103520476, 35.138928524835272 ], [ -90.066395567340422, 35.138978548152345 ], [ -90.066547938580413, 35.139026965213802 ], [ -90.066705005507941, 35.139076868559222 ], [ -90.066861279108863, 35.139126533465273 ], [ -90.067012857437689, 35.139174710822083 ], [ -90.067167511326687, 35.139223841279339 ], [ -90.06732851293313, 35.139275020772033 ], [ -90.067482143155374, 35.139323824097879 ], [ -90.067642617202168, 35.139374825461566 ], [ -90.067795253476859, 35.139423329422492 ], [ -90.06795199266648, 35.139473114184462 ], [ -90.068106713664775, 35.139522272129852 ], [ -90.068261831161934, 35.139571577384245 ], [ -90.068419792719709, 35.139621775113326 ], [ -90.068573754761474, 35.139670695076035 ], [ -90.068732841637598, 35.139721222493826 ], [ -90.068887199317658, 35.139770288644861 ], [ -90.069043675401673, 35.139819982729669 ], [ -90.069202001303736, 35.139870298238904 ] ] } },
{ "type": "Feature", "properties": { "station_id": 2, "station_ft": -4225.4, "width_ft": 2251.1, "flag": "ok", "lon": -90.066353, "lat": 35.140111, "survey_id": "LM_19_MEMX_20260506_CS_736_SORT_ACTUALDEPTHS", "date": "2026-05-06 00:00:00+00:00", "method": "lines" }, "geometry": { "type": "LineString", "coordinates": [ [ -90.061918067624319, 35.138887178939484 ], [ -90.062072782765412, 35.138929861161465 ], [ -90.062231770163493, 35.138973718518045 ], [ -90.062390326471672, 35.139017455249096 ], [ -90.06254835399416, 35.13906104194654 ], [ -90.062706248955621, 35.139104597284359 ], [ -90.062866892061194, 35.139148932930276 ], [ -90.063022634264726, 35.13919188673627 ], [ -90.063182947290329, 35.139236104903318 ], [ -90.063339551436144, 35.139279326177117 ], [ -90.06350171836668, 35.139324054876795 ], [ -90.063657562275012, 35.139367037385846 ], [ -90.063821617133556, 35.13941230717586 ], [ -90.063978553307237, 35.139455590669108 ], [ -90.064140192018158, 35.139500168718236 ], [ -90.06429613444071, 35.13954320778825 ], [ -90.064452011044295, 35.139586190084351 ], [ -90.064610571015749, 35.139629924044733 ], [ -90.064769295833713, 35.139673716777779 ], [ -90.064924741786101, 35.139716606015071 ], [ -90.065082970877697, 35.139760249325867 ], [ -90.065242590601628, 35.139804283063484 ], [ -90.065405952648447, 35.139849341066657 ], [ -90.065560141647566, 35.139891869152962 ], [ -90.065717875412176, 35.139935361740811 ], [ -90.065877859189712, 35.139979513438725 ], [ -90.066039434234824, 35.140024060411683 ], [ -90.066192033866002, 35.140066164328637 ], [ -90.066353443645696, 35.140110678943977 ], [ -90.066513892341135, 35.140154951041239 ], [ -90.066670202752718, 35.140198051000347 ], [ -90.066830220530505, 35.140242202284306 ], [ -90.066986531302533, 35.140285301850497 ], [ -90.067142742488826, 35.140328398805927 ], [ -90.067301038947818, 35.140372067937349 ], [ -90.067459172019014, 35.140415677927265 ], [ -90.067622106511408, 35.140460612672832 ], [ -90.06778096649866, 35.140504431836206 ], [ -90.067939694953779, 35.140548221471008 ], [ -90.068094649527154, 35.140590956903971 ], [ -90.068251590589966, 35.140634235068404 ], [ -90.068415253669315, 35.140679378387745 ], [ -90.06856891596253, 35.140721752951734 ], [ -90.068732580516823, 35.140766895884909 ], [ -90.068890515487411, 35.14081044425955 ], [ -90.069051927440867, 35.140854983330414 ] ] } },
{ "type": "Feature", "properties": { "station_id": 3, "station_ft": -3848.4, "width_ft": 2459.9, "flag": "ok", "lon": -90.066952, "lat": 35.141434, "survey_id": "LM_19_MEMX_20260506_CS_736_SORT_ACTUALDEPTHS", "date": "2026-05-06 00:00:00+00:00", "method": "lines" }, "geometry": { "type": "LineString", "coordinates": [ [ -90.06149075531313, 35.139254470420369 ], [ -90.061601128568327, 35.139357450697354 ], [ -90.061712828057523, 35.139461698773879 ], [ -90.061821036400289, 35.139562620885883 ], [ -90.061929630354911, 35.139663964166985 ], [ -90.062043402444559, 35.139770129784125 ], [ -90.062152806643851, 35.139872207283368 ], [ -90.062261789837081, 35.139973916649829 ], [ -90.062375239228629, 35.140079773100979 ], [ -90.062486004125518, 35.140183091098322 ], [ -90.062596574570577, 35.140286240241871 ], [ -90.062672681244152, 35.140254048244948 ], [ -90.06283097584155, 35.140297723128505 ], [ -90.062986919947861, 35.140340736005591 ], [ -90.063147399825056, 35.140385013297042 ], [ -90.0633071522943, 35.140429079853554 ], [ -90.063464024158918, 35.140472335452394 ], [ -90.063623676136913, 35.140516399160887 ], [ -90.063781111330215, 35.140559805018434 ], [ -90.063942023422044, 35.140604201716741 ], [ -90.064099590788402, 35.140647664451379 ], [ -90.064257224175009, 35.140691157427405 ], [ -90.064417872303352, 35.140735464181908 ], [ -90.064575737628289, 35.140779016452818 ], [ -90.064734830029764, 35.140822900212008 ], [ -90.064891139492147, 35.140866002455859 ], [ -90.065048939583207, 35.140909552538616 ], [ -90.065208098279996, 35.140953438194529 ], [ -90.065367654497763, 35.140997442339604 ], [ -90.065524230302174, 35.141040633156734 ], [ -90.065685209248002, 35.14108505623652 ], [ -90.065841852322606, 35.141128247378653 ], [ -90.065997567181455, 35.141171196807186 ], [ -90.066160170770644, 35.141216043499675 ], [ -90.066316051787126, 35.141259050630858 ], [ -90.066474250699201, 35.141302691471694 ], [ -90.066634041029687, 35.141346754628294 ], [ -90.066791743235214, 35.141390273065895 ], [ -90.066951698509968, 35.141434366845807 ], [ -90.067107514488185, 35.141477345260974 ], [ -90.067270086535913, 35.14152218882203 ], [ -90.067426596540301, 35.141565375625731 ], [ -90.067579267810032, 35.141607479605931 ], [ -90.067741674618844, 35.141652264462827 ], [ -90.067903750214469, 35.141696958162868 ], [ -90.068059567306562, 35.141739934498631 ], [ -90.068217868122233, 35.141783602606054 ], [ -90.068377128290251, 35.141827541602552 ], [ -90.06853562913102, 35.141871241184305 ], [ -90.068694493450366, 35.141915060224633 ], [ -90.068847230941699, 35.141957191275232 ], [ -90.069013380537342, 35.142003026775598 ] ] } },
{ "type": "Feature", "properties": { "station_id": 4, "station_ft": -3442.1, "width_ft": 2120.8, "flag": "ok", "lon": -90.066772, "lat": 35.142544, "survey_id": "LM_19_MEMX_20260506_CS_736_SORT_ACTUALDEPTHS", "date": "2026-05-06 00:00:00+00:00", "method": "lines" }, "geometry": { "type": "LineString", "coordinates": [ [ -90.061799050394924, 35.141171743459026 ], [ -90.06186213603479, 35.14118915383149 ], [ -90.062020896072937, 35.141232951062094 ], [ -90.062175515745224, 35.141275603895672 ], [ -90.062334210274912, 35.141319371191756 ], [ -90.062492306936903, 35.141362986777246 ], [ -90.062653816710437, 35.141407536711256 ], [ -90.062809596019562, 35.14145051882408 ], [ -90.062967660307777, 35.141494133915096 ], [ -90.06313059399757, 35.141539074687699 ], [ -90.063285347700898, 35.141581756418113 ], [ -90.063443679193611, 35.14162543145823 ], [ -90.063605155005433, 35.141669979320433 ], [ -90.063761135144063, 35.141713020080431 ], [ -90.063921419507409, 35.141757236691049 ], [ -90.064079387318671, 35.141800792133147 ], [ -90.064237519978832, 35.141844406350309 ], [ -90.064398070553494, 35.141888710815479 ], [ -90.064554216136102, 35.141931782522931 ], [ -90.064717250473464, 35.141976751576706 ], [ -90.06487588106846, 35.142020514046365 ], [ -90.065028683275486, 35.142062652352628 ], [ -90.065190029301064, 35.142107167048863 ], [ -90.065352071214178, 35.142151864243893 ], [ -90.065510735433449, 35.142195626710468 ], [ -90.06566413421973, 35.142237915688149 ], [ -90.065822235817222, 35.142281527116829 ], [ -90.065978846238608, 35.142324745283261 ], [ -90.066142247694017, 35.142369803366513 ], [ -90.066295315874058, 35.142412028565843 ], [ -90.066453716621993, 35.142455701412722 ], [ -90.066615262948517, 35.142500274976079 ], [ -90.06677243823232, 35.142543615779616 ], [ -90.066933256212451, 35.142587978397394 ], [ -90.067089570481102, 35.142631105054754 ], [ -90.067246514760726, 35.142674384676504 ], [ -90.067405976772733, 35.142718356907984 ], [ -90.067563880623894, 35.142761906329532 ], [ -90.06772436918645, 35.142806177915006 ], [ -90.067884559417024, 35.142850359144717 ], [ -90.068043988184201, 35.142894329744649 ], [ -90.068199476160331, 35.142937215961716 ], [ -90.068358672647648, 35.142981125548786 ], [ -90.068520322114253, 35.143025698208184 ] ] } },
{ "type": "Feature", "properties": { "station_id": 5, "station_ft": -3037.9, "width_ft": 2500.6, "flag": "ok", "lon": -90.066533, "lat": 35.143636, "survey_id": "LM_19_MEMX_20260506_CS_736_SORT_ACTUALDEPTHS", "date": "2026-05-06 00:00:00+00:00", "method": "lines" }, "geometry": { "type": "LineString", "coordinates": [ [ -90.060516874822156, 35.141976740671709 ], [ -90.060675270095601, 35.142020448811373 ], [ -90.060833898096789, 35.142064189436482 ], [ -90.060990737635407, 35.14210747454004 ], [ -90.061151583961674, 35.142151845449128 ], [ -90.061306238823192, 35.142194499375726 ], [ -90.061465430619265, 35.142238417812976 ], [ -90.061623595447017, 35.142282064158906 ], [ -90.061786198374151, 35.142326916714367 ], [ -90.06194436457605, 35.142370534740628 ], [ -90.062102462987966, 35.142414150918732 ], [ -90.062258410572298, 35.142457165801972 ], [ -90.062417073419425, 35.142500932272192 ], [ -90.062578352711711, 35.142545421783126 ], [ -90.06273648483716, 35.142589065905817 ], [ -90.062888889511143, 35.142631086409288 ], [ -90.063050731334059, 35.142675753889336 ], [ -90.063211682003569, 35.142720125539142 ], [ -90.063363026053224, 35.142761872767061 ], [ -90.063526425661877, 35.14280696226966 ], [ -90.063680916433384, 35.142849582193605 ], [ -90.063843787331905, 35.142894493510816 ], [ -90.064001227283697, 35.142937926340387 ], [ -90.064162275797088, 35.142982353199336 ], [ -90.064317761535435, 35.143025244313627 ], [ -90.064473611779064, 35.143068226089497 ], [ -90.064634562083413, 35.143112622008452 ], [ -90.064796506830547, 35.143157289688737 ], [ -90.064952257851061, 35.143200268453121 ], [ -90.065111585534723, 35.143244213410512 ], [ -90.06526667506715, 35.143286982859536 ], [ -90.065425208611529, 35.143330715278836 ], [ -90.065585233681844, 35.143374841468273 ], [ -90.065747808448549, 35.143419687207199 ], [ -90.065899652474968, 35.143461581335799 ], [ -90.066062260472521, 35.143506428366088 ], [ -90.066220198960309, 35.143549980399868 ], [ -90.066378303398508, 35.143593591232644 ], [ -90.066532532910486, 35.143636147168209 ], [ -90.06669798958103, 35.143681776225733 ], [ -90.066855200163161, 35.143725144867581 ], [ -90.067012477803019, 35.143768514933086 ], [ -90.067171146118326, 35.143812276309696 ], [ -90.067328488899363, 35.1438556754904 ], [ -90.067488714883254, 35.143899858151315 ], [ -90.067646290676549, 35.143943317550239 ], [ -90.067806814491419, 35.143987589030829 ], [ -90.067963727788225, 35.144030867036832 ], [ -90.068120741127387, 35.14407417520642 ], [ -90.068282225789517, 35.144118717198403 ], [ -90.068441823040743, 35.144162745491968 ] ] } },
{ "type": "Feature", "properties": { "station_id": 6, "station_ft": -2619.3, "width_ft": 3028.4, "flag": "ok", "lon": -90.066962, "lat": 35.144879, "survey_id": "LM_19_MEMX_20260506_CS_736_SORT_ACTUALDEPTHS", "date": "2026-05-06 00:00:00+00:00", "method": "lines" }, "geometry": { "type": "LineString", "coordinates": [ [ -90.058182219096082, 35.142382175301428 ], [ -90.058189357227107, 35.142384574098664 ], [ -90.058344274424385, 35.142436606474753 ], [ -90.058498695830096, 35.142488517551683 ], [ -90.05865384510922, 35.142540637198259 ], [ -90.058809950756782, 35.142593110666965 ], [ -90.058963844720623, 35.14264481546747 ], [ -90.059118366728256, 35.142696728213963 ], [ -90.060213887383881, 35.143093109843448 ], [ -90.060278424211091, 35.143110199381702 ], [ -90.060437415805211, 35.143152272942999 ], [ -90.060595876484967, 35.143194224349536 ], [ -90.06075672306639, 35.143236810318484 ], [ -90.060915846939253, 35.143278942354577 ], [ -90.061074308151717, 35.14332089315775 ], [ -90.061234459452635, 35.143363268742291 ], [ -90.061392856211228, 35.143405190531091 ], [ -90.061553405179566, 35.143447685313362 ], [ -90.061711271229626, 35.143489483850736 ], [ -90.061869070485599, 35.143531252623639 ], [ -90.062030282833888, 35.143573927823738 ], [ -90.06218950692643, 35.143616087683817 ], [ -90.062348997701505, 35.143658281749396 ], [ -90.062507626275107, 35.143700289747557 ], [ -90.062667579528309, 35.143742631621564 ], [ -90.062825016643316, 35.143784307460805 ], [ -90.062984871456834, 35.143826619494526 ], [ -90.063143633397502, 35.143868629907828 ], [ -90.063304118559515, 35.143911120857403 ], [ -90.063460496181833, 35.143952496183054 ], [ -90.063618793489013, 35.143994411792136 ], [ -90.063779545693251, 35.144036936539059 ], [ -90.063937976106914, 35.144078882906392 ], [ -90.064098230490274, 35.144121285203262 ], [ -90.064255867813742, 35.144163019947996 ], [ -90.064414895737272, 35.144205117190296 ], [ -90.064572797884225, 35.144246912029246 ], [ -90.064734544336289, 35.144289707497272 ], [ -90.06489360568527, 35.14433180493107 ], [ -90.065053694497792, 35.144374201969228 ], [ -90.065209808503823, 35.144415513700039 ], [ -90.065370197103945, 35.144457944632855 ], [ -90.065531445305226, 35.144500644054482 ], [ -90.065690840054828, 35.144542831459717 ], [ -90.065847186343589, 35.144584202090499 ], [ -90.066007674521458, 35.1446266904873 ], [ -90.066163922359465, 35.144668031290067 ], [ -90.066327193942783, 35.144711245584247 ], [ -90.066481950726569, 35.144752192930049 ], [ -90.066644228361525, 35.14479513575828 ], [ -90.066803557478636, 35.144837320131437 ], [ -90.066961992260502, 35.144879234768851 ], [ -90.067120527208345, 35.14492120660929 ], [ -90.067284825968656, 35.14496469237865 ], [ -90.067439253471591, 35.145005547622262 ], [ -90.06759941092956, 35.145047943010056 ], [ -90.06775692034509, 35.145089615189519 ] ] } },
{ "type": "Feature", "properties": { "station_id": 7, "station_ft": -2278.6, "width_ft": 2251.1, "flag": "ok", "lon": -90.066863, "lat": 35.145684, "survey_id": "LM_19_MEMX_20260506_CS_736_SORT_ACTUALDEPTHS", "date": "2026-05-06 00:00:00+00:00", "method": "lines" }, "geometry": { "type": "LineString", "coordinates": [ [ -90.060475353596274, 35.144614884596571 ], [ -90.060642314727261, 35.144642838498704 ], [ -90.06080628345552, 35.1446703085252 ], [ -90.060963303993134, 35.144696592071554 ], [ -90.061132193953242, 35.144724867931323 ], [ -90.061293735423845, 35.14475192056041 ], [ -90.061458901462657, 35.144779582813413 ], [ -90.061621374515639, 35.144806795522072 ], [ -90.061786841302791, 35.144834492571896 ], [ -90.061951043462756, 35.144861993767023 ], [ -90.062108264471561, 35.144888308647957 ], [ -90.06227831816436, 35.144916775203072 ], [ -90.062441790089878, 35.144944148058862 ], [ -90.062605261044055, 35.144971520672385 ], [ -90.06277149319348, 35.144999344919157 ], [ -90.062933035903356, 35.145026395411215 ], [ -90.063094779462816, 35.145053478502838 ], [ -90.063259348938999, 35.145081013889879 ], [ -90.063425346974682, 35.145108831568372 ], [ -90.063586525842027, 35.145135790351347 ], [ -90.063752890443794, 35.145163643515154 ], [ -90.06391686155925, 35.14519110942571 ], [ -90.064078638786668, 35.145218191130283 ], [ -90.064245901130988, 35.145246203294981 ], [ -90.064407280374539, 35.145273220834731 ], [ -90.064568691567047, 35.145300238034679 ], [ -90.064734891255853, 35.145328058823466 ], [ -90.064900924332306, 35.14535584740608 ], [ -90.065064364276253, 35.145383215978164 ], [ -90.065224812754167, 35.145410072874121 ], [ -90.06538831982455, 35.145437442640073 ], [ -90.065553655802475, 35.145465130517259 ], [ -90.065713273064233, 35.14549182872301 ], [ -90.065882299564819, 35.145520128366528 ], [ -90.066041784410515, 35.14554682293403 ], [ -90.066208550223479, 35.145574737457977 ], [ -90.066371259445148, 35.145601976613818 ], [ -90.066535597882762, 35.145629502891595 ], [ -90.066699372501446, 35.145656904425486 ], [ -90.066863445647925, 35.145684368854198 ], [ -90.067027185527508, 35.145711797048044 ], [ -90.067191957665301, 35.145739359989349 ], [ -90.067353305177491, 35.145766371968421 ], [ -90.067517545601973, 35.145793866610489 ], [ -90.067683580807042, 35.145821652365072 ], [ -90.06784955039052, 35.145849435403449 ] ] } }
]
}
