{
"type": "FeatureCollection",
"name": "LM_18_FRIX_20211018_CS_652_SORT_LWRP_transects",
"crs": { "type": "name", "properties": { "name": "urn:ogc:def:crs:OGC:1.3:CRS84" } },
"features": [
{ "type": "Feature", "properties": { "station_id": 0, "station_ft": -1625.1, "width_ft": 1170.2, "flag": "ok", "lon": -90.645057, "lat": 34.388575, "survey_id": "LM_18_FRIX_20211018_CS_652_SORT_LWRP", "date": "2021-10-18 00:00:00+00:00", "method": "lines" }, "geometry": { "type": "LineString", "coordinates": [ [ -90.644004733531247, 34.386263005079996 ], [ -90.64397975006716, 34.38632655057075 ], [ -90.643976076295019, 34.386386659626403 ], [ -90.64398774187525, 34.386443492211967 ], [ -90.644008814937948, 34.386495835055051 ], [ -90.64403560392023, 34.386545264182601 ], [ -90.644070366636882, 34.386594022883337 ], [ -90.644103881446085, 34.386640009590479 ], [ -90.644136918514661, 34.386691208904125 ], [ -90.644164378337763, 34.386740375952655 ], [ -90.644191175160202, 34.386789531125849 ], [ -90.644218826893905, 34.386843648702495 ], [ -90.644242350489876, 34.386891366842569 ], [ -90.644267429402618, 34.386942686905343 ], [ -90.644292831059289, 34.386994288154767 ], [ -90.64432053019361, 34.387046757675144 ], [ -90.644345084722673, 34.387093121681161 ], [ -90.644373176988978, 34.387143400766753 ], [ -90.644399981752599, 34.387192281075045 ], [ -90.644427664522652, 34.387245300207169 ], [ -90.644452143308811, 34.3872944097781 ], [ -90.644477199352835, 34.387346554284605 ], [ -90.644500998693232, 34.387396200709759 ], [ -90.644525739778913, 34.387447789191029 ], [ -90.644550163678247, 34.387498822510473 ], [ -90.644575196783919, 34.387551789677765 ], [ -90.644598696569645, 34.387600332219435 ], [ -90.644624415824765, 34.387652488569003 ], [ -90.644649472071279, 34.387704633046184 ], [ -90.644672609677102, 34.387754266695588 ], [ -90.64469597107643, 34.387807751594316 ], [ -90.644717114137848, 34.387857622700068 ], [ -90.644738140722083, 34.38791161257592 ], [ -90.644757573548162, 34.387963372858188 ], [ -90.644778577078569, 34.388018187208111 ], [ -90.644798710334058, 34.38806858790182 ], [ -90.644820091627096, 34.388121759670703 ], [ -90.644842189817467, 34.388173022220741 ], [ -90.644865258371041, 34.388225128378288 ], [ -90.644888727740863, 34.388274768378068 ], [ -90.644917058759418, 34.38832834983922 ], [ -90.644944527202554, 34.38837724281575 ], [ -90.64497298144353, 34.388426428842855 ], [ -90.645001088780731, 34.388476159034923 ], [ -90.645029843794958, 34.388526450740791 ], [ -90.645056996253018, 34.388574787659252 ], [ -90.645086375877824, 34.388626465352793 ], [ -90.645113866521882, 34.388674533796468 ], [ -90.645142004818226, 34.38872316465477 ], [ -90.645171446091055, 34.388772645520341 ], [ -90.645202550479937, 34.388821883427219 ], [ -90.645235350960093, 34.388869779109712 ], [ -90.645269499484783, 34.388916877617959 ], [ -90.645305951082918, 34.38896456950858 ], [ -90.645342479689532, 34.389009514024522 ], [ -90.645384594587981, 34.389056215933998 ], [ -90.645426115748791, 34.389100433427778 ], [ -90.645465611606028, 34.389145984986847 ], [ -90.645500746144833, 34.389193376490702 ], [ -90.645528183331407, 34.389243367740029 ], [ -90.645545929636071, 34.389296195335099 ], [ -90.645558296981903, 34.38935166731796 ] ] } },
{ "type": "Feature", "properties": { "station_id": 1, "station_ft": -1405.9, "width_ft": 1168.8, "flag": "ok", "lon": -90.644193, "lat": 34.388885, "survey_id": "LM_18_FRIX_20211018_CS_652_SORT_LWRP", "date": "2021-10-18 00:00:00+00:00", "method": "lines" }, "geometry": { "type": "LineString", "coordinates": [ [ -90.643000497830499, 34.386436835646336 ], [ -90.643023927109809, 34.386487850082837 ], [ -90.643046924835673, 34.386542427264416 ], [ -90.643069021541862, 34.386593690986487 ], [ -90.643091141416676, 34.386644129325383 ], [ -90.643114239299848, 34.386695137359091 ], [ -90.643137276725113, 34.386748341317272 ], [ -90.643159688563657, 34.386800160144908 ], [ -90.643182147724417, 34.386850330933378 ], [ -90.643206863664787, 34.38690274320269 ], [ -90.643233251451164, 34.386954638636318 ], [ -90.643258730554805, 34.387003493634566 ], [ -90.643286513741671, 34.387052942075442 ], [ -90.643317254120177, 34.387103272419068 ], [ -90.643349382143541, 34.387151431499355 ], [ -90.643383166663583, 34.387199621589545 ], [ -90.643417305816143, 34.387246994481458 ], [ -90.643451159680779, 34.387292713821623 ], [ -90.64348924291383, 34.387341261689343 ], [ -90.643526032049451, 34.387388685613402 ], [ -90.643560501774004, 34.387436064837033 ], [ -90.64359229963766, 34.387484217495619 ], [ -90.643618841843136, 34.387530619035061 ], [ -90.643645230063285, 34.387582514393557 ], [ -90.643668567642266, 34.387636823940113 ], [ -90.64368930927624, 34.38768915954487 ], [ -90.643708447280147, 34.387739541229188 ], [ -90.643729119647872, 34.387794349364626 ], [ -90.643748189495824, 34.387847202699987 ], [ -90.643767921319053, 34.387900067884722 ], [ -90.643787337015425, 34.387952378829425 ], [ -90.643806075422631, 34.38800522577062 ], [ -90.643825507683715, 34.38805698617756 ], [ -90.64384525495511, 34.388109303501572 ], [ -90.643867929774714, 34.388163600243679 ], [ -90.643891083514617, 34.388212684392016 ], [ -90.643916124060851, 34.388265377754976 ], [ -90.643941249301818, 34.388315050726703 ], [ -90.643968315281569, 34.388366409127002 ], [ -90.643995798577905, 34.388414752641438 ], [ -90.644025554102853, 34.388464788870166 ], [ -90.644053060546639, 34.388512308795633 ], [ -90.644082046408414, 34.388566178028562 ], [ -90.644105145388252, 34.388617185005884 ], [ -90.644125918291635, 34.388668422145528 ], [ -90.644144964387237, 34.388722098987728 ], [ -90.644161368269508, 34.388775450856272 ], [ -90.644176755640217, 34.388829607164347 ], [ -90.644193437200386, 34.388884887398092 ], [ -90.644211506400381, 34.388937996364348 ], [ -90.644232918290413, 34.388990069818256 ], [ -90.644257650829132, 34.389041933159497 ], [ -90.644284456063545, 34.389090813501433 ], [ -90.644315221922653, 34.389140319175795 ], [ -90.64434936125258, 34.389187691826905 ], [ -90.644385512779081, 34.389234279204182 ], [ -90.644419391030098, 34.389279173837998 ], [ -90.644454478823093, 34.389328213677125 ], [ -90.644486562127923, 34.389378019660953 ], [ -90.644515678313198, 34.389427219440584 ], [ -90.644538778853587, 34.389478226370926 ], [ -90.644556847293188, 34.389531335274768 ], [ -90.644577558016962, 34.389584769139809 ], [ -90.644654851469383, 34.389618134131403 ] ] } },
{ "type": "Feature", "properties": { "station_id": 2, "station_ft": -1225.9, "width_ft": 1257.4, "flag": "ok", "lon": -90.643239, "lat": 34.389103, "survey_id": "LM_18_FRIX_20211018_CS_652_SORT_LWRP", "date": "2021-10-18 00:00:00+00:00", "method": "lines" }, "geometry": { "type": "LineString", "coordinates": [ [ -90.641394566256409, 34.385774946375449 ], [ -90.6413982109367, 34.385810465861326 ], [ -90.641412578471915, 34.385865426843388 ], [ -90.641428625540513, 34.385919596190838 ], [ -90.641444311396015, 34.385974857567575 ], [ -90.641458387101309, 34.386028438944486 ], [ -90.641474781121303, 34.386082065929003 ], [ -90.641496499056387, 34.386134969754202 ], [ -90.641521259956392, 34.38618573516402 ], [ -90.641546037393539, 34.386235950938612 ], [ -90.64157109903249, 34.386287821135603 ], [ -90.641594203626596, 34.386338553690074 ], [ -90.641617917298902, 34.386391221906891 ], [ -90.641643040658579, 34.386440895285745 ], [ -90.641671446094207, 34.386491730043865 ], [ -90.641700221566339, 34.386541198860733 ], [ -90.641729319800703, 34.386590947968088 ], [ -90.641756770442612, 34.386640390324736 ], [ -90.64178356579616, 34.38668954596708 ], [ -90.641811331494466, 34.386739544336571 ], [ -90.641840400104243, 34.386790392746626 ], [ -90.641868844292503, 34.386839854236918 ], [ -90.64189560895511, 34.386890108261625 ], [ -90.641922042145069, 34.386940355889706 ], [ -90.641948823375159, 34.386990060273511 ], [ -90.641977605790473, 34.387039254188174 ], [ -90.642008392680154, 34.387087936794217 ], [ -90.642042807468087, 34.387137239288911 ], [ -90.642076976631671, 34.387183514120203 ], [ -90.642114782521901, 34.387230133130338 ], [ -90.642152278939022, 34.387275923041969 ], [ -90.642188706040173, 34.387324439369714 ], [ -90.642222527346561, 34.387371257405619 ], [ -90.642259277236846, 34.387420054911132 ], [ -90.642295827724823, 34.387464176696767 ], [ -90.642338270561822, 34.387510885934752 ], [ -90.642375799142357, 34.387555576502656 ], [ -90.642409930133994, 34.387603224482035 ], [ -90.6424417186076, 34.387651651318251 ], [ -90.642470148002857, 34.387701662341101 ], [ -90.642493253462391, 34.387752395654424 ], [ -90.642522692856062, 34.387801876185719 ], [ -90.642555814088269, 34.387850054611668 ], [ -90.642586593882712, 34.387899011918392 ], [ -90.642615369277337, 34.387948479629507 ], [ -90.642643806550808, 34.387998216693063 ], [ -90.642676273729649, 34.388046106604804 ], [ -90.642710065863824, 34.388094022948394 ], [ -90.642734481120272, 34.388145330513076 ], [ -90.642751215513016, 34.38819868892363 ], [ -90.642770254008241, 34.388252640790306 ], [ -90.64279401511935, 34.388303660760727 ], [ -90.642819409593429, 34.388355537132576 ], [ -90.642846868026282, 34.388404704434478 ], [ -90.642867933077667, 34.388457322276039 ], [ -90.642883996905439, 34.388510941818183 ], [ -90.642900377934112, 34.388565117421329 ], [ -90.642919384705266, 34.388620167651801 ], [ -90.642938099586189, 34.388673838281825 ], [ -90.642956174564077, 34.388726672553602 ], [ -90.642975213292146, 34.388780624394478 ], [ -90.642998697047375, 34.388829715962103 ], [ -90.643027820962885, 34.388878641251218 ], [ -90.643065272386494, 34.388926078077276 ], [ -90.643106492620831, 34.388969190634128 ], [ -90.643153975357379, 34.389013523764895 ], [ -90.643197830187248, 34.389057237014505 ], [ -90.643238981247094, 34.389102821165011 ], [ -90.643279076190765, 34.389150583846529 ], [ -90.643314941788319, 34.38919551707091 ], [ -90.643352115888092, 34.389241025449572 ], [ -90.643391579844078, 34.389287676038116 ], [ -90.643428092085571, 34.389333171641091 ], [ -90.643464874284888, 34.389380870430202 ], [ -90.643496332481007, 34.389429290644109 ], [ -90.64352209000613, 34.389480074877156 ], [ -90.643539148954346, 34.389533713513792 ], [ -90.643552185721589, 34.389588923593791 ], [ -90.643564221342857, 34.389644389356611 ], [ -90.643576611608211, 34.389699037027434 ], [ -90.643590996481691, 34.389753449056265 ], [ -90.64361105236469, 34.389806596380616 ], [ -90.643639490829884, 34.389856332347861 ], [ -90.643683562094722, 34.389927804018434 ], [ -90.643699387796985, 34.389954489381381 ], [ -90.643726501384776, 34.390004199802767 ] ] } },
{ "type": "Feature", "properties": { "station_id": 3, "station_ft": -963.7, "width_ft": 1470.2, "flag": "ok", "lon": -90.64236, "lat": 34.38948, "survey_id": "LM_18_FRIX_20211018_CS_652_SORT_LWRP", "date": "2021-10-18 00:00:00+00:00", "method": "lines" }, "geometry": { "type": "LineString", "coordinates": [ [ -90.640569990144854, 34.386291044441244 ], [ -90.640608132901249, 34.386337396322098 ], [ -90.640639279988065, 34.386384987206775 ], [ -90.640667015156637, 34.386436084229395 ], [ -90.640695497048569, 34.386484173634884 ], [ -90.640728917400764, 34.386533457297901 ], [ -90.640760396150625, 34.386581053650005 ], [ -90.640792167869122, 34.386630030519072 ], [ -90.640823609208468, 34.386679001007302 ], [ -90.64085240627999, 34.386727645505957 ], [ -90.640880827800814, 34.386777931700209 ], [ -90.640908569836, 34.386828754730693 ], [ -90.640935333908345, 34.386879008941904 ], [ -90.640960788512672, 34.386928687940078 ], [ -90.640985217784475, 34.386979447054372 ], [ -90.641009709849158, 34.387028008479781 ], [ -90.641037043481532, 34.387081570646977 ], [ -90.64106184396843, 34.387130962935402 ], [ -90.641086589457757, 34.387182277177637 ], [ -90.641110980358988, 34.387234408598253 ], [ -90.641132775365406, 34.387284566926326 ], [ -90.641154832538646, 34.387337203275813 ], [ -90.641177236642179, 34.387389297265216 ], [ -90.641200271870474, 34.387442502420264 ], [ -90.64122537988095, 34.387492723729572 ], [ -90.641252136622398, 34.387543252708859 ], [ -90.641278947354678, 34.387591858803098 ], [ -90.641305003697013, 34.387643748234815 ], [ -90.641329086458072, 34.387695049649331 ], [ -90.641351190095548, 34.387746037915349 ], [ -90.641375273972557, 34.387797340244347 ], [ -90.641404719330581, 34.387846546171211 ], [ -90.641440475488849, 34.387895324749472 ], [ -90.641476339574865, 34.387940258459089 ], [ -90.641514121214414, 34.387987702106827 ], [ -90.641549276119491, 34.388034271066054 ], [ -90.64158272068272, 34.388082730052545 ], [ -90.64161179727806, 34.388133303694289 ], [ -90.6416382383523, 34.388183276557577 ], [ -90.641663662885492, 34.38823405473687 ], [ -90.641689442089486, 34.388284014826539 ], [ -90.641715227946747, 34.388333700064763 ], [ -90.641741007209092, 34.388383660145351 ], [ -90.641766817318754, 34.388432521818665 ], [ -90.641795184878191, 34.388484730693477 ], [ -90.641822928005993, 34.38853555264847 ], [ -90.641849723937042, 34.388584708288889 ], [ -90.641875611220996, 34.388630823485492 ], [ -90.641906544076321, 34.388686103816113 ], [ -90.641933355520933, 34.388734709789198 ], [ -90.64195916584049, 34.388783571428398 ], [ -90.641985591886879, 34.388834093880583 ], [ -90.642010723847775, 34.388883491477799 ], [ -90.642038414367576, 34.388936236293361 ], [ -90.64206514120157, 34.388987863525742 ], [ -90.642090288645491, 34.389036712358383 ], [ -90.642115675160738, 34.389088863687952 ], [ -90.642140768743104, 34.389139634491691 ], [ -90.642166562789782, 34.389189045725274 ], [ -90.642194969378963, 34.389239880392225 ], [ -90.642225394776958, 34.389289655878649 ], [ -90.64225756146557, 34.389336441108867 ], [ -90.642292694212244, 34.389383833462105 ], [ -90.642327773057758, 34.389433148687615 ], [ -90.642359608341863, 34.389479927503508 ], [ -90.64239139740566, 34.389528355268389 ], [ -90.642421508033834, 34.389577573789872 ], [ -90.64244923642714, 34.389628946178043 ], [ -90.642474060463499, 34.389677513727364 ], [ -90.64250011044544, 34.389729676870232 ], [ -90.642525636085608, 34.389776883962995 ], [ -90.642556029963586, 34.389827757761317 ], [ -90.642587149637137, 34.38987644664779 ], [ -90.642620934709399, 34.389924636956167 ], [ -90.642658063581393, 34.389971793614954 ], [ -90.642695900687812, 34.390017314066867 ], [ -90.642734701548846, 34.390063952982821 ], [ -90.642771845959743, 34.390110559959119 ], [ -90.642813659206723, 34.390156157016321 ], [ -90.642864863947196, 34.390197814060649 ], [ -90.642936140354408, 34.390232987180426 ] ] } }
]
}
