{
"type": "FeatureCollection",
"name": "LM_15_CVB_20220408_CS_6034_5990_transects",
"crs": { "type": "name", "properties": { "name": "urn:ogc:def:crs:OGC:1.3:CRS84" } },
"features": [
{ "type": "Feature", "properties": { "station_id": 0, "station_ft": 7967.5, "width_ft": 1830.5, "flag": "ok", "lon": -91.092419, "lat": 33.959689, "survey_id": "LM_15_CVB_20220408_CS_6034_5990", "date": "2022-04-08 00:00:00+00:00", "method": "lines" }, "geometry": { "type": "LineString", "coordinates": [ [ -91.078936349465792, 33.963355395642203 ], [ -91.07909940760436, 33.963330088340776 ], [ -91.079251890178966, 33.963275882534901 ], [ -91.079408437664682, 33.963230114776302 ], [ -91.079559471146823, 33.963176163499213 ], [ -91.0797160492953, 33.963130230181044 ], [ -91.079880172320784, 33.963106015285547 ], [ -91.080045493710713, 33.963086957897005 ], [ -91.080194020062365, 33.96302167230936 ], [ -91.080340648879002, 33.962954338012274 ], [ -91.080498969713261, 33.9629155099827 ], [ -91.080656472112125, 33.962877264615045 ], [ -91.080818249253923, 33.962845202980304 ], [ -91.080969795649779, 33.962789707914929 ], [ -91.081123568926856, 33.962739942926405 ], [ -91.081285201259618, 33.962710300426046 ], [ -91.081445555933058, 33.962674014725827 ], [ -91.081599723151029, 33.96262790074352 ], [ -91.081755718540819, 33.96258337029888 ], [ -91.081913318870065, 33.962541494885706 ], [ -91.082070857017399, 33.962499949618064 ], [ -91.082227481165305, 33.962459563698445 ], [ -91.082383766085016, 33.962414315768143 ], [ -91.082540967152482, 33.962372139964309 ], [ -91.082696979398904, 33.962329642131905 ], [ -91.082852551630424, 33.962282144066442 ], [ -91.083010657328856, 33.962241638142579 ], [ -91.083166283864884, 33.962196668206701 ], [ -91.083320730878611, 33.962148738252623 ], [ -91.083476399416952, 33.962104893709636 ], [ -91.083633218934054, 33.962060547903327 ], [ -91.083791968961933, 33.962025862885135 ], [ -91.083951405961542, 33.961986749554626 ], [ -91.084110510785976, 33.961951100006637 ], [ -91.084259934840077, 33.961890914962972 ], [ -91.084420703765403, 33.961857151729411 ], [ -91.084581331774572, 33.9618260811827 ], [ -91.084732743906258, 33.961770693216053 ], [ -91.084889149840734, 33.961724616458675 ], [ -91.085047720236034, 33.961688336978959 ], [ -91.085202039827053, 33.961637464588179 ], [ -91.085362863419419, 33.961606199799924 ], [ -91.085521751754442, 33.961568598797811 ], [ -91.08567325061118, 33.961512000167652 ], [ -91.085832837911241, 33.961478983395537 ], [ -91.085991876449526, 33.961439814873877 ], [ -91.086147122444913, 33.961393139577709 ], [ -91.08630427995837, 33.961353817175038 ], [ -91.086463740158564, 33.96131761247581 ], [ -91.086613580145652, 33.961256323051032 ], [ -91.08676962045017, 33.961213791957995 ], [ -91.086927262554838, 33.961173421798982 ], [ -91.087087150571392, 33.961137213675926 ], [ -91.08724234952048, 33.96109281822023 ], [ -91.087400504472626, 33.961050905366079 ], [ -91.087556987699486, 33.961010101546101 ], [ -91.087712486545684, 33.960962350788769 ], [ -91.087870340750001, 33.960923682060923 ], [ -91.088027117144748, 33.960882435890895 ], [ -91.088187062603808, 33.960845374926826 ], [ -91.088343201727383, 33.960803060318298 ], [ -91.088496417649736, 33.960750871614465 ], [ -91.08864911952432, 33.960696486989022 ], [ -91.088806783450806, 33.960655124394151 ], [ -91.088966175002881, 33.960618890742147 ], [ -91.089125201408095, 33.960586038145102 ], [ -91.089283513900881, 33.960543434029525 ], [ -91.089434844063078, 33.960490760792624 ], [ -91.08959229353944, 33.960447503449934 ], [ -91.089748003138027, 33.960401562760808 ], [ -91.089903875071272, 33.960358945802852 ], [ -91.090056595516089, 33.960306840252755 ], [ -91.090217830245621, 33.960274110610037 ], [ -91.090385092149873, 33.960259067303028 ], [ -91.090545758195645, 33.96022543286665 ], [ -91.09070587313785, 33.960189082530569 ], [ -91.090848635844182, 33.960115025874906 ], [ -91.090998187132257, 33.960051424941511 ], [ -91.091159265320357, 33.960019684036808 ], [ -91.091325909188043, 33.960002005318557 ], [ -91.091487962546097, 33.95997240096937 ], [ -91.091645564180695, 33.959927985185182 ], [ -91.091798586872528, 33.959880520418587 ], [ -91.091951964116049, 33.959832063373007 ], [ -91.092103280812708, 33.959770648207048 ], [ -91.092259230516476, 33.959729621743833 ], [ -91.092418679903659, 33.959689178442048 ], [ -91.092575049084715, 33.959650951919286 ], [ -91.092740470167669, 33.959629348968498 ], [ -91.092895063589182, 33.959580526234539 ], [ -91.093044859317374, 33.959518899324038 ], [ -91.09320111021492, 33.959474737820841 ], [ -91.093359486664781, 33.959436140898866 ], [ -91.093514661037801, 33.95938970381799 ], [ -91.093667501595618, 33.959340478934884 ], [ -91.093825076699488, 33.959300759426228 ], [ -91.093982359408386, 33.959257743645644 ] ] } },
{ "type": "Feature", "properties": { "station_id": 1, "station_ft": 7427.9, "width_ft": 1654.3, "flag": "ok", "lon": -91.094234, "lat": 33.964567, "survey_id": "LM_15_CVB_20220408_CS_6034_5990", "date": "2022-04-08 00:00:00+00:00", "method": "lines" }, "geometry": { "type": "LineString", "coordinates": [ [ -91.078901743018633, 33.964370859141887 ], [ -91.079065814216094, 33.964378218907342 ], [ -91.079231292462211, 33.96438438799094 ], [ -91.079395448772274, 33.964394054775362 ], [ -91.079561005373321, 33.964390358151562 ], [ -91.079725619342966, 33.964403237558365 ], [ -91.079890463111354, 33.964404765705275 ], [ -91.080055165846019, 33.964397583686093 ], [ -91.080220174740447, 33.96440290231952 ], [ -91.080385848099624, 33.964389916083299 ], [ -91.080550033496806, 33.964399059150935 ], [ -91.08071565774128, 33.964384175902794 ], [ -91.080879315149758, 33.964408408316721 ], [ -91.081043595714092, 33.964420875072705 ], [ -91.081208602141601, 33.964414651621645 ], [ -91.081373071924048, 33.96441486108337 ], [ -91.08153869837281, 33.964407781454469 ], [ -91.081704177035149, 33.964413975156418 ], [ -91.081869027102201, 33.964419924531846 ], [ -91.082033061646896, 33.964415656846036 ], [ -91.082198083307617, 33.964414762855426 ], [ -91.082363950957429, 33.964416446442492 ], [ -91.082529046932478, 33.964424152365446 ], [ -91.082693874124942, 33.964431310657751 ], [ -91.082857536178665, 33.96443712890553 ], [ -91.083023444644994, 33.964439636275017 ], [ -91.08318796957704, 33.964438606044901 ], [ -91.083352948902686, 33.964436831749751 ], [ -91.083518027858588, 33.964438765612314 ], [ -91.083682561945309, 33.964438779564233 ], [ -91.083846761578059, 33.964445802199883 ], [ -91.084012488382953, 33.964457679175837 ], [ -91.084177577360975, 33.964453237216183 ], [ -91.084342153690656, 33.964454239031042 ], [ -91.084506683764573, 33.964450102060496 ], [ -91.084671803335738, 33.964456650975762 ], [ -91.08483575646855, 33.964465652702671 ], [ -91.085000504453234, 33.964471159447974 ], [ -91.085165746531715, 33.964461741364481 ], [ -91.085330669596416, 33.964460953764139 ], [ -91.085494845176797, 33.964465226415328 ], [ -91.085660407840777, 33.964480922049312 ], [ -91.08582499312223, 33.964471754121085 ], [ -91.085990293156442, 33.964472612270534 ], [ -91.086154469835634, 33.964484495838718 ], [ -91.086319650470514, 33.964490465174521 ], [ -91.086485540519419, 33.964483377276594 ], [ -91.086649505443873, 33.964482400839628 ], [ -91.086814375470482, 33.964483205519144 ], [ -91.086979395780887, 33.96448596001607 ], [ -91.087143941287238, 33.964490943131572 ], [ -91.087308806544229, 33.964487404401787 ], [ -91.087474395075873, 33.964491034668406 ], [ -91.087639144062564, 33.964496756950339 ], [ -91.087804783571656, 33.964498682526525 ], [ -91.087969376614794, 33.964497892510828 ], [ -91.088133187257881, 33.964498069930769 ], [ -91.088298539015483, 33.964504777536696 ], [ -91.088463524809043, 33.964499945498318 ], [ -91.088628888028197, 33.964489340990575 ], [ -91.088793207415975, 33.964491135400159 ], [ -91.088958026207521, 33.964497157507019 ], [ -91.089123422752863, 33.964493998948832 ], [ -91.089288050885983, 33.964508431459713 ], [ -91.089451920752282, 33.964526550345958 ], [ -91.089618124486208, 33.964521434303883 ], [ -91.089783231640482, 33.964519073608763 ], [ -91.089948217161435, 33.964506765717587 ], [ -91.090112379221225, 33.964513148230793 ], [ -91.090276400510447, 33.964525989205796 ], [ -91.09044241889444, 33.964526094076795 ], [ -91.090606700182292, 33.964519917482598 ], [ -91.09077172223644, 33.96453396061986 ], [ -91.090937196454263, 33.964539564932856 ], [ -91.091100687395269, 33.964537239465358 ], [ -91.091266003299069, 33.96452877469536 ], [ -91.091430589106508, 33.964523391196444 ], [ -91.091596292540345, 33.964532511065556 ], [ -91.091760431575921, 33.964532625736858 ], [ -91.091926746492703, 33.964543829385974 ], [ -91.092091396936112, 33.964545727338759 ], [ -91.092256887050254, 33.964534594276131 ], [ -91.092421669863711, 33.964540310844846 ], [ -91.092586166160075, 33.964550919877503 ], [ -91.092749374442391, 33.96455757972771 ], [ -91.092915510194516, 33.964559686489586 ], [ -91.093080445840528, 33.964556662493287 ], [ -91.093245079888192, 33.964553063145232 ], [ -91.0934097860778, 33.964553805003447 ], [ -91.0935743943962, 33.964565923022356 ], [ -91.093739405164499, 33.96456380463966 ], [ -91.093904749517677, 33.964569625741007 ], [ -91.094070096762167, 33.96456835590007 ], [ -91.094234423291297, 33.964567285981055 ], [ -91.094399212358482, 33.964573685942092 ], [ -91.094564955238241, 33.96456873105376 ], [ -91.094729940884548, 33.964563918564245 ], [ -91.094892967593765, 33.964579809480796 ], [ -91.095058565946076, 33.964569689834299 ], [ -91.095223413069832, 33.964601039666839 ], [ -91.095389379435048, 33.964580501674398 ] ] } },
{ "type": "Feature", "properties": { "station_id": 2, "station_ft": 6610.9, "width_ft": 2289.5, "flag": "ok", "lon": -91.093225, "lat": 33.96939, "survey_id": "LM_15_CVB_20220408_CS_6034_5990", "date": "2022-04-08 00:00:00+00:00", "method": "lines" }, "geometry": { "type": "LineString", "coordinates": [ [ -91.078868248571013, 33.965751927727055 ], [ -91.079025650323672, 33.965792221067019 ], [ -91.079184014425039, 33.965833167407041 ], [ -91.079338629109131, 33.965879027190809 ], [ -91.079496280599656, 33.965921351411438 ], [ -91.079653339810676, 33.96596398194184 ], [ -91.079813035892769, 33.965998791538127 ], [ -91.079969955593754, 33.966040405556832 ], [ -91.080127475472111, 33.966078991925706 ], [ -91.08028726573076, 33.966113141296688 ], [ -91.080445742578192, 33.966151749395713 ], [ -91.080603452081519, 33.966193164874518 ], [ -91.080762938221653, 33.966226518498537 ], [ -91.080920650535006, 33.96626809853516 ], [ -91.081072727792233, 33.966325376172854 ], [ -91.081229016926045, 33.966366387464404 ], [ -91.081388924374096, 33.966398857796825 ], [ -91.081548135201999, 33.96643825697759 ], [ -91.081707390639821, 33.96647532065969 ], [ -91.081865948935956, 33.966511838427742 ], [ -91.082023969655708, 33.966550832217955 ], [ -91.08218183159687, 33.966590705783311 ], [ -91.08233927594614, 33.966631681579791 ], [ -91.082498644063023, 33.96666646171748 ], [ -91.082654216501354, 33.966712092397593 ], [ -91.082808622064221, 33.96676011999984 ], [ -91.082964790437273, 33.966802229700662 ], [ -91.083125449190561, 33.966837413169323 ], [ -91.08328490968465, 33.966874995546171 ], [ -91.083445475440627, 33.96690707421638 ], [ -91.083599074459698, 33.966953237719608 ], [ -91.083756615686426, 33.966993881131621 ], [ -91.083913955928907, 33.967037987525558 ], [ -91.084072673251654, 33.967073539506423 ], [ -91.084231042516095, 33.967114534270358 ], [ -91.084387899114461, 33.967156005965769 ], [ -91.084545858413719, 33.967195380931912 ], [ -91.084704063019743, 33.967232612109228 ], [ -91.084865711650181, 33.967263913280604 ], [ -91.085023681518408, 33.967304442452843 ], [ -91.085177498754447, 33.967356537553471 ], [ -91.08532984601311, 33.967406333469633 ], [ -91.085489479604632, 33.967444790926301 ], [ -91.085649384747796, 33.967480278606438 ], [ -91.085808642498378, 33.967513379120852 ], [ -91.085967043768235, 33.967554014425261 ], [ -91.086124370777327, 33.967592568101807 ], [ -91.08628496794347, 33.967627940728889 ], [ -91.086443533010424, 33.967660962613664 ], [ -91.086600788730024, 33.967706357086954 ], [ -91.086754546570631, 33.967755208584478 ], [ -91.086917098496215, 33.967784083554271 ], [ -91.087078115430131, 33.967814588699149 ], [ -91.087232265740013, 33.967863107223856 ], [ -91.087388222225059, 33.967910653433314 ], [ -91.087551522504114, 33.967934521167713 ], [ -91.087705699308302, 33.967982186966267 ], [ -91.087860265798739, 33.968032791041658 ], [ -91.08801904422377, 33.968071195443947 ], [ -91.088177110405056, 33.968107350130104 ], [ -91.088335767818634, 33.968143171918669 ], [ -91.088493138458588, 33.968186421164908 ], [ -91.088651572122814, 33.96822309498112 ], [ -91.088813142291187, 33.96825628828266 ], [ -91.08897146390423, 33.968291396377843 ], [ -91.089126317815897, 33.96834095218788 ], [ -91.089281695165283, 33.968389845552117 ], [ -91.089436560359829, 33.968436845902723 ], [ -91.089594546971085, 33.968475115186038 ], [ -91.089756229870744, 33.968502370735628 ], [ -91.089916455284623, 33.96853633896675 ], [ -91.090069588313412, 33.968588790025123 ], [ -91.090226668771749, 33.968632560820929 ], [ -91.090386692223774, 33.968666035627862 ], [ -91.090549922305385, 33.968692839753118 ], [ -91.090704105746056, 33.968740914635809 ], [ -91.09086150670403, 33.968783665693593 ], [ -91.091021540820677, 33.968814501666046 ], [ -91.091177188645304, 33.96886036805261 ], [ -91.091326679989109, 33.968922237726872 ], [ -91.091487682222052, 33.96895433110091 ], [ -91.091653079217053, 33.968972574603647 ], [ -91.091808448032822, 33.969016682979067 ], [ -91.091965593923263, 33.96906385809725 ], [ -91.09212481801859, 33.969100001443934 ], [ -91.092282017772561, 33.969138465037801 ], [ -91.092438810925316, 33.969179376845126 ], [ -91.092599943157211, 33.969215039898479 ], [ -91.09275569727366, 33.969257715733896 ], [ -91.092910464969734, 33.969304437308324 ], [ -91.093068741709288, 33.969341519279617 ], [ -91.093225109446891, 33.969390236528149 ], [ -91.093383871710671, 33.969422506221484 ], [ -91.093541063608484, 33.969463606182217 ], [ -91.093699131955262, 33.969503106583851 ], [ -91.093858118957925, 33.969545871028515 ], [ -91.094019803672012, 33.96957295595071 ], [ -91.094177772646262, 33.969612429301307 ], [ -91.094328764559947, 33.969672060088861 ], [ -91.094484119772432, 33.969717869075758 ], [ -91.094652052291394, 33.969731778927311 ] ] } },
{ "type": "Feature", "properties": { "station_id": 3, "station_ft": 5746.6, "width_ft": 2270.3, "flag": "ok", "lon": -91.090821, "lat": 33.972643, "survey_id": "LM_15_CVB_20220408_CS_6034_5990", "date": "2022-04-08 00:00:00+00:00", "method": "lines" }, "geometry": { "type": "LineString", "coordinates": [ [ -91.078716926091332, 33.967935750379397 ], [ -91.07887350464938, 33.967983303646676 ], [ -91.079031093823019, 33.968025628799722 ], [ -91.07918274773391, 33.968079558436315 ], [ -91.079328107816082, 33.968145287683427 ], [ -91.079469330244947, 33.968216948811175 ], [ -91.07961226151032, 33.968287748346945 ], [ -91.079758596323501, 33.968351767234218 ], [ -91.079912648776286, 33.968400708452521 ], [ -91.080067695613891, 33.96845024658095 ], [ -91.080213572032932, 33.968514487680991 ], [ -91.080363208519259, 33.968571395998971 ], [ -91.080516046480213, 33.968624657752585 ], [ -91.080666882089147, 33.96867894752279 ], [ -91.080814094644239, 33.968741338819704 ], [ -91.080959426181138, 33.96880736830839 ], [ -91.081113589635862, 33.968857570408233 ], [ -91.081263879511468, 33.968913457599932 ], [ -91.081413446678539, 33.968969705112144 ], [ -91.081556835942692, 33.969039840541036 ], [ -91.081707845816453, 33.969095089917566 ], [ -91.081865261208605, 33.969139913369112 ], [ -91.082009512709305, 33.969206745143154 ], [ -91.082158254992009, 33.969266541659429 ], [ -91.082308058154922, 33.969323281588018 ], [ -91.08245887557969, 33.96937905410423 ], [ -91.082610250654639, 33.969434355133124 ], [ -91.082755496306149, 33.969497827098259 ], [ -91.082902251912174, 33.969560465674803 ], [ -91.083052190488516, 33.969617478835758 ], [ -91.083203925335425, 33.969672501961284 ], [ -91.083351541770341, 33.969735382676951 ], [ -91.083501799368264, 33.969791073468322 ], [ -91.083667345037028, 33.969818725471853 ], [ -91.083810806677917, 33.969889214813506 ], [ -91.083947006595338, 33.969970272087075 ], [ -91.084096141883137, 33.970029542739802 ], [ -91.08425192050737, 33.970075307101695 ], [ -91.084405839449218, 33.970127128418198 ], [ -91.084555490409031, 33.970185047541797 ], [ -91.0847019222158, 33.970247988844278 ], [ -91.08485007194858, 33.970307538661935 ], [ -91.085002189932268, 33.970360826227932 ], [ -91.085153947801615, 33.970414362829075 ], [ -91.085301157839709, 33.970475759707547 ], [ -91.085450138805029, 33.970536100686722 ], [ -91.085597959284101, 33.970595623657744 ], [ -91.085754247750046, 33.970642921931265 ], [ -91.085900264468279, 33.970707320333666 ], [ -91.086048517666711, 33.970767253021499 ], [ -91.086194658828248, 33.970830743348415 ], [ -91.086342115422539, 33.970893675504442 ], [ -91.086493246869267, 33.970947022238477 ], [ -91.086648437421061, 33.970996936976398 ], [ -91.086800499229952, 33.971051074605477 ], [ -91.086956187003949, 33.971097330117807 ], [ -91.087105076069037, 33.971154482650292 ], [ -91.087249811311693, 33.97122292622953 ], [ -91.087388719168374, 33.971300006139231 ], [ -91.087534290326957, 33.971362207327097 ], [ -91.087680121517991, 33.971427730764958 ], [ -91.087836372035056, 33.971474229629173 ], [ -91.087997700146985, 33.971512920377712 ], [ -91.088144406354346, 33.971572942038968 ], [ -91.088280421798586, 33.97165476549938 ], [ -91.088423510612841, 33.971726982655824 ], [ -91.088574298726186, 33.971782307816689 ], [ -91.088742176581434, 33.971808152657836 ], [ -91.088898973038994, 33.971852859935439 ], [ -91.089035392852537, 33.971931823051818 ], [ -91.08918109667492, 33.971997510454813 ], [ -91.089336567778446, 33.972045111173351 ], [ -91.089484614280892, 33.972107321866133 ], [ -91.089632737776881, 33.97216683807185 ], [ -91.089777386628683, 33.972232559191497 ], [ -91.089926134018114, 33.972291852127853 ], [ -91.090076904262077, 33.972348603593666 ], [ -91.090227830765841, 33.972404282869491 ], [ -91.090379127081178, 33.972457101767802 ], [ -91.090527582440984, 33.972516807774049 ], [ -91.090672791105689, 33.972582304404881 ], [ -91.09082096014869, 33.972643110804924 ], [ -91.090972280398361, 33.972698539708951 ], [ -91.091117820704312, 33.972764143755185 ], [ -91.091272247431078, 33.972812792430034 ], [ -91.091428476245795, 33.972860001752011 ], [ -91.091577013538753, 33.972917562085776 ], [ -91.091727680561476, 33.972973654010843 ], [ -91.091876358438924, 33.973035911993477 ], [ -91.092023004266395, 33.973095847306759 ], [ -91.092174162332455, 33.973151357757743 ], [ -91.092325735898328, 33.97320538150656 ], [ -91.092476866286077, 33.973261386703633 ], [ -91.092626344324117, 33.97332078182032 ], [ -91.092776091437202, 33.973377069252017 ], [ -91.092923762366866, 33.973437272125906 ], [ -91.093072122446841, 33.973496947666611 ] ] } },
{ "type": "Feature", "properties": { "station_id": 4, "station_ft": 4836.7, "width_ft": 2164.2, "flag": "ok", "lon": -91.088951, "lat": 33.975279, "survey_id": "LM_15_CVB_20220408_CS_6034_5990", "date": "2022-04-08 00:00:00+00:00", "method": "lines" }, "geometry": { "type": "LineString", "coordinates": [ [ -91.078477181245887, 33.970918273005601 ], [ -91.078624380562374, 33.970978880989506 ], [ -91.078770872257905, 33.97104158017369 ], [ -91.078923479166548, 33.971094378255003 ], [ -91.079074402544407, 33.971150895330645 ], [ -91.079222912786278, 33.971210477695976 ], [ -91.079364867971449, 33.971282327362673 ], [ -91.079517364118587, 33.971333751406334 ], [ -91.079647670970076, 33.971423669945942 ], [ -91.079803825927243, 33.97147111453166 ], [ -91.079960118942765, 33.971519107124834 ], [ -91.080113075475069, 33.971570251754535 ], [ -91.080244723958302, 33.971658925482679 ], [ -91.080407759537394, 33.971693494849603 ], [ -91.080542107355427, 33.971777727052732 ], [ -91.080685732487751, 33.971844180067599 ], [ -91.080838552004323, 33.971898347519307 ], [ -91.0809902571051, 33.971953374417488 ], [ -91.081129123851824, 33.972026257733674 ], [ -91.08127521447463, 33.972091677218096 ], [ -91.081433350900042, 33.97213531484563 ], [ -91.081571449366834, 33.972210840265092 ], [ -91.081716960442321, 33.972277719648936 ], [ -91.081860992603453, 33.972345349830526 ], [ -91.082020100344735, 33.972386754858348 ], [ -91.082168136137568, 33.972448149532084 ], [ -91.08230527133702, 33.972526482899895 ], [ -91.082451835065513, 33.97258926105242 ], [ -91.08260467138642, 33.972641365237713 ], [ -91.082752847437419, 33.972699901329541 ], [ -91.082898263590579, 33.972767108942314 ], [ -91.083045578712131, 33.97282897484174 ], [ -91.083193031955787, 33.972891388765582 ], [ -91.083335383583247, 33.972958889501186 ], [ -91.083487485982161, 33.973013662937333 ], [ -91.083636643812028, 33.973071230012351 ], [ -91.08378091880121, 33.97313981748961 ], [ -91.083927764817204, 33.973200613236195 ], [ -91.084076498287942, 33.973262276302947 ], [ -91.084221584195163, 33.973325418350846 ], [ -91.084372002583564, 33.973383717906977 ], [ -91.08451974841843, 33.973445469401653 ], [ -91.084661685349616, 33.973514318030638 ], [ -91.084804715163273, 33.973583626823014 ], [ -91.084960871137454, 33.973630294866382 ], [ -91.085117720762909, 33.973677068461555 ], [ -91.085264374364954, 33.973738412813717 ], [ -91.085400865863988, 33.973817928545046 ], [ -91.085549780831158, 33.973877472760051 ], [ -91.085694056273525, 33.973945783889455 ], [ -91.085844516221556, 33.974000948481212 ], [ -91.0859916136762, 33.974063911130905 ], [ -91.086139195656656, 33.974125468727131 ], [ -91.086286320541575, 33.974187688876022 ], [ -91.086437537150772, 33.9742425460852 ], [ -91.086580414947818, 33.974313090643349 ], [ -91.086744215198763, 33.974347371889365 ], [ -91.086882279210116, 33.974421736584674 ], [ -91.087029320244369, 33.97448549529463 ], [ -91.087181225035835, 33.974539743325955 ], [ -91.087332785917027, 33.974592399333652 ], [ -91.087465640110651, 33.974678007869819 ], [ -91.087602388307886, 33.97476021247877 ], [ -91.087749103618364, 33.97482053650441 ], [ -91.087918289722978, 33.974848297401309 ], [ -91.088062953946235, 33.974911712421004 ], [ -91.088195514807538, 33.974997541031364 ], [ -91.088348029990897, 33.975053569832347 ], [ -91.088504140080801, 33.975098200618795 ], [ -91.088640442476844, 33.975178262905096 ], [ -91.088794262602235, 33.975232497165983 ], [ -91.088950621956727, 33.975279186794197 ], [ -91.089087463441984, 33.97535674436697 ], [ -91.089220219419516, 33.975442049560016 ], [ -91.089366351487357, 33.97550712909036 ], [ -91.089511862095321, 33.975568970289153 ], [ -91.089972373793202, 33.975724750208848 ], [ -91.090111109933517, 33.975799904966188 ], [ -91.09026262040932, 33.975857531486028 ], [ -91.090418005694829, 33.975905818260856 ], [ -91.090562364303196, 33.975971458111239 ], [ -91.090705890370941, 33.976039959926055 ], [ -91.090849516599732, 33.976108625938082 ], [ -91.090999273850102, 33.976165630346273 ], [ -91.091154672154289, 33.976215153027482 ] ] } },
{ "type": "Feature", "properties": { "station_id": 5, "station_ft": 3947.4, "width_ft": 2286.2, "flag": "ok", "lon": -91.086517, "lat": 33.977115, "survey_id": "LM_15_CVB_20220408_CS_6034_5990", "date": "2022-04-08 00:00:00+00:00", "method": "lines" }, "geometry": { "type": "LineString", "coordinates": [ [ -91.077417386652442, 33.97396395652715 ], [ -91.077538824706565, 33.973989849504555 ], [ -91.077694537881285, 33.974035237545671 ], [ -91.077837613982226, 33.974106670127739 ], [ -91.078003631996623, 33.974130891916161 ], [ -91.07815825926977, 33.974180380782862 ], [ -91.078303907333634, 33.974247867387255 ], [ -91.078455531080522, 33.974300836917699 ], [ -91.078613415555921, 33.974341704685479 ], [ -91.07876418196085, 33.974398443000801 ], [ -91.07891355575569, 33.974458019536129 ], [ -91.079065169206984, 33.97450972439561 ], [ -91.079220138536286, 33.974556598950173 ], [ -91.079372530069563, 33.974610496692968 ], [ -91.079523454470959, 33.974666381144594 ], [ -91.079680532854852, 33.974709230422967 ], [ -91.079828331236769, 33.97476955826906 ], [ -91.079985377374044, 33.974812517339842 ], [ -91.080137651510086, 33.974867980832329 ], [ -91.080291866171393, 33.974915161526255 ], [ -91.080443691270048, 33.974968236448618 ], [ -91.080588172474521, 33.975037678357921 ], [ -91.080743606462875, 33.975084769034844 ], [ -91.080885276031069, 33.975156975594984 ], [ -91.081034661138332, 33.975217649350704 ], [ -91.08119672982977, 33.975250106633474 ], [ -91.081357921567658, 33.975284107979775 ], [ -91.081499285055017, 33.975358954524346 ], [ -91.081649762118701, 33.975416213024253 ], [ -91.081814841795278, 33.975442111327411 ], [ -91.081964786698563, 33.975498740688352 ], [ -91.082117204656058, 33.975551562893671 ], [ -91.08226670849659, 33.975610420495457 ], [ -91.08241204640683, 33.975675706086314 ], [ -91.082563273403395, 33.975731722866271 ], [ -91.082717636068224, 33.97578052057888 ], [ -91.08287416378964, 33.975824084028545 ], [ -91.083025299260925, 33.975880951856439 ], [ -91.083182861605707, 33.975922145642663 ], [ -91.08333752807863, 33.975971572706563 ], [ -91.083483209141335, 33.976034491060517 ], [ -91.083628324478667, 33.976104310452733 ], [ -91.083776921650411, 33.976164930652679 ], [ -91.083935180302021, 33.976206449188133 ], [ -91.084090341948738, 33.976252024458276 ], [ -91.084245850601803, 33.976299632213184 ], [ -91.084398155237224, 33.976350445405146 ], [ -91.084548722075297, 33.976406051740931 ], [ -91.084698322673958, 33.976464355820028 ], [ -91.084844453418967, 33.976529469580854 ], [ -91.084998617239634, 33.976577742720259 ], [ -91.085155659358705, 33.976623388992493 ], [ -91.085307782432579, 33.976675824045913 ], [ -91.085459458526614, 33.976730075560759 ], [ -91.08561432917358, 33.97677620061642 ], [ -91.085761139500946, 33.976839577243382 ], [ -91.085908431486757, 33.976901466795354 ], [ -91.086065372558309, 33.976946699604007 ], [ -91.086223641827857, 33.976985329244215 ], [ -91.086373556555458, 33.977045388267477 ], [ -91.086516961526797, 33.977115297620465 ], [ -91.086670907865056, 33.97716494393871 ], [ -91.086830336035717, 33.977203977705699 ], [ -91.086979091630454, 33.977263439042112 ], [ -91.087128702107037, 33.977318828067048 ], [ -91.087285125102539, 33.977364914444742 ], [ -91.087441280584656, 33.977410589351372 ], [ -91.087590277742734, 33.977471092455659 ], [ -91.087740048836793, 33.977525957747673 ], [ -91.087895282985031, 33.9775755675781 ], [ -91.088042189463891, 33.977638335922592 ], [ -91.08819525370248, 33.977688618613939 ], [ -91.088351647299874, 33.977735033771211 ], [ -91.088503477159037, 33.977787521628365 ], [ -91.088654388431252, 33.977840619874804 ], [ -91.08881092414704, 33.977887994623103 ], [ -91.088965279808889, 33.977935163481114 ], [ -91.089106853465069, 33.978010136915998 ] ] } },
{ "type": "Feature", "properties": { "station_id": 6, "station_ft": 2771.2, "width_ft": 2021.2, "flag": "ok", "lon": -91.08207, "lat": 33.979182, "survey_id": "LM_15_CVB_20220408_CS_6034_5990", "date": "2022-04-08 00:00:00+00:00", "method": "lines" }, "geometry": { "type": "LineString", "coordinates": [ [ -91.076243322132711, 33.976326441129366 ], [ -91.076380439200236, 33.976402583174327 ], [ -91.076515980341654, 33.976479531552677 ], [ -91.076657117117961, 33.97655133418349 ], [ -91.076798356429833, 33.976623575987226 ], [ -91.076941363042934, 33.976690338138035 ], [ -91.077092250530853, 33.976749193667104 ], [ -91.077236793748028, 33.97681440813647 ], [ -91.077367143047852, 33.976900921751024 ], [ -91.077507717697671, 33.976972506811272 ], [ -91.077651931309958, 33.97704129472357 ], [ -91.077801559995578, 33.977099497951741 ], [ -91.077939574794371, 33.977176154797135 ], [ -91.078085058692238, 33.977239383659111 ], [ -91.078229603361009, 33.977304458999285 ], [ -91.078358695945525, 33.977394332018626 ], [ -91.07852635422725, 33.977428187900514 ], [ -91.078666022898474, 33.977501398994129 ], [ -91.078794902133538, 33.977589430971456 ], [ -91.078948808055173, 33.977642413040833 ], [ -91.079079484257534, 33.977728345834457 ], [ -91.079225539213482, 33.977792448880244 ], [ -91.079362575387051, 33.977870154932468 ], [ -91.079515233868108, 33.977923692891771 ], [ -91.079658327797759, 33.97799240226518 ], [ -91.079795624266524, 33.97806947336003 ], [ -91.079938187233012, 33.978137801563264 ], [ -91.080077764707795, 33.978211698563342 ], [ -91.080216970783837, 33.978284553661176 ], [ -91.08035986736418, 33.97835320840931 ], [ -91.080505897519558, 33.978418079988508 ], [ -91.080664110754768, 33.978465482885618 ], [ -91.080790025234691, 33.978557240619672 ], [ -91.080946940579594, 33.978606904007393 ], [ -91.081070489114737, 33.978703512641218 ], [ -91.081233319828996, 33.978743137913341 ], [ -91.081364546086178, 33.978827415956587 ], [ -91.081509805785373, 33.978894461944591 ], [ -91.081644008793745, 33.978972098795765 ], [ -91.081788970168958, 33.979039009227755 ], [ -91.081933459214383, 33.979104602490402 ], [ -91.082070398310933, 33.979181948151705 ], [ -91.08220873366686, 33.97925670131724 ], [ -91.082365762828587, 33.979307874081293 ], [ -91.082506504378969, 33.979378683304105 ], [ -91.082644510869883, 33.97945349387048 ], [ -91.082776114649278, 33.979539197038292 ], [ -91.082924219109842, 33.979599409187685 ], [ -91.083071662569168, 33.97966319712571 ], [ -91.08320420729828, 33.979743205312793 ], [ -91.083354733317265, 33.97980120420074 ], [ -91.083500337718476, 33.979865854792486 ], [ -91.083632545526541, 33.979952515298891 ], [ -91.083779918897392, 33.980012015933127 ], [ -91.083914577048617, 33.980092121342814 ], [ -91.084058511737865, 33.980161974377076 ], [ -91.084204825754966, 33.98022461384474 ], [ -91.084346984894339, 33.980294945275908 ], [ -91.084491553314493, 33.980361716938305 ], [ -91.084635093643129, 33.980427724782146 ], [ -91.084765100252667, 33.980515139464337 ], [ -91.084924059614465, 33.980560416327187 ], [ -91.085058131077631, 33.98063733616717 ], [ -91.085196008364903, 33.980719481426462 ] ] } },
{ "type": "Feature", "properties": { "station_id": 7, "station_ft": 1598.2, "width_ft": 1919.2, "flag": "ok", "lon": -91.078852, "lat": 33.981333, "survey_id": "LM_15_CVB_20220408_CS_6034_5990", "date": "2022-04-08 00:00:00+00:00", "method": "lines" }, "geometry": { "type": "LineString", "coordinates": [ [ -91.074607122323172, 33.978280168874036 ], [ -91.07472888506274, 33.978373139807495 ], [ -91.074857181083061, 33.978458872362609 ], [ -91.074987847596162, 33.978544012599315 ], [ -91.075112347224092, 33.978633036787336 ], [ -91.075247199575188, 33.978714002572069 ], [ -91.075376019914472, 33.978799180565034 ], [ -91.075481331826438, 33.978908215501917 ], [ -91.075591412426675, 33.979011808668396 ], [ -91.075731035792799, 33.979087386312742 ], [ -91.075866357955036, 33.979169089643591 ], [ -91.075981111306064, 33.979267597455753 ], [ -91.076109849083437, 33.979354424997467 ], [ -91.076243633132904, 33.97943363718867 ], [ -91.076372414400126, 33.979521672264887 ], [ -91.076485993309049, 33.979621395664168 ], [ -91.076597551760585, 33.979724072017589 ], [ -91.076713013266343, 33.979824058801455 ], [ -91.07686110693227, 33.979891038166294 ], [ -91.076991962487369, 33.979974663181757 ], [ -91.077104460191478, 33.980075217446263 ], [ -91.077217718773724, 33.980175876092126 ], [ -91.077338719339537, 33.980271651901973 ], [ -91.077473099214373, 33.980350887071182 ], [ -91.077623928605064, 33.98041743604648 ], [ -91.077744573326669, 33.980510163654991 ], [ -91.077859984283023, 33.98060792371011 ], [ -91.077980390161727, 33.980703482492466 ], [ -91.078102706667849, 33.980794852706339 ], [ -91.07821906641243, 33.980891617670856 ], [ -91.078339239479774, 33.980986820487253 ], [ -91.078469108706997, 33.981070532808467 ], [ -91.078609894534992, 33.981146320056105 ], [ -91.07871881207015, 33.981252032419668 ], [ -91.078851595537245, 33.981333034645161 ], [ -91.078983078452708, 33.981416269631509 ], [ -91.079100896967191, 33.981513683931936 ], [ -91.079215396631653, 33.98161246515032 ], [ -91.079340171683896, 33.981701895290016 ], [ -91.079474639065708, 33.981782995705942 ], [ -91.079604517337259, 33.981867476669784 ], [ -91.079719495751021, 33.98196804047268 ], [ -91.079845572392898, 33.982055209218032 ], [ -91.079979497427502, 33.982138401251724 ], [ -91.080103443310094, 33.98222701161302 ], [ -91.080226997079166, 33.982319883148513 ], [ -91.080354836776493, 33.98240484267869 ], [ -91.080485750567618, 33.982490580376663 ], [ -91.080596261013994, 33.982593094374216 ] ] } },
{ "type": "Feature", "properties": { "station_id": 8, "station_ft": 540.5, "width_ft": 1908.6, "flag": "ok", "lon": -91.075067, "lat": 33.98233, "survey_id": "LM_15_CVB_20220408_CS_6034_5990", "date": "2022-04-08 00:00:00+00:00", "method": "lines" }, "geometry": { "type": "LineString", "coordinates": [ [ -91.071501848144621, 33.979471599093067 ], [ -91.071611329206831, 33.979575034454079 ], [ -91.071736939679042, 33.979663093438049 ], [ -91.071853981320913, 33.979759503398014 ], [ -91.071957677092257, 33.979868991015209 ], [ -91.072062706308657, 33.979976216658407 ], [ -91.072212335014569, 33.980045637432625 ], [ -91.072350444768503, 33.98012177794547 ], [ -91.072471685722519, 33.98021557823553 ], [ -91.072556067505104, 33.980341915933117 ], [ -91.072688865231441, 33.980425397743225 ], [ -91.07280810004076, 33.980519759691617 ], [ -91.072922586420347, 33.980617996979241 ], [ -91.073040325770222, 33.980714813591632 ], [ -91.073154796033265, 33.980815001708905 ], [ -91.073299299792851, 33.980886567887843 ], [ -91.073416748906467, 33.980984017862419 ], [ -91.073518995462692, 33.981093209912224 ], [ -91.07365224223048, 33.981175066066193 ], [ -91.073759017394295, 33.981281648621575 ], [ -91.073878777669037, 33.9813754293477 ], [ -91.074002842099077, 33.98146720514184 ], [ -91.074131315066339, 33.981553788381461 ], [ -91.074257359581054, 33.981641843012454 ], [ -91.074352359650021, 33.981759678771162 ], [ -91.074483153747252, 33.981843774701915 ], [ -91.074596936306307, 33.981944158509997 ], [ -91.074723794791808, 33.98203086082993 ], [ -91.074827820278273, 33.982139436994885 ], [ -91.074948921667499, 33.982231724615239 ], [ -91.075066515840859, 33.98233024313415 ], [ -91.07519299017342, 33.982418074210905 ], [ -91.075329512557516, 33.982496858809974 ], [ -91.075443631572526, 33.982597760877979 ], [ -91.075543452749841, 33.982708285681703 ], [ -91.075665935884814, 33.982799987249322 ], [ -91.075796684525784, 33.98288611501853 ], [ -91.075922254886521, 33.982976093765785 ], [ -91.076038831985812, 33.9830711555134 ], [ -91.076147998002327, 33.983175027660486 ], [ -91.07626712350995, 33.983271118696635 ], [ -91.076387344002711, 33.983364042166734 ], [ -91.076502036108963, 33.983462246830292 ], [ -91.07662124086707, 33.983559765991494 ], [ -91.076724579819896, 33.983668673707804 ], [ -91.076850772911044, 33.983757960736973 ], [ -91.076972213758566, 33.983850684214083 ], [ -91.077081704911251, 33.983953866557947 ], [ -91.077219187657164, 33.984032588210248 ], [ -91.077358408816622, 33.984110200204626 ], [ -91.077479759292288, 33.984203857719969 ], [ -91.077577889344539, 33.984316643110937 ], [ -91.07766437546573, 33.984440821424435 ] ] } },
{ "type": "Feature", "properties": { "station_id": 9, "station_ft": -464.9, "width_ft": 1719.1, "flag": "ok", "lon": -91.072574, "lat": 33.98428, "survey_id": "LM_15_CVB_20220408_CS_6034_5990", "date": "2022-04-08 00:00:00+00:00", "method": "lines" }, "geometry": { "type": "LineString", "coordinates": [ [ -91.069340059999675, 33.980802924626637 ], [ -91.069451862079873, 33.980907804015587 ], [ -91.069535854883725, 33.981027743310158 ], [ -91.069625711174794, 33.981142893579168 ], [ -91.069739947584083, 33.981243087192794 ], [ -91.06985474813149, 33.981343661380734 ], [ -91.06994178757671, 33.981460999202866 ], [ -91.070033982775627, 33.981575558164124 ], [ -91.070176688561673, 33.981656756520891 ], [ -91.070276411330042, 33.981768330257694 ], [ -91.070360025363911, 33.981886155287356 ], [ -91.070460668772881, 33.981997255447688 ], [ -91.070531867024897, 33.982124992453151 ], [ -91.070631504871116, 33.982234258425414 ], [ -91.070758939288055, 33.982323022349789 ], [ -91.070870047399794, 33.982427436651598 ], [ -91.070969451964544, 33.982536290827248 ], [ -91.071072834785312, 33.982643610067527 ], [ -91.07116411455128, 33.982758860610083 ], [ -91.071255246631139, 33.982872271000474 ], [ -91.071351744420639, 33.982984275172925 ], [ -91.071463379615665, 33.983088383735421 ], [ -91.071566504006512, 33.983192324179427 ], [ -91.071662026864445, 33.983306009928903 ], [ -91.07175865068595, 33.983417326029254 ], [ -91.071872204563292, 33.983518042778485 ], [ -91.071974470709122, 33.983625614954747 ], [ -91.072087893809723, 33.98372641522537 ], [ -91.072171647405042, 33.983844595130734 ], [ -91.072260928018608, 33.983961120795243 ], [ -91.072372453581252, 33.984063664066227 ], [ -91.072472854561525, 33.984172785057218 ], [ -91.072573537454645, 33.98428031213097 ], [ -91.072677293501485, 33.984388258805758 ], [ -91.072761991437446, 33.984508713533629 ], [ -91.072872279639569, 33.984609064888026 ], [ -91.072966216742358, 33.984722210062046 ], [ -91.073064791948823, 33.984833650392481 ], [ -91.073173260618418, 33.984937254379695 ], [ -91.073271760096631, 33.985047513961419 ], [ -91.073381733203149, 33.98514956976404 ], [ -91.07349239932131, 33.985251512208322 ], [ -91.073587072453023, 33.985365613510176 ], [ -91.073683723249786, 33.985475608896593 ], [ -91.075612713634285, 33.987488028914605 ], [ -91.075699538368582, 33.987605665758906 ], [ -91.075787381887139, 33.987722692351987 ], [ -91.07587902913059, 33.987837140029193 ], [ -91.075998866127549, 33.987934544979467 ] ] } },
{ "type": "Feature", "properties": { "station_id": 10, "station_ft": -1440.2, "width_ft": 1658.6, "flag": "ok", "lon": -91.06814, "lat": 33.983835, "survey_id": "LM_15_CVB_20220408_CS_6034_5990", "date": "2022-04-08 00:00:00+00:00", "method": "lines" }, "geometry": { "type": "LineString", "coordinates": [ [ -91.066645524436169, 33.981859407899812 ], [ -91.066740800389283, 33.981972247058678 ], [ -91.066827594191281, 33.9820882425471 ], [ -91.066924146243707, 33.982199782026591 ], [ -91.067000443350722, 33.982322626841835 ], [ -91.067090500648987, 33.982438354747607 ], [ -91.067180748917039, 33.982553230380496 ], [ -91.067291230358734, 33.982657981645339 ], [ -91.067361482716564, 33.982783555210169 ], [ -91.067449069270822, 33.982899545503791 ], [ -91.067524875339387, 33.983022639924656 ], [ -91.067630222315827, 33.983128741377023 ], [ -91.067719416441861, 33.983243566986303 ], [ -91.067792373826208, 33.983369069145603 ], [ -91.067863443165081, 33.983493593527513 ], [ -91.067979635247312, 33.983594793103052 ], [ -91.068042407453078, 33.983724972755205 ], [ -91.068139808612514, 33.983835050151995 ], [ -91.068254431723147, 33.983937824820124 ], [ -91.068318904171178, 33.984066043208159 ], [ -91.068406170386496, 33.984182858708415 ], [ -91.068495907899276, 33.984299329409559 ], [ -91.068571350189032, 33.984421958308481 ], [ -91.068687872324915, 33.984522908187742 ], [ -91.068765779631946, 33.984644560272962 ], [ -91.068846810704684, 33.984764847616731 ], [ -91.06892143128141, 33.984887839112758 ], [ -91.068998287188535, 33.985009854338514 ], [ -91.069100660480132, 33.98511863722986 ], [ -91.069211732765766, 33.98522234005889 ], [ -91.06929952288381, 33.985338381829003 ], [ -91.069365901719735, 33.985465598315123 ], [ -91.069465326958579, 33.985576652399054 ], [ -91.069556988237807, 33.985690087871205 ], [ -91.069609615741356, 33.985825383247615 ], [ -91.06969021889735, 33.985945727551652 ], [ -91.069776926114145, 33.986062160400415 ], [ -91.069880451663593, 33.986170386667261 ], [ -91.069945491582786, 33.986299039785003 ] ] } },
{ "type": "Feature", "properties": { "station_id": 11, "station_ft": -2299.3, "width_ft": 1840.6, "flag": "ok", "lon": -91.064291, "lat": 33.98332, "survey_id": "LM_15_CVB_20220408_CS_6034_5990", "date": "2022-04-08 00:00:00+00:00", "method": "lines" }, "geometry": { "type": "LineString", "coordinates": [ [ -91.063158369127237, 33.981512851483075 ], [ -91.063211930711219, 33.981620032964905 ], [ -91.063316807089578, 33.981729767918374 ], [ -91.063375447428214, 33.981859809580669 ], [ -91.063463947446948, 33.981975412392387 ], [ -91.063520933085357, 33.982104776814062 ], [ -91.063677094271611, 33.982348305629031 ], [ -91.063758964388342, 33.982467575407227 ], [ -91.063846219928294, 33.982584064324392 ], [ -91.063927311517631, 33.982704876651141 ], [ -91.064002835152564, 33.982826436013134 ], [ -91.064076498308424, 33.982950232303757 ], [ -91.064141002578666, 33.983075402815899 ], [ -91.064209237594667, 33.983200962237099 ], [ -91.064291309203043, 33.983320449513585 ], [ -91.064357175042673, 33.98344657376699 ], [ -91.064432572403149, 33.983568655589863 ], [ -91.064508699285867, 33.983691227978937 ], [ -91.064585774955518, 33.983812723635637 ], [ -91.064668405299173, 33.983931987341755 ], [ -91.064752112701029, 33.984049733586581 ], [ -91.064825671634566, 33.984172733037518 ], [ -91.064889542670286, 33.984300681856304 ], [ -91.064938376562012, 33.984433116913394 ], [ -91.065002206647961, 33.984560158949101 ], [ -91.065097133475533, 33.984674457406655 ], [ -91.065184333017172, 33.984791633520494 ], [ -91.065248326493546, 33.984918344477215 ], [ -91.065327481470561, 33.985039744318193 ], [ -91.065402582404005, 33.985161635228522 ], [ -91.06548123855363, 33.985282488886199 ], [ -91.065555982000092, 33.985404793830917 ], [ -91.065624943500026, 33.985530046048815 ], [ -91.065691433060124, 33.985655395880343 ], [ -91.065754058520966, 33.985783956556972 ], [ -91.065830352541042, 33.985906252088952 ], [ -91.065916038980134, 33.986023655729596 ], [ -91.065989012051162, 33.986147097866642 ], [ -91.066071877549419, 33.986266277113728 ], [ -91.066169823178683, 33.98637833078206 ], [ -91.066247464754639, 33.986499876934822 ] ] } },
{ "type": "Feature", "properties": { "station_id": 12, "station_ft": -3299.5, "width_ft": 1604.1, "flag": "ok", "lon": -91.060583, "lat": 33.983351, "survey_id": "LM_15_CVB_20220408_CS_6034_5990", "date": "2022-04-08 00:00:00+00:00", "method": "lines" }, "geometry": { "type": "LineString", "coordinates": [ [ -91.059784695198019, 33.981994111533133 ], [ -91.059873033919587, 33.982110514883239 ], [ -91.059914138020105, 33.982246624629333 ], [ -91.059996662093127, 33.982365919234994 ], [ -91.060035694599875, 33.98250272905058 ], [ -91.060122663593319, 33.982620980361915 ], [ -91.060182079348252, 33.982749672961809 ], [ -91.06026674144934, 33.982868047779945 ], [ -91.06037115707764, 33.982978200871393 ], [ -91.060422646593224, 33.983109495174006 ], [ -91.060497485073483, 33.983232599710163 ], [ -91.060582777026084, 33.98335124554594 ], [ -91.060714891886477, 33.983603356957531 ], [ -91.060760631789478, 33.983737378923628 ], [ -91.060842529259631, 33.983856236662099 ], [ -91.060896431534061, 33.983988066419329 ], [ -91.06098616103931, 33.984104817697741 ], [ -91.061059055819868, 33.984227851314209 ], [ -91.06111708971379, 33.984356770661179 ], [ -91.061174962573276, 33.98448607589178 ], [ -91.061264230806117, 33.984602692644458 ], [ -91.061315757517448, 33.984734260373742 ], [ -91.061380828179111, 33.984860417967127 ], [ -91.061471737930702, 33.984976034941276 ], [ -91.061536091755144, 33.985103240682911 ], [ -91.061587520813177, 33.985234946797917 ], [ -91.061660720542179, 33.985358748142033 ], [ -91.061729937488153, 33.985483534070141 ], [ -91.061822858113558, 33.985598891835728 ], [ -91.06188349188993, 33.985726833429723 ], [ -91.061943994910635, 33.985854776665761 ], [ -91.062015511205672, 33.98597839481603 ], [ -91.06208068061747, 33.986104220545904 ], [ -91.062157130845137, 33.986225996363906 ], [ -91.062224777294432, 33.986352247293432 ], [ -91.062295136315768, 33.986475350123357 ], [ -91.062349033167422, 33.986606080202712 ], [ -91.062427729892093, 33.986728226586486 ], [ -91.062530254157835, 33.986839954023225 ], [ -91.062576124884487, 33.98697328655355 ], [ -91.062639057843498, 33.987099758100257 ], [ -91.062706148790312, 33.987226314951108 ], [ -91.062782992895748, 33.987347730094136 ], [ -91.062861025756632, 33.987469166084722 ], [ -91.062936754596507, 33.987591356759253 ], [ -91.062986905904907, 33.987723564738786 ], [ -91.06305552885479, 33.987847914313718 ], [ -91.063119726760064, 33.987975587063822 ], [ -91.063205683832294, 33.988093814977148 ] ] } },
{ "type": "Feature", "properties": { "station_id": 13, "station_ft": -4329.3, "width_ft": 1357.6, "flag": "ok", "lon": -91.056652, "lat": 33.983318, "survey_id": "LM_15_CVB_20220408_CS_6034_5990", "date": "2022-04-08 00:00:00+00:00", "method": "lines" }, "geometry": { "type": "LineString", "coordinates": [ [ -91.056465985062516, 33.982784703324988 ], [ -91.05652509241979, 33.982912629613523 ], [ -91.056561063996682, 33.983050914553978 ], [ -91.056607672590872, 33.983183145241767 ], [ -91.056651501528052, 33.983318114032841 ], [ -91.056752699469328, 33.98343051416159 ], [ -91.056857146173101, 33.983540696215321 ], [ -91.056909831423695, 33.983673716861801 ], [ -91.056977216065377, 33.983797307351665 ], [ -91.05703088565771, 33.983929716306605 ], [ -91.057121236844566, 33.98404638474554 ], [ -91.057192082324519, 33.984169624779959 ], [ -91.057273233312429, 33.984290579106663 ], [ -91.05735115386139, 33.984411771461893 ], [ -91.057406899226891, 33.984539854094834 ], [ -91.057454153595287, 33.984674087468377 ], [ -91.057518369128289, 33.984801159140325 ], [ -91.057588673189088, 33.9849265180505 ], [ -91.057664838705492, 33.985046868552097 ], [ -91.057746549377526, 33.985167406333538 ], [ -91.057821080972175, 33.985289525277025 ], [ -91.057897299592113, 33.985412102141879 ], [ -91.05796936226038, 33.985534647535786 ], [ -91.058012046969168, 33.985670583559816 ], [ -91.058049793874446, 33.985807593547335 ], [ -91.058132479901076, 33.985926476366672 ], [ -91.058227935712324, 33.986041766941788 ], [ -91.05832492883394, 33.986155426489979 ], [ -91.058379795043535, 33.986284558705805 ], [ -91.058443748434414, 33.98641154844556 ], [ -91.058503991173367, 33.986540483928252 ], [ -91.058593022423878, 33.986656636083431 ], [ -91.058656388726433, 33.986784261148692 ], [ -91.058710770146959, 33.986914440051343 ], [ -91.058785541182203, 33.987037133936568 ], [ -91.058844323664488, 33.987165033846864 ], [ -91.058931298936116, 33.987283643768677 ], [ -91.059006993446928, 33.987406167077538 ], [ -91.059078799803913, 33.987529235268703 ], [ -91.059132358629242, 33.98765952880283 ], [ -91.059212827088274, 33.987780952768766 ], [ -91.059272277914616, 33.987909672525454 ], [ -91.059346052829724, 33.988031354966587 ], [ -91.059399390750258, 33.988162693668095 ], [ -91.059493995863164, 33.988278373171802 ], [ -91.059573262767003, 33.988397989152283 ], [ -91.059643990710327, 33.988522081198447 ], [ -91.059700319033652, 33.988652055183678 ], [ -91.059748435744879, 33.988786062476045 ], [ -91.059828594274762, 33.988905810949255 ], [ -91.059914576293963, 33.989023574921639 ], [ -91.059972615288871, 33.989152769641365 ], [ -91.060034174588495, 33.989280871593337 ], [ -91.060107431464459, 33.989403600590201 ], [ -91.060190887640303, 33.989522945267424 ], [ -91.060250368657876, 33.98965094938842 ], [ -91.060317587713527, 33.989777341760657 ], [ -91.060394657275552, 33.989898152982924 ] ] } },
{ "type": "Feature", "properties": { "station_id": 14, "station_ft": -5169.2, "width_ft": 1196.5, "flag": "ok", "lon": -91.054141, "lat": 33.983602, "survey_id": "LM_15_CVB_20220408_CS_6034_5990", "date": "2022-04-08 00:00:00+00:00", "method": "lines" }, "geometry": { "type": "LineString", "coordinates": [ [ -91.053640804839176, 33.982317335849466 ], [ -91.053679399801752, 33.982426835095175 ], [ -91.053743626083772, 33.982552203937516 ], [ -91.053792198231179, 33.982683106170171 ], [ -91.053824326184881, 33.982819930499076 ], [ -91.053875923771116, 33.982949715082107 ], [ -91.053922724594358, 33.983081754564516 ], [ -91.053970412955067, 33.983213403864561 ], [ -91.054018624003518, 33.983344390144893 ], [ -91.054078392505858, 33.983472945736132 ], [ -91.054140576483107, 33.983602366157108 ], [ -91.054190714089899, 33.98373100605324 ], [ -91.054245909480116, 33.983860962308199 ], [ -91.054298613058336, 33.983992636166434 ], [ -91.054330521033549, 33.984126576648784 ], [ -91.054384266367862, 33.984256623368303 ], [ -91.054442430650525, 33.984386535074698 ], [ -91.05448935544959, 33.984517418685122 ], [ -91.054543174728138, 33.984648344804548 ], [ -91.054603293263284, 33.984775084128358 ], [ -91.054665564960956, 33.984903019776539 ], [ -91.054706280646698, 33.985036880551213 ], [ -91.054748869680708, 33.985169823363911 ], [ -91.054807483334145, 33.98529808329787 ], [ -91.054856394701332, 33.985429807059035 ], [ -91.054926620342684, 33.985554096017253 ], [ -91.054975400176744, 33.985685711407029 ], [ -91.055017700019093, 33.985819561862876 ], [ -91.055068577935785, 33.98594968094816 ], [ -91.055127687579912, 33.98607785485418 ], [ -91.055182815543731, 33.986207289016356 ], [ -91.055235903305316, 33.986337202124027 ], [ -91.055291335104585, 33.986467458465015 ], [ -91.055362550718158, 33.986591659293047 ], [ -91.055402879372267, 33.986726236087286 ], [ -91.055436478001567, 33.986860880311163 ], [ -91.05548249081744, 33.986992867813719 ], [ -91.055548024875051, 33.987119850695393 ], [ -91.055609049081838, 33.987248095138014 ], [ -91.055653880286997, 33.987380694442251 ], [ -91.055704888453988, 33.987510372496722 ], [ -91.055784704935007, 33.987633230628539 ], [ -91.055839643403189, 33.987763435487196 ], [ -91.055869955405171, 33.987899389883744 ], [ -91.055909857179728, 33.988033996928472 ], [ -91.055978444966811, 33.988159338823337 ], [ -91.056030224320693, 33.988290249118243 ], [ -91.056085250219581, 33.988419051422561 ], [ -91.056151577420735, 33.988546028378749 ], [ -91.056191796857519, 33.988679203586841 ], [ -91.05622168725165, 33.988815875277361 ], [ -91.05627408586696, 33.988945818955571 ], [ -91.056349166230987, 33.989070216407463 ], [ -91.056410851176935, 33.989198210387535 ], [ -91.056447347143788, 33.989331902327642 ], [ -91.056482151039376, 33.989468215089673 ], [ -91.056546785812515, 33.989593910728381 ], [ -91.056603204398712, 33.98972325362044 ], [ -91.056660870375865, 33.989851875120941 ], [ -91.056688229941457, 33.989989385560655 ], [ -91.056757456909935, 33.990115878090933 ], [ -91.056812947875287, 33.990244622286745 ], [ -91.056875223514766, 33.990372144620594 ], [ -91.05694217799919, 33.990498870377692 ], [ -91.05697997052232, 33.990633406461583 ], [ -91.057018281151372, 33.990766867538909 ], [ -91.057072333575107, 33.990897159006906 ], [ -91.057127065929762, 33.991025797511355 ], [ -91.057173415675379, 33.991158002254942 ], [ -91.057240933261099, 33.991284889496704 ], [ -91.057289810179498, 33.991415513325649 ], [ -91.057336357762182, 33.991547634791054 ], [ -91.057402287850863, 33.991673981328802 ] ] } },
{ "type": "Feature", "properties": { "station_id": 15, "station_ft": -5987.4, "width_ft": 1239.8, "flag": "ok", "lon": -91.050807, "lat": 33.982877, "survey_id": "LM_15_CVB_20220408_CS_6034_5990", "date": "2022-04-08 00:00:00+00:00", "method": "lines" }, "geometry": { "type": "LineString", "coordinates": [ [ -91.050386565648736, 33.981715748844742 ], [ -91.050416914510265, 33.98182595714627 ], [ -91.050467788719445, 33.981956764386943 ], [ -91.050505074105516, 33.982091497729542 ], [ -91.05056005969962, 33.982220852902287 ], [ -91.050614650696971, 33.98235023739349 ], [ -91.050682213316094, 33.982476770353763 ], [ -91.050699620481083, 33.982616868347108 ], [ -91.050757002565675, 33.98274478048446 ], [ -91.050806633480278, 33.982876639706269 ], [ -91.050832454810759, 33.983013198698067 ], [ -91.050862788044739, 33.983148852356521 ], [ -91.050921335520087, 33.983277828649882 ], [ -91.050971651755532, 33.983408748883626 ], [ -91.05104123372378, 33.983535874779342 ], [ -91.051082291966381, 33.983668113838966 ], [ -91.051121186281577, 33.983801820609692 ], [ -91.051138482674759, 33.983940463144044 ], [ -91.051197037209462, 33.98407029120844 ], [ -91.051251697575168, 33.984199812896136 ], [ -91.051292565821669, 33.984332931087081 ], [ -91.05134666576194, 33.984462565082843 ], [ -91.051396360874989, 33.984593846649148 ], [ -91.051436540407863, 33.984727381710968 ], [ -91.051484089727424, 33.984858537820244 ], [ -91.051540135808892, 33.984987995372578 ], [ -91.051560427193152, 33.985125796314151 ], [ -91.051605224039278, 33.98525905642623 ], [ -91.051646709810626, 33.985390962785218 ], [ -91.051695622779675, 33.985523319813645 ], [ -91.051735269035703, 33.985656005898825 ], [ -91.051791152086025, 33.985785657197773 ], [ -91.051839759817753, 33.985917054885711 ], [ -91.051880011495285, 33.986051028399366 ], [ -91.051919362309562, 33.986183909067655 ], [ -91.051979662484186, 33.986313011568072 ], [ -91.052032780474988, 33.986443227933108 ], [ -91.052070057309194, 33.986576532665609 ], [ -91.052118828971984, 33.986707626341484 ], [ -91.05215992850917, 33.986840523744519 ], [ -91.052191091134361, 33.98697630915796 ], [ -91.052233250579135, 33.987109475309602 ], [ -91.0522854850405, 33.987240438681894 ], [ -91.052339186755916, 33.987369415450019 ], [ -91.052385958530891, 33.987501839653859 ], [ -91.052452971316185, 33.987628842608352 ], [ -91.05247949311385, 33.987765699047294 ], [ -91.052504366438285, 33.987902785992681 ], [ -91.052544541710901, 33.988035413662885 ], [ -91.052609477476281, 33.988162455704519 ], [ -91.052654336245681, 33.988294835972482 ], [ -91.052698117990076, 33.988428596481448 ], [ -91.052747515575192, 33.988559357128992 ], [ -91.052779725284068, 33.988693982236832 ], [ -91.052834099290493, 33.98882419084245 ], [ -91.052885676907678, 33.988955185699254 ], [ -91.052916145244467, 33.98909067291028 ], [ -91.052949810382373, 33.989225592367603 ], [ -91.053015468092326, 33.989351942955516 ], [ -91.053077382734216, 33.989480403393671 ], [ -91.053110626970124, 33.989616314259358 ], [ -91.053146890928389, 33.98975042057122 ], [ -91.053193981129084, 33.989881276542228 ], [ -91.053218070003268, 33.990018944866776 ], [ -91.053280109611151, 33.990146470445644 ], [ -91.053337090996138, 33.990276608534373 ], [ -91.053391522649122, 33.990405470494643 ], [ -91.053440507193017, 33.990537936253787 ], [ -91.053469592092227, 33.990673349339318 ], [ -91.053530616771198, 33.990801705632137 ], [ -91.053577516516484, 33.990933193626411 ], [ -91.05359439677423, 33.991072772962845 ], [ -91.05364402344604, 33.991203008933866 ], [ -91.053696757523937, 33.991333996610848 ], [ -91.053738485184596, 33.99146636677763 ], [ -91.053804485449561, 33.991593841811024 ], [ -91.053842788813682, 33.991726974865585 ], [ -91.053884464109487, 33.991860912173159 ], [ -91.053914142370772, 33.991996211652371 ], [ -91.053957426521237, 33.992129150503636 ], [ -91.054013112551885, 33.992258003886661 ], [ -91.0540644932953, 33.992388669335398 ], [ -91.054109028645684, 33.99252129877258 ], [ -91.054150434885372, 33.992654550562136 ] ] } },
{ "type": "Feature", "properties": { "station_id": 16, "station_ft": -6831.0, "width_ft": 1415.2, "flag": "ok", "lon": -91.048303, "lat": 33.982976, "survey_id": "LM_15_CVB_20220408_CS_6034_5990", "date": "2022-04-08 00:00:00+00:00", "method": "lines" }, "geometry": { "type": "LineString", "coordinates": [ [ -91.048040368546097, 33.981925464098204 ], [ -91.048028136513409, 33.982040454235964 ], [ -91.048087413655523, 33.982170581685338 ], [ -91.048134773276999, 33.982303527168028 ], [ -91.048163284392572, 33.982438862156485 ], [ -91.048253101692836, 33.982564360221545 ], [ -91.048270680004137, 33.982701847596189 ], [ -91.048292990515279, 33.982837081535401 ], [ -91.048302826245532, 33.982975684931482 ], [ -91.048342899829706, 33.983109001714695 ], [ -91.048367094314514, 33.983244829623828 ], [ -91.048387302529051, 33.983381119746532 ], [ -91.048429756290162, 33.983515081692943 ], [ -91.048460570347373, 33.983649524182532 ], [ -91.048494857349723, 33.983784990472429 ], [ -91.048515888080175, 33.983921110795094 ], [ -91.048548387549985, 33.984055818428871 ], [ -91.048574465126435, 33.984191827357023 ], [ -91.048624588127197, 33.984323683684309 ], [ -91.048632309718272, 33.984461750261225 ], [ -91.048673633147331, 33.984594510585232 ], [ -91.048703931630044, 33.98473035699444 ], [ -91.048739262888915, 33.98486441520226 ], [ -91.048754304650046, 33.985002164221953 ], [ -91.048817936928344, 33.985132046835076 ], [ -91.04883439258208, 33.985269182674656 ], [ -91.048847252791603, 33.985406422360057 ], [ -91.048889115517539, 33.985540415477466 ], [ -91.048921411513092, 33.98567432718076 ], [ -91.048967061913075, 33.985807611252696 ], [ -91.048981211263381, 33.985945090437333 ], [ -91.049015587965968, 33.986079292022602 ], [ -91.049053002102184, 33.986213805893733 ], [ -91.049073178424393, 33.98635006896523 ], [ -91.049093001474205, 33.98648743217511 ], [ -91.049115775649327, 33.986622691117752 ], [ -91.049172882834227, 33.986753132558228 ], [ -91.049198143632211, 33.986889860063563 ], [ -91.049227253625034, 33.987025356182819 ], [ -91.049253953667943, 33.987160619289369 ], [ -91.049284710646788, 33.987295803784654 ], [ -91.049316950480062, 33.98743073171282 ], [ -91.049344935977487, 33.987565795278044 ], [ -91.049384979686081, 33.987699083822818 ], [ -91.049414481997658, 33.987834055594604 ], [ -91.049433615426466, 33.987971670650971 ], [ -91.049465751597211, 33.988106050080546 ], [ -91.049511029446634, 33.98823788004642 ], [ -91.049540666794528, 33.988373290043093 ], [ -91.049564576520027, 33.988509971201921 ], [ -91.049599946958779, 33.988644468789786 ], [ -91.049636564313275, 33.98877819008095 ], [ -91.049665181107585, 33.988913688917542 ], [ -91.049703508002125, 33.98904654826211 ], [ -91.049719843367953, 33.989184811521369 ], [ -91.049754186542287, 33.989318710988712 ], [ -91.049784809423414, 33.98945345612502 ], [ -91.049816892879932, 33.989589154699559 ], [ -91.04985242200938, 33.989722854290214 ], [ -91.049898400699362, 33.989855476958766 ], [ -91.049917528730745, 33.989992294946809 ], [ -91.049940019148053, 33.99012892836015 ], [ -91.049970381716889, 33.990263921969849 ], [ -91.050016689212171, 33.990396459721431 ], [ -91.050038845133741, 33.990532408974147 ], [ -91.050059821702646, 33.990669298195179 ], [ -91.050093447838748, 33.990804025722852 ], [ -91.050135040164776, 33.990936700874116 ], [ -91.050160725528144, 33.991072601579326 ], [ -91.050203111557792, 33.991205547048807 ], [ -91.050224611659289, 33.991341829134299 ], [ -91.050257875848175, 33.991476696645144 ], [ -91.050274635928531, 33.991614325305164 ], [ -91.050313299542651, 33.991747704422757 ], [ -91.05033460682732, 33.991884701626965 ], [ -91.050367534318383, 33.992018609101201 ], [ -91.050393942542271, 33.99215414760058 ], [ -91.050455613392714, 33.992285112538504 ], [ -91.050473621274165, 33.992422018947096 ], [ -91.050507084527766, 33.992556775211924 ], [ -91.050530091184498, 33.992691784452241 ], [ -91.050564644200293, 33.992826753418157 ], [ -91.050587956057186, 33.992962640774863 ], [ -91.050622672641509, 33.993097471727886 ], [ -91.050656159867955, 33.993231154949001 ], [ -91.050685415341718, 33.993367694602867 ], [ -91.050719465041098, 33.993501567451595 ], [ -91.050759551328994, 33.993635323043875 ], [ -91.050790341903209, 33.993769928899361 ], [ -91.050825188358218, 33.993904292012651 ] ] } },
{ "type": "Feature", "properties": { "station_id": 17, "station_ft": -7957.1, "width_ft": 1427.9, "flag": "ok", "lon": -91.044618, "lat": 33.984025, "survey_id": "LM_15_CVB_20220408_CS_6034_5990", "date": "2022-04-08 00:00:00+00:00", "method": "lines" }, "geometry": { "type": "LineString", "coordinates": [ [ -91.044333746052772, 33.982983790319935 ], [ -91.04438343144713, 33.983103478217558 ], [ -91.044437467127949, 33.983214924200482 ], [ -91.044486393892328, 33.983346405135336 ], [ -91.04451740826245, 33.983482001489655 ], [ -91.044529471285301, 33.98361938426158 ], [ -91.044554922144357, 33.983756166743838 ], [ -91.044601709992349, 33.98388831901638 ], [ -91.044617595288528, 33.984025129726945 ], [ -91.044661551360264, 33.984157958275638 ], [ -91.04472629628394, 33.984287505768712 ], [ -91.0447770669401, 33.984418563887601 ], [ -91.044773754896127, 33.984559579513309 ], [ -91.044784515562, 33.98469892072211 ], [ -91.044855740578967, 33.984826259724159 ], [ -91.04490769414322, 33.984956733940209 ], [ -91.044909621835529, 33.985097005223814 ], [ -91.044953512634478, 33.985229669031717 ], [ -91.044976226464129, 33.985366439265299 ], [ -91.045013564250837, 33.985500515812888 ], [ -91.045050205406127, 33.985634100521366 ], [ -91.045098844281853, 33.985766461823985 ], [ -91.045124686894724, 33.985902527834924 ], [ -91.04515616195313, 33.986037709284631 ], [ -91.045201503989816, 33.986170254592693 ], [ -91.045227898322381, 33.986305217485544 ], [ -91.045263726986931, 33.986440181676308 ], [ -91.045305072026665, 33.986572145121265 ], [ -91.04533111328324, 33.986708209917801 ], [ -91.045377744868603, 33.986841132642532 ], [ -91.045401971874639, 33.986977262009383 ], [ -91.045435947481309, 33.987111356941341 ], [ -91.045472193941464, 33.987244944666145 ], [ -91.045509068737218, 33.987378720770131 ], [ -91.045528982988813, 33.98751586496526 ], [ -91.04555640880416, 33.987651755788917 ], [ -91.045610055689764, 33.987783126788585 ], [ -91.045656251496894, 33.987915061996667 ], [ -91.045689906137071, 33.988050285630884 ], [ -91.045716632879817, 33.988185356433391 ], [ -91.045750483946179, 33.988320358927837 ], [ -91.045788746038284, 33.988454126885628 ], [ -91.045802002393344, 33.988591886554794 ], [ -91.045845496466711, 33.988724085241479 ], [ -91.045901155499038, 33.988855334441766 ], [ -91.045931081092732, 33.988990276660225 ], [ -91.045965850500224, 33.989124613818639 ], [ -91.045988859913081, 33.989260805957713 ], [ -91.046048268991768, 33.989390796425631 ], [ -91.046079314583849, 33.989525403039202 ], [ -91.046103116120264, 33.989661672598402 ], [ -91.046135849255208, 33.989796928448094 ], [ -91.046166734374793, 33.989932112951465 ], [ -91.046200706766015, 33.990065657664324 ], [ -91.046255438624669, 33.990196389138518 ], [ -91.046309116819856, 33.990327292575969 ], [ -91.046320599749905, 33.990465749399235 ], [ -91.046350763113324, 33.990601405024435 ], [ -91.046372983180049, 33.990737820703899 ], [ -91.046416150111, 33.990870131014738 ], [ -91.046457581451605, 33.991003907372047 ], [ -91.046488859143992, 33.991138677477316 ], [ -91.046528803772432, 33.991272215396044 ], [ -91.046549905821564, 33.991408967474491 ], [ -91.046585866304866, 33.991543380429711 ], [ -91.046622811985884, 33.991677292707259 ], [ -91.046648158402178, 33.991812646186446 ], [ -91.046704964155438, 33.991942651358521 ], [ -91.046739245528158, 33.992077348963413 ], [ -91.046753891035507, 33.992215292410357 ], [ -91.046798879187264, 33.99234816897782 ], [ -91.046845474402261, 33.992479964260532 ], [ -91.046873854675496, 33.992615245081794 ], [ -91.046909949631143, 33.992749822113062 ], [ -91.046942051995714, 33.992884284351547 ], [ -91.04697725666459, 33.993018893566273 ], [ -91.047004979825914, 33.993154371086511 ], [ -91.047045052324918, 33.993287193110511 ], [ -91.047090667795828, 33.99342014884472 ], [ -91.047130280023936, 33.993553166435696 ], [ -91.047148256620858, 33.99369081549677 ], [ -91.047178389374622, 33.993826388968174 ], [ -91.047219447516753, 33.993958573210691 ], [ -91.047268124439455, 33.994090604135309 ], [ -91.047294991068853, 33.994226195619461 ], [ -91.047324135932385, 33.99436188476291 ], [ -91.047366583471955, 33.994494610823921 ], [ -91.047409926434653, 33.99462774367781 ], [ -91.047434028223179, 33.994764011100393 ], [ -91.047458563290661, 33.994900825044006 ], [ -91.04750298716921, 33.99503296257847 ], [ -91.047556629070897, 33.99516293063801 ], [ -91.047577867266767, 33.995299846629877 ], [ -91.047625492563284, 33.995432158453852 ], [ -91.04765743085369, 33.995566539344367 ] ] } },
{ "type": "Feature", "properties": { "station_id": 18, "station_ft": -8968.6, "width_ft": 1548.1, "flag": "ok", "lon": -91.041655, "lat": 33.985051, "survey_id": "LM_15_CVB_20220408_CS_6034_5990", "date": "2022-04-08 00:00:00+00:00", "method": "lines" }, "geometry": { "type": "LineString", "coordinates": [ [ -91.041481031100872, 33.984240880737779 ], [ -91.041524284517848, 33.984372944554217 ], [ -91.041548407114448, 33.984509323309574 ], [ -91.041585708720433, 33.984643648189802 ], [ -91.04157799632344, 33.984783617144629 ], [ -91.041622411114105, 33.984916554142274 ], [ -91.041654670148745, 33.985051457063975 ], [ -91.041682948574788, 33.985187646866777 ], [ -91.041734768870924, 33.985318397286761 ], [ -91.041764455424598, 33.98545339792252 ], [ -91.041794045125187, 33.985588453198353 ], [ -91.041834840217589, 33.985722399941999 ], [ -91.041862843252346, 33.98585716231058 ], [ -91.041891646324785, 33.985992854971741 ], [ -91.041929798066391, 33.986126184907206 ], [ -91.041965651119938, 33.986260682053256 ], [ -91.041998644263884, 33.986396405540631 ], [ -91.04201937363564, 33.986533105714123 ], [ -91.042040384552521, 33.986667990335881 ], [ -91.042069979315968, 33.986803678373555 ], [ -91.042107482451442, 33.986938193903221 ], [ -91.042137570627688, 33.987073713189382 ], [ -91.042175098700937, 33.987207293637795 ], [ -91.042204053285516, 33.987341171394064 ], [ -91.042219350238952, 33.987479057696127 ], [ -91.042271545685779, 33.987611179630427 ], [ -91.042300842351594, 33.987746594331469 ], [ -91.042333528234707, 33.987880889597989 ], [ -91.042356500739714, 33.988017549703109 ], [ -91.042389448382366, 33.988151541419228 ], [ -91.042427943423561, 33.988286243128627 ], [ -91.042463069359584, 33.988420552231418 ], [ -91.04249183112421, 33.988554952997802 ], [ -91.04251967352883, 33.988689936046455 ], [ -91.042549901914313, 33.988826279296639 ], [ -91.042589308828212, 33.988959546721027 ], [ -91.042609676602339, 33.989096166771219 ], [ -91.042635122531522, 33.989232509611803 ], [ -91.042664808260454, 33.989366932036248 ], [ -91.042695988841771, 33.98950266570295 ], [ -91.042749227088891, 33.989632913350292 ], [ -91.042792632455871, 33.989766789619814 ], [ -91.042811475944774, 33.98990264847987 ], [ -91.042820579374762, 33.990041339379601 ], [ -91.042846291395918, 33.990177845601011 ], [ -91.042882770071557, 33.990311954701554 ], [ -91.042919210454556, 33.990445349078051 ], [ -91.042953875624477, 33.990579357718751 ], [ -91.042991548026606, 33.990714064831906 ], [ -91.043008029183952, 33.99085133827495 ], [ -91.043037527651222, 33.990986916534176 ], [ -91.043082203275802, 33.991118779384848 ], [ -91.043113842542496, 33.991253932357843 ], [ -91.043150787009864, 33.991388368630219 ], [ -91.04318983400394, 33.991521692863898 ], [ -91.043213794400145, 33.991657632082507 ], [ -91.043229450050305, 33.991794746152173 ], [ -91.043243527151603, 33.991932446318032 ], [ -91.043281561836352, 33.992066985329863 ], [ -91.043330161201482, 33.992198496352387 ], [ -91.043368588611884, 33.99233259310634 ], [ -91.043400427110157, 33.992467772771256 ], [ -91.043418617915265, 33.992604212228436 ], [ -91.043429725335585, 33.992741764508459 ], [ -91.043458210399294, 33.992878310420892 ], [ -91.043507110893614, 33.993010148679325 ], [ -91.043546227997169, 33.993143802319125 ], [ -91.043573516082105, 33.993255347877728 ], [ -91.043595712767228, 33.993377557519153 ], [ -91.043619842438886, 33.993490249137139 ], [ -91.043649396462797, 33.993616400240057 ], [ -91.043681097477844, 33.993750811568773 ], [ -91.043708650701703, 33.993886234936014 ], [ -91.043750404048637, 33.994019488302534 ], [ -91.043774866291429, 33.99415622232101 ], [ -91.043803666282912, 33.994290814438791 ], [ -91.043813132439439, 33.994429255131685 ], [ -91.04386968529279, 33.99456077493808 ], [ -91.043906886257943, 33.994693971582947 ], [ -91.043948980450267, 33.994828294835209 ], [ -91.043973399807044, 33.994963709169852 ], [ -91.043995119811257, 33.995099909013831 ], [ -91.044026527226279, 33.995234540986786 ], [ -91.04406248615517, 33.995369036663917 ], [ -91.044097913136355, 33.995503069298429 ], [ -91.044123231947395, 33.995639467390248 ], [ -91.04414564433408, 33.995775443211222 ], [ -91.044173961912946, 33.995911493991244 ], [ -91.044210537989244, 33.996044777061378 ], [ -91.04425071290207, 33.996178287246515 ], [ -91.044285026367831, 33.996313314339659 ], [ -91.04431238430243, 33.996448849522899 ], [ -91.044344085885413, 33.996583067669945 ], [ -91.044364392941034, 33.996719742575848 ] ] } },
{ "type": "Feature", "properties": { "station_id": 19, "station_ft": -10043.5, "width_ft": 1548.0, "flag": "ok", "lon": -91.038215, "lat": 33.986915, "survey_id": "LM_15_CVB_20220408_CS_6034_5990", "date": "2022-04-08 00:00:00+00:00", "method": "lines" }, "geometry": { "type": "LineString", "coordinates": [ [ -91.037874347808113, 33.985747615880747 ], [ -91.037910605806147, 33.9858441078933 ], [ -91.037959623991355, 33.98597575588856 ], [ -91.038026988725932, 33.986104082945531 ], [ -91.038043825024985, 33.986241548115032 ], [ -91.038081021016339, 33.986375709674505 ], [ -91.038116206847334, 33.986510074764276 ], [ -91.038153041883518, 33.986644402444767 ], [ -91.038192601030886, 33.986777011471986 ], [ -91.038214587863962, 33.986914942046205 ], [ -91.038265284416354, 33.9870460303272 ], [ -91.038326518225944, 33.987174750231986 ], [ -91.038347669823111, 33.98731136568454 ], [ -91.038352230084399, 33.987452061965229 ], [ -91.038395782838066, 33.987584840051738 ], [ -91.038446180880484, 33.987715737919387 ], [ -91.038481405051044, 33.98785054170429 ], [ -91.038527393246966, 33.987982646740043 ], [ -91.038543238650277, 33.988119760456335 ], [ -91.038572896920869, 33.988255750093344 ], [ -91.038615817471239, 33.988387762679352 ], [ -91.03865358476196, 33.988522854740005 ], [ -91.038697232046474, 33.988655027206519 ], [ -91.038720459186337, 33.988791219548865 ], [ -91.038758810368421, 33.988925153330143 ], [ -91.038808486214535, 33.989056110147374 ], [ -91.038849995059863, 33.9891888997481 ], [ -91.03885362682027, 33.989328968396201 ], [ -91.038889214961642, 33.989463907870693 ], [ -91.038940804159566, 33.989594908641727 ], [ -91.038977044963985, 33.989728772394869 ], [ -91.039014606366621, 33.989862903532426 ], [ -91.039037107433401, 33.989998879968695 ], [ -91.039071014760282, 33.990133884007868 ], [ -91.039121975747463, 33.990264613314331 ], [ -91.039174563129436, 33.990396459303469 ], [ -91.039205137366267, 33.990531345380738 ], [ -91.039225471093772, 33.990668378196474 ], [ -91.039271299569378, 33.990800730817504 ], [ -91.039302494160481, 33.990934815426876 ], [ -91.039329023755741, 33.991071098632709 ], [ -91.039365130440132, 33.991204688027622 ], [ -91.039412349994436, 33.991337664585984 ], [ -91.039446055592435, 33.991471954712189 ], [ -91.039464544359205, 33.991609355968443 ], [ -91.039515777541581, 33.991740880479973 ], [ -91.03955606189426, 33.991872934820108 ], [ -91.039592043341642, 33.992007129786458 ], [ -91.039631683652402, 33.992141110801292 ], [ -91.039670558295569, 33.99227410719341 ], [ -91.039699589410205, 33.992409633944227 ], [ -91.039739065070208, 33.992543423828202 ], [ -91.039773764166142, 33.992678231027128 ], [ -91.039803519995147, 33.992813532701028 ], [ -91.039842037491184, 33.992947246001847 ], [ -91.039882522095795, 33.993079299052077 ], [ -91.039917519056118, 33.993214076537043 ], [ -91.039954686526897, 33.993348099564884 ], [ -91.039991590435562, 33.993482042050573 ], [ -91.040024576398324, 33.993616913987871 ], [ -91.040058977802332, 33.993751474860375 ], [ -91.040094790279298, 33.99388506565797 ], [ -91.040123819704235, 33.994020235260543 ], [ -91.040153813728551, 33.994156332416317 ], [ -91.040205599970989, 33.994286616462965 ], [ -91.040249487118189, 33.994419117710535 ], [ -91.040283194931902, 33.994553489551819 ], [ -91.040335588578643, 33.994685309891395 ], [ -91.040377894554581, 33.994818176281328 ], [ -91.040388679560053, 33.994957077589696 ], [ -91.040412795902327, 33.995092521455554 ], [ -91.040465356656654, 33.995224587789323 ], [ -91.040493333461527, 33.995359954447679 ], [ -91.040550003442675, 33.995490211144194 ], [ -91.040587697042952, 33.995623735942004 ], [ -91.040603716638955, 33.995761288147548 ], [ -91.040642461870263, 33.99589433987196 ], [ -91.040697485217194, 33.996024880024066 ], [ -91.040741218257054, 33.99615856296559 ], [ -91.040751141422078, 33.996296946263286 ], [ -91.040789033338015, 33.99643041574403 ], [ -91.040835129525036, 33.996562518155791 ], [ -91.040846543143928, 33.996701525752414 ], [ -91.040901340502742, 33.996832644082886 ], [ -91.040929211250244, 33.996967077202079 ], [ -91.040974786318969, 33.997099842479223 ], [ -91.041001946050088, 33.997236093584888 ], [ -91.041038487148356, 33.997369597780136 ], [ -91.041043834782755, 33.997509190179649 ] ] } }
]
}
