{
"type": "FeatureCollection",
"name": "LM_13_OZE_20250511_CS_5746_5722_transects",
"crs": { "type": "name", "properties": { "name": "urn:ogc:def:crs:OGC:1.3:CRS84" } },
"features": [
{ "type": "Feature", "properties": { "station_id": 0, "station_ft": 6165.7, "width_ft": 1897.9, "flag": "ok", "lon": -91.199455, "lat": 33.701132, "survey_id": "LM_13_OZE_20250511_CS_5746_5722", "date": "2025-05-11 00:00:00+00:00", "method": "lines" }, "geometry": { "type": "LineString", "coordinates": [ [ -91.199155153664435, 33.699090212238261 ], [ -91.199180236121506, 33.699224250231048 ], [ -91.199194199487138, 33.69935770619081 ], [ -91.199190943394356, 33.699498482857059 ], [ -91.199217969456441, 33.699632919231782 ], [ -91.199264538171022, 33.699768701714966 ], [ -91.199306618126172, 33.69990270256362 ], [ -91.19931209809711, 33.700039268907886 ], [ -91.199317526625194, 33.700177263712725 ], [ -91.199322775542754, 33.700313803720952 ], [ -91.199335731005135, 33.700451580765467 ], [ -91.199350836147758, 33.70059052560886 ], [ -91.19940194751203, 33.700723583147706 ], [ -91.199421936161002, 33.700857711756505 ], [ -91.199427772149548, 33.700997050640822 ], [ -91.199454605301284, 33.701131845302726 ], [ -91.199483773910501, 33.701269975655613 ], [ -91.19949359081312, 33.701402911541294 ], [ -91.199500135822518, 33.701540761436604 ], [ -91.199523122060867, 33.701678716033285 ], [ -91.199541156606188, 33.701814781370985 ], [ -91.199564779848387, 33.701957292579806 ], [ -91.199573497826179, 33.702088834191635 ], [ -91.199581849109393, 33.702226396418126 ], [ -91.19963784042433, 33.702360602466463 ], [ -91.199652193753636, 33.702496775629584 ], [ -91.19964016400661, 33.70263461871172 ], [ -91.199667906718787, 33.702771494965511 ], [ -91.199680194208284, 33.702908178472242 ], [ -91.199703247792598, 33.703046324563992 ], [ -91.199732056315355, 33.703177917271901 ], [ -91.199746126842896, 33.703315330256601 ], [ -91.199780020340171, 33.703452383312424 ], [ -91.199817159420959, 33.70358531951544 ], [ -91.199811119263657, 33.703727076708596 ], [ -91.199830702430575, 33.703859999001352 ], [ -91.19986958229174, 33.703995890967768 ], [ -91.199881774312857, 33.704136119203277 ], [ -91.19989685358432, 33.704269100116861 ] ] } },
{ "type": "Feature", "properties": { "station_id": 1, "station_ft": 5118.7, "width_ft": 1908.5, "flag": "ok", "lon": -91.19591, "lat": 33.700475, "survey_id": "LM_13_OZE_20250511_CS_5746_5722", "date": "2025-05-11 00:00:00+00:00", "method": "lines" }, "geometry": { "type": "LineString", "coordinates": [ [ -91.195782837292327, 33.698965188117725 ], [ -91.195802231629898, 33.699103058604464 ], [ -91.195819782710245, 33.699240721967627 ], [ -91.195848408035474, 33.699377813039675 ], [ -91.195862140168131, 33.699514871044521 ], [ -91.195870841036125, 33.69965188212889 ], [ -91.195874020713404, 33.699789150842662 ], [ -91.195891924862366, 33.69992584972659 ], [ -91.195907802660912, 33.700063882667258 ], [ -91.195881807753139, 33.700199844025029 ], [ -91.195904157289192, 33.70033730885639 ], [ -91.195910435451808, 33.700475270872424 ], [ -91.195941136342498, 33.700609517337298 ], [ -91.195957703865261, 33.700750594584285 ], [ -91.195948675208712, 33.700886767447848 ], [ -91.195975886753672, 33.701023813323651 ], [ -91.195988802688262, 33.701158156905571 ], [ -91.196008214880365, 33.701294378189374 ], [ -91.19602966736511, 33.701430860200475 ], [ -91.196030292371518, 33.701569025750096 ], [ -91.196030827486865, 33.701708017772141 ], [ -91.196025556094483, 33.701845070469986 ], [ -91.196044849998316, 33.7019892895757 ], [ -91.19606337988624, 33.702119443946629 ], [ -91.196066047680304, 33.702258008137868 ], [ -91.196065249931351, 33.702395304564071 ], [ -91.196088338992425, 33.702534248143238 ], [ -91.196107273554887, 33.70266871463182 ], [ -91.196124787505397, 33.702802530177834 ], [ -91.196143544386217, 33.702942300990294 ], [ -91.196149723355987, 33.703076856553245 ], [ -91.196160549887935, 33.703215885749195 ], [ -91.196150064853583, 33.703354403838823 ], [ -91.196153685276371, 33.703492851352969 ], [ -91.196165809617099, 33.703626815412434 ], [ -91.196164633501041, 33.703765736393699 ], [ -91.196203894099753, 33.703900801962178 ], [ -91.196232904255623, 33.704040007046927 ], [ -91.196246479677058, 33.704174510011029 ], [ -91.196228301845565, 33.704312972732573 ], [ -91.19622154970871, 33.704449925731623 ], [ -91.196255329880486, 33.704589316560941 ], [ -91.196245958493222, 33.704727332783378 ], [ -91.196269935387321, 33.704862945040219 ], [ -91.196300474575082, 33.704997082440656 ] ] } },
{ "type": "Feature", "properties": { "station_id": 2, "station_ft": 4067.6, "width_ft": 1941.2, "flag": "ok", "lon": -91.192538, "lat": 33.7006, "survey_id": "LM_13_OZE_20250511_CS_5746_5722", "date": "2025-05-11 00:00:00+00:00", "method": "lines" }, "geometry": { "type": "LineString", "coordinates": [ [ -91.192419350797721, 33.699098847172358 ], [ -91.192432055590771, 33.699229041807016 ], [ -91.19245938848087, 33.699365676582261 ], [ -91.192454362064055, 33.699501463506728 ], [ -91.192470502372217, 33.699639989188313 ], [ -91.192453310827815, 33.699779021651231 ], [ -91.192475253176298, 33.699915692995177 ], [ -91.192508591505955, 33.700051159000814 ], [ -91.192515783969242, 33.700189086935637 ], [ -91.192504423235249, 33.700326017827081 ], [ -91.192545692763147, 33.700462197700524 ], [ -91.19253760009336, 33.700600396923008 ], [ -91.192519604744746, 33.700738005959487 ], [ -91.192512436160669, 33.700876610770358 ], [ -91.192535364210983, 33.701013220224652 ], [ -91.192548280482953, 33.701151494202222 ], [ -91.192550732592878, 33.701288795122601 ], [ -91.192574112370323, 33.701424495328702 ], [ -91.192577675958745, 33.701561184452196 ], [ -91.192585930811177, 33.701696796911634 ], [ -91.19257843797196, 33.701835871880803 ], [ -91.19257365593505, 33.70197311401126 ], [ -91.192588751616128, 33.702112168898537 ], [ -91.192596702336871, 33.702243661433286 ], [ -91.192641726593862, 33.702383717148138 ], [ -91.192643298974431, 33.702518552023619 ], [ -91.192649923314875, 33.702658846887786 ], [ -91.192656911000796, 33.702795980082321 ], [ -91.192640388491327, 33.70293289184098 ], [ -91.192650363288479, 33.703072751367003 ], [ -91.192634699098619, 33.703210069171064 ], [ -91.192649832494013, 33.703346375741077 ], [ -91.192685197737347, 33.70348048055029 ], [ -91.192655546400616, 33.703619681681168 ], [ -91.192659770990105, 33.703756641136671 ], [ -91.192672536048477, 33.703896124205478 ], [ -91.192671788621851, 33.704032404190365 ], [ -91.192707284154977, 33.704166343080352 ], [ -91.192683914069065, 33.704309018473595 ], [ -91.192688901729795, 33.704446659608287 ], [ -91.192738840922786, 33.704581624972995 ], [ -91.192729820869189, 33.704719198562621 ], [ -91.192698271211498, 33.704859319876 ], [ -91.192707047318805, 33.70499435161436 ], [ -91.192749713369651, 33.705131840592962 ], [ -91.19275979484361, 33.705269254229812 ], [ -91.192799945785467, 33.705401786663565 ], [ -91.192804866292377, 33.705539263245619 ], [ -91.192802373692118, 33.70568182041729 ], [ -91.192822075135112, 33.705817793093928 ] ] } },
{ "type": "Feature", "properties": { "station_id": 3, "station_ft": 2985.3, "width_ft": 1869.7, "flag": "ok", "lon": -91.189053, "lat": 33.700917, "survey_id": "LM_13_OZE_20250511_CS_5746_5722", "date": "2025-05-11 00:00:00+00:00", "method": "lines" }, "geometry": { "type": "LineString", "coordinates": [ [ -91.188992395200174, 33.69903301700176 ], [ -91.188994340932155, 33.699153009428819 ], [ -91.189010315362268, 33.699271998596721 ], [ -91.189056338212552, 33.699404079754089 ], [ -91.189079356877727, 33.699540524315978 ], [ -91.189077371279296, 33.699678489039016 ], [ -91.189070826073674, 33.699817529374485 ], [ -91.189055629739954, 33.699956107616273 ], [ -91.189036598840701, 33.700095894387587 ], [ -91.189045145581716, 33.700228345100669 ], [ -91.189037691438102, 33.700368518695676 ], [ -91.189022805146891, 33.700505198749653 ], [ -91.189050828849119, 33.700642378573207 ], [ -91.189071190281055, 33.700779391477873 ], [ -91.189053483518563, 33.700916750120165 ], [ -91.189078631169679, 33.701052355853456 ], [ -91.189075525978325, 33.701190108313504 ], [ -91.189074101837178, 33.701328344093739 ], [ -91.189075020221708, 33.701467304743723 ], [ -91.189096183377487, 33.701602251056244 ], [ -91.189102062574804, 33.701740876206259 ], [ -91.189097760029412, 33.701877317933132 ], [ -91.189096679073927, 33.702016979425359 ], [ -91.189106377398261, 33.702152830090249 ], [ -91.1891225558211, 33.702288936987856 ], [ -91.189099913455237, 33.702429298703976 ], [ -91.189101787901166, 33.70256861063362 ], [ -91.189107015706469, 33.702704519302692 ], [ -91.189114873747272, 33.702840463842172 ], [ -91.189115419507004, 33.702978383910128 ], [ -91.189107296136712, 33.703114165075448 ], [ -91.189114643118131, 33.703251543053433 ], [ -91.189112821097368, 33.703392721600231 ], [ -91.189129855103488, 33.703525662500041 ], [ -91.18914271311003, 33.70366509034853 ], [ -91.189142502758102, 33.703799745602666 ], [ -91.18916651719654, 33.703936925144156 ], [ -91.189187874914239, 33.704078135118237 ], [ -91.189168287925327, 33.704214875629738 ], [ -91.189143897476455, 33.704354781505465 ], [ -91.189156562560754, 33.704491380607713 ], [ -91.189161223449929, 33.70462644116521 ], [ -91.18917959374177, 33.704764758814157 ], [ -91.189213905291496, 33.704899146911714 ], [ -91.189186115059712, 33.705041055306793 ], [ -91.189214076399765, 33.7051750194737 ], [ -91.189197141268579, 33.705310724611095 ], [ -91.189225366628051, 33.705451392895633 ], [ -91.189218047302489, 33.705588624497068 ], [ -91.189201029689613, 33.705722654160084 ], [ -91.189245982605499, 33.705859138598747 ], [ -91.189250944306323, 33.705998072030255 ], [ -91.189318728890257, 33.70720975550217 ], [ -91.189315843639775, 33.707353002341534 ], [ -91.189293471184243, 33.707490860233712 ], [ -91.189272425295215, 33.707629781807697 ], [ -91.189263303980439, 33.707764359879292 ], [ -91.189306256151525, 33.707901298978193 ], [ -91.189285922274337, 33.7080391427317 ] ] } },
{ "type": "Feature", "properties": { "station_id": 4, "station_ft": 1853.9, "width_ft": 1557.9, "flag": "ok", "lon": -91.185471, "lat": 33.70075, "survey_id": "LM_13_OZE_20250511_CS_5746_5722", "date": "2025-05-11 00:00:00+00:00", "method": "lines" }, "geometry": { "type": "LineString", "coordinates": [ [ -91.185325348783266, 33.699107935729337 ], [ -91.185363743380677, 33.699240482947204 ], [ -91.185384804420252, 33.699375678637807 ], [ -91.185366961522746, 33.699513257755555 ], [ -91.185396605393294, 33.699651938359899 ], [ -91.185389152472794, 33.699789555806099 ], [ -91.185419223671474, 33.699924853420747 ], [ -91.185404171487249, 33.700065299246596 ], [ -91.185433594640045, 33.700201590355626 ], [ -91.185456977914797, 33.700335533022638 ], [ -91.185459322729301, 33.700473165820661 ], [ -91.185458399523327, 33.700612689234681 ], [ -91.185471069770117, 33.700750470789245 ], [ -91.18547898872184, 33.700886525226302 ], [ -91.185487092284419, 33.701024668252231 ], [ -91.1854917305036, 33.701161432317868 ], [ -91.185495352446395, 33.701298396329101 ], [ -91.185493775786085, 33.701435094168126 ], [ -91.185527105467855, 33.70157072716507 ], [ -91.185529798978777, 33.701710335597724 ], [ -91.185541559311773, 33.70184584149321 ], [ -91.185580158041432, 33.701982290110344 ], [ -91.185572171330662, 33.702119032156666 ], [ -91.18555991567959, 33.702259650697719 ], [ -91.18558569121852, 33.702396103918801 ], [ -91.185602141189108, 33.702533612307292 ], [ -91.185600190079768, 33.702668965740628 ], [ -91.185609614329067, 33.702807648667701 ], [ -91.185597125183662, 33.702944613798039 ], [ -91.185606129718025, 33.703080661588146 ], [ -91.185612463220465, 33.70321920083984 ], [ -91.185646930078775, 33.703353451001519 ], [ -91.185649985512853, 33.703492974848892 ], [ -91.185657455925195, 33.703630187230921 ], [ -91.185650840053498, 33.703769199887113 ], [ -91.185650827068471, 33.703904402881548 ], [ -91.18569082043193, 33.704038862817121 ], [ -91.185685032771161, 33.704178502661172 ], [ -91.185678419975247, 33.704314548182332 ], [ -91.185687786387575, 33.704454000512285 ], [ -91.185725365382027, 33.704590263113346 ], [ -91.185733083157373, 33.704729121848153 ], [ -91.185727535451718, 33.704863126945206 ], [ -91.185729054162138, 33.705000270367016 ], [ -91.185733700122142, 33.705141019266364 ], [ -91.18573360115856, 33.705274161809641 ], [ -91.185747665256429, 33.705416412659737 ], [ -91.185794768713876, 33.705551564557318 ], [ -91.185820794806816, 33.705686587813297 ], [ -91.185829417010325, 33.705820440106976 ], [ -91.185807682036668, 33.70596002408179 ], [ -91.185785244127445, 33.706101729812858 ], [ -91.185775101617466, 33.706239942713488 ], [ -91.185796883888898, 33.706374721163797 ], [ -91.1858469554507, 33.706510622482469 ], [ -91.185883516372982, 33.706643621974123 ], [ -91.185995230483584, 33.709892964514715 ], [ -91.186022962511629, 33.710017367852437 ], [ -91.186029745291478, 33.710154612755865 ], [ -91.186049114225483, 33.710291192854775 ], [ -91.186065377467116, 33.71042963631605 ], [ -91.186051438390123, 33.710566281361615 ], [ -91.186086327254841, 33.710706162273432 ], [ -91.186120644483324, 33.710838077150271 ], [ -91.186109747302012, 33.710976433126874 ], [ -91.186135784945051, 33.711112390138936 ], [ -91.186120426216348, 33.711251765947637 ], [ -91.18612213650681, 33.711388220892616 ], [ -91.186134475864449, 33.711525399445165 ] ] } },
{ "type": "Feature", "properties": { "station_id": 5, "station_ft": 861.6, "width_ft": 1450.6, "flag": "ok", "lon": -91.18199, "lat": 33.70079, "survey_id": "LM_13_OZE_20250511_CS_5746_5722", "date": "2025-05-11 00:00:00+00:00", "method": "lines" }, "geometry": { "type": "LineString", "coordinates": [ [ -91.181786771180882, 33.699299012265371 ], [ -91.181792391527878, 33.699429312682931 ], [ -91.181833965170014, 33.699564724266011 ], [ -91.181828586033077, 33.699699799268878 ], [ -91.181850453618523, 33.699837380153618 ], [ -91.18186187349157, 33.699972229773962 ], [ -91.181900016578936, 33.700109863841405 ], [ -91.18192650308886, 33.700242273957613 ], [ -91.181916960538913, 33.700381967501592 ], [ -91.181923917191909, 33.700520996841156 ], [ -91.181974563341598, 33.700652911900868 ], [ -91.181989919933656, 33.700790207484737 ], [ -91.182000345502502, 33.700927674880518 ], [ -91.182001340365346, 33.701065591133656 ], [ -91.182013547861501, 33.701203596245222 ], [ -91.18205887145885, 33.701339146931495 ], [ -91.182069326333263, 33.701476174134733 ], [ -91.182095531820025, 33.701610098063455 ], [ -91.182126789102227, 33.701746130332523 ], [ -91.182140799528241, 33.701883600108843 ], [ -91.182143754473699, 33.702020293849039 ], [ -91.182147143593042, 33.702157589564152 ], [ -91.182163913235172, 33.702294821284731 ], [ -91.18217172152815, 33.702433514732654 ], [ -91.182181282291722, 33.702569861038505 ], [ -91.182235339024587, 33.702710573573071 ], [ -91.182234161303995, 33.702841525568886 ], [ -91.182261715324358, 33.702978792240692 ], [ -91.182258648821559, 33.70311489532385 ], [ -91.182284936632044, 33.703250412601058 ], [ -91.182298624567338, 33.703388488598279 ], [ -91.182319253022598, 33.703526792774959 ], [ -91.182354222089785, 33.703659089418593 ], [ -91.182353169108566, 33.703799300679698 ], [ -91.182377232373625, 33.703935960185419 ], [ -91.182414909117725, 33.704069337218407 ], [ -91.1824076149896, 33.704210224278398 ], [ -91.182434050039205, 33.704343870603722 ], [ -91.182463717731011, 33.704481865565192 ], [ -91.182477449818748, 33.704617688156354 ], [ -91.182499023681899, 33.704751918739206 ], [ -91.18250323333551, 33.704888988752877 ], [ -91.182517619309351, 33.705027774840062 ], [ -91.182551630228005, 33.705162798947171 ], [ -91.182595664086463, 33.705297204168716 ], [ -91.18259669093969, 33.70543825308738 ], [ -91.182589748824029, 33.705574767742142 ], [ -91.182601724145854, 33.705709173364497 ], [ -91.182622926709755, 33.705845632454903 ], [ -91.182632892400463, 33.705982882849106 ], [ -91.182641713680127, 33.706120800163426 ], [ -91.182713340759804, 33.706255922586735 ], [ -91.182681497286552, 33.706394642416804 ], [ -91.18272330918694, 33.706530408897699 ], [ -91.182769592858889, 33.706666090514979 ], [ -91.182774380423339, 33.70680175544247 ], [ -91.182764935555326, 33.706941200294544 ], [ -91.182758432420044, 33.707078892977293 ], [ -91.182832379887216, 33.707212378303822 ], [ -91.182832689436452, 33.707347359058552 ], [ -91.182852012497236, 33.707486551062587 ], [ -91.182878672353951, 33.70761950955962 ], [ -91.182897234803661, 33.707758239761723 ], [ -91.182907547425472, 33.70789394870198 ], [ -91.182893022933115, 33.708035049517875 ], [ -91.182946038450226, 33.708169777737076 ], [ -91.183003634995629, 33.708302358408041 ], [ -91.18301398211608, 33.708438149132228 ], [ -91.183003176700154, 33.708576339307378 ], [ -91.183017215195946, 33.708712984575939 ], [ -91.183571454786716, 33.712566404592991 ], [ -91.18356574355947, 33.712680899492142 ], [ -91.183582494573187, 33.71281576693935 ], [ -91.18358583993701, 33.712954985727784 ], [ -91.18361339603095, 33.713088487720704 ], [ -91.183627669944912, 33.713225515259786 ], [ -91.183642637564049, 33.713362867996409 ], [ -91.183661968767993, 33.71349931164638 ], [ -91.183696931284061, 33.713636856690954 ] ] } },
{ "type": "Feature", "properties": { "station_id": 6, "station_ft": -144.6, "width_ft": 1449.3, "flag": "ok", "lon": -91.178365, "lat": 33.701229, "survey_id": "LM_13_OZE_20250511_CS_5746_5722", "date": "2025-05-11 00:00:00+00:00", "method": "lines" }, "geometry": { "type": "LineString", "coordinates": [ [ -91.178066324832059, 33.699596947214253 ], [ -91.178105225144364, 33.69973191135864 ], [ -91.178096574062181, 33.699872614658915 ], [ -91.178169932918948, 33.700001133040431 ], [ -91.17820388560348, 33.700134427888493 ], [ -91.178193088198739, 33.700277563907861 ], [ -91.178211764349612, 33.700412007253107 ], [ -91.178241896627128, 33.700544640300862 ], [ -91.178275053780681, 33.700684013613781 ], [ -91.178299030108946, 33.700819162686074 ], [ -91.178350527068829, 33.700951155496504 ], [ -91.178348836622263, 33.701087414155857 ], [ -91.17836491471607, 33.70122858029476 ], [ -91.178401143865798, 33.701359193505596 ], [ -91.178443966279019, 33.701495010608291 ], [ -91.178457567684063, 33.701631631661975 ], [ -91.178477280018825, 33.701767826829922 ], [ -91.178504229355084, 33.701904356552788 ], [ -91.178542471704532, 33.702035725881409 ], [ -91.178552077814075, 33.702177293277636 ], [ -91.178563993123888, 33.702312991799786 ], [ -91.178593089285272, 33.702447088757154 ], [ -91.178599867462708, 33.702585268411028 ], [ -91.178625905556203, 33.702722656315785 ], [ -91.178669636456974, 33.702857175118666 ], [ -91.178696413373373, 33.702992881904528 ], [ -91.178697085111082, 33.703131927372958 ], [ -91.178744701886842, 33.703263589480272 ], [ -91.178774966802337, 33.703399546448267 ], [ -91.178792282085908, 33.703532542884687 ], [ -91.178810478031636, 33.703671523397027 ], [ -91.178850580682038, 33.703804802924054 ], [ -91.178861618393228, 33.703944766455244 ], [ -91.178881759161186, 33.7040775505874 ], [ -91.178909008189379, 33.704214243999871 ], [ -91.178929294698889, 33.704348456126674 ], [ -91.178954748465728, 33.704486534919688 ], [ -91.178979011233253, 33.70462393485176 ], [ -91.178996978716796, 33.70474956174418 ], [ -91.179041731869816, 33.704890915462379 ], [ -91.17905497779897, 33.705031386747557 ], [ -91.179087366735558, 33.705162492966281 ], [ -91.179101140562537, 33.705299690589072 ], [ -91.179116854621199, 33.70544036404268 ], [ -91.179153585381542, 33.705574958475985 ], [ -91.179181973081896, 33.705710406119927 ], [ -91.179214896961639, 33.705842333571191 ], [ -91.179258016153682, 33.705977900297725 ], [ -91.179256627859502, 33.706117976780391 ], [ -91.179277603914073, 33.70624869405755 ], [ -91.179327114314162, 33.706378693892447 ], [ -91.179315620298581, 33.706524362663707 ], [ -91.179324780208674, 33.706660492798306 ], [ -91.179368785874971, 33.706795861355523 ], [ -91.179429395746808, 33.706927818178109 ], [ -91.179432301158087, 33.707066463270394 ], [ -91.179438670239549, 33.707202996572491 ], [ -91.179470474627152, 33.707338036629757 ], [ -91.179469113112845, 33.707480805921215 ], [ -91.179516679974583, 33.707607108953042 ], [ -91.17957613431085, 33.707741822516347 ], [ -91.179552198773152, 33.70788282247365 ], [ -91.179568172484096, 33.708022889963694 ], [ -91.179645346328698, 33.708150611138109 ], [ -91.179654173650221, 33.708289600596117 ], [ -91.179656535065533, 33.708426409250102 ], [ -91.179669472822724, 33.708562127550756 ], [ -91.179693307623083, 33.708699091096364 ], [ -91.179754655878114, 33.708829036626838 ], [ -91.179757467816501, 33.708971612296246 ], [ -91.179759592926288, 33.709107734644945 ], [ -91.17977760654091, 33.709244655103916 ], [ -91.179825436996225, 33.709377442135413 ], [ -91.179887460144869, 33.709509141939137 ], [ -91.179900109099961, 33.709645494175227 ], [ -91.179908464839301, 33.709783195745665 ], [ -91.179952073718411, 33.709921396787827 ], [ -91.179963499602152, 33.710053801254006 ] ] } },
{ "type": "Feature", "properties": { "station_id": 7, "station_ft": -1100.0, "width_ft": 1511.7, "flag": "ok", "lon": -91.174982, "lat": 33.701403, "survey_id": "LM_13_OZE_20250511_CS_5746_5722", "date": "2025-05-11 00:00:00+00:00", "method": "lines" }, "geometry": { "type": "LineString", "coordinates": [ [ -91.174666351080646, 33.700202675818417 ], [ -91.174698551869568, 33.700328866509714 ], [ -91.174710984001962, 33.700467557035012 ], [ -91.174764150888635, 33.700599485027091 ], [ -91.174804849730265, 33.70073386096697 ], [ -91.174856514852905, 33.700863518136657 ], [ -91.174907492853052, 33.700996697936525 ], [ -91.174919905616207, 33.701133355485894 ], [ -91.174940314336993, 33.701270754654416 ], [ -91.174981545978085, 33.701402516805828 ], [ -91.174999937213556, 33.701541963672263 ], [ -91.175029535502546, 33.701677597115378 ], [ -91.17507731972978, 33.701810276565944 ], [ -91.175120706478381, 33.70194042997349 ], [ -91.17515795738035, 33.702075296272859 ], [ -91.175182305086977, 33.702211927432622 ], [ -91.175219815917231, 33.702346324914757 ], [ -91.175258668709077, 33.702480164172073 ], [ -91.175305690852724, 33.702608835762042 ], [ -91.17534487422158, 33.702742809771863 ], [ -91.175380497588364, 33.70287917198025 ], [ -91.175429801902482, 33.703009201966339 ], [ -91.175463225822995, 33.703142556131404 ], [ -91.175483991228248, 33.70328253665749 ], [ -91.175500709327693, 33.703418971798932 ], [ -91.175527728389241, 33.703556326643763 ], [ -91.175568029762545, 33.703690154991754 ], [ -91.175613652034855, 33.703826915952426 ], [ -91.175662947800234, 33.703952549762768 ], [ -91.175690402586582, 33.704094050665823 ], [ -91.175723867841839, 33.704221495480411 ], [ -91.175753330239914, 33.704356469643507 ], [ -91.17578804927426, 33.704490996825108 ], [ -91.175835072930326, 33.704622938183455 ], [ -91.17586474029855, 33.704758653814167 ], [ -91.175888260250161, 33.704894492506313 ], [ -91.175924837612328, 33.705030820040172 ], [ -91.175959193866902, 33.705161831657087 ], [ -91.176007515993987, 33.705295331022114 ], [ -91.176037937604377, 33.705430793512242 ], [ -91.176074254780389, 33.705570694828019 ], [ -91.176114687235739, 33.705697652894358 ], [ -91.176160127679097, 33.705832380865353 ], [ -91.17619896160933, 33.705963856810051 ], [ -91.176236962011259, 33.706097673522926 ], [ -91.176251441164069, 33.706236844738008 ], [ -91.176275445203004, 33.706371663930142 ], [ -91.17629577238192, 33.706506975224848 ], [ -91.176323274922552, 33.706643117489001 ], [ -91.176381272137505, 33.706774021701143 ], [ -91.176456874820687, 33.706899640556372 ], [ -91.176477259224129, 33.707037452402794 ], [ -91.176484301489083, 33.707176014369288 ], [ -91.176496966800642, 33.707318055920773 ], [ -91.176551096561724, 33.707450086361021 ], [ -91.176583469005067, 33.707579792266159 ], [ -91.176598857311632, 33.707717747272191 ], [ -91.176625945413107, 33.707855101285226 ], [ -91.176689785092663, 33.707984867303765 ], [ -91.176741948030113, 33.708117460131788 ], [ -91.17676442014691, 33.70825014657877 ], [ -91.176798414876714, 33.708384292435156 ], [ -91.176827996950877, 33.708521024393868 ], [ -91.176883345979888, 33.708649969229825 ], [ -91.176932603407408, 33.708781235738755 ], [ -91.176941047230372, 33.708921822028422 ], [ -91.176971576585018, 33.709057970456037 ], [ -91.177046014161718, 33.709185161982909 ], [ -91.177068797938801, 33.709319412263163 ], [ -91.177088154924448, 33.709456241926148 ], [ -91.177126660738196, 33.709590906807726 ], [ -91.177166903964604, 33.709724955744946 ], [ -91.177206662248977, 33.709856506992473 ], [ -91.177249779106063, 33.709991937319387 ], [ -91.177302662452419, 33.710120759926497 ], [ -91.177338014207365, 33.710255611262554 ], [ -91.177379859209381, 33.710388687178977 ], [ -91.177397778736037, 33.710526378580496 ], [ -91.177395848622822, 33.710668491735127 ], [ -91.177450950877514, 33.71080219107418 ], [ -91.177485881465032, 33.710934297208851 ], [ -91.177515887484219, 33.711067178987967 ], [ -91.177567777718906, 33.711201780158028 ], [ -91.177598409891857, 33.711334794670137 ], [ -91.178530330076057, 33.71497405816018 ], [ -91.178559532879078, 33.715088395961573 ], [ -91.178589697380602, 33.715227101390141 ], [ -91.178653689206513, 33.715354667075914 ], [ -91.17868533167389, 33.715489707352148 ], [ -91.178728022127785, 33.715621375819559 ] ] } },
{ "type": "Feature", "properties": { "station_id": 8, "station_ft": -2119.3, "width_ft": 1322.0, "flag": "ok", "lon": -91.171248, "lat": 33.702015, "survey_id": "LM_13_OZE_20250511_CS_5746_5722", "date": "2025-05-11 00:00:00+00:00", "method": "lines" }, "geometry": { "type": "LineString", "coordinates": [ [ -91.171109008307567, 33.701475749155662 ], [ -91.171139210052289, 33.701609840490853 ], [ -91.171189225584754, 33.701742643406526 ], [ -91.171231025693061, 33.701875969040785 ], [ -91.171248456162374, 33.702015285080805 ], [ -91.171280785393208, 33.702151697936536 ], [ -91.17135019201541, 33.702277059205073 ], [ -91.171400742909697, 33.702410820371853 ], [ -91.171462508776699, 33.70253810238529 ], [ -91.171518965931995, 33.702667206419058 ], [ -91.171549757729522, 33.702800963636676 ], [ -91.171606955766293, 33.702931904528114 ], [ -91.171646867003247, 33.703063538812778 ], [ -91.17167843529414, 33.703199351735073 ], [ -91.171727501253159, 33.703332380814722 ], [ -91.171780288376567, 33.703462691587475 ], [ -91.171821876873395, 33.703594369412563 ], [ -91.171890009133364, 33.703720260998551 ], [ -91.171942996813769, 33.703850845310818 ], [ -91.171966876493073, 33.703987067357865 ], [ -91.172000722056282, 33.704123689658296 ], [ -91.172055476261789, 33.704253299928865 ], [ -91.172079457326149, 33.704389933277675 ], [ -91.172153119707474, 33.704516337110462 ], [ -91.172179974685577, 33.704654298782309 ], [ -91.172211498996276, 33.704788764856822 ], [ -91.172264022727447, 33.704918885130532 ], [ -91.172317070856096, 33.705048780928664 ], [ -91.172371403303572, 33.705175507931258 ], [ -91.172413465096668, 33.705311634304138 ], [ -91.172455489391297, 33.705440451787624 ], [ -91.172513373748643, 33.705570644611981 ], [ -91.172551652860406, 33.705706549589692 ], [ -91.172587431243102, 33.705838980616285 ], [ -91.172620318071154, 33.705978220187319 ], [ -91.172674688759585, 33.706105331744638 ], [ -91.172729433771707, 33.706237194771951 ], [ -91.172794323195802, 33.70636393276051 ], [ -91.172850002330208, 33.706490430375219 ], [ -91.172882560049629, 33.706629589147447 ], [ -91.172932301288398, 33.706757336095492 ], [ -91.172972960018825, 33.706890998727204 ], [ -91.172992643170957, 33.707028266899975 ], [ -91.173029518938847, 33.707161817277985 ], [ -91.173087433727275, 33.707291487557761 ], [ -91.173154270122652, 33.707418844097432 ], [ -91.173197842881478, 33.707551249853367 ], [ -91.173240556654775, 33.70768649239713 ], [ -91.173275786511851, 33.707819778891036 ], [ -91.173346625344465, 33.707942766076869 ], [ -91.173393075421487, 33.708076801173796 ], [ -91.173444310838249, 33.708205829677418 ], [ -91.173504979342795, 33.708334546961339 ], [ -91.173544854177749, 33.708471951744649 ], [ -91.173576964952886, 33.708602237244328 ], [ -91.173601057609886, 33.708743074389425 ], [ -91.173632337275777, 33.708879163591575 ], [ -91.173681952632506, 33.709010566940599 ], [ -91.173744655720043, 33.709135312298216 ], [ -91.173802979550842, 33.709266299313441 ], [ -91.173827822244618, 33.709403009261223 ], [ -91.173866360684713, 33.709538224946961 ], [ -91.173917444993023, 33.709668518256173 ], [ -91.173998034213895, 33.709789624675885 ], [ -91.174014874024053, 33.709931885076784 ], [ -91.174052504304967, 33.71006152788474 ], [ -91.174136914366159, 33.710186648180873 ], [ -91.1741970998754, 33.710316137400099 ], [ -91.174225977743333, 33.710451913678234 ], [ -91.174256005901213, 33.710587489176355 ], [ -91.174299766508966, 33.71071181410128 ], [ -91.174349804555845, 33.710849286397 ], [ -91.174403269421418, 33.710977393150678 ], [ -91.174447950490332, 33.711111768881047 ], [ -91.174491446472288, 33.711245961526444 ], [ -91.17454851405077, 33.711372531719256 ], [ -91.174569450380247, 33.711513143056301 ], [ -91.174569594290659, 33.71165601110765 ], [ -91.17464885661434, 33.711775725021035 ], [ -91.174711450676654, 33.711905857492567 ], [ -91.174768245433427, 33.712034682473167 ], [ -91.174822055444707, 33.712164297708142 ], [ -91.174872200484131, 33.712295640972158 ], [ -91.174931362055545, 33.712427830668005 ], [ -91.176048322784297, 33.715781403541591 ], [ -91.1761129670667, 33.715912153195902 ], [ -91.176164126551342, 33.716045962835594 ], [ -91.176211861193892, 33.716175947878298 ], [ -91.176290553389578, 33.716297148488692 ], [ -91.176310267378895, 33.716436778695339 ], [ -91.17635470799253, 33.716556096118175 ] ] } },
{ "type": "Feature", "properties": { "station_id": 9, "station_ft": -3043.4, "width_ft": 1538.0, "flag": "ok", "lon": -91.167836, "lat": 33.70307, "survey_id": "LM_13_OZE_20250511_CS_5746_5722", "date": "2025-05-11 00:00:00+00:00", "method": "lines" }, "geometry": { "type": "LineString", "coordinates": [ [ -91.167249036701904, 33.701785297513972 ], [ -91.167298535427889, 33.701919699539111 ], [ -91.167365322116893, 33.70204670183557 ], [ -91.167436055595047, 33.702166973271979 ], [ -91.167489741016283, 33.702299120029387 ], [ -91.167552438155923, 33.702428046757078 ], [ -91.167625094877948, 33.702550036124592 ], [ -91.167697107137371, 33.702673292915684 ], [ -91.167732800933109, 33.702807925920062 ], [ -91.167788365019859, 33.702937037731886 ], [ -91.167836210798328, 33.703070460731887 ], [ -91.167909319547093, 33.703194809906591 ], [ -91.167964577983668, 33.703322824662429 ], [ -91.168024507045345, 33.703451027816868 ], [ -91.168093998470397, 33.703578616355564 ], [ -91.168167492368568, 33.703698537790153 ], [ -91.168221859080404, 33.703829526451123 ], [ -91.168264854412413, 33.703964329002609 ], [ -91.168315256896264, 33.70409339338326 ], [ -91.16838440142044, 33.704219033057576 ], [ -91.168439682517118, 33.704349245473601 ], [ -91.168488756878972, 33.704480241825586 ], [ -91.168565590570282, 33.704601927351852 ], [ -91.168645158504873, 33.704724226346414 ], [ -91.16872826800585, 33.704845511397217 ], [ -91.168774122500096, 33.704976667336609 ], [ -91.168822399491006, 33.705110114921489 ], [ -91.16886883722789, 33.705243766960997 ], [ -91.168935545711165, 33.705365520717756 ], [ -91.169016717094181, 33.705486846612764 ], [ -91.169073800913694, 33.705616332454809 ], [ -91.169142421143931, 33.705741947252733 ], [ -91.169184732475173, 33.705873703997923 ], [ -91.169221113791636, 33.706011216883894 ], [ -91.169268945489748, 33.706142660352654 ], [ -91.169332413107753, 33.706272597822455 ], [ -91.169411707477352, 33.706393441162987 ], [ -91.169478652993064, 33.706515769998333 ], [ -91.169551408957503, 33.706640450455097 ], [ -91.169614351929908, 33.706767038330746 ], [ -91.169649447119994, 33.706907416882899 ], [ -91.16970307431157, 33.707032775809239 ], [ -91.16977710332641, 33.707159948485319 ], [ -91.169833390659306, 33.707285042300576 ], [ -91.169912807370011, 33.70741154549097 ], [ -91.169959649556532, 33.707539094203725 ], [ -91.170000148266908, 33.707677045939732 ], [ -91.170063461629766, 33.707800965067094 ], [ -91.170141358839317, 33.707926764333187 ], [ -91.170208459389713, 33.708047826754559 ], [ -91.170271916811316, 33.708176416784056 ], [ -91.1704560786836, 33.708565855803577 ], [ -91.170530489187385, 33.708684506344973 ], [ -91.170571869780687, 33.708818356894625 ], [ -91.170612100076099, 33.708952160227163 ], [ -91.170646811782433, 33.709086660909414 ], [ -91.170697762221238, 33.709220584475716 ], [ -91.170791185485612, 33.709339957041884 ], [ -91.170856715007773, 33.709461552635467 ], [ -91.170912309933954, 33.709589563592118 ], [ -91.170952190168393, 33.709724551137121 ], [ -91.171006858521395, 33.709855206354163 ], [ -91.171088829506658, 33.709973474365476 ], [ -91.171153712788296, 33.710099636167001 ], [ -91.171215363316904, 33.710231370896608 ], [ -91.171290996255507, 33.710353776737549 ], [ -91.171353492513887, 33.710481245679802 ], [ -91.171401459609783, 33.710609143145454 ], [ -91.171455258254412, 33.710741535072231 ], [ -91.171511951339397, 33.710870692291024 ], [ -91.171576745049833, 33.710994161425681 ], [ -91.171648417645514, 33.711118434928338 ], [ -91.171722547583698, 33.711245000655438 ], [ -91.17177107681762, 33.711376467104706 ], [ -91.171806979302119, 33.711511316328519 ], [ -91.171848819934453, 33.711644751216291 ], [ -91.171924074695738, 33.711765318162357 ], [ -91.172007747612895, 33.711885772903202 ], [ -91.172051994021018, 33.712019713390248 ], [ -91.172107699687729, 33.712148657013714 ], [ -91.172179004654978, 33.712271998629404 ], [ -91.172229277599328, 33.712406805102511 ], [ -91.172286270474203, 33.71253271779085 ], [ -91.172351683386012, 33.712658819384949 ], [ -91.172426674926356, 33.712782548722799 ], [ -91.174073871852684, 33.716292444513492 ], [ -91.174126805633534, 33.716419756967476 ], [ -91.174184246343401, 33.716553854658628 ], [ -91.174252148143509, 33.716678344177282 ], [ -91.17430775318708, 33.716802946235262 ], [ -91.1743819482665, 33.716931954818733 ], [ -91.17443819228852, 33.717061306491189 ], [ -91.174516906361859, 33.717181600189065 ], [ -91.174544556996537, 33.717302517522228 ] ] } },
{ "type": "Feature", "properties": { "station_id": 10, "station_ft": -4030.8, "width_ft": 1924.5, "flag": "ok", "lon": -91.164212, "lat": 33.703504, "survey_id": "LM_13_OZE_20250511_CS_5746_5722", "date": "2025-05-11 00:00:00+00:00", "method": "lines" }, "geometry": { "type": "LineString", "coordinates": [ [ -91.163289972677347, 33.702081074098601 ], [ -91.163351859131083, 33.702170904090458 ], [ -91.163436723311492, 33.702291054967993 ], [ -91.163538566417301, 33.702402242637625 ], [ -91.163595953973257, 33.702533652197822 ], [ -91.163667852323343, 33.702655869021228 ], [ -91.163774174047191, 33.702764388348122 ], [ -91.163864378314514, 33.702878979011892 ], [ -91.163923758674315, 33.70300889190068 ], [ -91.163982421624297, 33.703136088602733 ], [ -91.16406142396508, 33.70326185652771 ], [ -91.164129435017387, 33.703383192206253 ], [ -91.164211543097238, 33.703503663075146 ], [ -91.164297781837874, 33.703619434997627 ], [ -91.164352508511982, 33.703750779117698 ], [ -91.164416220867395, 33.703879755605556 ], [ -91.164495121495108, 33.703998296822377 ], [ -91.164556666400955, 33.704127534846549 ], [ -91.164622172084393, 33.704254822204142 ], [ -91.164696449527, 33.704374549319027 ], [ -91.16479062120861, 33.704491173569878 ], [ -91.164855586320499, 33.704616926329265 ], [ -91.164917076554246, 33.704743745574135 ], [ -91.165001221741605, 33.704863790134816 ], [ -91.165102748087833, 33.70497583055478 ], [ -91.165155163387553, 33.705105981715761 ], [ -91.165237576284241, 33.705223619722801 ], [ -91.165301402283902, 33.705350478923521 ], [ -91.165386760018364, 33.705470075061505 ], [ -91.165470126296611, 33.705590976519517 ], [ -91.165546937161281, 33.705710740106475 ], [ -91.165611929788071, 33.705835777286133 ], [ -91.16567576449394, 33.705963433212901 ], [ -91.165738601287529, 33.706089830906762 ], [ -91.165833418350758, 33.706208153944928 ], [ -91.165926663164754, 33.706323712432152 ], [ -91.165999236406648, 33.706440289232226 ], [ -91.166041829828458, 33.706577925296727 ], [ -91.16611577826724, 33.70670416582805 ], [ -91.166190201374576, 33.70682144498749 ], [ -91.166268065278103, 33.706944471024151 ], [ -91.166343327191996, 33.707066910494163 ], [ -91.166424352555751, 33.707186947996433 ], [ -91.166503769241416, 33.707307270372866 ], [ -91.166580703580351, 33.707429231385518 ], [ -91.166641067110248, 33.707558091246874 ], [ -91.166714443681357, 33.707682686249498 ], [ -91.166783447461256, 33.707807310708752 ], [ -91.166866130801935, 33.707925192746671 ], [ -91.166930562211363, 33.708053063913177 ], [ -91.167008473681889, 33.708173863113267 ], [ -91.167104696703603, 33.708284206528624 ], [ -91.167179521338781, 33.708405466420466 ], [ -91.167231953471827, 33.708546965586514 ], [ -91.167303783796129, 33.708664536500571 ], [ -91.167386838507639, 33.708779942613937 ], [ -91.167467760300411, 33.708899100128335 ], [ -91.167546114592014, 33.709024815001086 ], [ -91.167620820087308, 33.709147120338713 ], [ -91.167689387238099, 33.709270620213424 ], [ -91.16775058211914, 33.709400133812132 ], [ -91.167817136700037, 33.709526203187785 ], [ -91.167910724006049, 33.709642499751212 ], [ -91.167990788686708, 33.70975787063152 ], [ -91.16807829679361, 33.709874537215462 ], [ -91.168149146782284, 33.709999258353015 ], [ -91.168225107658614, 33.710122131819475 ], [ -91.168297775771435, 33.710244394583 ], [ -91.168354874850721, 33.710375226600341 ], [ -91.168406398020991, 33.710507416199761 ], [ -91.168491322309848, 33.710622038918594 ], [ -91.168575335282114, 33.710740899761653 ], [ -91.168670377381304, 33.7108577908309 ], [ -91.168736875316483, 33.710984547048987 ], [ -91.168790582785491, 33.711114714773338 ], [ -91.168873546481507, 33.711233857476167 ], [ -91.168955692960054, 33.711353363575576 ], [ -91.169019029991361, 33.71147970103732 ], [ -91.169108122027168, 33.711593169025988 ], [ -91.16916177556719, 33.711724463910102 ], [ -91.169247435362138, 33.711843396059692 ], [ -91.169312818669724, 33.711970406510808 ], [ -91.16938980107237, 33.712093024344824 ], [ -91.169487036858911, 33.712208689967589 ], [ -91.169552193985467, 33.712329217637482 ], [ -91.169626580891602, 33.712455452897338 ], [ -91.169682179093513, 33.712587118432857 ], [ -91.169769755561944, 33.712703509178375 ], [ -91.169843723532409, 33.712827082057323 ], [ -91.169920645915525, 33.712950249000286 ], [ -91.169980657992227, 33.713075757342693 ], [ -91.170063776187021, 33.713193442078676 ] ] } },
{ "type": "Feature", "properties": { "station_id": 11, "station_ft": -4737.4, "width_ft": 1888.0, "flag": "ok", "lon": -91.161279, "lat": 33.705606, "survey_id": "LM_13_OZE_20250511_CS_5746_5722", "date": "2025-05-11 00:00:00+00:00", "method": "lines" }, "geometry": { "type": "LineString", "coordinates": [ [ -91.160009301257972, 33.704004132457285 ], [ -91.160093180735558, 33.704121324198745 ], [ -91.160187824475713, 33.704236327812616 ], [ -91.160278685182988, 33.704351082593128 ], [ -91.160372838557961, 33.704462929290131 ], [ -91.160471213113439, 33.704569251595487 ], [ -91.160556017314349, 33.70468668384413 ], [ -91.160649231062976, 33.7047999106234 ], [ -91.160736129079467, 33.704912794655343 ], [ -91.160825128171254, 33.705032149635201 ], [ -91.160916571691772, 33.705149345107024 ], [ -91.161018164188135, 33.705258448416004 ], [ -91.161123607884875, 33.705364502821695 ], [ -91.161208460590402, 33.70547995619517 ], [ -91.161279338048644, 33.705605588283923 ], [ -91.161381342421137, 33.705716364560075 ], [ -91.16148144155882, 33.705827318510494 ], [ -91.161571021745999, 33.705938562890807 ], [ -91.161663455033121, 33.706055834085454 ], [ -91.161749851890093, 33.706167593741739 ], [ -91.161839445080673, 33.706286971908959 ], [ -91.161935680195029, 33.706396000361686 ], [ -91.16202363544781, 33.706512476359777 ], [ -91.162122461983799, 33.706624290295025 ], [ -91.16219525007071, 33.706746556010515 ], [ -91.162301559638422, 33.706856945570401 ], [ -91.162413774691004, 33.706955561298905 ], [ -91.162485286574665, 33.707081903338008 ], [ -91.162601811518272, 33.707184199069204 ], [ -91.162704070397581, 33.707290328434162 ], [ -91.162784011905529, 33.707410897655194 ], [ -91.162866191821024, 33.707531890858938 ], [ -91.162951573051672, 33.707647092374458 ], [ -91.163036000004041, 33.707765679368165 ], [ -91.163134071556073, 33.707877332530011 ], [ -91.163231120557654, 33.707981793343571 ], [ -91.16332695678318, 33.708100221427834 ], [ -91.163411414418405, 33.708218532959435 ], [ -91.163522822068032, 33.708321825059194 ], [ -91.163613188029018, 33.708435480632957 ], [ -91.163683546133569, 33.708561224716902 ], [ -91.163775784416544, 33.708674675540152 ], [ -91.163882083697828, 33.70878006175888 ], [ -91.163958601255985, 33.7089033462141 ], [ -91.164034268118741, 33.709027103358324 ], [ -91.16414379344792, 33.709132687629911 ], [ -91.164269614206489, 33.70922675806731 ], [ -91.164354036077583, 33.709344465093352 ], [ -91.164435603797941, 33.709462851219676 ], [ -91.164532771498187, 33.709572338280765 ], [ -91.164622673874362, 33.709688882154978 ], [ -91.164697540794279, 33.709814759358736 ], [ -91.164808677010086, 33.709913353022891 ], [ -91.164901320442993, 33.710027679271647 ], [ -91.164974491464775, 33.710144637541873 ], [ -91.165076659537348, 33.710261152575896 ], [ -91.165206655062178, 33.710351236864085 ], [ -91.165294758370067, 33.710468644331307 ], [ -91.165373574311758, 33.71059116946271 ], [ -91.165450826648609, 33.710711836995465 ], [ -91.165533281540945, 33.710829859344258 ], [ -91.16562642572336, 33.710948138685048 ], [ -91.165699986144134, 33.711067813941952 ], [ -91.165805592413122, 33.711172379044413 ], [ -91.165897859631002, 33.711291709011498 ], [ -91.165969402358868, 33.711413403715341 ], [ -91.166068329366027, 33.711527686676703 ], [ -91.166165979872702, 33.711635768066557 ], [ -91.166248079775087, 33.711754259317914 ], [ -91.166338473665249, 33.711873518621296 ], [ -91.166419934297167, 33.711987094130201 ], [ -91.166503958573927, 33.712110628289409 ], [ -91.16660615677857, 33.712216177647292 ], [ -91.166719634555363, 33.712318407822735 ], [ -91.166817513931576, 33.712429565124538 ], [ -91.16691045278678, 33.712543200776295 ], [ -91.167006136436527, 33.712648243787719 ], [ -91.167102910189143, 33.712767377392396 ], [ -91.167165528469212, 33.712897650636108 ], [ -91.167274660059732, 33.713002437652072 ], [ -91.167372553103732, 33.713111505432799 ], [ -91.167448447502721, 33.713230559751011 ], [ -91.167567800309044, 33.713331403374447 ], [ -91.167651050292491, 33.713449417942584 ], [ -91.16773108095984, 33.713571192154753 ], [ -91.167816315084622, 33.713690403121326 ], [ -91.167913715349641, 33.713802688816806 ], [ -91.168008927857258, 33.7139130652414 ], [ -91.168108872117799, 33.714023190524316 ], [ -91.168201031072329, 33.714134027402139 ], [ -91.168299204978922, 33.714244548562988 ], [ -91.168368922940033, 33.714374279079635 ], [ -91.168470037696252, 33.71447950416114 ], [ -91.168551706040958, 33.714600276794265 ], [ -91.168638537796255, 33.714717800312741 ], [ -91.168732229252711, 33.714830549477902 ], [ -91.168841680553314, 33.714930689735233 ], [ -91.168938623478752, 33.715042922674293 ], [ -91.1690304350236, 33.715158432338249 ], [ -91.169115763001287, 33.715276734723787 ], [ -91.169212447861383, 33.71538608412272 ], [ -91.169308068597658, 33.715501046674497 ], [ -91.169377502464997, 33.715628249562833 ], [ -91.169485918626336, 33.715729934325338 ], [ -91.169586716125522, 33.715835957589988 ], [ -91.169668866628882, 33.715958760135784 ], [ -91.169776745927493, 33.716066082244716 ], [ -91.169847218787041, 33.71618838673583 ], [ -91.169929727395555, 33.716310773745789 ], [ -91.170032384382637, 33.716411837959299 ], [ -91.170145887942169, 33.716519066631641 ], [ -91.170237965400901, 33.716634519447119 ], [ -91.170349241888857, 33.716735881102956 ], [ -91.17041525478507, 33.716862722471966 ], [ -91.170489139990622, 33.7169367210955 ] ] } },
{ "type": "Feature", "properties": { "station_id": 12, "station_ft": -5877.4, "width_ft": 2076.1, "flag": "ok", "lon": -91.158525, "lat": 33.707505, "survey_id": "LM_13_OZE_20250511_CS_5746_5722", "date": "2025-05-11 00:00:00+00:00", "method": "lines" }, "geometry": { "type": "LineString", "coordinates": [ [ -91.156940605631021, 33.705925197100306 ], [ -91.157035090606371, 33.706041083218302 ], [ -91.15714945360989, 33.706141585509187 ], [ -91.157255325950885, 33.706244782355888 ], [ -91.157358397243229, 33.706354098807296 ], [ -91.157470434924448, 33.706455468297314 ], [ -91.157559513937358, 33.706569824010529 ], [ -91.157666169205342, 33.706675598301267 ], [ -91.157774040740094, 33.706778012292069 ], [ -91.157875987936393, 33.706886510845287 ], [ -91.15797480415155, 33.706994371155155 ], [ -91.158078589498842, 33.707102473187447 ], [ -91.158215190565656, 33.707190129880033 ], [ -91.158316687450466, 33.707296213015006 ], [ -91.158417945033761, 33.707404770703327 ], [ -91.158525172288336, 33.707504824363916 ], [ -91.158633172201135, 33.707610067686467 ], [ -91.158748571079627, 33.707715370560862 ], [ -91.158844961936779, 33.707820278338943 ], [ -91.158934908271576, 33.707935533302695 ], [ -91.159026853049625, 33.708050033737116 ], [ -91.159131443468354, 33.708156205485444 ], [ -91.159228892499399, 33.708268552948297 ], [ -91.159329686547352, 33.708376453895291 ], [ -91.159451408282649, 33.70848259374813 ], [ -91.159555915543237, 33.708579971638876 ], [ -91.15965710516258, 33.708684489627288 ], [ -91.159761426039651, 33.708793217706898 ], [ -91.159854045316393, 33.708905844900883 ], [ -91.159944413712296, 33.709020190173973 ], [ -91.16009474608191, 33.709095688751269 ], [ -91.160207278001053, 33.70919996536265 ], [ -91.160294396900881, 33.709314882085813 ], [ -91.160401915370699, 33.709417378092105 ], [ -91.160512989422017, 33.709523889280206 ], [ -91.160607246767768, 33.709632217886906 ], [ -91.160702392203461, 33.709747409626146 ], [ -91.160826619991226, 33.70984350027738 ], [ -91.160921576635175, 33.709952675943043 ], [ -91.161029303455734, 33.710052888980293 ], [ -91.161152842462769, 33.710149066852971 ], [ -91.161256864513817, 33.710253701530462 ], [ -91.161346389260203, 33.710372420448415 ], [ -91.161443373067755, 33.710483725165282 ], [ -91.161537356930751, 33.710597495007953 ], [ -91.161670904634661, 33.710684729155787 ], [ -91.161788736790498, 33.710778938619505 ], [ -91.161882819597679, 33.710892707523755 ], [ -91.161985662970736, 33.710997651496449 ], [ -91.162073720836531, 33.711117561673319 ], [ -91.162170033307461, 33.711234036361333 ], [ -91.162265218121192, 33.711339224418495 ], [ -91.162391381207556, 33.711431068423096 ], [ -91.162497815753326, 33.711536647803527 ], [ -91.162604292063676, 33.711639698771776 ], [ -91.162716731279161, 33.711740400653674 ], [ -91.162814482382288, 33.711855986111878 ], [ -91.162899693123165, 33.71197017170909 ], [ -91.163018877475167, 33.712067804997616 ], [ -91.163139286045762, 33.71216628283932 ], [ -91.163229637116245, 33.712278124711908 ], [ -91.163342833579165, 33.71237876681753 ], [ -91.163473387648935, 33.712472146219795 ], [ -91.163585347167981, 33.712570762440258 ], [ -91.163690720791337, 33.712678573886038 ], [ -91.163792174392256, 33.712785504603062 ], [ -91.163889775286208, 33.712892049116867 ], [ -91.163985904160072, 33.713006022565288 ], [ -91.164077776250153, 33.713118540561901 ], [ -91.164183925653106, 33.713228132382049 ], [ -91.16428370322258, 33.713338563972108 ], [ -91.164387582459383, 33.713444708808154 ], [ -91.164496513028467, 33.713546037572137 ], [ -91.164605302122439, 33.713649675237221 ], [ -91.164710549457894, 33.713754298629944 ], [ -91.164814415366536, 33.71386231125787 ], [ -91.164906937183289, 33.713973753152743 ], [ -91.165008888621273, 33.714084334482031 ], [ -91.165115113170046, 33.714187933950129 ], [ -91.165230119178943, 33.71428823118886 ], [ -91.165347160099628, 33.714388075538722 ], [ -91.165437429872497, 33.714501236175415 ], [ -91.165531244330666, 33.714613547911824 ], [ -91.165623752696405, 33.714699487202537 ] ] } }
]
}
