{
"type": "FeatureCollection",
"name": "LM_19_MEMX_20220811_CS_726_724_SORT_LWRP_INTERP_transects",
"crs": { "type": "name", "properties": { "name": "urn:ogc:def:crs:OGC:1.3:CRS84" } },
"features": [
{ "type": "Feature", "properties": { "station_id": 0, "station_ft": 154.6, "width_ft": 1115.5, "flag": "ok", "lon": -90.176832, "lat": 35.06573, "survey_id": "LM_19_MEMX_20220811_CS_726_724_SORT_LWRP_INTERP", "date": "2022-08-11 00:00:00+00:00", "method": "blob" }, "geometry": { "type": "LineString", "coordinates": [ [ -90.175987609820581, 35.065535879893631 ], [ -90.179575242190225, 35.066362702318813 ] ] } },
{ "type": "Feature", "properties": { "station_id": 1, "station_ft": 461.3, "width_ft": 1115.5, "flag": "ok", "lon": -90.176762, "lat": 35.066553, "survey_id": "LM_19_MEMX_20220811_CS_726_724_SORT_LWRP_INTERP", "date": "2022-08-11 00:00:00+00:00", "method": "blob" }, "geometry": { "type": "LineString", "coordinates": [ [ -90.175893138570558, 35.066651316942462 ], [ -90.179584245538081, 35.066233449477181 ] ] } },
{ "type": "Feature", "properties": { "station_id": 2, "station_ft": 765.4, "width_ft": 1049.9, "flag": "ok", "lon": -90.176733, "lat": 35.067377, "survey_id": "LM_19_MEMX_20220811_CS_726_724_SORT_LWRP_INTERP", "date": "2022-08-11 00:00:00+00:00", "method": "blob" }, "geometry": { "type": "LineString", "coordinates": [ [ -90.175980458396907, 35.067255280673805 ], [ -90.179421842653923, 35.067809605423406 ] ] } },
{ "type": "Feature", "properties": { "station_id": 3, "station_ft": 1067.5, "width_ft": 1378.0, "flag": "ok", "lon": -90.176621, "lat": 35.068198, "survey_id": "LM_19_MEMX_20220811_CS_726_724_SORT_LWRP_INTERP", "date": "2022-08-11 00:00:00+00:00", "method": "blob" }, "geometry": { "type": "LineString", "coordinates": [ [ -90.175745045856061, 35.068177725476922 ], [ -90.180345926266767, 35.06828485522977 ] ] } },
{ "type": "Feature", "properties": { "station_id": 4, "station_ft": 1368.0, "width_ft": 1148.3, "flag": "ok", "lon": -90.176551, "lat": 35.069021, "survey_id": "LM_19_MEMX_20220811_CS_726_724_SORT_LWRP_INTERP", "date": "2022-08-11 00:00:00+00:00", "method": "blob" }, "geometry": { "type": "LineString", "coordinates": [ [ -90.175680006809543, 35.068940529397281 ], [ -90.179491850462682, 35.069291290565666 ] ] } },
{ "type": "Feature", "properties": { "station_id": 5, "station_ft": 1676.7, "width_ft": 1279.5, "flag": "ok", "lon": -90.176314, "lat": 35.069839, "survey_id": "LM_19_MEMX_20220811_CS_726_724_SORT_LWRP_INTERP", "date": "2022-08-11 00:00:00+00:00", "method": "blob" }, "geometry": { "type": "LineString", "coordinates": [ [ -90.175490665192683, 35.069592174527671 ], [ -90.179505496703214, 35.07079731459806 ] ] } },
{ "type": "Feature", "properties": { "station_id": 6, "station_ft": 1992.9, "width_ft": 1640.4, "flag": "ok", "lon": -90.175952, "lat": 35.070655, "survey_id": "LM_19_MEMX_20220811_CS_726_724_SORT_LWRP_INTERP", "date": "2022-08-11 00:00:00+00:00", "method": "blob" }, "geometry": { "type": "LineString", "coordinates": [ [ -90.175025424728844, 35.070377029522717 ], [ -90.180172705605955, 35.071922079321645 ] ] } },
{ "type": "Feature", "properties": { "station_id": 7, "station_ft": 2331.3, "width_ft": 1804.5, "flag": "ok", "lon": -90.175423, "lat": 35.071467, "survey_id": "LM_19_MEMX_20220811_CS_726_724_SORT_LWRP_INTERP", "date": "2022-08-11 00:00:00+00:00", "method": "blob" }, "geometry": { "type": "LineString", "coordinates": [ [ -90.174886107216039, 35.071154524999351 ], [ -90.179804752913043, 35.074019000332754 ] ] } },
{ "type": "Feature", "properties": { "station_id": 8, "station_ft": 2691.8, "width_ft": 1870.1, "flag": "ok", "lon": -90.174726, "lat": 35.072275, "survey_id": "LM_19_MEMX_20220811_CS_726_724_SORT_LWRP_INTERP", "date": "2022-08-11 00:00:00+00:00", "method": "blob" }, "geometry": { "type": "LineString", "coordinates": [ [ -90.174011035855358, 35.071858327732173 ], [ -90.179108555742246, 35.074826999433213 ] ] } },
{ "type": "Feature", "properties": { "station_id": 9, "station_ft": 3030.2, "width_ft": 1837.3, "flag": "ok", "lon": -90.174197, "lat": 35.073087, "survey_id": "LM_19_MEMX_20220811_CS_726_724_SORT_LWRP_INTERP", "date": "2022-08-11 00:00:00+00:00", "method": "blob" }, "geometry": { "type": "LineString", "coordinates": [ [ -90.173476557233954, 35.072870527371286 ], [ -90.179241659810572, 35.074601048917202 ] ] } },
{ "type": "Feature", "properties": { "station_id": 10, "station_ft": 3338.9, "width_ft": 1804.5, "flag": "ok", "lon": -90.17396, "lat": 35.073906, "survey_id": "LM_19_MEMX_20220811_CS_726_724_SORT_LWRP_INTERP", "date": "2022-08-11 00:00:00+00:00", "method": "blob" }, "geometry": { "type": "LineString", "coordinates": [ [ -90.173306579015048, 35.073845376100223 ], [ -90.179296969910254, 35.074396652287213 ] ] } },
{ "type": "Feature", "properties": { "station_id": 11, "station_ft": 3639.4, "width_ft": 1771.7, "flag": "ok", "lon": -90.17389, "lat": 35.074728, "survey_id": "LM_19_MEMX_20220811_CS_726_724_SORT_LWRP_INTERP", "date": "2022-08-11 00:00:00+00:00", "method": "blob" }, "geometry": { "type": "LineString", "coordinates": [ [ -90.173342150191132, 35.074715319470187 ], [ -90.17925803182483, 35.074853165152021 ] ] } },
{ "type": "Feature", "properties": { "station_id": 12, "station_ft": 3939.4, "width_ft": 1738.8, "flag": "ok", "lon": -90.173861, "lat": 35.075552, "survey_id": "LM_19_MEMX_20220811_CS_726_724_SORT_LWRP_INTERP", "date": "2022-08-11 00:00:00+00:00", "method": "blob" }, "geometry": { "type": "LineString", "coordinates": [ [ -90.173423280980018, 35.075541413236159 ], [ -90.179229667811526, 35.075676707712397 ] ] } },
{ "type": "Feature", "properties": { "station_id": 13, "station_ft": 4239.9, "width_ft": 1771.7, "flag": "ok", "lon": -90.173875, "lat": 35.076376, "survey_id": "LM_19_MEMX_20220811_CS_726_724_SORT_LWRP_INTERP", "date": "2022-08-11 00:00:00+00:00", "method": "blob" }, "geometry": { "type": "LineString", "coordinates": [ [ -90.173327644343942, 35.076400810587202 ], [ -90.179237123254111, 35.076134300372999 ] ] } },
{ "type": "Feature", "properties": { "station_id": 14, "station_ft": 4564.1, "width_ft": 1902.9, "flag": "ok", "lon": -90.17418, "lat": 35.077207, "survey_id": "LM_19_MEMX_20220811_CS_726_724_SORT_LWRP_INTERP", "date": "2022-08-11 00:00:00+00:00", "method": "blob" }, "geometry": { "type": "LineString", "coordinates": [ [ -90.173314537714589, 35.077596030272154 ], [ -90.178893931252375, 35.075091871085021 ] ] } },
{ "type": "Feature", "properties": { "station_id": 15, "station_ft": 4889.8, "width_ft": 1935.7, "flag": "ok", "lon": -90.174361, "lat": 35.078036, "survey_id": "LM_19_MEMX_20220811_CS_726_724_SORT_LWRP_INTERP", "date": "2022-08-11 00:00:00+00:00", "method": "blob" }, "geometry": { "type": "LineString", "coordinates": [ [ -90.173285059481401, 35.077862610479706 ], [ -90.179630922714708, 35.078884749342947 ] ] } },
{ "type": "Feature", "properties": { "station_id": 16, "station_ft": 5193.9, "width_ft": 1837.3, "flag": "ok", "lon": -90.174165, "lat": 35.078856, "survey_id": "LM_19_MEMX_20220811_CS_726_724_SORT_LWRP_INTERP", "date": "2022-08-11 00:00:00+00:00", "method": "blob" }, "geometry": { "type": "LineString", "coordinates": [ [ -90.173412335145429, 35.078734235065198 ], [ -90.179435588393872, 35.079704405267869 ] ] } },
{ "type": "Feature", "properties": { "station_id": 17, "station_ft": 5508.5, "width_ft": 1738.8, "flag": "ok", "lon": -90.174262, "lat": 35.079682, "survey_id": "LM_19_MEMX_20220811_CS_726_724_SORT_LWRP_INTERP", "date": "2022-08-11 00:00:00+00:00", "method": "blob" }, "geometry": { "type": "LineString", "coordinates": [ [ -90.173852730045283, 35.079811105864351 ], [ -90.179275991934617, 35.078100084162514 ] ] } },
{ "type": "Feature", "properties": { "station_id": 18, "station_ft": 5823.1, "width_ft": 1738.8, "flag": "ok", "lon": -90.174526, "lat": 35.080512, "survey_id": "LM_19_MEMX_20220811_CS_726_724_SORT_LWRP_INTERP", "date": "2022-08-11 00:00:00+00:00", "method": "blob" }, "geometry": { "type": "LineString", "coordinates": [ [ -90.174091495221049, 35.080561477837122 ], [ -90.179846260726933, 35.079910180295037 ] ] } },
{ "type": "Feature", "properties": { "station_id": 19, "station_ft": 6125.7, "width_ft": 1771.7, "flag": "ok", "lon": -90.174623, "lat": 35.081339, "survey_id": "LM_19_MEMX_20220811_CS_726_724_SORT_LWRP_INTERP", "date": "2022-08-11 00:00:00+00:00", "method": "blob" }, "geometry": { "type": "LineString", "coordinates": [ [ -90.174075423438467, 35.081363457909539 ], [ -90.179985262035927, 35.08109692823318 ] ] } },
{ "type": "Feature", "properties": { "station_id": 20, "station_ft": 6426.7, "width_ft": 1738.8, "flag": "ok", "lon": -90.174594, "lat": 35.082162, "survey_id": "LM_19_MEMX_20220811_CS_726_724_SORT_LWRP_INTERP", "date": "2022-08-11 00:00:00+00:00", "method": "blob" }, "geometry": { "type": "LineString", "coordinates": [ [ -90.174158508272271, 35.082122228141202 ], [ -90.17993165357052, 35.082653449684742 ] ] } },
{ "type": "Feature", "properties": { "station_id": 21, "station_ft": 6789.4, "width_ft": 1902.9, "flag": "ok", "lon": -90.175025, "lat": 35.082997, "survey_id": "LM_19_MEMX_20220811_CS_726_724_SORT_LWRP_INTERP", "date": "2022-08-11 00:00:00+00:00", "method": "blob" }, "geometry": { "type": "LineString", "coordinates": [ [ -90.174307936029237, 35.083553475135474 ], [ -90.17892870913677, 35.079964475170151 ] ] } },
{ "type": "Feature", "properties": { "station_id": 22, "station_ft": 7261.6, "width_ft": 2198.2, "flag": "ok", "lon": -90.176207, "lat": 35.083848, "survey_id": "LM_19_MEMX_20220811_CS_726_724_SORT_LWRP_INTERP", "date": "2022-08-11 00:00:00+00:00", "method": "blob" }, "geometry": { "type": "LineString", "coordinates": [ [ -90.175024131961095, 35.085146238875438 ], [ -90.179427401970074, 35.080315067657054 ] ] } },
{ "type": "Feature", "properties": { "station_id": 23, "station_ft": 7702.0, "width_ft": 2296.6, "flag": "ok", "lon": -90.177222, "lat": 35.084696, "survey_id": "LM_19_MEMX_20220811_CS_726_724_SORT_LWRP_INTERP", "date": "2022-08-11 00:00:00+00:00", "method": "blob" }, "geometry": { "type": "LineString", "coordinates": [ [ -90.175271709698052, 35.085700692208718 ], [ -90.18177372978316, 35.08235220949846 ] ] } },
{ "type": "Feature", "properties": { "station_id": 24, "station_ft": 8050.0, "width_ft": 2395.0, "flag": "ok", "lon": -90.177778, "lat": 35.085533, "survey_id": "LM_19_MEMX_20220811_CS_726_724_SORT_LWRP_INTERP", "date": "2022-08-11 00:00:00+00:00", "method": "blob" }, "geometry": { "type": "LineString", "coordinates": [ [ -90.175393049793485, 35.08644519540222 ], [ -90.182648363531754, 35.083671483048008 ] ] } },
{ "type": "Feature", "properties": { "station_id": 25, "station_ft": 8429.8, "width_ft": 2723.1, "flag": "ok", "lon": -90.178501, "lat": 35.086374, "survey_id": "LM_19_MEMX_20220811_CS_726_724_SORT_LWRP_INTERP", "date": "2022-08-11 00:00:00+00:00", "method": "blob" }, "geometry": { "type": "LineString", "coordinates": [ [ -90.175792530133776, 35.088478279181707 ], [ -90.182405223342101, 35.083342172591614 ] ] } },
{ "type": "Feature", "properties": { "station_id": 26, "station_ft": 8854.1, "width_ft": 2296.6, "flag": "ok", "lon": -90.179475, "lat": 35.087221, "survey_id": "LM_19_MEMX_20220811_CS_726_724_SORT_LWRP_INTERP", "date": "2022-08-11 00:00:00+00:00", "method": "blob" }, "geometry": { "type": "LineString", "coordinates": [ [ -90.177642481086437, 35.088644495455085 ], [ -90.183219425872124, 35.084312776786582 ] ] } },
{ "type": "Feature", "properties": { "station_id": 27, "station_ft": 9220.8, "width_ft": 2066.9, "flag": "ok", "lon": -90.180073, "lat": 35.088059, "survey_id": "LM_19_MEMX_20220811_CS_726_724_SORT_LWRP_INTERP", "date": "2022-08-11 00:00:00+00:00", "method": "blob" }, "geometry": { "type": "LineString", "coordinates": [ [ -90.176861204584554, 35.088640410369933 ], [ -90.183605501725296, 35.087420113717229 ] ] } }
]
}
