{
"type": "FeatureCollection",
"name": "LM_10_SSL_20240711_CS_5282_5234_transects",
"crs": { "type": "name", "properties": { "name": "urn:ogc:def:crs:OGC:1.3:CRS84" } },
"features": [
{ "type": "Feature", "properties": { "station_id": 0, "station_ft": -13089.4, "width_ft": 2577.6, "flag": "ok", "lon": -91.089443, "lat": 33.195822, "survey_id": "LM_10_SSL_20240711_CS_5282_5234", "date": "2024-07-11 00:00:00+00:00", "method": "lines" }, "geometry": { "type": "LineString", "coordinates": [ [ -91.082235424972581, 33.198059529654181 ], [ -91.082403554258576, 33.198045271547215 ], [ -91.082557488405527, 33.197987840516191 ], [ -91.082712963224793, 33.197946367556881 ], [ -91.082866846839551, 33.197906085164561 ], [ -91.083016600773448, 33.197845353412603 ], [ -91.083165492684572, 33.197794740620694 ], [ -91.083319661516427, 33.197745827044997 ], [ -91.083475916079664, 33.197703825474477 ], [ -91.083621765469829, 33.197645232733073 ], [ -91.083780449453457, 33.19759299309014 ], [ -91.08393368133774, 33.197549360934659 ], [ -91.084083704045042, 33.197504950879946 ], [ -91.08423904610197, 33.197451879644689 ], [ -91.084390515225678, 33.197400809834761 ], [ -91.08454476776447, 33.197357967840951 ], [ -91.084699407753078, 33.197307015571205 ], [ -91.084847447323412, 33.197256405021619 ], [ -91.084998924203234, 33.197206324453411 ], [ -91.085156855495811, 33.197157935003091 ], [ -91.0853123720741, 33.197114012350681 ], [ -91.085462909132431, 33.197068718413533 ], [ -91.08561168785323, 33.197016728359785 ], [ -91.085769929197284, 33.196966550970281 ], [ -91.085916649281401, 33.196918420391981 ], [ -91.086070602284593, 33.196867581485868 ], [ -91.0862224561522, 33.196815847114571 ], [ -91.086373784787526, 33.196767799026752 ], [ -91.08653441114069, 33.196721342728047 ], [ -91.086677836467544, 33.196666526436111 ], [ -91.086834397322789, 33.196614872834395 ], [ -91.086985361095003, 33.19657388893522 ], [ -91.087141109039791, 33.196534167960287 ], [ -91.087300154662614, 33.19648656612442 ], [ -91.087445744812541, 33.196428794616551 ], [ -91.087597619341906, 33.196379779667346 ], [ -91.087745182316638, 33.196323370890262 ], [ -91.087900386915251, 33.196277660718664 ], [ -91.088064215606252, 33.196242781120517 ], [ -91.088216490572364, 33.196202391897891 ], [ -91.08836428686223, 33.196135262016888 ], [ -91.088516075652038, 33.19609149594951 ], [ -91.088669447880321, 33.196041810595219 ], [ -91.088821840118385, 33.195992296907264 ], [ -91.088979261420306, 33.195945966926459 ], [ -91.089129164757267, 33.195892152620267 ], [ -91.089283638993095, 33.195856723213076 ], [ -91.089442757951019, 33.195821678359849 ], [ -91.089598893616042, 33.195774201281864 ], [ -91.089748427128484, 33.195726847085908 ], [ -91.089899585726457, 33.195663213243613 ], [ -91.09004425504601, 33.195605224304941 ], [ -91.090198520567839, 33.195549375998738 ], [ -91.090351177530735, 33.195508020682759 ], [ -91.090509132516516, 33.195463087615138 ], [ -91.090664820263441, 33.195424515843989 ], [ -91.090814023731298, 33.195369357596626 ], [ -91.090970205963814, 33.195319872325996 ], [ -91.091127292216385, 33.195291818369597 ], [ -91.09128537771204, 33.195250922972583 ], [ -91.091432909535413, 33.195198989493591 ], [ -91.091593144856191, 33.195153354101286 ], [ -91.091745826563269, 33.195099848840755 ], [ -91.091895950418049, 33.19505680293323 ], [ -91.092057313570251, 33.195016903659145 ], [ -91.092207583060926, 33.194964293463407 ], [ -91.092360385945696, 33.194913479978325 ], [ -91.092509335589853, 33.194863185723605 ], [ -91.092659518328517, 33.194811893744109 ], [ -91.092814111099571, 33.194760271716341 ], [ -91.092962252005179, 33.194703440300344 ], [ -91.093114458618217, 33.19465186131773 ], [ -91.093265228050356, 33.194600537078493 ], [ -91.093416632455913, 33.194558306548331 ], [ -91.093577160670947, 33.19451654126717 ], [ -91.093737157622655, 33.194489016266374 ], [ -91.093893293485735, 33.194438263499919 ], [ -91.094044815695383, 33.194383306335638 ], [ -91.094191735507394, 33.19432147940919 ], [ -91.09433924965451, 33.194260444843962 ], [ -91.094485924748255, 33.19421203038678 ], [ -91.094639713151693, 33.194158295724002 ], [ -91.094792932255643, 33.194106955562241 ], [ -91.094939592262733, 33.194060573913063 ], [ -91.095100185403922, 33.194011386505053 ], [ -91.095262989192889, 33.193994834532305 ], [ -91.095436210689144, 33.193980912725998 ], [ -91.095583812627552, 33.193918914083341 ], [ -91.095726641275604, 33.193856698350729 ], [ -91.095870876808192, 33.193787190212241 ], [ -91.096027434422837, 33.193743934926708 ], [ -91.096175779617923, 33.19369985065785 ], [ -91.096333992650429, 33.193655348664493 ], [ -91.09649254674946, 33.19360493488864 ], [ -91.096635700491333, 33.193550163851882 ], [ -91.096784924349578, 33.193501868121992 ], [ -91.096942248162279, 33.193452973409286 ], [ -91.097092974926738, 33.193408351379894 ], [ -91.097249616895468, 33.193352479799557 ], [ -91.097397160026659, 33.193302627468476 ], [ -91.097557796353726, 33.193262560555603 ], [ -91.097710304635484, 33.193212485315669 ], [ -91.097855212856899, 33.193156767086514 ], [ -91.098006647357792, 33.193107192191562 ], [ -91.098166882036935, 33.193069848178943 ], [ -91.098318426849701, 33.193018073977569 ] ] } },
{ "type": "Feature", "properties": { "station_id": 1, "station_ft": -12012.3, "width_ft": 2467.2, "flag": "ok", "lon": -91.091193, "lat": 33.198256, "survey_id": "LM_10_SSL_20240711_CS_5282_5234", "date": "2024-07-11 00:00:00+00:00", "method": "lines" }, "geometry": { "type": "LineString", "coordinates": [ [ -91.083184806458789, 33.201042283798955 ], [ -91.083342840852922, 33.201001289621871 ], [ -91.083494809443877, 33.2009543123133 ], [ -91.083649524351387, 33.200903663827766 ], [ -91.083793195834602, 33.200846018124814 ], [ -91.08394214651716, 33.200774984101258 ], [ -91.084090768898889, 33.200734374851073 ], [ -91.084247366982737, 33.200689951962474 ], [ -91.084398128997648, 33.200635809018983 ], [ -91.084549251256902, 33.200581799870385 ], [ -91.084704269191292, 33.200532247377254 ], [ -91.084856247035063, 33.200479002711617 ], [ -91.085003690861711, 33.20042295402763 ], [ -91.085153953005175, 33.200371670558752 ], [ -91.08530515220022, 33.200315352680157 ], [ -91.085455670951958, 33.20026351728486 ], [ -91.085606345639263, 33.20021852437845 ], [ -91.085758160272505, 33.200157611872676 ], [ -91.085913806968733, 33.200109263208049 ], [ -91.086059634838676, 33.200055532207372 ], [ -91.086213421255067, 33.200003649087385 ], [ -91.08636467039851, 33.199953320266943 ], [ -91.086514950755841, 33.199892828185938 ], [ -91.086665339976491, 33.199845197469607 ], [ -91.086816724644095, 33.199791596053828 ], [ -91.086968393803176, 33.199736922459763 ], [ -91.087121310234465, 33.199690402067496 ], [ -91.087268053521868, 33.199640786511516 ], [ -91.087421855499329, 33.199579502890906 ], [ -91.08756657932075, 33.199526930950732 ], [ -91.087723359078694, 33.199481266431782 ], [ -91.087872843451976, 33.199419705469623 ], [ -91.088019394072447, 33.199366736921036 ], [ -91.088173780066697, 33.199320262234259 ], [ -91.088330980964869, 33.19927038904973 ], [ -91.088476460684277, 33.199218416486772 ], [ -91.088627681625397, 33.199161241490316 ], [ -91.088782244268742, 33.199108691387998 ], [ -91.088932279233902, 33.199058201829907 ], [ -91.089080516114947, 33.199003792667533 ], [ -91.089233197257158, 33.198953011673417 ], [ -91.089378873194192, 33.198886058467252 ], [ -91.089532307142804, 33.19883543753923 ], [ -91.089685344115111, 33.198788062112307 ], [ -91.089834504763232, 33.198734800569895 ], [ -91.089985976034797, 33.198680371576955 ], [ -91.090130591423431, 33.198623152872294 ], [ -91.090281593630579, 33.198567351339989 ], [ -91.090436901677847, 33.198525759766824 ], [ -91.090597894256788, 33.198487595793928 ], [ -91.090744436424899, 33.198430282605365 ], [ -91.090890783684713, 33.1983730245313 ], [ -91.091046103812232, 33.198317718757785 ], [ -91.091192512402927, 33.19825642051395 ], [ -91.091346931396671, 33.198214200258214 ], [ -91.091498780170397, 33.198158117996222 ], [ -91.091652724579191, 33.198114004961496 ], [ -91.09180180969166, 33.19805598707336 ], [ -91.091947806835421, 33.198003924369125 ], [ -91.092099383941928, 33.197954356637084 ], [ -91.092248816107428, 33.197887404241946 ], [ -91.092396270801316, 33.19784137866894 ], [ -91.092561978253102, 33.197804365490846 ], [ -91.092710548942691, 33.197751242073636 ], [ -91.09286552799918, 33.197705884154175 ], [ -91.093010343102591, 33.197649595024949 ], [ -91.093159600085016, 33.197592674497564 ], [ -91.093317965691327, 33.197545976212133 ], [ -91.093466876679472, 33.19749076066956 ], [ -91.093618658822251, 33.197438688636026 ], [ -91.093774845341443, 33.197397032551081 ], [ -91.093932651721872, 33.197361274959178 ], [ -91.09407715247319, 33.197302761216299 ], [ -91.094220480890385, 33.197233342567081 ], [ -91.094373003940305, 33.197172553236456 ], [ -91.094523233522906, 33.197122632848476 ], [ -91.094678474359711, 33.197081366428506 ], [ -91.094826883838977, 33.197017467532994 ], [ -91.094973526282374, 33.196960945848637 ], [ -91.095123023813301, 33.196898277023259 ], [ -91.095277104668739, 33.196858995205545 ], [ -91.0954330390976, 33.196818657724322 ], [ -91.095582595641105, 33.196755191821765 ], [ -91.095734732164715, 33.196710397770495 ], [ -91.095884726015967, 33.19665981717592 ], [ -91.096037555465543, 33.196612105243091 ], [ -91.096195084468249, 33.196563430197656 ], [ -91.096343579178054, 33.196509587915983 ], [ -91.096492167807384, 33.196444092712682 ], [ -91.096644084183637, 33.196400370079203 ], [ -91.096800438092885, 33.196355768872671 ], [ -91.096945639742856, 33.196291805091661 ], [ -91.097099340787594, 33.196246669774261 ], [ -91.097250632457033, 33.19619888374524 ], [ -91.097398445328452, 33.196130643964139 ], [ -91.097541986341682, 33.196074989478518 ], [ -91.09770613366031, 33.196043338539191 ], [ -91.097836961746296, 33.195954260563575 ] ] } },
{ "type": "Feature", "properties": { "station_id": 2, "station_ft": -10944.0, "width_ft": 3314.6, "flag": "ok", "lon": -91.093282, "lat": 33.20067, "survey_id": "LM_10_SSL_20240711_CS_5282_5234", "date": "2024-07-11 00:00:00+00:00", "method": "lines" }, "geometry": { "type": "LineString", "coordinates": [ [ -91.084611511833387, 33.20388696026648 ], [ -91.084753665089906, 33.203827124362412 ], [ -91.084909779490914, 33.203775201718493 ], [ -91.085060531395015, 33.20372320036747 ], [ -91.085206480376371, 33.203663808081743 ], [ -91.085353838952145, 33.203612624848731 ], [ -91.085507318611363, 33.20355846322736 ], [ -91.085658084693989, 33.203504317821945 ], [ -91.085808643608985, 33.203449046410952 ], [ -91.085956224204821, 33.203389424281909 ], [ -91.086107263069863, 33.203340525255783 ], [ -91.086257258944556, 33.203284322589795 ], [ -91.086402017729185, 33.203223644931917 ], [ -91.086551492496312, 33.2031715124605 ], [ -91.086703270042037, 33.203117277623008 ], [ -91.086857595257129, 33.203062861270134 ], [ -91.087002695430698, 33.203003939991625 ], [ -91.087150668063245, 33.202952200009101 ], [ -91.087299735052611, 33.20289451848754 ], [ -91.087447430245348, 33.202833353868755 ], [ -91.087599410579955, 33.202772383109895 ], [ -91.087753791066589, 33.202732174595653 ], [ -91.087900047003927, 33.202670963166263 ], [ -91.088053893760488, 33.20261421293673 ], [ -91.088196437915855, 33.202558575198658 ], [ -91.088347612303124, 33.202502912892598 ], [ -91.088499411378223, 33.202451451059325 ], [ -91.088653989436864, 33.202392524454538 ], [ -91.08879902349679, 33.202333793548931 ], [ -91.088941001456902, 33.202273156885568 ], [ -91.089090920904027, 33.20221609921802 ], [ -91.089241270522407, 33.202159698774039 ], [ -91.089392374352599, 33.202111208349031 ], [ -91.089540774571915, 33.202056275570769 ], [ -91.089689474530459, 33.201998180472671 ], [ -91.089842557543363, 33.20194044356397 ], [ -91.089986610276355, 33.201881771347352 ], [ -91.090141062092343, 33.201823613692319 ], [ -91.090290644909629, 33.201776972624067 ], [ -91.090442900214782, 33.201718112939112 ], [ -91.090580065356448, 33.201656926632637 ], [ -91.090741188013936, 33.201606559475721 ], [ -91.090886497496626, 33.20155733339336 ], [ -91.091036258857471, 33.201501263480289 ], [ -91.091193652014226, 33.201446934006484 ], [ -91.091337187796043, 33.20138535011678 ], [ -91.091480249574786, 33.201321928659794 ], [ -91.091636859236445, 33.20127917351649 ], [ -91.091783068807231, 33.201216913709729 ], [ -91.091931878402178, 33.201164283854055 ], [ -91.092082855554608, 33.201112795634415 ], [ -91.092230667422655, 33.201054454975178 ], [ -91.092381219672362, 33.200999258651407 ], [ -91.092530482594157, 33.200942448825167 ], [ -91.092682339730843, 33.200890734508967 ], [ -91.092831442785467, 33.200838184746004 ], [ -91.092979691208782, 33.200777477284632 ], [ -91.093129400101333, 33.200727066717043 ], [ -91.093282057567762, 33.200669630256229 ], [ -91.09342472209498, 33.200605961948121 ], [ -91.093588239455542, 33.20056467335791 ], [ -91.093741664948411, 33.200531883056676 ], [ -91.093885401564009, 33.2004600449362 ], [ -91.094036932535602, 33.200404785638476 ], [ -91.094185011483873, 33.200343637775056 ], [ -91.094330429855503, 33.200288498443896 ], [ -91.094488032562239, 33.200243754513629 ], [ -91.094645639159083, 33.200191919699101 ], [ -91.094787225340355, 33.20013979859695 ], [ -91.094948472958137, 33.200089480259408 ], [ -91.0950915276307, 33.200040895157301 ], [ -91.095233121590596, 33.199970909796342 ], [ -91.095384628499858, 33.199909355420957 ], [ -91.095527532307386, 33.199835870475709 ], [ -91.095677489027935, 33.19978792949999 ], [ -91.095826541172514, 33.199737355626603 ], [ -91.095974119417164, 33.199667716872057 ], [ -91.096129989819161, 33.199634551601967 ], [ -91.09627736890306, 33.199575879710835 ], [ -91.096425311978777, 33.199506953205216 ], [ -91.096574200561889, 33.199460253881277 ], [ -91.096732263461035, 33.199423612037002 ], [ -91.096884729085886, 33.199371174773908 ], [ -91.097024252659622, 33.199292652344653 ], [ -91.097182998661452, 33.199244325624065 ], [ -91.097323964594594, 33.199188934233675 ], [ -91.09747504821587, 33.199124164604278 ], [ -91.097627974605217, 33.199072162715822 ], [ -91.097779943538228, 33.199022804781087 ], [ -91.097928649280377, 33.198974126724764 ], [ -91.098078977077705, 33.198920216105066 ], [ -91.098230336898311, 33.198868581065831 ] ] } },
{ "type": "Feature", "properties": { "station_id": 3, "station_ft": -9919.0, "width_ft": 2243.2, "flag": "ok", "lon": -91.091639, "lat": 33.204375, "survey_id": "LM_10_SSL_20240711_CS_5282_5234", "date": "2024-07-11 00:00:00+00:00", "method": "lines" }, "geometry": { "type": "LineString", "coordinates": [ [ -91.086004015772843, 33.206571134834284 ], [ -91.086146503490284, 33.20650412170059 ], [ -91.086296518342436, 33.206449512993181 ], [ -91.086454320760481, 33.206407279157105 ], [ -91.086600807271608, 33.206349256110407 ], [ -91.086750122261108, 33.206289264574075 ], [ -91.086902230827349, 33.206234999522287 ], [ -91.087048548596698, 33.206184012632264 ], [ -91.08719653204885, 33.206117652984894 ], [ -91.087344430945848, 33.206060472581377 ], [ -91.087490118942071, 33.206004651581054 ], [ -91.087640875072012, 33.205945254361303 ], [ -91.087783648838638, 33.205881343851935 ], [ -91.087934094759348, 33.205820216971134 ], [ -91.088080792439612, 33.205767907441057 ], [ -91.088220505999558, 33.205694176071532 ], [ -91.088363094538153, 33.205627901870635 ], [ -91.088518260293625, 33.205579552840632 ], [ -91.088668430553298, 33.205520542947873 ], [ -91.088813494775536, 33.205457112373715 ], [ -91.088963437624614, 33.205409756570624 ], [ -91.089125863462982, 33.205377082256447 ], [ -91.089272775576376, 33.205308087500718 ], [ -91.089406940951946, 33.205231833203264 ], [ -91.089546310826535, 33.205160272740144 ], [ -91.089696525545193, 33.205102855480014 ], [ -91.089856257741218, 33.205064865971188 ], [ -91.090003396625633, 33.205011012370804 ], [ -91.090152565326505, 33.204953627973204 ], [ -91.090303297224352, 33.20489557477547 ], [ -91.090454744421024, 33.204837159986788 ], [ -91.090601332556389, 33.204780093712259 ], [ -91.090743698791286, 33.204711179894034 ], [ -91.090881459366287, 33.204642651909481 ], [ -91.091036825290971, 33.204591385272558 ], [ -91.091198799666913, 33.204552142417761 ], [ -91.091339038787652, 33.204483048822759 ], [ -91.09148545632705, 33.204425240485364 ], [ -91.091639196740502, 33.204375110079177 ], [ -91.091790759154762, 33.204318946221939 ], [ -91.091931745102642, 33.204256828068146 ], [ -91.092070776468177, 33.204180513304394 ], [ -91.092226215997215, 33.204130370916303 ], [ -91.092372620172185, 33.20406742215728 ], [ -91.09251269049004, 33.204001708603251 ], [ -91.092667244242804, 33.203958854685339 ], [ -91.092822529169581, 33.203906047191133 ], [ -91.092970482101407, 33.203844682417092 ], [ -91.093108804223434, 33.203780930060809 ], [ -91.093260239397026, 33.20371784044795 ], [ -91.093404845006219, 33.20366251418492 ], [ -91.093565455282175, 33.203617038007899 ], [ -91.093702422791225, 33.203544197319047 ], [ -91.093847746559788, 33.203477598104385 ], [ -91.093996556530286, 33.203424718719731 ], [ -91.094151684024979, 33.203384167712443 ], [ -91.094297080812012, 33.203318392549292 ], [ -91.094444316272757, 33.203261234863831 ], [ -91.094601643453075, 33.203210446818467 ], [ -91.094748546606553, 33.203156451128102 ], [ -91.094892326250047, 33.203096620799144 ], [ -91.095041199583747, 33.20302854229638 ], [ -91.095188470643052, 33.202971768526865 ], [ -91.095337478289025, 33.202919244297071 ], [ -91.095487705312522, 33.202860417930054 ], [ -91.095631352541332, 33.202796685176686 ], [ -91.095780092378391, 33.202732261944931 ], [ -91.09593368082966, 33.202687870771911 ], [ -91.096085496330687, 33.202642501155054 ], [ -91.096236186512769, 33.202584386067926 ], [ -91.096379243694429, 33.202516917789197 ], [ -91.096525166244561, 33.20246314693307 ], [ -91.096674537127754, 33.20239989994414 ], [ -91.09682799279561, 33.202347868718604 ], [ -91.096968135752405, 33.202283688869848 ], [ -91.097113718702559, 33.202224861997863 ], [ -91.09727145112889, 33.202172226017019 ], [ -91.097416289116381, 33.202110408050032 ], [ -91.09756770994386, 33.202065121109321 ], [ -91.09771942175152, 33.202008042086049 ], [ -91.097866889332394, 33.201947993636097 ], [ -91.098008004897622, 33.201883092533585 ], [ -91.09815258611448, 33.20181443168984 ], [ -91.098301666234391, 33.201766849995224 ], [ -91.098449926926477, 33.201700419441046 ], [ -91.098601351447897, 33.20164053785301 ] ] } },
{ "type": "Feature", "properties": { "station_id": 4, "station_ft": -8844.6, "width_ft": 2592.8, "flag": "ok", "lon": -91.092192, "lat": 33.207412, "survey_id": "LM_10_SSL_20240711_CS_5282_5234", "date": "2024-07-11 00:00:00+00:00", "method": "lines" }, "geometry": { "type": "LineString", "coordinates": [ [ -91.087014802913743, 33.209471253812048 ], [ -91.087163193823059, 33.20940986618551 ], [ -91.0873182471191, 33.209362810479995 ], [ -91.087480794911116, 33.209320546570105 ], [ -91.087622556291649, 33.209263760075686 ], [ -91.087769144455052, 33.209190372543397 ], [ -91.087911392287225, 33.209133197763819 ], [ -91.088067462450113, 33.209079127260125 ], [ -91.088215199369628, 33.209021561785789 ], [ -91.088363626390844, 33.208960694578359 ], [ -91.088508705821951, 33.208902100759246 ], [ -91.088659874495008, 33.208852153701159 ], [ -91.088794739270909, 33.20877671993032 ], [ -91.088945510304569, 33.208718613112879 ], [ -91.089095730755162, 33.208668727189028 ], [ -91.089242258636332, 33.208607677518621 ], [ -91.089394389059663, 33.208547939816107 ], [ -91.089537404855747, 33.20848913733775 ], [ -91.08969130603198, 33.208433923864575 ], [ -91.08983074229414, 33.20836939923224 ], [ -91.089985974776127, 33.208309394897746 ], [ -91.090136346909617, 33.20825447734186 ], [ -91.090282840103086, 33.20819716404597 ], [ -91.090433915676385, 33.208140400663524 ], [ -91.090580363538436, 33.208093064165205 ], [ -91.090725662396082, 33.208022428376317 ], [ -91.090868395156107, 33.207949774796319 ], [ -91.0910127677068, 33.20788546585274 ], [ -91.09116169112194, 33.207837096528785 ], [ -91.091308509634388, 33.207772140284845 ], [ -91.091450043127068, 33.207708535194897 ], [ -91.091602842353566, 33.207650962833355 ], [ -91.091750927392113, 33.207592648998535 ], [ -91.091896028085813, 33.207529461674021 ], [ -91.092041400166053, 33.207471274035605 ], [ -91.092192088997876, 33.207411734677621 ], [ -91.092335265078574, 33.20735677540943 ], [ -91.092478158629902, 33.207287994349393 ], [ -91.092624547426212, 33.207222682126329 ], [ -91.092773402370852, 33.207162768249326 ], [ -91.092924505625419, 33.207102153406744 ], [ -91.093066525073425, 33.207045771230973 ], [ -91.093220193109346, 33.206990692796275 ], [ -91.093364665033675, 33.206930694977771 ], [ -91.093513429311585, 33.206867977513255 ], [ -91.093658596192569, 33.206816577849409 ], [ -91.093812718458224, 33.206764875334031 ], [ -91.093966372209167, 33.206708256936665 ], [ -91.094111867613535, 33.206649516127463 ], [ -91.094255231063926, 33.206582406353078 ], [ -91.094400588414757, 33.206511601840511 ], [ -91.094539704470591, 33.206452350437672 ], [ -91.09469209124363, 33.206396810071716 ], [ -91.094840428761302, 33.206337913975197 ], [ -91.094991475333941, 33.206282354396016 ], [ -91.095140512427989, 33.206225019845697 ], [ -91.095290765726219, 33.206176115406137 ], [ -91.095443553956798, 33.206121588739713 ], [ -91.095589326880543, 33.206053638564718 ], [ -91.095726996834756, 33.205993789686474 ], [ -91.095880534045762, 33.205931452227098 ], [ -91.096025705936526, 33.205877136523668 ], [ -91.096171308176608, 33.205808526702157 ], [ -91.096318728351676, 33.205745870046627 ], [ -91.096470326525463, 33.205701325389995 ], [ -91.096620749241154, 33.20564568471773 ], [ -91.096767376280752, 33.205589710092724 ], [ -91.096913160228766, 33.205530662201781 ], [ -91.097066338036313, 33.205468628451158 ], [ -91.09720674568814, 33.205408074079479 ], [ -91.097353717457253, 33.205346683085018 ], [ -91.097507662320695, 33.205286347320992 ], [ -91.097655537797451, 33.205238773772372 ], [ -91.097802240578702, 33.205176613885818 ], [ -91.097950912919728, 33.205122906510098 ], [ -91.098086484140893, 33.205043830115073 ], [ -91.098219349044726, 33.204958092513372 ], [ -91.098366007057678, 33.204894585161647 ], [ -91.098518595391539, 33.204847640734755 ], [ -91.09868120979533, 33.204814623716189 ], [ -91.098829443233043, 33.204751904101691 ], [ -91.098980605272871, 33.204695183972404 ], [ -91.099123521972388, 33.204630160519443 ], [ -91.099266187791628, 33.204570222006346 ], [ -91.099418908619384, 33.204516075911407 ], [ -91.099569824362575, 33.204464908107141 ] ] } },
{ "type": "Feature", "properties": { "station_id": 5, "station_ft": -7804.2, "width_ft": 2755.4, "flag": "ok", "lon": -91.095455, "lat": 33.20937, "survey_id": "LM_10_SSL_20240711_CS_5282_5234", "date": "2024-07-11 00:00:00+00:00", "method": "lines" }, "geometry": { "type": "LineString", "coordinates": [ [ -91.088558483539089, 33.21188487595041 ], [ -91.088702001527665, 33.211819035715045 ], [ -91.088858605226463, 33.211773260746654 ], [ -91.089011267007095, 33.211721517991855 ], [ -91.089160857262144, 33.211673724042704 ], [ -91.089305029237849, 33.211604196765002 ], [ -91.089461619298817, 33.211560784374846 ], [ -91.089610394510302, 33.211505712134766 ], [ -91.08975437940046, 33.211448799697017 ], [ -91.089907598874305, 33.211397300414859 ], [ -91.090054510627482, 33.211327178553709 ], [ -91.090199680999817, 33.211275094897431 ], [ -91.090353296359694, 33.211224169723899 ], [ -91.090507231923084, 33.211176319778033 ], [ -91.090660096111463, 33.211121661418893 ], [ -91.090810909158421, 33.211068114482224 ], [ -91.090960238226472, 33.211009298984607 ], [ -91.091101556531086, 33.210950340038416 ], [ -91.091258279673241, 33.210899834838315 ], [ -91.091411664569321, 33.210848826816353 ], [ -91.091558705173711, 33.21079016250026 ], [ -91.091702636218116, 33.210731021951446 ], [ -91.091851721486591, 33.210674296021622 ], [ -91.092004970460806, 33.210626641373374 ], [ -91.092151865758851, 33.210570121393147 ], [ -91.092304055925922, 33.210509692710666 ], [ -91.092453106548447, 33.210456621604195 ], [ -91.092601464795393, 33.210410590195352 ], [ -91.092757584065794, 33.210358436764587 ], [ -91.092898641366943, 33.210296097961916 ], [ -91.093054957006046, 33.210243997962763 ], [ -91.093208277579137, 33.210193373139816 ], [ -91.093364969271349, 33.210147097883336 ], [ -91.093511604696815, 33.210083294287642 ], [ -91.093649492918615, 33.210006241781564 ], [ -91.093795134251806, 33.209956158171174 ], [ -91.093948208904024, 33.209903747756805 ], [ -91.094102677764269, 33.209853691881349 ], [ -91.094257923830483, 33.209802861946962 ], [ -91.094401048393337, 33.209737814651284 ], [ -91.094544253926614, 33.209678428217565 ], [ -91.094697505996137, 33.209620106324166 ], [ -91.094852058696162, 33.209576123491537 ], [ -91.095006594330059, 33.209530188479285 ], [ -91.095149614408385, 33.209468301284339 ], [ -91.095301356354298, 33.209413176164901 ], [ -91.09545450487613, 33.209369503242051 ], [ -91.095609323116349, 33.209318509247382 ], [ -91.095751582342629, 33.209251843623093 ], [ -91.095898702157214, 33.209191580490788 ], [ -91.09605208652853, 33.209137461468224 ], [ -91.096201932378477, 33.209090041641353 ], [ -91.096352472239658, 33.209039677969365 ], [ -91.096501651844633, 33.208975717317394 ], [ -91.096650105945841, 33.208926190195889 ], [ -91.096791861094687, 33.208861918584539 ], [ -91.096946910581593, 33.208807733248221 ], [ -91.097096696943083, 33.208757290352075 ], [ -91.097258741107666, 33.208714164733834 ], [ -91.097400207009514, 33.208654345702463 ], [ -91.097546087598388, 33.208590954074417 ], [ -91.09770414157812, 33.208540102620297 ], [ -91.097850834533659, 33.208483714246611 ], [ -91.098003523754997, 33.208432702418442 ], [ -91.098151241623313, 33.208373834142648 ], [ -91.09830314381945, 33.208322524730079 ], [ -91.098449819754336, 33.208264266618912 ], [ -91.098600433776667, 33.208211398583209 ], [ -91.098750988766923, 33.20815558951611 ], [ -91.098899994428791, 33.2081022089519 ], [ -91.099045178900454, 33.20803412041046 ], [ -91.099196903690114, 33.207988801630243 ], [ -91.099348519533024, 33.207931117077017 ], [ -91.099495987065509, 33.207869939605445 ], [ -91.099644786315764, 33.20781919768104 ], [ -91.099794623715425, 33.207771169492013 ], [ -91.099945283233438, 33.207712638037982 ], [ -91.100092371569161, 33.207653084285283 ], [ -91.100243075668558, 33.207595898375715 ], [ -91.100395900563669, 33.207553155517758 ] ] } },
{ "type": "Feature", "properties": { "station_id": 6, "station_ft": -6725.7, "width_ft": 2121.2, "flag": "ok", "lon": -91.094946, "lat": 33.212836, "survey_id": "LM_10_SSL_20240711_CS_5282_5234", "date": "2024-07-11 00:00:00+00:00", "method": "lines" }, "geometry": { "type": "LineString", "coordinates": [ [ -91.089713577167373, 33.21508568762804 ], [ -91.089858970311525, 33.215035940094559 ], [ -91.090011049093661, 33.214976696936162 ], [ -91.090154574376569, 33.214918852698162 ], [ -91.090298674966192, 33.214844377297496 ], [ -91.090445397491763, 33.214793383918831 ], [ -91.090590044398411, 33.214729210823819 ], [ -91.090740925836414, 33.214667693769378 ], [ -91.09088641117765, 33.214602279053494 ], [ -91.091028107610356, 33.21454482905532 ], [ -91.091183513189279, 33.21448097476874 ], [ -91.091319875462702, 33.214419243390964 ], [ -91.091467616658022, 33.214357661637514 ], [ -91.091612637763347, 33.214295381270446 ], [ -91.091755299661486, 33.214232456002371 ], [ -91.091909808656141, 33.214170860427103 ], [ -91.092050260286015, 33.214105804152155 ], [ -91.092192276794009, 33.214040134064277 ], [ -91.092334990199035, 33.213979544020589 ], [ -91.092484127386342, 33.213909487775652 ], [ -91.092626414436722, 33.213848762948793 ], [ -91.092771447278267, 33.213787910297668 ], [ -91.09291872219741, 33.213725615563547 ], [ -91.093069070864161, 33.21366341098954 ], [ -91.093210254543465, 33.213596123648891 ], [ -91.093350210765294, 33.213526837454694 ], [ -91.093500975722165, 33.213471170455001 ], [ -91.093643660109848, 33.213415003538429 ], [ -91.093794484093209, 33.213347354577486 ], [ -91.093933849791938, 33.213281698714802 ], [ -91.094074254169342, 33.213215239280096 ], [ -91.09422388372073, 33.213157023049298 ], [ -91.094369774030156, 33.213089787671365 ], [ -91.09451177980705, 33.213019552623095 ], [ -91.094651136949111, 33.212953154850666 ], [ -91.094802058472965, 33.212896826213282 ], [ -91.094945942191728, 33.212835923074167 ], [ -91.095086929407358, 33.212768936875996 ], [ -91.095233202753889, 33.212700874030787 ], [ -91.095376906526354, 33.212634255880999 ], [ -91.095520159191338, 33.212576132155206 ], [ -91.09567223420737, 33.212517267151021 ], [ -91.095823237972354, 33.212459452647721 ], [ -91.095968707095466, 33.212404283088532 ], [ -91.096122911797437, 33.212349746874388 ], [ -91.09626426472343, 33.212279980900369 ], [ -91.096398586717655, 33.21220619140059 ], [ -91.096537506670657, 33.212134845904757 ], [ -91.096686617720948, 33.212073771651383 ], [ -91.096830165736094, 33.212008361914229 ], [ -91.096977296228289, 33.211945183273095 ], [ -91.097122447207212, 33.211879873365937 ], [ -91.097270410581146, 33.211818531357558 ], [ -91.097423072824654, 33.211763590051724 ], [ -91.097568679935975, 33.211709489858734 ], [ -91.097718218371043, 33.211645058481707 ], [ -91.097856561603152, 33.211575337150208 ], [ -91.098003327482374, 33.211511720435588 ], [ -91.098133753230442, 33.211437568009799 ], [ -91.098287917530556, 33.211382561416151 ], [ -91.098435646693957, 33.211324571838922 ], [ -91.09857563528216, 33.211259897002094 ], [ -91.09873019813125, 33.211201947102531 ], [ -91.09887589581075, 33.211143419489403 ], [ -91.099019495774584, 33.2110768248479 ], [ -91.099161997586819, 33.211004246177559 ], [ -91.099300815471892, 33.210944194229448 ], [ -91.099457724177796, 33.210889197253152 ], [ -91.099601401433546, 33.210827877977202 ], [ -91.099753023728127, 33.210766592554371 ], [ -91.099891888046642, 33.210704451422629 ], [ -91.100035680634733, 33.210630103768267 ], [ -91.10017518688008, 33.210562901863405 ], [ -91.100324955098003, 33.210510256050711 ], [ -91.100473209301725, 33.210448962564357 ], [ -91.100610635926358, 33.210379518847652 ], [ -91.100755169308258, 33.210315335611568 ], [ -91.100896909447528, 33.21024575407435 ], [ -91.101046361853562, 33.210183216344049 ], [ -91.101200210880961, 33.210137525853206 ], [ -91.101344123601052, 33.210073481917767 ] ] } },
{ "type": "Feature", "properties": { "station_id": 7, "station_ft": -5571.3, "width_ft": 3430.2, "flag": "ok", "lon": -91.095587, "lat": 33.215811, "survey_id": "LM_10_SSL_20240711_CS_5282_5234", "date": "2024-07-11 00:00:00+00:00", "method": "lines" }, "geometry": { "type": "LineString", "coordinates": [ [ -91.08887248307812, 33.218657273215825 ], [ -91.089017799880466, 33.218590294601682 ], [ -91.089161354595092, 33.218527504810105 ], [ -91.089313455585653, 33.218469966484371 ], [ -91.089456333128012, 33.218400830987655 ], [ -91.0896036732006, 33.218348680701773 ], [ -91.089754561747398, 33.218287191829056 ], [ -91.089898886515797, 33.218226621804092 ], [ -91.090034336044837, 33.218145438668714 ], [ -91.090182526900989, 33.218085916876468 ], [ -91.090327950841939, 33.218031606199276 ], [ -91.090465253784686, 33.217956952856049 ], [ -91.090620576007893, 33.217905466913649 ], [ -91.090768468696368, 33.217841686806381 ], [ -91.090918487831217, 33.217789545713252 ], [ -91.091067175761964, 33.217734691341107 ], [ -91.09119983163427, 33.217652067779824 ], [ -91.091350578306034, 33.217597036429268 ], [ -91.091495882348809, 33.217532858273664 ], [ -91.091643310935126, 33.217472378228621 ], [ -91.091796275575362, 33.21742060223815 ], [ -91.091940304691121, 33.217356432240109 ], [ -91.092076988906527, 33.21727848263447 ], [ -91.092223069430418, 33.217217267160493 ], [ -91.092370167861475, 33.217164015969637 ], [ -91.092531276677036, 33.217120325064315 ], [ -91.09266450445007, 33.217047424458485 ], [ -91.092806743113414, 33.216976805808947 ], [ -91.092958858909654, 33.216921571209312 ], [ -91.093102203880875, 33.216861718488403 ], [ -91.093254239949033, 33.21680115250858 ], [ -91.09338921271619, 33.216722140753028 ], [ -91.093527676050229, 33.216653577586861 ], [ -91.093672085711859, 33.216592150625743 ], [ -91.093831693802116, 33.216545306903122 ], [ -91.093989116577276, 33.216495233070141 ], [ -91.094130869884268, 33.216429122373853 ], [ -91.094270782048739, 33.216365716933026 ], [ -91.094408583445443, 33.216292704450268 ], [ -91.094557995848007, 33.216223826117286 ], [ -91.094697711789081, 33.216160503450865 ], [ -91.094842733839826, 33.216098137273761 ], [ -91.094993228049873, 33.21603348418639 ], [ -91.095137627458556, 33.215982499510048 ], [ -91.095284335702104, 33.215914873040731 ], [ -91.095428927855579, 33.215855972088114 ], [ -91.095586748529982, 33.21581059325348 ], [ -91.095715074500902, 33.215719581666015 ], [ -91.095858132170235, 33.215645848318204 ], [ -91.096001773118942, 33.215579036871958 ], [ -91.096147576667462, 33.215524250047629 ], [ -91.096295017454736, 33.215469645067508 ], [ -91.096446038179664, 33.215405591116635 ], [ -91.096583820225959, 33.21534197615059 ], [ -91.09673267094071, 33.21527661603853 ], [ -91.096882855143505, 33.21521809115562 ], [ -91.097028985934955, 33.21515961802092 ], [ -91.097172777056812, 33.21509522345972 ], [ -91.097316679896011, 33.215024946528253 ], [ -91.097458227157063, 33.214962103646201 ], [ -91.097610447610435, 33.21490471950856 ], [ -91.097755521823757, 33.214841305516494 ], [ -91.097897876810265, 33.214781123379687 ], [ -91.098040616102196, 33.214712611000188 ], [ -91.098186392300178, 33.214651171335312 ], [ -91.098340687049145, 33.214595477693884 ], [ -91.098480377630352, 33.214533552140054 ], [ -91.09862856704612, 33.214471409155166 ], [ -91.098775978757899, 33.214410150797875 ], [ -91.098919408139707, 33.214345893508316 ], [ -91.099055638590997, 33.214273380588899 ], [ -91.099203847022366, 33.21421351800241 ], [ -91.099355242413992, 33.214155532710237 ], [ -91.099500906473352, 33.214096454550692 ], [ -91.099649438374925, 33.214040052715447 ], [ -91.099801297341287, 33.213978957815023 ], [ -91.099948467665413, 33.213916408389039 ], [ -91.100088249777869, 33.213846537767189 ], [ -91.100229988624974, 33.213787290893848 ], [ -91.100377943271795, 33.213721025804105 ], [ -91.100519054730782, 33.213657413033708 ], [ -91.100669869630892, 33.213596790576219 ], [ -91.100809973689934, 33.213530133379521 ], [ -91.10096054852383, 33.213472040303181 ], [ -91.101109090169487, 33.213416983753888 ], [ -91.101251836087002, 33.213349649747649 ], [ -91.101405934937745, 33.213298295022824 ], [ -91.101536844414653, 33.213215946301759 ], [ -91.101694909900147, 33.213169542083932 ], [ -91.101829421842211, 33.213095524678089 ], [ -91.101982101336773, 33.213038957407264 ], [ -91.102130060506624, 33.21298098908435 ], [ -91.102264663641378, 33.212894906456803 ] ] } },
{ "type": "Feature", "properties": { "station_id": 8, "station_ft": -4580.1, "width_ft": 3511.4, "flag": "ok", "lon": -91.096828, "lat": 33.218599, "survey_id": "LM_10_SSL_20240711_CS_5282_5234", "date": "2024-07-11 00:00:00+00:00", "method": "lines" }, "geometry": { "type": "LineString", "coordinates": [ [ -91.092351724225168, 33.220598217504801 ], [ -91.092491217541735, 33.220523162664641 ], [ -91.092646160638424, 33.220472858573856 ], [ -91.092789803099237, 33.220420177073102 ], [ -91.092937956408747, 33.220356090743849 ], [ -91.093085521770888, 33.220288296604231 ], [ -91.093231270454481, 33.22022592784402 ], [ -91.093367335938808, 33.220163013955457 ], [ -91.093511299412725, 33.220094719256821 ], [ -91.093655390681363, 33.220026094506416 ], [ -91.093802598380293, 33.219966189413533 ], [ -91.09394652040956, 33.219904463047946 ], [ -91.09409014050263, 33.219834274497401 ], [ -91.094233508676012, 33.219761530220083 ], [ -91.094374057745952, 33.219703067255438 ], [ -91.09451981719134, 33.219638443685504 ], [ -91.094660109344787, 33.21957302838338 ], [ -91.09480376977443, 33.219503909937522 ], [ -91.094955153559866, 33.219439361440784 ], [ -91.095099802952987, 33.219378701368527 ], [ -91.09523835651855, 33.219312801052844 ], [ -91.095381841100021, 33.219242308893499 ], [ -91.095533029229031, 33.219185483598793 ], [ -91.095680617148304, 33.219132005496171 ], [ -91.095828114056616, 33.219064346497362 ], [ -91.095966877274975, 33.218992562574407 ], [ -91.096105653268694, 33.218922153448069 ], [ -91.096247419057519, 33.218853512921811 ], [ -91.096389857959238, 33.218794596096998 ], [ -91.096540799221273, 33.218735819009247 ], [ -91.096680574966683, 33.218660318662813 ], [ -91.09682782794674, 33.21859859650035 ], [ -91.096966879885187, 33.218522441163906 ], [ -91.09711181971042, 33.218465541407376 ], [ -91.097257326509492, 33.218406137703901 ], [ -91.097396555143206, 33.218331629938255 ], [ -91.097541418114389, 33.218269783659743 ], [ -91.097683820807234, 33.218203087882017 ], [ -91.097835768251457, 33.218139961567765 ], [ -91.097976281669261, 33.218077976508233 ], [ -91.098129012894049, 33.218018555344528 ], [ -91.098257045523795, 33.217938893037527 ], [ -91.098413034989832, 33.217882033845136 ], [ -91.098548043991613, 33.217815053443509 ], [ -91.098705422673262, 33.217759972429249 ], [ -91.098849285868354, 33.217692304272738 ], [ -91.098986690944059, 33.217626462778604 ], [ -91.099125413043666, 33.217558028875551 ], [ -91.09927604524222, 33.217494276846075 ], [ -91.099420377263769, 33.217435454921763 ], [ -91.099570287169641, 33.217375279354954 ], [ -91.09970365428552, 33.217300172157657 ], [ -91.099845701009428, 33.217226853435257 ], [ -91.099991763566535, 33.217167910188998 ], [ -91.100142401161108, 33.21710492619836 ], [ -91.100285545052202, 33.217037563781979 ], [ -91.100429728257168, 33.216984348121464 ], [ -91.100580688815043, 33.216928451349858 ], [ -91.100723520695169, 33.216855401795939 ], [ -91.100867392553496, 33.216792760716288 ], [ -91.101014912742158, 33.21673617143211 ], [ -91.101168970953353, 33.216675665399279 ], [ -91.101307360269274, 33.216606957028873 ], [ -91.10144645504684, 33.21653651206536 ], [ -91.101589939385548, 33.216463402494398 ], [ -91.10172818261772, 33.216389225103192 ], [ -91.101871759691917, 33.216326777644916 ], [ -91.102019819413158, 33.216272189131686 ], [ -91.102167836170622, 33.216212709213849 ], [ -91.102309038087725, 33.216144174410438 ], [ -91.102457594189715, 33.216082877582423 ], [ -91.102591481216962, 33.216015348844202 ] ] } },
{ "type": "Feature", "properties": { "station_id": 9, "station_ft": -3579.2, "width_ft": 3709.5, "flag": "ok", "lon": -91.095409, "lat": 33.222531, "survey_id": "LM_10_SSL_20240711_CS_5282_5234", "date": "2024-07-11 00:00:00+00:00", "method": "lines" }, "geometry": { "type": "LineString", "coordinates": [ [ -91.093229659036879, 33.223481113323913 ], [ -91.09338995841469, 33.223437069146257 ], [ -91.093522966036119, 33.223356557171329 ], [ -91.09367255404922, 33.223295236496853 ], [ -91.093814512429105, 33.2232326972549 ], [ -91.093965800974203, 33.2231790064831 ], [ -91.094112510919331, 33.223113937555993 ], [ -91.094259502734417, 33.223051092925978 ], [ -91.094394932169877, 33.222974769642924 ], [ -91.094550810369938, 33.222933966334942 ], [ -91.094698362109483, 33.222871804826852 ], [ -91.094837227983845, 33.222795845043414 ], [ -91.094978806065157, 33.222731081517686 ], [ -91.095129532594527, 33.222673131545328 ], [ -91.09526947903791, 33.22260508031929 ], [ -91.095409177595045, 33.222530983036918 ], [ -91.095551943978251, 33.222467640711791 ], [ -91.095699714595483, 33.222408252886751 ], [ -91.095847849002197, 33.222341854072205 ], [ -91.095991346223911, 33.222279852941767 ], [ -91.096135366226747, 33.222214083119006 ], [ -91.096277271126084, 33.222149619078195 ], [ -91.09642926359534, 33.22209078066146 ], [ -91.096570001689386, 33.222027394614813 ], [ -91.096711201316211, 33.221953314622816 ], [ -91.09686098864924, 33.221896578352968 ], [ -91.097006526325387, 33.221840060041941 ], [ -91.097155418854953, 33.221774590045875 ], [ -91.097289839137431, 33.221699313947532 ], [ -91.0974400568942, 33.221643316406038 ], [ -91.09759125052976, 33.221583108259864 ], [ -91.097731650879496, 33.221511175267402 ], [ -91.097875031856191, 33.221451289784305 ], [ -91.098020609269426, 33.221395677117698 ], [ -91.098167506014818, 33.221326506961631 ], [ -91.098307245266767, 33.221257601547656 ], [ -91.098455351543009, 33.221203456955166 ], [ -91.098598055499423, 33.221137143283435 ], [ -91.098741600670635, 33.221069889254913 ], [ -91.098888416546586, 33.221010283534952 ], [ -91.099033056319513, 33.220941154202372 ], [ -91.099183079614662, 33.220881830452555 ], [ -91.099329364205872, 33.220821402469021 ], [ -91.099465984430068, 33.220751277890628 ], [ -91.09960845012526, 33.220684139517807 ], [ -91.099759226285641, 33.220621320124039 ], [ -91.099902397000292, 33.220563851860057 ], [ -91.100046946663468, 33.22049944930243 ], [ -91.100197423761799, 33.220432425892724 ], [ -91.100335117877947, 33.220369466433397 ], [ -91.100489183336492, 33.220312699448371 ], [ -91.100630406557642, 33.220245705527503 ], [ -91.100775530741132, 33.220179896508057 ], [ -91.100917725214003, 33.220108086830557 ], [ -91.101065481895802, 33.22004797774327 ], [ -91.101208752605089, 33.219990864424688 ], [ -91.101355208495264, 33.219927904769001 ], [ -91.101490601402332, 33.21985234405453 ], [ -91.101638019646927, 33.219794846679747 ], [ -91.101781729176849, 33.219728138162338 ], [ -91.101934389541654, 33.219675555456533 ], [ -91.102077896739388, 33.219612009060555 ], [ -91.102224436073513, 33.219543771372422 ], [ -91.102371340167025, 33.219487211330339 ], [ -91.102508751943205, 33.219414769394959 ], [ -91.102653920954822, 33.219346924683563 ], [ -91.10280176059247, 33.219292776597264 ], [ -91.102948213972567, 33.219233470413464 ], [ -91.103093904593123, 33.219165484011853 ], [ -91.103238336711868, 33.219106932057983 ], [ -91.10338589797999, 33.219036157537516 ], [ -91.103533694312702, 33.218984647104783 ], [ -91.103683662074658, 33.218930979812995 ], [ -91.103826175264231, 33.218866173443828 ], [ -91.103969719143379, 33.218799655494159 ], [ -91.104116296237592, 33.218728585055239 ], [ -91.104262072702497, 33.218663125010394 ], [ -91.10440600924737, 33.218600479451666 ], [ -91.104546738891358, 33.218537551550043 ], [ -91.104691349608387, 33.218477210629388 ], [ -91.104839904728152, 33.218411760636677 ], [ -91.104978558414118, 33.218343375667843 ], [ -91.105123489391303, 33.218282317247471 ] ] } },
{ "type": "Feature", "properties": { "station_id": 10, "station_ft": -2646.1, "width_ft": 3053.2, "flag": "ok", "lon": -91.096687, "lat": 33.225349, "survey_id": "LM_10_SSL_20240711_CS_5282_5234", "date": "2024-07-11 00:00:00+00:00", "method": "lines" }, "geometry": { "type": "LineString", "coordinates": [ [ -91.095103912281616, 33.226069943070364 ], [ -91.095250017739005, 33.226010180047957 ], [ -91.095397492433094, 33.22594985935838 ], [ -91.095537059193532, 33.225875186577099 ], [ -91.09567592043723, 33.225798236770764 ], [ -91.09582507274493, 33.22574290679011 ], [ -91.095967161578045, 33.225672505451783 ], [ -91.096107557015998, 33.225602937547954 ], [ -91.096251359141348, 33.225545442523909 ], [ -91.09639595167819, 33.225473485314744 ], [ -91.096537661734473, 33.22541231952389 ], [ -91.096686744559804, 33.225349129196772 ], [ -91.096829395591953, 33.225287160236967 ], [ -91.09696984131547, 33.225208467188395 ], [ -91.097109714695677, 33.225139122271401 ], [ -91.097251369899425, 33.225075591864282 ], [ -91.097396955047131, 33.225016435444765 ], [ -91.097531203344303, 33.224939593962752 ], [ -91.09768192427768, 33.224876942399177 ], [ -91.097821466316091, 33.224799848077637 ], [ -91.09796164637865, 33.224735941825649 ], [ -91.098113340057097, 33.224676169067159 ], [ -91.0982548575127, 33.224611896307614 ], [ -91.09839753541452, 33.224538245328773 ], [ -91.098536806762425, 33.224475168135726 ], [ -91.098679929814679, 33.22440008497054 ], [ -91.098828589742041, 33.224348822717396 ], [ -91.098965362332535, 33.224276800655133 ], [ -91.099114845175009, 33.224211186730443 ], [ -91.099246578711686, 33.22414252159119 ], [ -91.099395147589746, 33.224084717702972 ], [ -91.099549578821012, 33.224020364863897 ], [ -91.099692295154753, 33.223951356609227 ], [ -91.099824284135835, 33.223878373957618 ], [ -91.0999681201681, 33.223806555238077 ], [ -91.100112835336574, 33.223753144577351 ], [ -91.100259978671531, 33.223689356937022 ], [ -91.100405084553415, 33.223620773148383 ], [ -91.100541830911823, 33.223549711594345 ], [ -91.100686846763978, 33.223482172153382 ], [ -91.100831475886054, 33.22341521199079 ], [ -91.100976588894284, 33.223347424560849 ], [ -91.101114943831831, 33.223288554581771 ], [ -91.101260396554565, 33.223218565584737 ], [ -91.101402204314297, 33.223143240372956 ], [ -91.101552916971798, 33.223095286621458 ], [ -91.101688852667834, 33.223021398518988 ], [ -91.101831756114208, 33.222955519928959 ], [ -91.101980673087596, 33.222889246966858 ], [ -91.102120502087317, 33.222815828450216 ], [ -91.102260352370024, 33.222744746741213 ], [ -91.102400542856628, 33.222686579011167 ], [ -91.102556387418588, 33.222627352270607 ], [ -91.102693569452214, 33.222557907754542 ], [ -91.102841830006824, 33.222491554875084 ], [ -91.102984553252426, 33.222423916950994 ], [ -91.103128538554202, 33.222358441344028 ], [ -91.103269402128646, 33.222295074931559 ], [ -91.103413550699401, 33.222225998571403 ], [ -91.103559838849591, 33.222162267347578 ], [ -91.103702838873716, 33.222096468075115 ], [ -91.103840670138567, 33.222026634176622 ], [ -91.103985361635253, 33.221971130046462 ], [ -91.104131225359666, 33.221896407781038 ], [ -91.104268468971782, 33.221826796155163 ], [ -91.104416747939453, 33.221766487809191 ], [ -91.104560304736083, 33.221700959112276 ], [ -91.104699540125807, 33.221627349343052 ], [ -91.104844783715095, 33.22156411810402 ], [ -91.104988943727136, 33.221500289306945 ], [ -91.105132697075078, 33.221438551104335 ], [ -91.105288038672782, 33.221382127335204 ], [ -91.105424258717321, 33.221307931359306 ], [ -91.105572257590723, 33.221245726296637 ], [ -91.105714040489644, 33.221186912910895 ], [ -91.105856118444322, 33.221109574792024 ], [ -91.106003903446677, 33.221056550317371 ], [ -91.10614822340581, 33.220988898871447 ], [ -91.106280337404428, 33.220908928011326 ], [ -91.10642927209345, 33.220849107316297 ], [ -91.106578317600906, 33.220794590203617 ], [ -91.106708892057739, 33.220714436406809 ], [ -91.106855762706701, 33.220650533610097 ], [ -91.107005310267724, 33.220593648723046 ], [ -91.10714697729405, 33.220518125829223 ], [ -91.107292051539275, 33.220454590749675 ], [ -91.107450766394194, 33.220414055755818 ] ] } },
{ "type": "Feature", "properties": { "station_id": 11, "station_ft": -1605.8, "width_ft": 2538.5, "flag": "ok", "lon": -91.101282, "lat": 33.226543, "survey_id": "LM_10_SSL_20240711_CS_5282_5234", "date": "2024-07-11 00:00:00+00:00", "method": "lines" }, "geometry": { "type": "LineString", "coordinates": [ [ -91.095262174958592, 33.229324255003554 ], [ -91.095408711239855, 33.229256905308198 ], [ -91.095555922907877, 33.229195953967768 ], [ -91.095696938612946, 33.229125476551729 ], [ -91.095841514489408, 33.22906978957225 ], [ -91.095989974649456, 33.229013200399045 ], [ -91.09613928287753, 33.228945199891662 ], [ -91.09627641212164, 33.228882908352475 ], [ -91.096417841889647, 33.228811437565987 ], [ -91.09656574336995, 33.228743363128288 ], [ -91.096706140318545, 33.228673465432173 ], [ -91.096842619953648, 33.228604416636891 ], [ -91.096992713818537, 33.228547842395656 ], [ -91.097138273256178, 33.228481348737972 ], [ -91.097279227957983, 33.228415486396862 ], [ -91.097423925872675, 33.228355208309139 ], [ -91.097559200058228, 33.228275475192994 ], [ -91.097706019882665, 33.228211033418113 ], [ -91.097847206046808, 33.228145609023883 ], [ -91.097998354709787, 33.228090209166503 ], [ -91.09814999595001, 33.228038792322486 ], [ -91.098277480595215, 33.22794715125336 ], [ -91.098420834135467, 33.227867806633874 ], [ -91.098564788126311, 33.22780126528864 ], [ -91.098696993030018, 33.227729766620939 ], [ -91.09884990134978, 33.227681308485948 ], [ -91.098994937771053, 33.22761877325938 ], [ -91.099136800101491, 33.227541168179037 ], [ -91.099285044481803, 33.227486582612265 ], [ -91.099421611832881, 33.227416842501917 ], [ -91.099571457981838, 33.227347295460987 ], [ -91.09970562946593, 33.227276471579849 ], [ -91.099856610510656, 33.227217168141117 ], [ -91.099995521996789, 33.227146176790029 ], [ -91.100140213511409, 33.227085620596974 ], [ -91.10028002608135, 33.227013194250347 ], [ -91.100427607587065, 33.226946518397838 ], [ -91.100568395674088, 33.226884748705864 ], [ -91.100708501106354, 33.226815837437407 ], [ -91.100851676059747, 33.226750288287256 ], [ -91.100997880432999, 33.226679579935286 ], [ -91.101140339915645, 33.226618267246337 ], [ -91.101282185257858, 33.226542803980202 ], [ -91.101427490954748, 33.226481665447857 ], [ -91.101569878697134, 33.226415899430926 ], [ -91.101710551490484, 33.226348495615902 ], [ -91.101855211617377, 33.22628095700896 ], [ -91.101997393504945, 33.226214175610508 ], [ -91.102141988575625, 33.226146609122857 ], [ -91.102279889880322, 33.226080238864171 ], [ -91.102431906592955, 33.226016391487022 ], [ -91.102566903637495, 33.225946987660762 ], [ -91.102715986621007, 33.225884340150358 ], [ -91.102862733141663, 33.225819892781715 ], [ -91.103003559631617, 33.225755316863541 ], [ -91.103143688924845, 33.22568588066364 ], [ -91.103287225837889, 33.225617248233135 ], [ -91.103430944447538, 33.225554440116788 ], [ -91.103567223334707, 33.225482251978377 ], [ -91.103719398078596, 33.225421727369167 ], [ -91.103853722901263, 33.225350513087001 ], [ -91.103999575406263, 33.2252849978534 ], [ -91.10414968525474, 33.225223963453317 ], [ -91.104296033956459, 33.225155504497792 ], [ -91.104428857898341, 33.225088421273782 ], [ -91.1045781395201, 33.225018899691662 ], [ -91.104720673624755, 33.224955438327036 ], [ -91.104865205079562, 33.224888556151576 ], [ -91.105006946034081, 33.224824247314388 ], [ -91.105146155339824, 33.224750940161947 ], [ -91.105287966605474, 33.22468723468041 ], [ -91.105441650631803, 33.224631260995061 ], [ -91.105591407316453, 33.224571299127859 ], [ -91.105724049204824, 33.224491161476401 ], [ -91.105860198292959, 33.224415838392289 ], [ -91.10601170814769, 33.224358173376871 ], [ -91.106152102471739, 33.224293294546875 ], [ -91.106294380878936, 33.224223346462011 ], [ -91.106439832145497, 33.224168494770943 ], [ -91.106591212512612, 33.224107422498683 ], [ -91.106732698700213, 33.22404407445741 ], [ -91.106875415309077, 33.223975745068394 ], [ -91.107013999117299, 33.223905930041461 ], [ -91.107157907784782, 33.223835723783402 ], [ -91.107297875364466, 33.223767163957859 ], [ -91.107442942947287, 33.223702281657715 ], [ -91.107590629860084, 33.223641396161625 ], [ -91.107734495433704, 33.223573827756205 ], [ -91.107876997568653, 33.223503492375094 ], [ -91.108015046809356, 33.223436371914893 ], [ -91.108158171961819, 33.223370072657318 ], [ -91.108305055126252, 33.223307212188224 ], [ -91.108454450366182, 33.223247496201935 ], [ -91.108596849980046, 33.223180623001461 ], [ -91.108737552999671, 33.223114200221545 ], [ -91.108877646617543, 33.223045362839656 ], [ -91.109017050324667, 33.222976172546538 ], [ -91.109156374943808, 33.222901815198043 ], [ -91.109295744123699, 33.222828886542217 ], [ -91.109443570669782, 33.222769427115367 ], [ -91.109595891463201, 33.222711615651967 ], [ -91.109737862345526, 33.22264449677526 ], [ -91.109880274182629, 33.22258287148324 ] ] } },
{ "type": "Feature", "properties": { "station_id": 12, "station_ft": -566.2, "width_ft": 2723.0, "flag": "ok", "lon": -91.103558, "lat": 33.228839, "survey_id": "LM_10_SSL_20240711_CS_5282_5234", "date": "2024-07-11 00:00:00+00:00", "method": "lines" }, "geometry": { "type": "LineString", "coordinates": [ [ -91.093562518378704, 33.233692258801277 ], [ -91.093709558949826, 33.233633097745987 ], [ -91.093854127009209, 33.23356026449224 ], [ -91.093997707212779, 33.233494307733189 ], [ -91.094138942477258, 33.23342569985553 ], [ -91.094279866175512, 33.233355086637616 ], [ -91.094418748955036, 33.233286822841293 ], [ -91.094556991239813, 33.233220073084659 ], [ -91.094698491948321, 33.233148274694841 ], [ -91.094843317115973, 33.233082639352212 ], [ -91.094979789806644, 33.233008123176532 ], [ -91.095125036277622, 33.232942127872533 ], [ -91.095268919552467, 33.23287361250572 ], [ -91.09541387865066, 33.232808552742696 ], [ -91.095548039172058, 33.232731411866624 ], [ -91.095690844510514, 33.232663011720298 ], [ -91.095833542698429, 33.232593787954059 ], [ -91.095964667248637, 33.232521089668424 ], [ -91.096114445738124, 33.232457511625228 ], [ -91.096256840463894, 33.232387272169113 ], [ -91.096396222319925, 33.232316418971635 ], [ -91.096540833859223, 33.232252927114324 ], [ -91.096674324058426, 33.232177877380117 ], [ -91.096813755938982, 33.232109277551487 ], [ -91.096964145237294, 33.232040829405811 ], [ -91.097098987678805, 33.231970965359437 ], [ -91.097252503010978, 33.231916102764878 ], [ -91.097390042068753, 33.231844242709599 ], [ -91.097513441190358, 33.231778405872056 ], [ -91.100166524543681, 33.230494063244763 ], [ -91.100304358862431, 33.230426568495929 ], [ -91.100441281880663, 33.230352043591743 ], [ -91.100590716062982, 33.23028730729488 ], [ -91.100722974012186, 33.230214157028236 ], [ -91.100866253618847, 33.23014866220624 ], [ -91.10101071143886, 33.230075848419553 ], [ -91.101146480945488, 33.230008063431079 ], [ -91.101294135082696, 33.229938033739849 ], [ -91.101436147468164, 33.229869796939077 ], [ -91.101576877246018, 33.229804591151265 ], [ -91.10171169882598, 33.2297331560899 ], [ -91.101854848950154, 33.229660514409744 ], [ -91.101995366964701, 33.229593496229342 ], [ -91.102140326416716, 33.229522190117343 ], [ -91.10227839891337, 33.229456147898354 ], [ -91.102425408105915, 33.229387412932951 ], [ -91.102562138325524, 33.229321158695484 ], [ -91.102708876390807, 33.229251407104009 ], [ -91.102844522669983, 33.229180872788668 ], [ -91.102982654684055, 33.229106804685316 ], [ -91.103123315623037, 33.229034012853937 ], [ -91.103259009062157, 33.228965263978687 ], [ -91.10341292258579, 33.228900936598798 ], [ -91.103557567644955, 33.22883869964982 ], [ -91.103692863122262, 33.228761955078504 ], [ -91.103836933277776, 33.228694032818382 ], [ -91.103980444726972, 33.2286256747471 ], [ -91.104114456119831, 33.228551712972596 ], [ -91.104259713885355, 33.228484964938936 ], [ -91.104405735879823, 33.228423296438763 ], [ -91.104544182698049, 33.228351889957402 ], [ -91.104681543640055, 33.22827584652687 ], [ -91.104819911827349, 33.228210321731098 ], [ -91.104972099915457, 33.22815100552301 ], [ -91.105108663299546, 33.228073646546576 ], [ -91.105244934177179, 33.228003929870077 ], [ -91.105394895258883, 33.227940558694165 ], [ -91.105541904434844, 33.227876052443868 ], [ -91.105678222273781, 33.227800645554431 ], [ -91.105814045356453, 33.227728539846808 ], [ -91.105958787181308, 33.227662837163727 ], [ -91.106104364743956, 33.227599355310765 ], [ -91.10623239713081, 33.227515150432666 ], [ -91.106370334078363, 33.227441849819201 ], [ -91.10651603069644, 33.227380757038233 ], [ -91.10666338948937, 33.227315340232408 ], [ -91.106804880513081, 33.227248309705033 ], [ -91.106950659733414, 33.227178147949481 ], [ -91.107084087726733, 33.22711278842452 ], [ -91.107233542463334, 33.227044141704532 ], [ -91.107373852399959, 33.226976733776127 ], [ -91.107514439314102, 33.226900117156724 ], [ -91.107663713709272, 33.226844443171451 ], [ -91.107807671033285, 33.226779155291055 ], [ -91.107942130259119, 33.22670106516334 ], [ -91.108083767137771, 33.226635956416871 ], [ -91.10822581941045, 33.22656980080508 ], [ -91.10836645906403, 33.226491780825718 ], [ -91.1085071975766, 33.226428766334145 ], [ -91.108650362012852, 33.226362767412304 ], [ -91.108796789968437, 33.226292296508305 ], [ -91.108933413537784, 33.226218699204068 ], [ -91.109083633816567, 33.226163099679546 ], [ -91.10922119722612, 33.226092353548879 ], [ -91.109365113059582, 33.226026405026346 ], [ -91.109507580646024, 33.225955627989386 ], [ -91.109644730473178, 33.22588623104803 ], [ -91.109789643491496, 33.225814833419278 ], [ -91.109933519813183, 33.225751797740749 ], [ -91.110075322297988, 33.225687317768916 ], [ -91.110216513124385, 33.225612892583541 ], [ -91.110351169978415, 33.225542796324838 ], [ -91.110498149054351, 33.225475755298916 ], [ -91.110631190866414, 33.225404320852491 ], [ -91.11077622951602, 33.225336027502237 ], [ -91.110921657849573, 33.22527130481118 ], [ -91.111065412754414, 33.225209531811174 ], [ -91.111209263207542, 33.225136518004945 ], [ -91.111336435650855, 33.225059623914866 ], [ -91.111483153167612, 33.224989148059272 ], [ -91.111628735029598, 33.224923351517873 ], [ -91.11176984465078, 33.224862089267191 ], [ -91.111910870656814, 33.224784145843202 ], [ -91.11205564454508, 33.224715742666255 ], [ -91.112195008821189, 33.224649599377507 ], [ -91.112329788711222, 33.22457521194557 ], [ -91.112483001555475, 33.224514670169448 ], [ -91.112643218066921, 33.224476950330036 ], [ -91.11277380079423, 33.224397752228988 ], [ -91.112891884936204, 33.224321297604448 ] ] } },
{ "type": "Feature", "properties": { "station_id": 13, "station_ft": 536.3, "width_ft": 2637.9, "flag": "ok", "lon": -91.105632, "lat": 33.231467, "survey_id": "LM_10_SSL_20240711_CS_5282_5234", "date": "2024-07-11 00:00:00+00:00", "method": "lines" }, "geometry": { "type": "LineString", "coordinates": [ [ -91.093277451988683, 33.237294789363546 ], [ -91.093436976513914, 33.23724522620595 ], [ -91.093571084975153, 33.237172374236629 ], [ -91.093714901904363, 33.237095259256108 ], [ -91.093852556476548, 33.237031757117819 ], [ -91.09400593080197, 33.236970632839878 ], [ -91.094153139820506, 33.236911497267847 ], [ -91.094291098989004, 33.236845326588067 ], [ -91.09443790576897, 33.236773743980621 ], [ -91.094578460917106, 33.236705331813198 ], [ -91.094718657972436, 33.236637223734661 ], [ -91.094862389584478, 33.236573134179125 ], [ -91.095004078440681, 33.236511063151248 ], [ -91.095151975298833, 33.236440846253146 ], [ -91.09528833627536, 33.236375399275651 ], [ -91.095436924213956, 33.236301908403824 ], [ -91.095577088368302, 33.236241412245015 ], [ -91.095726451791265, 33.236178331302966 ], [ -91.095870225976185, 33.236107946772158 ], [ -91.096004211837283, 33.236040315338379 ], [ -91.0961480636593, 33.235971386186506 ], [ -91.096291458010015, 33.235906389992699 ], [ -91.096431138544489, 33.23583927318257 ], [ -91.10134600088503, 33.233480952580273 ], [ -91.101505156421339, 33.233435420833615 ], [ -91.101646071699193, 33.233353367277743 ], [ -91.101771267763866, 33.233261269748638 ], [ -91.101919022595993, 33.233213471713412 ], [ -91.102070576125783, 33.233155097050478 ], [ -91.102206604361228, 33.2330827189773 ], [ -91.102355599933944, 33.233019715351709 ], [ -91.102505487080478, 33.232954039840145 ], [ -91.102633466588657, 33.232877588701776 ], [ -91.102774642900485, 33.232803144940256 ], [ -91.102919116243854, 33.232746736275963 ], [ -91.103072951485572, 33.232683838906709 ], [ -91.103208327903872, 33.232615614099622 ], [ -91.103351693298436, 33.232541073186994 ], [ -91.103497082417988, 33.232481030826293 ], [ -91.103646090126986, 33.232419756768479 ], [ -91.103789954109445, 33.232364834997654 ], [ -91.103932446141599, 33.232284033224559 ], [ -91.104064220558811, 33.232215307747133 ], [ -91.10420702909596, 33.232144589620241 ], [ -91.104355873837562, 33.232079660415742 ], [ -91.104494999023927, 33.232006656552088 ], [ -91.104637446795849, 33.23194319579342 ], [ -91.10477999608753, 33.231880201300697 ], [ -91.104920781167081, 33.231810099919308 ], [ -91.105062762559427, 33.231742106241938 ], [ -91.105209301359452, 33.231675459149756 ], [ -91.105354284707673, 33.231606787404424 ], [ -91.105489775440944, 33.231540730608074 ], [ -91.105631835627349, 33.231466910199657 ], [ -91.105778171677628, 33.231407079314948 ], [ -91.105927152535017, 33.231350584188426 ], [ -91.106073229499614, 33.231283663948474 ], [ -91.106207034095448, 33.231204479728476 ], [ -91.10634292944539, 33.231128827683236 ], [ -91.106480833308098, 33.231058577448984 ], [ -91.106624214729251, 33.230993899507141 ], [ -91.106772912108184, 33.230934959846486 ], [ -91.106926597660532, 33.23087815927412 ], [ -91.107065370859317, 33.230806336814268 ], [ -91.107214507356574, 33.230752862438706 ], [ -91.10736146597057, 33.230686017261725 ], [ -91.107493850566357, 33.230609314645449 ], [ -91.107632292992008, 33.230537190659611 ], [ -91.107778718220871, 33.230472959507445 ], [ -91.107919011822332, 33.230403131918258 ], [ -91.108066265923568, 33.230336587030493 ], [ -91.108207939292015, 33.230274968213187 ], [ -91.1083491000783, 33.230207196826683 ], [ -91.108489803784664, 33.230128379242416 ], [ -91.108625089772161, 33.230062018274928 ], [ -91.108766740664151, 33.229990532149095 ], [ -91.108913627559204, 33.229926901802848 ], [ -91.109060832847788, 33.229862417234351 ], [ -91.109207853491597, 33.229795514502662 ], [ -91.109350665620909, 33.229729764921018 ], [ -91.109488093603105, 33.229665312890383 ], [ -91.109632819495218, 33.229601530180361 ], [ -91.109770975182087, 33.229530724741736 ], [ -91.109913820051815, 33.229457608689692 ], [ -91.110061197416556, 33.229394193939321 ], [ -91.110199605846717, 33.229329845008117 ], [ -91.110344783004166, 33.229261770383594 ], [ -91.110485297744205, 33.229195319746367 ], [ -91.110634155926121, 33.229129365927015 ], [ -91.110783385060714, 33.229075776719014 ], [ -91.110935468434221, 33.229023351562155 ], [ -91.111076284099383, 33.228946509506315 ], [ -91.111202167342029, 33.228860059752911 ], [ -91.111335553900574, 33.228786342110752 ], [ -91.111483798414923, 33.22871775287539 ], [ -91.111627707784137, 33.228658177386656 ], [ -91.111773293359903, 33.228592132685613 ], [ -91.111918053180915, 33.228528814179583 ], [ -91.112060101119965, 33.228462159225295 ], [ -91.112203594992735, 33.228396347121446 ], [ -91.112345460336314, 33.22832765975366 ], [ -91.112488469473192, 33.228258772107132 ], [ -91.112633397987494, 33.228188829058283 ], [ -91.112771191312461, 33.22811821463273 ], [ -91.112912025155097, 33.228051264264465 ], [ -91.113054453364995, 33.227987134041229 ], [ -91.113196188547704, 33.22792218388738 ], [ -91.113348017623068, 33.227852498807366 ], [ -91.113488258976844, 33.22778887681126 ], [ -91.113629781263995, 33.227725878684126 ], [ -91.113780468348679, 33.227660321709664 ], [ -91.113923470601591, 33.227598276032303 ], [ -91.114062964238286, 33.227535235143712 ], [ -91.114204205326175, 33.227466521636785 ], [ -91.114338968638648, 33.227386361548191 ], [ -91.114476906526434, 33.227310220797477 ], [ -91.11460534411269, 33.227224767751864 ], [ -91.114765714459026, 33.227181822708154 ] ] } },
{ "type": "Feature", "properties": { "station_id": 14, "station_ft": 1466.9, "width_ft": 2296.5, "flag": "ok", "lon": -91.107469, "lat": 33.233647, "survey_id": "LM_10_SSL_20240711_CS_5282_5234", "date": "2024-07-11 00:00:00+00:00", "method": "lines" }, "geometry": { "type": "LineString", "coordinates": [ [ -91.092484343119551, 33.240676025235814 ], [ -91.092626304196685, 33.240606754608045 ], [ -91.092778504085828, 33.240552811658461 ], [ -91.092921254286097, 33.240487740296849 ], [ -91.093056316346363, 33.240418704267832 ], [ -91.093203062716285, 33.240346902564873 ], [ -91.093345104372247, 33.240286947434527 ], [ -91.093487892051584, 33.240218742846992 ], [ -91.09362441775788, 33.240145106932459 ], [ -91.093774674023791, 33.240082105802337 ], [ -91.093919473738808, 33.240019824018439 ], [ -91.094060637350708, 33.23994929342134 ], [ -91.094202290119284, 33.239886206444339 ], [ -91.094342121052662, 33.23981658984583 ], [ -91.094493383584265, 33.239752948734072 ], [ -91.094632775312235, 33.239689408049031 ], [ -91.094778720077798, 33.239615906178393 ], [ -91.094920309194194, 33.239553148784331 ], [ -91.095065726272509, 33.23949432515235 ], [ -91.09521493294767, 33.239435011081319 ], [ -91.095353597146328, 33.239366883722631 ], [ -91.0954873374138, 33.239311759398845 ], [ -91.103056128589444, 33.235746539125984 ], [ -91.10320174416627, 33.235678168006679 ], [ -91.10333519450937, 33.235602315252841 ], [ -91.10347239201225, 33.235524954130661 ], [ -91.103616265738424, 33.23547055544428 ], [ -91.103767667444856, 33.235405693143981 ], [ -91.103907543309518, 33.235335543525473 ], [ -91.104050346873606, 33.235271009152235 ], [ -91.10418806513492, 33.235201037591786 ], [ -91.104325465787937, 33.235124609292484 ], [ -91.10447267711919, 33.235055649744972 ], [ -91.10462071654068, 33.234995369632287 ], [ -91.104757184927195, 33.234928318443679 ], [ -91.104898737171567, 33.234859255537586 ], [ -91.10504613844175, 33.234793455340636 ], [ -91.105190268187982, 33.234734984988698 ], [ -91.105327088367488, 33.234659713310997 ], [ -91.105466156499887, 33.234587175774919 ], [ -91.105616272896469, 33.234521550105576 ], [ -91.105765854871123, 33.234465821436693 ], [ -91.105904819623035, 33.234392706996132 ], [ -91.106043933633799, 33.234325610022232 ], [ -91.10619139008196, 33.234262501378034 ], [ -91.106331102673209, 33.234196416531368 ], [ -91.106475826483418, 33.234131291301111 ], [ -91.106621310133562, 33.234063412033485 ], [ -91.106764263716897, 33.233994201255314 ], [ -91.106903726124486, 33.233922099678971 ], [ -91.107041341255538, 33.233859435339895 ], [ -91.107182595993038, 33.233790372604084 ], [ -91.107327646015335, 33.233717850787876 ], [ -91.107469017763847, 33.233647385828888 ], [ -91.107612636781084, 33.233579572014669 ], [ -91.107745964158198, 33.233512839174374 ], [ -91.107895084035491, 33.233445814902936 ], [ -91.108035159880771, 33.233373158237249 ], [ -91.108172657817818, 33.233304694840733 ], [ -91.108324520831317, 33.23324477153789 ], [ -91.108458818935105, 33.233173387465399 ], [ -91.108606342894433, 33.233103514044821 ], [ -91.108755943812724, 33.23304665461616 ], [ -91.108900432434908, 33.232984962453692 ], [ -91.109043839396236, 33.232923029816149 ], [ -91.109179080343907, 33.232843723461777 ], [ -91.10932562827098, 33.232785673274371 ], [ -91.109465107883906, 33.232712332569143 ], [ -91.109611801943657, 33.232648646692432 ], [ -91.109755475182837, 33.232583578326746 ], [ -91.109895986755959, 33.232508718624949 ], [ -91.110040972948056, 33.232448039106998 ], [ -91.110177178991364, 33.232374442142103 ], [ -91.110313416363923, 33.232300652780879 ], [ -91.110464299460332, 33.232241172109092 ], [ -91.110614095941898, 33.232181011885629 ], [ -91.11075897439909, 33.232115549830993 ], [ -91.110892894935859, 33.232046171690492 ], [ -91.111039597913418, 33.231983858207506 ], [ -91.111183799163243, 33.231915899605717 ], [ -91.111333992503447, 33.231852574836722 ], [ -91.111470758276255, 33.231783288285371 ], [ -91.111615769373287, 33.231718291466969 ], [ -91.111755863296608, 33.231648214669868 ], [ -91.111889082846034, 33.231573755417919 ], [ -91.112026145717977, 33.231501168146515 ], [ -91.112178245458125, 33.231435439242112 ], [ -91.112327271430118, 33.231380750330786 ], [ -91.112477347707397, 33.231322811410401 ], [ -91.112623548060043, 33.231259373052524 ], [ -91.112764301320652, 33.231197397777024 ], [ -91.11290541620734, 33.231128439463987 ], [ -91.113047398609339, 33.231050268755183 ], [ -91.113185794596774, 33.230988224828934 ], [ -91.113336715301557, 33.230922337807392 ], [ -91.113473984616064, 33.230851259732511 ], [ -91.113615251773183, 33.230781089643706 ], [ -91.113757893893506, 33.230714759033098 ], [ -91.113908801811519, 33.230658765262469 ], [ -91.11404940178214, 33.230594480365887 ], [ -91.114191087973168, 33.230527496151353 ], [ -91.114336205341672, 33.230456449918798 ], [ -91.114473010951698, 33.230384795699401 ], [ -91.114615943467555, 33.230310849614931 ], [ -91.11475713465083, 33.23024705521928 ], [ -91.114901876763639, 33.230181809231624 ], [ -91.115050926563399, 33.230119257202048 ], [ -91.115199197647712, 33.230060969307353 ], [ -91.115338594784617, 33.229997845543309 ], [ -91.115483600485817, 33.229929161920829 ], [ -91.115618412194806, 33.229846801014418 ], [ -91.115759373141117, 33.229782979886942 ], [ -91.115908552298961, 33.229724135431326 ], [ -91.116054892741147, 33.229658576001668 ], [ -91.11618627275881, 33.22957648403149 ], [ -91.116335942370782, 33.229517608930585 ], [ -91.116471260301793, 33.229448270129055 ] ] } },
{ "type": "Feature", "properties": { "station_id": 15, "station_ft": 2388.8, "width_ft": 1991.2, "flag": "ok", "lon": -91.109686, "lat": 33.236021, "survey_id": "LM_10_SSL_20240711_CS_5282_5234", "date": "2024-07-11 00:00:00+00:00", "method": "lines" }, "geometry": { "type": "LineString", "coordinates": [ [ -91.090856293734987, 33.244880935661698 ], [ -91.090981759118662, 33.244824437417314 ], [ -91.09112636160863, 33.244760923885025 ], [ -91.091276092606421, 33.244692761556983 ], [ -91.091414544794929, 33.24462909221841 ], [ -91.091568437758241, 33.24456205919212 ], [ -91.091701698873493, 33.244499466201219 ], [ -91.091849377529769, 33.244428594507127 ], [ -91.091991496481981, 33.24435784040638 ], [ -91.092131076795468, 33.244296197527191 ], [ -91.092281211851372, 33.244229652706991 ], [ -91.092415464297062, 33.244160704354783 ], [ -91.092562028649027, 33.244093631882883 ], [ -91.092702760964087, 33.244032778396665 ], [ -91.09284837577944, 33.243965519334431 ], [ -91.092985254155934, 33.243886523424628 ], [ -91.093131467836201, 33.243828136265918 ], [ -91.093279780530821, 33.24377028702208 ], [ -91.09342255110991, 33.243707139085423 ], [ -91.0935618315456, 33.243633651403194 ], [ -91.104818717279301, 33.238270577185766 ], [ -91.104954876103633, 33.238204983866275 ], [ -91.105119412233577, 33.238168070880398 ], [ -91.105264755176975, 33.23809807876988 ], [ -91.105392790580723, 33.238019975338602 ], [ -91.105540432118858, 33.237954832165855 ], [ -91.105692122634139, 33.237907610211423 ], [ -91.105833609566332, 33.237838107539709 ], [ -91.105973163131409, 33.237764494352554 ], [ -91.106118207514925, 33.237690599842935 ], [ -91.106264803920766, 33.237629474672325 ], [ -91.10640195202771, 33.237564973650294 ], [ -91.106550397379849, 33.237498560170785 ], [ -91.106690382513534, 33.237436925590082 ], [ -91.106826986695381, 33.237359098323772 ], [ -91.106963654139221, 33.237284704917499 ], [ -91.107111795809161, 33.237224723262052 ], [ -91.107267903626393, 33.237163125691573 ], [ -91.107396905633337, 33.237091088644533 ], [ -91.10753526104169, 33.237011709681497 ], [ -91.107678008532076, 33.236944589169482 ], [ -91.107835416936766, 33.236897108116011 ], [ -91.107978742596373, 33.236828801591791 ], [ -91.108121407018643, 33.236759756058881 ], [ -91.108263317248841, 33.236694151267812 ], [ -91.108405518011935, 33.236624531240857 ], [ -91.108540701783269, 33.236556521859882 ], [ -91.108685879317193, 33.236490648272223 ], [ -91.108831814032712, 33.236429139213698 ], [ -91.108975941269719, 33.236355550067827 ], [ -91.109118499198118, 33.236289444358569 ], [ -91.109260901367861, 33.236220427114318 ], [ -91.109397460764242, 33.236152820283408 ], [ -91.109538991552782, 33.236085292282972 ], [ -91.109686307234156, 33.236021025367712 ], [ -91.109825200789444, 33.235951123217475 ], [ -91.109969057201411, 33.235880336961671 ], [ -91.110109534138871, 33.235815673141239 ], [ -91.110251052885076, 33.23574690734111 ], [ -91.110391105946775, 33.235675127289447 ], [ -91.11054380527105, 33.235617037231663 ], [ -91.110687858796723, 33.235553861587952 ], [ -91.110828787597626, 33.235481334413841 ], [ -91.110966728925519, 33.235414843400349 ], [ -91.111109983825685, 33.235350244042884 ], [ -91.111256098750729, 33.235283564551104 ], [ -91.111399505736301, 33.235214016532723 ], [ -91.111540931231872, 33.235142336612235 ], [ -91.111683507773193, 33.235075019649152 ], [ -91.111830058997853, 33.235020868854036 ], [ -91.111967254476312, 33.234947868755526 ], [ -91.11211120243712, 33.234876777411486 ], [ -91.112255805334328, 33.234805763851355 ], [ -91.112391902538661, 33.234741839006318 ], [ -91.112546518473877, 33.23468255333443 ], [ -91.112693715867579, 33.234627600417824 ], [ -91.112819239851135, 33.234533070673443 ], [ -91.112963812416666, 33.234473517416525 ], [ -91.113112935502556, 33.234418249883305 ], [ -91.113260467152742, 33.234353180346211 ], [ -91.113407098089311, 33.234289766311562 ], [ -91.113551900308337, 33.234230430037279 ], [ -91.113688298246217, 33.234156360988621 ], [ -91.113826925057438, 33.234079227509206 ], [ -91.113965920350296, 33.234006763035886 ], [ -91.114102195248606, 33.233933656374049 ], [ -91.114252216500134, 33.233869175052163 ], [ -91.114413136227796, 33.233827876081733 ], [ -91.114546648805899, 33.233741979180991 ], [ -91.114680530018447, 33.233664626605346 ], [ -91.114821082915526, 33.233601936153676 ], [ -91.114974258812069, 33.233546777993105 ], [ -91.115117065046249, 33.233483798045206 ], [ -91.115259971773483, 33.233417546100334 ], [ -91.115404571860424, 33.233343038617498 ], [ -91.115546908596329, 33.23328258937034 ], [ -91.115681789559346, 33.23321105592904 ], [ -91.115828821354327, 33.233149092709269 ], [ -91.115967995664462, 33.233078769022242 ], [ -91.116117796070256, 33.233015468923547 ], [ -91.116259399212325, 33.232946255794857 ], [ -91.116394651008889, 33.232868783660621 ], [ -91.116545487714106, 33.232815534482157 ], [ -91.116680178003435, 33.232741198824179 ], [ -91.116825712439365, 33.232676440619485 ], [ -91.116976175905435, 33.232614371485816 ], [ -91.117111400816384, 33.232541350214994 ], [ -91.117248079190361, 33.232466396409805 ], [ -91.117402184846412, 33.232416753856072 ], [ -91.117546995578451, 33.232355296724862 ], [ -91.117685729371928, 33.232272579764384 ], [ -91.117817403251607, 33.232197545989507 ], [ -91.117972112617323, 33.232142430392841 ], [ -91.118115910116472, 33.232084744303705 ], [ -91.118255395318016, 33.232012986991251 ], [ -91.118399060706253, 33.231940681084183 ], [ -91.118545948768002, 33.231877615562595 ], [ -91.118687842416307, 33.231808315803896 ], [ -91.118822983970176, 33.231733589986412 ], [ -91.118964109071683, 33.231669819204214 ], [ -91.119111383250385, 33.231602518215077 ], [ -91.119255561406106, 33.231540073988995 ], [ -91.119401625751806, 33.231472864155947 ], [ -91.119535178652868, 33.23139254022032 ], [ -91.119677742307033, 33.23132886954388 ], [ -91.119829003579895, 33.231276108733823 ], [ -91.119965570645107, 33.231200107649791 ] ] } },
{ "type": "Feature", "properties": { "station_id": 16, "station_ft": 3589.4, "width_ft": 1679.0, "flag": "ok", "lon": -91.111992, "lat": 33.238284, "survey_id": "LM_10_SSL_20240711_CS_5282_5234", "date": "2024-07-11 00:00:00+00:00", "method": "lines" }, "geometry": { "type": "LineString", "coordinates": [ [ -91.08858018306843, 33.249641389137864 ], [ -91.088726706585632, 33.249575778467992 ], [ -91.088858984689836, 33.249504207676168 ], [ -91.088999427191411, 33.249435060373614 ], [ -91.089141441478574, 33.249362413056808 ], [ -91.08928153990918, 33.249295108707074 ], [ -91.089426556373397, 33.249229203422658 ], [ -91.089562846737323, 33.249156508376821 ], [ -91.089709328567878, 33.249082377077492 ], [ -91.089844307356501, 33.249017054415411 ], [ -91.089991299237809, 33.248948993227486 ], [ -91.090131875373814, 33.248884103256579 ], [ -91.090279592940576, 33.248813014066783 ], [ -91.090420700178512, 33.248745427297209 ], [ -91.090561940844239, 33.248678032510114 ], [ -91.090699038956885, 33.248611981911807 ], [ -91.090849790221014, 33.248543868870037 ], [ -91.090996178612912, 33.248481911673046 ], [ -91.091134127342585, 33.248416019517045 ], [ -91.106592108809465, 33.240869493798449 ], [ -91.106723313726135, 33.240783262530393 ], [ -91.106876143076562, 33.240727567306941 ], [ -91.107011466133159, 33.24065211104039 ], [ -91.107152494983566, 33.240586017070633 ], [ -91.107305480866955, 33.240533178592706 ], [ -91.107460489934084, 33.240479942329237 ], [ -91.107604161209409, 33.240416800551365 ], [ -91.107745156075964, 33.240350597025284 ], [ -91.107879809680796, 33.240269948657357 ], [ -91.108026988138931, 33.240211456925763 ], [ -91.108174271336324, 33.240142602559359 ], [ -91.108314146256049, 33.24007555330622 ], [ -91.108448127975166, 33.240000460899715 ], [ -91.108583865793321, 33.239924258287935 ], [ -91.108730562986423, 33.239859501331075 ], [ -91.108871220132528, 33.239788544220183 ], [ -91.109009852475623, 33.239721611939402 ], [ -91.109165417634813, 33.239661279488601 ], [ -91.10930383753184, 33.239599982643952 ], [ -91.109447717183201, 33.23952746565773 ], [ -91.109581014056218, 33.239452788368439 ], [ -91.109724879160197, 33.239389724997807 ], [ -91.109869996731859, 33.239312884482729 ], [ -91.110011897608643, 33.23925343335015 ], [ -91.110149874190199, 33.239182793595305 ], [ -91.110290246876332, 33.239109528432543 ], [ -91.110437675057696, 33.239042676678395 ], [ -91.110572464405109, 33.238970600199529 ], [ -91.110719504555775, 33.238904327596906 ], [ -91.110860948604042, 33.238830258036181 ], [ -91.111000395445004, 33.238770711121838 ], [ -91.111140176443158, 33.238700939008645 ], [ -91.111286303953079, 33.238624035535949 ], [ -91.111419290301953, 33.238555212672196 ], [ -91.11156322723393, 33.238485798193608 ], [ -91.111704089924913, 33.238420140143873 ], [ -91.11184205529284, 33.23834853743152 ], [ -91.111991987026443, 33.238284059364233 ], [ -91.11212752600953, 33.238204472953704 ], [ -91.11226718587865, 33.238139756816935 ], [ -91.112410771420258, 33.238075152987378 ], [ -91.112551897876912, 33.23800248467645 ], [ -91.112691491857049, 33.237926665511196 ], [ -91.112834114249623, 33.237860364006558 ], [ -91.112975775122507, 33.237800113956673 ], [ -91.113120834517034, 33.237735830080119 ], [ -91.113265720055679, 33.237659482092887 ], [ -91.113401036811211, 33.237591960730462 ], [ -91.1135477692645, 33.237528270876673 ], [ -91.113694958532093, 33.237471942695144 ], [ -91.113836018914228, 33.237395811000155 ], [ -91.113978762049939, 33.237328682420625 ], [ -91.114132730831116, 33.237269837938719 ], [ -91.114263472969284, 33.237199129062105 ], [ -91.11440182980256, 33.237127960177467 ], [ -91.11455385537171, 33.237063987951956 ], [ -91.114694214392017, 33.236997340587351 ], [ -91.114837600235063, 33.236921798166136 ], [ -91.114971787310594, 33.23685612338155 ], [ -91.115118080818888, 33.236787625023346 ], [ -91.115260981227792, 33.236723681340585 ], [ -91.115401301840762, 33.236656457267983 ], [ -91.115546359718238, 33.236581451728142 ], [ -91.115689063118765, 33.23651377234161 ], [ -91.115823578871982, 33.236444907230158 ], [ -91.115963910206503, 33.236375372422152 ], [ -91.116109436174582, 33.236305201560327 ], [ -91.116253615519071, 33.236241908707079 ], [ -91.116395512225438, 33.236171842406634 ], [ -91.116536815519311, 33.236097821420877 ], [ -91.116676383764485, 33.236030792709101 ], [ -91.116819040273128, 33.23596539261316 ], [ -91.116959299694756, 33.235895308035481 ], [ -91.117101052110741, 33.235827715081527 ], [ -91.117241065922244, 33.235763101168857 ], [ -91.11738170866478, 33.235688314281909 ], [ -91.117526582941494, 33.235618832039734 ], [ -91.117667837007048, 33.235554044828213 ], [ -91.117805001404506, 33.235485352939783 ], [ -91.117950234232623, 33.235419331199111 ], [ -91.118079920501657, 33.235330047320723 ], [ -91.118225627817694, 33.235266027545698 ], [ -91.118376464601596, 33.23521233703535 ], [ -91.118516974394495, 33.235144970324697 ], [ -91.118655850098406, 33.235066702858703 ], [ -91.118801082474775, 33.235000900137734 ], [ -91.118940348002141, 33.234937003160233 ], [ -91.119078889810211, 33.234865387933489 ], [ -91.119220528061049, 33.234792598873362 ], [ -91.119365729084336, 33.234726987747912 ], [ -91.119511025339833, 33.234664729103173 ], [ -91.119652532998458, 33.234592050381657 ], [ -91.11979145850988, 33.234523153132741 ], [ -91.119925418833716, 33.234447718578735 ] ] } },
{ "type": "Feature", "properties": { "station_id": 17, "station_ft": 4671.2, "width_ft": 1527.1, "flag": "ok", "lon": -91.115183, "lat": 33.240094, "survey_id": "LM_10_SSL_20240711_CS_5282_5234", "date": "2024-07-11 00:00:00+00:00", "method": "lines" }, "geometry": { "type": "LineString", "coordinates": [ [ -91.088273701570287, 33.253147842841528 ], [ -91.088414421652871, 33.253076056263978 ], [ -91.088557259642684, 33.253010852264644 ], [ -91.08870238308495, 33.252949125424038 ], [ -91.088846860681812, 33.25288058583503 ], [ -91.088983364806779, 33.252816931001846 ], [ -91.089124616421543, 33.25274618451116 ], [ -91.089267038494881, 33.252670814277977 ], [ -91.089413265130688, 33.252604352535265 ], [ -91.089550125886447, 33.252544075216221 ], [ -91.089698151274803, 33.252466224231412 ], [ -91.089836949291097, 33.252403159525052 ], [ -91.0899778195012, 33.252341484128486 ], [ -91.09011974685373, 33.25227337064257 ], [ -91.090262596868513, 33.25220239313682 ], [ -91.090403929244886, 33.252137389147826 ], [ -91.090550489690543, 33.252071885207194 ], [ -91.090681439889906, 33.251990179670337 ], [ -91.090828644846241, 33.251923682364477 ], [ -91.090968159139422, 33.251856517630081 ], [ -91.091105375854042, 33.251784776420308 ], [ -91.107714941770595, 33.243782163373545 ], [ -91.107836916831474, 33.243690986035951 ], [ -91.107987511956779, 33.243629916870134 ], [ -91.108118439365256, 33.243545252045543 ], [ -91.108256068274898, 33.243475138594214 ], [ -91.108406767746189, 33.243414782383638 ], [ -91.108550716694268, 33.243349329543385 ], [ -91.108686005607154, 33.243273486670859 ], [ -91.108822567420816, 33.243208518674862 ], [ -91.108978122905128, 33.243153792981566 ], [ -91.109111720107649, 33.243075404011179 ], [ -91.109252210930435, 33.243003540438892 ], [ -91.109395476597541, 33.242931219387799 ], [ -91.109543007179539, 33.242871513641404 ], [ -91.109678941604187, 33.242794951557947 ], [ -91.109818826569835, 33.242728697613821 ], [ -91.109966564123923, 33.242662861536516 ], [ -91.110100319161916, 33.242591341126499 ], [ -91.110245925889757, 33.242524968920243 ], [ -91.110388928532828, 33.242456330728764 ], [ -91.110527425313833, 33.2423886555449 ], [ -91.110674770125215, 33.242322821086042 ], [ -91.110810612911791, 33.242250902764596 ], [ -91.110951729046946, 33.242179802487122 ], [ -91.111095125039569, 33.242107726631296 ], [ -91.111239048832715, 33.242050927633564 ], [ -91.111381203410261, 33.241975395963031 ], [ -91.111521320523792, 33.241906087468863 ], [ -91.111661072490321, 33.241839915250807 ], [ -91.111805570588075, 33.241770524923844 ], [ -91.111941412273495, 33.241702314785471 ], [ -91.112089126272778, 33.241630567815051 ], [ -91.112235971342471, 33.241567702891437 ], [ -91.112371079129829, 33.241494247455819 ], [ -91.112509127856413, 33.241428057008193 ], [ -91.112650591683362, 33.241359563826776 ], [ -91.112796096750387, 33.24128956103776 ], [ -91.112939184382867, 33.241227323846338 ], [ -91.113083159866946, 33.241158154422585 ], [ -91.113216435010187, 33.241077482810859 ], [ -91.113353593259035, 33.240999369040836 ], [ -91.113499855827101, 33.240944833960221 ], [ -91.113649934980216, 33.240878236787921 ], [ -91.113782518722559, 33.240808011862939 ], [ -91.113922649821589, 33.240737079420931 ], [ -91.114061673536341, 33.240666648780966 ], [ -91.114206048563901, 33.240602312929489 ], [ -91.114356160677005, 33.240535687654123 ], [ -91.114494764606434, 33.240466028279826 ], [ -91.114629011354083, 33.240391834656805 ], [ -91.114779121790434, 33.240328836237097 ], [ -91.114922273241859, 33.240259395773265 ], [ -91.115054144999007, 33.240179197179778 ], [ -91.115183090411918, 33.240093686266782 ], [ -91.116056678799524, 33.239710197961053 ], [ -91.116199396673721, 33.239647354361161 ], [ -91.116342091008434, 33.239578162204445 ], [ -91.116490955750336, 33.239522562231308 ], [ -91.116646777744847, 33.239469639456871 ], [ -91.116787041373414, 33.239406727690984 ], [ -91.116927611365313, 33.239337768251211 ], [ -91.117062970939855, 33.239249466754579 ], [ -91.117201414830745, 33.239176892150489 ], [ -91.11734011449586, 33.239107394026178 ], [ -91.117477473439379, 33.239034249799047 ], [ -91.117622141952509, 33.238970320214023 ], [ -91.117766856560081, 33.23890424694077 ], [ -91.117912798274432, 33.238840198988555 ], [ -91.118053737279226, 33.238779837731236 ], [ -91.118186676161471, 33.238695232645235 ], [ -91.118332820802422, 33.238624670280018 ], [ -91.118472110795352, 33.238562834837424 ], [ -91.118604277728679, 33.23848353770672 ], [ -91.118759503533454, 33.238422728402107 ], [ -91.118908054300604, 33.238365286361052 ], [ -91.119048175323371, 33.238294129145523 ], [ -91.119190130250161, 33.238223261338888 ], [ -91.119336106753892, 33.238163224767405 ], [ -91.119474520873169, 33.238098755506527 ], [ -91.119619741642154, 33.238027455417793 ], [ -91.119762139325843, 33.237958563293141 ], [ -91.119905116571715, 33.237892470582146 ], [ -91.120039281691888, 33.237813709310018 ], [ -91.120182737815838, 33.237746267084695 ], [ -91.120319927685586, 33.237683975815408 ], [ -91.120466973491773, 33.237608512886418 ], [ -91.120593289966848, 33.237529855689559 ], [ -91.120739108638489, 33.237456159333782 ], [ -91.120883605505398, 33.237391952063028 ], [ -91.121021044267849, 33.237324629928715 ], [ -91.121163707682769, 33.237249248934738 ], [ -91.121299524255875, 33.237176246434764 ], [ -91.12144328920418, 33.23711427023882 ], [ -91.121594397258207, 33.237054334670574 ], [ -91.121733623875542, 33.236986093360862 ], [ -91.121873607827382, 33.236914630897594 ], [ -91.122019110416602, 33.236849701831339 ], [ -91.122136739352058, 33.236776347588666 ] ] } },
{ "type": "Feature", "properties": { "station_id": 18, "station_ft": 5855.2, "width_ft": 1692.9, "flag": "ok", "lon": -91.116175, "lat": 33.242949, "survey_id": "LM_10_SSL_20240711_CS_5282_5234", "date": "2024-07-11 00:00:00+00:00", "method": "lines" }, "geometry": { "type": "LineString", "coordinates": [ [ -91.08801087047145, 33.25609918582574 ], [ -91.088164042952243, 33.256044583403629 ], [ -91.088289922480854, 33.255954336425241 ], [ -91.088443922964984, 33.255893489191031 ], [ -91.08858980311922, 33.255831591971322 ], [ -91.088733720334034, 33.255769707407531 ], [ -91.08887532766245, 33.255705554627681 ], [ -91.089024050032251, 33.255643282577843 ], [ -91.089165032770239, 33.255578804162248 ], [ -91.089309341569205, 33.255509275042542 ], [ -91.089446909441094, 33.255439485592184 ], [ -91.089600813158825, 33.255382677831641 ], [ -91.089741999715187, 33.255319159590741 ], [ -91.089887220858515, 33.255249377201942 ], [ -91.090028898999222, 33.255174587682511 ], [ -91.090167726396146, 33.255103139749544 ], [ -91.090308514292246, 33.2550466309469 ], [ -91.090451449848459, 33.254977356824227 ], [ -91.090591281985013, 33.254901038785029 ], [ -91.090732903600099, 33.254838862945483 ], [ -91.090876571456803, 33.254771205951712 ], [ -91.09102428689674, 33.254710118824597 ], [ -91.091167078951955, 33.254635788286123 ], [ -91.091306122845211, 33.254570604262781 ], [ -91.091453894201905, 33.254508610125896 ], [ -91.091595002580505, 33.254440087897336 ], [ -91.109595617753257, 33.246018695887919 ], [ -91.109735413706346, 33.245938151380919 ], [ -91.109873577614323, 33.245869049870208 ], [ -91.110026768120917, 33.245812661447495 ], [ -91.110170943682178, 33.24575396501222 ], [ -91.110311360055604, 33.2456844648447 ], [ -91.110458019318713, 33.2456182499063 ], [ -91.110598251970345, 33.245539075826777 ], [ -91.11074383960279, 33.245488587573462 ], [ -91.111179338832059, 33.245286644337938 ], [ -91.111309527096338, 33.245207285228894 ], [ -91.111454181894686, 33.245147541105126 ], [ -91.111610862623508, 33.245094151248217 ], [ -91.111758197564129, 33.245030541745827 ], [ -91.111897534843877, 33.244968741261054 ], [ -91.112033959723277, 33.244895690897081 ], [ -91.112176617862715, 33.244821089278126 ], [ -91.112318851853388, 33.244757731062627 ], [ -91.112461626809122, 33.244692720173092 ], [ -91.112609287215605, 33.244629052629342 ], [ -91.112749785591944, 33.244554463889799 ], [ -91.112894718223373, 33.244485756633274 ], [ -91.113033948854664, 33.244423130539595 ], [ -91.113187018955543, 33.244364815777551 ], [ -91.1133268279589, 33.244297403363518 ], [ -91.113464654996889, 33.244227832946393 ], [ -91.113610100594286, 33.244165415182678 ], [ -91.113757800485359, 33.244095397497084 ], [ -91.113896244452704, 33.244032775380632 ], [ -91.114036659218101, 33.243963738101655 ], [ -91.114183249784489, 33.243890318628928 ], [ -91.114320443464024, 33.243823279481447 ], [ -91.11445695515809, 33.243749318869625 ], [ -91.11460061113489, 33.243684437960461 ], [ -91.11474912879639, 33.243625708976538 ], [ -91.114891993557634, 33.243556490342954 ], [ -91.115039603283321, 33.243487543777405 ], [ -91.115176221263638, 33.243414680828579 ], [ -91.115320347284992, 33.243344023755931 ], [ -91.115458849852587, 33.24328450573794 ], [ -91.115608038439561, 33.243216674738228 ], [ -91.11574629112684, 33.243151194440678 ], [ -91.115896865631512, 33.243084811449563 ], [ -91.116036644269656, 33.24301445591027 ], [ -91.116175354613787, 33.242949109310089 ], [ -91.116323939905286, 33.242890763037934 ], [ -91.116463244055595, 33.242818651786116 ], [ -91.116603477905315, 33.242748182746169 ], [ -91.116748327185576, 33.242681752735983 ], [ -91.116886086410688, 33.24261250808344 ], [ -91.117036792739142, 33.242553763498634 ], [ -91.117172877606251, 33.242480187621602 ], [ -91.11732817699604, 33.242423116962037 ], [ -91.117470879315746, 33.242365356419683 ], [ -91.117609293965756, 33.242292726542161 ], [ -91.11775533632408, 33.242220928418298 ], [ -91.117895956275063, 33.242160872292935 ], [ -91.118038664099515, 33.242089286924895 ], [ -91.118178288996518, 33.242020469086647 ], [ -91.118324469665879, 33.241953203839152 ], [ -91.118466649164972, 33.241892092214044 ], [ -91.118614568097414, 33.241821875364579 ], [ -91.118754874138759, 33.241759731126514 ], [ -91.11889706266858, 33.241692380418598 ], [ -91.119036793623877, 33.241617213316239 ], [ -91.119181797033548, 33.241557512159986 ], [ -91.119332184803966, 33.241503713292701 ], [ -91.119479650622281, 33.24143421239387 ], [ -91.119620665718244, 33.241367390338183 ], [ -91.11976346756785, 33.24129558330845 ], [ -91.119903436533875, 33.241236243153608 ], [ -91.120049172867539, 33.241174530179812 ], [ -91.120193164856744, 33.241100543050187 ], [ -91.120333710291419, 33.241032679048665 ], [ -91.120476149095836, 33.240964308801161 ], [ -91.12062328995394, 33.240898738917231 ], [ -91.120761010347437, 33.240836828800994 ], [ -91.120907357749317, 33.240770411544531 ], [ -91.121054911879867, 33.240700028218107 ], [ -91.121194739212001, 33.240635988101594 ], [ -91.121341905981481, 33.240569840151196 ], [ -91.121475527345211, 33.240503117850665 ], [ -91.121624054155959, 33.240431821528908 ], [ -91.121764037553987, 33.24036709272805 ], [ -91.121906796380671, 33.240305451466959 ], [ -91.122055028081292, 33.240237811805969 ], [ -91.122193780352305, 33.240170837100962 ], [ -91.122334683738217, 33.240095740032011 ], [ -91.122473513939681, 33.24003008364091 ] ] } }
]
}
