{
"type": "FeatureCollection",
"name": "LM_11_YBS_20230630_CS_5382_5368_transects",
"crs": { "type": "name", "properties": { "name": "urn:ogc:def:crs:OGC:1.3:CRS84" } },
"features": [
{ "type": "Feature", "properties": { "station_id": 0, "station_ft": 3185.3, "width_ft": 1500.5, "flag": "ok", "lon": -91.130175, "lat": 33.355155, "survey_id": "LM_11_YBS_20230630_CS_5382_5368", "date": "2023-06-30 00:00:00+00:00", "method": "lines" }, "geometry": { "type": "LineString", "coordinates": [ [ -91.129176373846505, 33.354443328964294 ], [ -91.129296883662931, 33.354533218704425 ], [ -91.129417266931725, 33.354630777549502 ], [ -91.129529742972906, 33.35472668288633 ], [ -91.129661005532697, 33.354814278074173 ], [ -91.129786896129971, 33.354897949396459 ], [ -91.129904337002259, 33.354996021626626 ], [ -91.130032403589411, 33.355081327825459 ], [ -91.130174704794896, 33.355154698649464 ], [ -91.130301534819097, 33.355240782497035 ], [ -91.130427092717738, 33.355327423474534 ], [ -91.130548147101209, 33.355419260511752 ], [ -91.130670616404942, 33.35551554061859 ], [ -91.13078781371064, 33.355611798559387 ], [ -91.130902774265181, 33.355710517792943 ], [ -91.131020590294057, 33.355799049022799 ], [ -91.131152594011908, 33.355884988739213 ], [ -91.131279011153353, 33.355972229209257 ], [ -91.131411029376267, 33.356056052412178 ], [ -91.131533616469142, 33.356129135408594 ], [ -91.131667743198491, 33.35622143638107 ], [ -91.131797852085256, 33.356307635527784 ], [ -91.131914729037433, 33.356404444430879 ], [ -91.132030532560094, 33.356501920122433 ], [ -91.132156166874694, 33.356593011088236 ], [ -91.132277844448069, 33.356681050102083 ], [ -91.132396781819381, 33.356773833001149 ], [ -91.132516776978122, 33.356867708067689 ], [ -91.13263255407044, 33.356965677445906 ], [ -91.132752630432023, 33.357057683566062 ], [ -91.132878460207593, 33.357148360473879 ], [ -91.133007579516075, 33.357237092875984 ], [ -91.133126833525992, 33.357328498922939 ], [ -91.133255320417689, 33.357416163089923 ], [ -91.133378280453414, 33.357500976599297 ], [ -91.133506565525366, 33.357587899754236 ], [ -91.133642599827724, 33.357666280322093 ], [ -91.13377279093767, 33.357750332726042 ], [ -91.133875532200719, 33.357862236768881 ], [ -91.133999527862684, 33.357949132057598 ], [ -91.134134545532334, 33.358034417039185 ], [ -91.134262558401772, 33.358120076154179 ], [ -91.134384873923494, 33.358205745744677 ], [ -91.134514153059499, 33.358290242331158 ], [ -91.134641507798634, 33.358379039375507 ], [ -91.134763211305767, 33.358465728675952 ], [ -91.134888300040615, 33.358557397368173 ], [ -91.135012680550787, 33.358650307546831 ], [ -91.135124009728457, 33.358741295743265 ], [ -91.135905207779174, 33.359316473878827 ], [ -91.136039131044754, 33.359392832217615 ], [ -91.136155711202335, 33.359495437336946 ], [ -91.136278431468057, 33.359582063536216 ], [ -91.136416467780805, 33.35965682871911 ], [ -91.136542268738197, 33.359747171999778 ], [ -91.136666737977862, 33.359831588305603 ], [ -91.136806085026464, 33.359909888890655 ], [ -91.136919574299341, 33.360014575311432 ] ] } },
{ "type": "Feature", "properties": { "station_id": 1, "station_ft": 2263.7, "width_ft": 1899.1, "flag": "ok", "lon": -91.127604, "lat": 33.35696, "survey_id": "LM_11_YBS_20230630_CS_5382_5368", "date": "2023-06-30 00:00:00+00:00", "method": "lines" }, "geometry": { "type": "LineString", "coordinates": [ [ -91.126611244866751, 33.356240572314334 ], [ -91.126743843379259, 33.356323901805922 ], [ -91.126865035171619, 33.356416703608772 ], [ -91.126986553184594, 33.356513102535125 ], [ -91.127130486699599, 33.35658226117048 ], [ -91.127271983490544, 33.356649979075627 ], [ -91.127376779578057, 33.356758384324706 ], [ -91.127484464860288, 33.356864050766539 ], [ -91.127604379923, 33.35696043227383 ], [ -91.127723843817137, 33.357057503594611 ], [ -91.127867365362036, 33.357124437854289 ], [ -91.128357776129249, 33.357488869368943 ], [ -91.128473667998392, 33.35758912395368 ], [ -91.128591900322803, 33.357680292981414 ], [ -91.128718482893674, 33.357767754071794 ], [ -91.128848846576986, 33.357864067405593 ], [ -91.128972235796127, 33.357942480040414 ], [ -91.129097810381637, 33.358034206519434 ], [ -91.129194426196079, 33.358146592835098 ], [ -91.129330789727277, 33.358225581033622 ], [ -91.129479733983544, 33.358294182715518 ], [ -91.129620161060586, 33.358369819301991 ], [ -91.129751476226389, 33.358448180311242 ], [ -91.129868531508535, 33.358546446100291 ], [ -91.129990127089471, 33.358636163991974 ], [ -91.130116286737788, 33.35872725451442 ], [ -91.130223643381044, 33.358832068562371 ], [ -91.130325033226995, 33.358943406278101 ], [ -91.130438525785664, 33.359049554836673 ], [ -91.130551997665378, 33.359138911365754 ], [ -91.130696216094549, 33.359216968497435 ], [ -91.130849600032562, 33.359283863849164 ], [ -91.13098596441246, 33.359355402675725 ], [ -91.13110210193544, 33.359446061557804 ], [ -91.131226196565763, 33.359536668290282 ], [ -91.131345443089941, 33.359634287416746 ], [ -91.13146639515162, 33.359728624328973 ], [ -91.13158545599417, 33.359823853274975 ], [ -91.131702414948876, 33.359914671296032 ], [ -91.131825239836488, 33.360009517851545 ], [ -91.131948322080703, 33.360096751024045 ], [ -91.132075944362711, 33.360186126000421 ], [ -91.132196573303474, 33.360273621751162 ], [ -91.132324572833951, 33.360364834274534 ], [ -91.132451083065448, 33.360454243060403 ], [ -91.13257088300864, 33.360540534680823 ], [ -91.132701683055117, 33.360629833540294 ], [ -91.132821537394534, 33.360718377747403 ], [ -91.132942448873237, 33.360815104575742 ], [ -91.133058550834761, 33.360912247260579 ], [ -91.133185796029977, 33.361003134633414 ], [ -91.133310486178033, 33.361090356059364 ], [ -91.13342756423026, 33.361183121875577 ], [ -91.133557024752719, 33.361265447986 ], [ -91.133690290354096, 33.361344973295751 ], [ -91.133821333505693, 33.361431933241676 ], [ -91.133948609455572, 33.361522489615346 ], [ -91.134075658416094, 33.361609585042238 ], [ -91.134187228555021, 33.361705216777928 ], [ -91.13428384716839, 33.361823782368688 ] ] } },
{ "type": "Feature", "properties": { "station_id": 2, "station_ft": 1304.6, "width_ft": 1725.9, "flag": "ok", "lon": -91.124946, "lat": 33.358799, "survey_id": "LM_11_YBS_20230630_CS_5382_5368", "date": "2023-06-30 00:00:00+00:00", "method": "lines" }, "geometry": { "type": "LineString", "coordinates": [ [ -91.124467304380488, 33.358426944461286 ], [ -91.124565665499674, 33.35853368897579 ], [ -91.124680796060062, 33.35863348401255 ], [ -91.124820756280457, 33.358712180165838 ], [ -91.12494565888494, 33.358798748772294 ], [ -91.125065226799848, 33.358892990827677 ], [ -91.125213440473416, 33.358957205922977 ], [ -91.125339560804136, 33.359040770221398 ], [ -91.125467342830206, 33.35913421833672 ], [ -91.12557962933127, 33.359237960890077 ], [ -91.125693605648735, 33.359336663230266 ], [ -91.125813855560736, 33.359429993145731 ], [ -91.125936838141342, 33.359521437307272 ], [ -91.126056511205633, 33.359608918146805 ], [ -91.126192583554172, 33.35969186891662 ], [ -91.126327390588301, 33.359769029197757 ], [ -91.126453478951419, 33.359859600951651 ], [ -91.12656470530905, 33.359961727314456 ], [ -91.126671026916242, 33.36006833809185 ], [ -91.126785328135128, 33.360162805044482 ], [ -91.126920137795977, 33.360247219207096 ], [ -91.127049486093171, 33.360328892900498 ], [ -91.127176287169192, 33.360414952969322 ], [ -91.127290213582327, 33.360514890258138 ], [ -91.127407820546978, 33.360609060481693 ], [ -91.127534642573309, 33.36070089140761 ], [ -91.127659469424529, 33.360785726554489 ], [ -91.127786425073538, 33.360870684999277 ], [ -91.127914097133953, 33.360958661908846 ], [ -91.128032793196269, 33.361057138877058 ], [ -91.128147668876323, 33.361156932228695 ], [ -91.128258142786933, 33.361255077514024 ], [ -91.128379590118698, 33.361349992196033 ], [ -91.128497645151583, 33.361442729394319 ], [ -91.128626409865902, 33.361531825595875 ], [ -91.128770278141374, 33.361603620796316 ], [ -91.12890611828638, 33.3616748352256 ], [ -91.129033364358705, 33.361755421177811 ], [ -91.129152895509449, 33.361858976010204 ], [ -91.1292678761247, 33.361959180568959 ], [ -91.12938639990405, 33.362049275709268 ], [ -91.129521903846239, 33.362133820473787 ], [ -91.129646423463797, 33.362224123955542 ], [ -91.129753321159143, 33.362328502168275 ], [ -91.129862174199445, 33.362431767745562 ], [ -91.129977942456279, 33.362517537709323 ], [ -91.130113442015954, 33.362608650248298 ], [ -91.130241350966187, 33.362693434997958 ], [ -91.130366384898053, 33.362778815116094 ], [ -91.130491855753164, 33.362865539341861 ], [ -91.130616349974161, 33.362960020161019 ], [ -91.130739873824268, 33.36304856982003 ], [ -91.130864949263383, 33.36313485710221 ], [ -91.130994388734123, 33.363225649635176 ], [ -91.131116659927571, 33.363316846041791 ], [ -91.131237994067178, 33.363405767211503 ], [ -91.131357726641696, 33.363498600828216 ], [ -91.13147280499426, 33.363591107200136 ], [ -91.13160274470394, 33.363686293136496 ], [ -91.131722539509525, 33.363778796893961 ], [ -91.131855446995345, 33.363858161427636 ], [ -91.13196666475136, 33.363961739885603 ], [ -91.132064412798996, 33.364078485812129 ] ] } }
]
}
