{
"type": "FeatureCollection",
"name": "LM_13_OZE_20210508_CS_5746_5698_transects",
"crs": { "type": "name", "properties": { "name": "urn:ogc:def:crs:OGC:1.3:CRS84" } },
"features": [
{ "type": "Feature", "properties": { "station_id": 0, "station_ft": 9646.1, "width_ft": 1762.3, "flag": "ok", "lon": -91.23051, "lat": 33.680674, "survey_id": "LM_13_OZE_20210508_CS_5746_5698", "date": "2021-05-08 00:00:00+00:00", "method": "lines" }, "geometry": { "type": "LineString", "coordinates": [ [ -91.211580641327302, 33.679971889650325 ], [ -91.211694659504701, 33.679971079254841 ], [ -91.211844306407713, 33.679976556443073 ], [ -91.212008580205449, 33.679985363570815 ], [ -91.212173020725018, 33.679987766258321 ], [ -91.212337820667955, 33.679993272120335 ], [ -91.212501268750771, 33.680004860436803 ], [ -91.212666645036421, 33.679992718700809 ], [ -91.212830670858111, 33.680009358541767 ], [ -91.212994401864393, 33.680013140097664 ], [ -91.213157221496985, 33.680030777125843 ], [ -91.213323776562746, 33.68001494405717 ], [ -91.213487012878304, 33.680031451606951 ], [ -91.213651546503087, 33.680043084762531 ], [ -91.213814272758555, 33.680057891522615 ], [ -91.213978756053777, 33.680048503316954 ], [ -91.214143186755166, 33.68006283047697 ], [ -91.214306966006106, 33.680074606077348 ], [ -91.214472193939699, 33.68007373005144 ], [ -91.214636333428217, 33.680082122615673 ], [ -91.214799386335088, 33.680083899692413 ], [ -91.214963672567833, 33.680093774778122 ], [ -91.215128565985765, 33.680105129315805 ], [ -91.21529188049135, 33.680116467854567 ], [ -91.21545658911414, 33.680106553156229 ], [ -91.215620775631734, 33.680116263089367 ], [ -91.21578546934613, 33.680127481134505 ], [ -91.21594944568011, 33.680135928113557 ], [ -91.216113687732133, 33.680141459966059 ], [ -91.216277432277423, 33.680143368091777 ], [ -91.216442240796439, 33.680152934545383 ], [ -91.216605348321508, 33.6801535007273 ], [ -91.216770129585726, 33.680169991986077 ], [ -91.216934001243516, 33.68017788934187 ], [ -91.21709779786525, 33.680175289000793 ], [ -91.217261851414904, 33.680181672668198 ], [ -91.217425766384281, 33.680193690190436 ], [ -91.217591468701656, 33.68019742359597 ], [ -91.217755573129821, 33.68019908015264 ], [ -91.217918364096505, 33.680210638045793 ], [ -91.218083550806369, 33.680212038484157 ], [ -91.218247848253625, 33.680222953147769 ], [ -91.218410916398568, 33.680229452337201 ], [ -91.218576658616726, 33.680230546107254 ], [ -91.21873979524446, 33.680230888373735 ], [ -91.218904097023824, 33.68024221505673 ], [ -91.219069621629828, 33.680241330753539 ], [ -91.219233614798753, 33.680251477236617 ], [ -91.219396788416333, 33.680268141500193 ], [ -91.219562498123196, 33.680259754052322 ], [ -91.219726219106704, 33.680275314926831 ], [ -91.219888891855007, 33.680281622962859 ], [ -91.220054196682781, 33.680288213025456 ], [ -91.220217290129057, 33.680290642613492 ], [ -91.220382644817676, 33.680292423745584 ], [ -91.220547275374173, 33.680300557888827 ], [ -91.220711542733838, 33.680308501482145 ], [ -91.220873777447196, 33.680316982373107 ], [ -91.221039505171703, 33.680323156055984 ], [ -91.221203765566088, 33.680314363894446 ], [ -91.221367715836593, 33.68032030377632 ], [ -91.22153137835754, 33.680339682673811 ], [ -91.221694388798554, 33.680353322969935 ], [ -91.221860335108417, 33.680361445000514 ], [ -91.222024742166781, 33.680360620669745 ], [ -91.22218856088098, 33.680369692499646 ], [ -91.22235120093643, 33.680379184614203 ], [ -91.222515113542713, 33.680387733319506 ], [ -91.22268119326921, 33.680383350160611 ], [ -91.22284473510058, 33.680391077051631 ], [ -91.223009205032113, 33.680393108067889 ], [ -91.223173801868711, 33.680404316045482 ], [ -91.223337410166195, 33.680424764915216 ], [ -91.223501238393013, 33.680415588738605 ], [ -91.223666568352016, 33.680418189695544 ], [ -91.223829562311096, 33.680417427238332 ], [ -91.223995077343531, 33.680428353422869 ], [ -91.224157807214368, 33.680446526535697 ], [ -91.224321984013301, 33.680461528058252 ], [ -91.224485815877756, 33.680468700718514 ], [ -91.224599653718116, 33.680447242523478 ], [ -91.22476417961802, 33.680454684791009 ], [ -91.224928038720634, 33.680477134856133 ], [ -91.225092587974387, 33.680480564482572 ], [ -91.22525538494105, 33.680482961605399 ], [ -91.225421627411237, 33.680484729580726 ], [ -91.225584346419808, 33.68048907875496 ], [ -91.225748619627794, 33.680500752652733 ], [ -91.225912401733638, 33.680512485776958 ], [ -91.226075973361688, 33.680529413308889 ], [ -91.226241467259044, 33.680525524563159 ], [ -91.226404786238561, 33.680524372284758 ], [ -91.22657043477669, 33.680525950067413 ], [ -91.226734050164566, 33.680531143240238 ], [ -91.226899109786487, 33.680542507890806 ], [ -91.227063247575529, 33.680550553958447 ], [ -91.227226843526452, 33.680557092678235 ], [ -91.227390340799673, 33.680563576898699 ], [ -91.22755540913127, 33.680559937406429 ], [ -91.227719247545053, 33.680567599793136 ], [ -91.227883121916278, 33.680566028616155 ], [ -91.228047976841324, 33.68058624222386 ], [ -91.228211084364716, 33.680599543225682 ], [ -91.228374522253986, 33.680612979560586 ], [ -91.228540705684253, 33.680602679715768 ], [ -91.228703097811703, 33.680613539261984 ], [ -91.228868467511617, 33.680597776787621 ], [ -91.229032298428578, 33.680611043512314 ], [ -91.229196902487331, 33.680616500334501 ], [ -91.229360269338102, 33.680629413863578 ], [ -91.229525108786333, 33.68064487157487 ], [ -91.229689570879344, 33.68064609675136 ], [ -91.229852836863884, 33.680649281406538 ], [ -91.230017635799015, 33.680663941756386 ], [ -91.230181859877405, 33.680670801979318 ], [ -91.230345410749095, 33.680672856939957 ], [ -91.230510130636418, 33.680673667129945 ], [ -91.230673370645846, 33.680693339889039 ], [ -91.230838252714037, 33.680690658446501 ], [ -91.231002799582399, 33.680690590195212 ], [ -91.231166785913302, 33.68070610600428 ], [ -91.231329919254648, 33.68071871568997 ], [ -91.231496260698606, 33.680701541583566 ], [ -91.231660026599698, 33.680721153315915 ], [ -91.231823938531221, 33.680726391680338 ], [ -91.231987628254444, 33.680726026319761 ], [ -91.232151662058001, 33.680739864436568 ], [ -91.232315263713531, 33.68074999637868 ], [ -91.232480517607215, 33.680732580925785 ], [ -91.23264469531712, 33.680753810296082 ] ] } },
{ "type": "Feature", "properties": { "station_id": 1, "station_ft": 9536.0, "width_ft": 2067.9, "flag": "ok", "lon": -91.228996, "lat": 33.68373, "survey_id": "LM_13_OZE_20210508_CS_5746_5698", "date": "2021-05-08 00:00:00+00:00", "method": "lines" }, "geometry": { "type": "LineString", "coordinates": [ [ -91.213292700473488, 33.681426662066308 ], [ -91.213457689358052, 33.681437523162636 ], [ -91.213625254563183, 33.681436632500549 ], [ -91.213783572940301, 33.681470293897895 ], [ -91.213943842079985, 33.681505096115295 ], [ -91.214107629129899, 33.681523714902141 ], [ -91.214271175854876, 33.681534942215009 ], [ -91.214432083300636, 33.681564628178997 ], [ -91.214593962463951, 33.681589552962521 ], [ -91.214753531548837, 33.681626612168841 ], [ -91.214914658909393, 33.681651925966314 ], [ -91.215078378198143, 33.681667135966514 ], [ -91.215239533587365, 33.681692010068424 ], [ -91.215400847806777, 33.681722817936432 ], [ -91.21556503344641, 33.681735413882194 ], [ -91.215729942482625, 33.681744816451484 ], [ -91.215887448003969, 33.681782382987649 ], [ -91.216048467984237, 33.681813275052995 ], [ -91.2162097926293, 33.681835453650827 ], [ -91.216373785365121, 33.681854782005104 ], [ -91.216536503920352, 33.681874998289928 ], [ -91.216699704638188, 33.681894057790274 ], [ -91.216859308838352, 33.681924710979928 ], [ -91.217018815589185, 33.681955420557159 ], [ -91.217182602686648, 33.681977167345366 ], [ -91.21734489967632, 33.681997880544671 ], [ -91.217504059530668, 33.682026805039868 ], [ -91.21766465211968, 33.682060831041113 ], [ -91.2178246674018, 33.682099339118494 ], [ -91.217989194657974, 33.682103493291422 ], [ -91.218156506892612, 33.682103586416133 ], [ -91.218315993099068, 33.682138635570958 ], [ -91.218477100316235, 33.682171474852069 ], [ -91.218639655344319, 33.682188365397572 ], [ -91.218801099075904, 33.682212352824294 ], [ -91.218963136878443, 33.682236527818119 ], [ -91.219124656543173, 33.68226474719917 ], [ -91.219286319745947, 33.682287605439384 ], [ -91.219448036621912, 33.682306121969546 ], [ -91.219608822700337, 33.682339649074827 ], [ -91.219769302859419, 33.68236889114641 ], [ -91.219931574136439, 33.682396636154856 ], [ -91.220092028442934, 33.682420189014557 ], [ -91.22025835089535, 33.682429383341827 ], [ -91.220419903898346, 33.682451114808877 ], [ -91.220580425216909, 33.68248442255792 ], [ -91.220740998534325, 33.682509869741381 ], [ -91.220902728540779, 33.682535996313092 ], [ -91.221064785043495, 33.682561982384613 ], [ -91.221227378522755, 33.682582496296284 ], [ -91.221388183590477, 33.682608106860414 ], [ -91.221550238097976, 33.682633872320856 ], [ -91.221712305286573, 33.682654361425833 ], [ -91.221874086907533, 33.682679057343549 ], [ -91.222034654089001, 33.682707086812556 ], [ -91.222196725477559, 33.682727960224241 ], [ -91.222359565267652, 33.682753279899671 ], [ -91.222521468608292, 33.682776984154536 ], [ -91.222681033435919, 33.682809746979764 ], [ -91.22284401452238, 33.682829596008425 ], [ -91.223007063469566, 33.682846394285441 ], [ -91.223173195711468, 33.682849897073254 ], [ -91.223331858877202, 33.682887638665662 ], [ -91.223491476712965, 33.682919218084962 ], [ -91.223652118526672, 33.68294801395232 ], [ -91.223815808406613, 33.682963240494729 ], [ -91.223978509841601, 33.682984574038024 ], [ -91.224139855160701, 33.683011496122717 ], [ -91.224303301924465, 33.683025403855979 ], [ -91.224465674343563, 33.683052977162866 ], [ -91.224624369914935, 33.683090634807975 ], [ -91.224789237461451, 33.683102059514361 ], [ -91.224951411102111, 33.683116827565698 ], [ -91.225112775096036, 33.683145506321132 ], [ -91.225273716082839, 33.683171330809905 ], [ -91.225434992081603, 33.683200971763746 ], [ -91.225598602511639, 33.683218037536683 ], [ -91.225761345910243, 33.683240110420215 ], [ -91.22592302875195, 33.68326463673688 ], [ -91.226084588579454, 33.683289877781341 ], [ -91.226244848742098, 33.683316557009888 ], [ -91.226406838407286, 33.683342152452227 ], [ -91.226568294976687, 33.683366871592511 ], [ -91.226730642882501, 33.683392051094913 ], [ -91.22689034573898, 33.683418926449626 ], [ -91.227054502849072, 33.683434667322338 ], [ -91.2272162136275, 33.68346171976772 ], [ -91.227376766202582, 33.683488038379934 ], [ -91.227538706355958, 33.683515143737857 ], [ -91.227701477128136, 33.683536636845488 ], [ -91.227862326299046, 33.683563034720727 ], [ -91.228022612139654, 33.6835889703475 ], [ -91.228185251595875, 33.683610463765866 ], [ -91.228348696616692, 33.683630385089906 ], [ -91.228508124662284, 33.683662288445696 ], [ -91.228669939133752, 33.683686673157446 ], [ -91.228834096536815, 33.683699140722872 ], [ -91.228995781072356, 33.683730011012351 ], [ -91.229155953914685, 33.683757676112911 ], [ -91.22931835384496, 33.683781285777954 ], [ -91.229481156068303, 33.683796264191564 ], [ -91.229643240772219, 33.683818061735352 ], [ -91.229804179319601, 33.683846627426732 ], [ -91.229969904328541, 33.683858176017466 ], [ -91.230132755664854, 33.683871421278596 ], [ -91.230294575405026, 33.683899348827175 ], [ -91.230451713201035, 33.683941764281919 ], [ -91.230612943443163, 33.683966699741397 ], [ -91.230777448760776, 33.683984136205375 ], [ -91.230938837949608, 33.684005360082821 ], [ -91.231100258910544, 33.68403606452987 ], [ -91.231260698566103, 33.684067077924951 ], [ -91.231420812121328, 33.684092130432781 ], [ -91.23158480813899, 33.684107948479038 ], [ -91.231746188272766, 33.684134585348808 ], [ -91.231908729767298, 33.684152804528296 ], [ -91.232067734733803, 33.684191302299539 ], [ -91.232231631795017, 33.68421022524381 ], [ -91.232385166345509, 33.684237880334429 ], [ -91.232544054411761, 33.684277752346382 ], [ -91.232708116901961, 33.684315744563051 ] ] } },
{ "type": "Feature", "properties": { "station_id": 2, "station_ft": 9146.2, "width_ft": 2206.3, "flag": "ok", "lon": -91.228352, "lat": 33.686603, "survey_id": "LM_13_OZE_20210508_CS_5746_5698", "date": "2021-05-08 00:00:00+00:00", "method": "lines" }, "geometry": { "type": "LineString", "coordinates": [ [ -91.2138364571788, 33.682649864716439 ], [ -91.213974178176144, 33.682687822590545 ], [ -91.214130871861386, 33.68272943802608 ], [ -91.214285838957636, 33.682775901653621 ], [ -91.214447430190788, 33.682804730701555 ], [ -91.214597410501753, 33.682861726606333 ], [ -91.214750284462625, 33.682912381600481 ], [ -91.214910134066784, 33.682947515500125 ], [ -91.215068661969539, 33.682985323697281 ], [ -91.215225771731809, 33.683022591846189 ], [ -91.215380177882423, 33.683071889057558 ], [ -91.215535774282159, 33.683115433601763 ], [ -91.215690324461931, 33.68316275042249 ], [ -91.21584888650986, 33.683200557366689 ], [ -91.216006476313424, 33.683239773009795 ], [ -91.216159778723139, 33.683290313189744 ], [ -91.216320378232723, 33.683321564897298 ], [ -91.216473263840911, 33.683370018699449 ], [ -91.216626124554807, 33.683422348385761 ], [ -91.216782169477554, 33.683464706167292 ], [ -91.216944026427583, 33.683496745065781 ], [ -91.217100325435908, 33.683538084543464 ], [ -91.217252767122503, 33.683591239587393 ], [ -91.217407319293073, 33.683635312140623 ], [ -91.217563370594149, 33.683678218845799 ], [ -91.217724961146985, 33.683709873645029 ], [ -91.217880789163175, 33.683750115569204 ], [ -91.218031670103002, 33.683808008705675 ], [ -91.21819335576005, 33.683839222235399 ], [ -91.218352088133784, 33.683874166710268 ], [ -91.218500895529701, 33.683934986225452 ], [ -91.218656581608698, 33.683980560128802 ], [ -91.218812057545207, 33.684024871323622 ], [ -91.218967095083158, 33.684068167578445 ], [ -91.219128861639732, 33.68409762121258 ], [ -91.21928732643714, 33.684135205321766 ], [ -91.219443090248404, 33.684178715752836 ], [ -91.219599593480297, 33.684220490548853 ], [ -91.219747346374817, 33.684287389157113 ], [ -91.219901408597181, 33.684334759157849 ], [ -91.220059828570498, 33.68437115971544 ], [ -91.220216301262838, 33.684413153927864 ], [ -91.220374260020179, 33.684452608338603 ], [ -91.220530385740886, 33.684492817707934 ], [ -91.220688774465728, 33.684529272673799 ], [ -91.220851689390784, 33.684558358763873 ], [ -91.221010237763906, 33.684594373098449 ], [ -91.22116272766263, 33.684645407815623 ], [ -91.221317594534554, 33.684694226305645 ], [ -91.221469769953671, 33.684746526915596 ], [ -91.221629706108999, 33.684779947445556 ], [ -91.22178717676104, 33.684819842614054 ], [ -91.221945904668203, 33.684854041369199 ], [ -91.222102369759384, 33.684895125336382 ], [ -91.222260915738701, 33.684933941084175 ], [ -91.22241655797356, 33.684974893529727 ], [ -91.222565254604405, 33.685037275838972 ], [ -91.222718700307055, 33.685088383781732 ], [ -91.22288048494643, 33.68511928839149 ], [ -91.223041217495961, 33.685146985328309 ], [ -91.223194869522956, 33.685195673150432 ], [ -91.223350210062861, 33.685242424644962 ], [ -91.22350145103951, 33.685296350499691 ], [ -91.223660014780208, 33.68533675830286 ], [ -91.223818860878282, 33.685372739811989 ], [ -91.223979120614374, 33.685402307001908 ], [ -91.224132346010904, 33.685454184709691 ], [ -91.224290550788751, 33.685491626283252 ], [ -91.224445247312616, 33.685539508007246 ], [ -91.224603551075532, 33.685577003459279 ], [ -91.224759471706989, 33.685616081944467 ], [ -91.224914581849589, 33.685662614032346 ], [ -91.225071048603425, 33.685706717193803 ], [ -91.225227424815245, 33.685748512764079 ], [ -91.225377303132447, 33.685807200166309 ], [ -91.225527161772831, 33.68586396355478 ], [ -91.225676527858283, 33.68592397329931 ], [ -91.225837700876227, 33.685955868359954 ], [ -91.226013473795945, 33.685950036605576 ], [ -91.226169444763727, 33.685990624882663 ], [ -91.226325347063266, 33.686034153509411 ], [ -91.226479471496134, 33.68608376783056 ], [ -91.226633440951403, 33.686131102982458 ], [ -91.226781549613065, 33.686196423560183 ], [ -91.226938145821904, 33.686237116329458 ], [ -91.227098707558966, 33.686266953143196 ], [ -91.227259476319986, 33.686301046410385 ], [ -91.227418468970384, 33.686334934136674 ], [ -91.22757777067477, 33.686373242570262 ], [ -91.22773795913163, 33.686401981322433 ], [ -91.227893702423899, 33.686445839082147 ], [ -91.228046911021195, 33.686498921027372 ], [ -91.228198690738964, 33.68655366121633 ], [ -91.228351956199077, 33.68660262034517 ], [ -91.228505113783854, 33.68665072807071 ], [ -91.228660638158431, 33.686695547523897 ], [ -91.228821927820064, 33.686725761782284 ], [ -91.228980230547833, 33.686765889610577 ], [ -91.229133724507648, 33.686814653165953 ], [ -91.229282378462486, 33.686875378618986 ], [ -91.229440019619176, 33.686911882694091 ], [ -91.229598709385243, 33.686951209919677 ], [ -91.229756439768892, 33.686990049834655 ], [ -91.229910051732389, 33.6870405425923 ], [ -91.230070513511691, 33.687073289244694 ], [ -91.230229238613177, 33.687106514410104 ], [ -91.230385336987723, 33.687152647418515 ], [ -91.230535408262057, 33.687210448054437 ], [ -91.230694820763617, 33.687243255603775 ], [ -91.230852191141182, 33.687285338801971 ], [ -91.231009168701675, 33.68732115957782 ], [ -91.231163535996203, 33.687368348199165 ], [ -91.231318699709576, 33.687416189891998 ], [ -91.231478646974267, 33.687446739489722 ], [ -91.231631586254949, 33.687498746924199 ], [ -91.231786955003741, 33.687544169399054 ] ] } },
{ "type": "Feature", "properties": { "station_id": 3, "station_ft": 8653.8, "width_ft": 2354.1, "flag": "ok", "lon": -91.22707, "lat": 33.689637, "survey_id": "LM_13_OZE_20210508_CS_5746_5698", "date": "2021-05-08 00:00:00+00:00", "method": "lines" }, "geometry": { "type": "LineString", "coordinates": [ [ -91.214349205097534, 33.684179882832765 ], [ -91.214493056233565, 33.684244864560839 ], [ -91.214634854659039, 33.684314752739006 ], [ -91.214779740261292, 33.684378022761329 ], [ -91.214922770791745, 33.684446225774899 ], [ -91.215070262588327, 33.684507085863714 ], [ -91.215215446474005, 33.684573734168026 ], [ -91.215356820967401, 33.684643925657419 ], [ -91.215523939254751, 33.684672686753331 ], [ -91.215665768776205, 33.684742407616696 ], [ -91.215800017782428, 33.684822873400904 ], [ -91.215953260260022, 33.684873826250815 ], [ -91.216097843511363, 33.68493940581304 ], [ -91.21623803992415, 33.685013122663463 ], [ -91.216389123910247, 33.685068295362413 ], [ -91.216538662178948, 33.685123423024883 ], [ -91.216692464455136, 33.685174288901436 ], [ -91.216839930625241, 33.685235669948042 ], [ -91.216983402730321, 33.685304993456143 ], [ -91.217124184934306, 33.685374803053364 ], [ -91.217267139678412, 33.685441793930849 ], [ -91.217418800492169, 33.685498500225989 ], [ -91.217566017193164, 33.685557848211786 ], [ -91.217709689707178, 33.685624201424787 ], [ -91.217857131183194, 33.685686185475127 ], [ -91.218006759124393, 33.685743344661027 ], [ -91.218151152511751, 33.685809363114551 ], [ -91.218294211910319, 33.685876737010695 ], [ -91.218438840212016, 33.685943219557274 ], [ -91.218583687363051, 33.686005359253308 ], [ -91.218728430478748, 33.686070164594689 ], [ -91.218878905566442, 33.686126519641959 ], [ -91.219023978300868, 33.686191350218593 ], [ -91.219168956263545, 33.686256593323954 ], [ -91.21931438669489, 33.686320926022162 ], [ -91.219460683770336, 33.686383301311238 ], [ -91.219612528026033, 33.686435304523869 ], [ -91.219755985485378, 33.686505943877755 ], [ -91.219898132449416, 33.686573816499077 ], [ -91.220044432899812, 33.686636438095434 ], [ -91.220199142526894, 33.68668561700148 ], [ -91.220343323697449, 33.686749874491781 ], [ -91.220485384729628, 33.686818956964586 ], [ -91.220632794329717, 33.686883850888542 ], [ -91.220778748839834, 33.6869447160053 ], [ -91.220925257211718, 33.687008242039681 ], [ -91.221067816574745, 33.687074517239111 ], [ -91.221210472166618, 33.687143731632894 ], [ -91.221358531214506, 33.687204552982564 ], [ -91.221506771989041, 33.687263833848725 ], [ -91.221652492821846, 33.687327337621198 ], [ -91.221795844687634, 33.687393908298986 ], [ -91.221942010814089, 33.68745913955653 ], [ -91.222093440105894, 33.687511993755976 ], [ -91.222237274646943, 33.687577406419315 ], [ -91.222385090106116, 33.687639986354561 ], [ -91.22253322201307, 33.687698085685227 ], [ -91.222674330917869, 33.687770112504609 ], [ -91.222818293974584, 33.687835248573968 ], [ -91.222964564290109, 33.687897674841231 ], [ -91.22312248975129, 33.687942786906738 ], [ -91.223270132066645, 33.688004350934165 ], [ -91.223415775742367, 33.688066506191475 ], [ -91.22355876741203, 33.688136072435078 ], [ -91.223697117667825, 33.688211415921643 ], [ -91.2238350516362, 33.688284646242678 ], [ -91.22397933224039, 33.688351646722481 ], [ -91.224127844404961, 33.688411362412843 ], [ -91.224277055218153, 33.68846873689138 ], [ -91.224427604059755, 33.688525112504607 ], [ -91.22458305984064, 33.688572768521681 ], [ -91.224729366980853, 33.68863538443982 ], [ -91.224869931080875, 33.688708429622132 ], [ -91.225010826043018, 33.68877850425369 ], [ -91.225160059065672, 33.688837911454449 ], [ -91.225307796999601, 33.688895707324136 ], [ -91.225456125280076, 33.688956549697451 ], [ -91.225597921706608, 33.689024748165345 ], [ -91.225743440649239, 33.68909047359594 ], [ -91.225891704255332, 33.68914812792066 ], [ -91.226041529430518, 33.689207419771307 ], [ -91.22619000419364, 33.689266473262037 ], [ -91.226330337650779, 33.689336083403802 ], [ -91.226468337739163, 33.689412085318104 ], [ -91.226611475621525, 33.689482718891419 ], [ -91.226761121096118, 33.689537257127739 ], [ -91.22691976285094, 33.689581177131501 ], [ -91.227070113330328, 33.689637000952018 ], [ -91.227213817681587, 33.689705074643761 ], [ -91.227355550907419, 33.689773271519378 ], [ -91.227494068050163, 33.689848224497851 ], [ -91.227640386519795, 33.689911523837807 ], [ -91.227786979924844, 33.689972815899488 ], [ -91.22794401471981, 33.690020153273622 ], [ -91.228081912605944, 33.690095522087127 ], [ -91.228225609949192, 33.690162769688456 ], [ -91.228370781335258, 33.690226324392839 ], [ -91.228519462111166, 33.690285786474348 ], [ -91.228663624741856, 33.690350309221451 ], [ -91.228809185906456, 33.690416443602189 ], [ -91.228959302246437, 33.690471689777851 ], [ -91.229106168062899, 33.690533692327108 ], [ -91.229244315852597, 33.690607711049331 ], [ -91.22939090713993, 33.690671694211112 ], [ -91.229543039463366, 33.69072469904863 ], [ -91.229692348473947, 33.690781351231173 ], [ -91.229846481795519, 33.690830714121915 ], [ -91.229986377825156, 33.690905242230826 ], [ -91.23011820867454, 33.690991287784726 ], [ -91.230272329149955, 33.691042573297537 ], [ -91.230410728381045, 33.691118403745314 ] ] } },
{ "type": "Feature", "properties": { "station_id": 4, "station_ft": 8095.7, "width_ft": 2555.9, "flag": "ok", "lon": -91.224094, "lat": 33.691568, "survey_id": "LM_13_OZE_20210508_CS_5746_5698", "date": "2021-05-08 00:00:00+00:00", "method": "lines" }, "geometry": { "type": "LineString", "coordinates": [ [ -91.21524497349516, 33.685900681350496 ], [ -91.215371053133978, 33.685950399763307 ], [ -91.215495890860609, 33.686039424118519 ], [ -91.215610090703777, 33.68614259437399 ], [ -91.215738263760727, 33.686226565643281 ], [ -91.215877002964149, 33.686302409289084 ], [ -91.216012400551406, 33.68637923863411 ], [ -91.21613126965525, 33.686475917013794 ], [ -91.216262318904427, 33.686558300229173 ], [ -91.216395566543085, 33.686640173524523 ], [ -91.216534298505351, 33.686715082430112 ], [ -91.216655176540201, 33.686808887920648 ], [ -91.216784442140877, 33.686893509322488 ], [ -91.216918394486569, 33.68697353597414 ], [ -91.2170401020486, 33.687064752116761 ], [ -91.217164855358604, 33.687154791424646 ], [ -91.217306485907002, 33.687226985688497 ], [ -91.217437830038165, 33.687308981443671 ], [ -91.217564376911398, 33.687397578499059 ], [ -91.217692469696715, 33.687483032266044 ], [ -91.217823757246109, 33.687565852951813 ], [ -91.217957364152923, 33.687647336975445 ], [ -91.218094783056273, 33.687722115548794 ], [ -91.218232121292417, 33.687798681476309 ], [ -91.218357418342435, 33.687887039616577 ], [ -91.218483574272099, 33.687975831444504 ], [ -91.218613786584555, 33.688059455068775 ], [ -91.21874150217856, 33.688146422373414 ], [ -91.2188731374913, 33.688227726573274 ], [ -91.219008997386993, 33.688307435203996 ], [ -91.219142677244591, 33.688386032335963 ], [ -91.21926724382044, 33.688476812804005 ], [ -91.219395318009077, 33.688563391869444 ], [ -91.219528896007859, 33.688641659325654 ], [ -91.219657269797295, 33.688728482095186 ], [ -91.219788685334223, 33.688810584770984 ], [ -91.219917738836628, 33.688896331309159 ], [ -91.220044252055047, 33.688984431933456 ], [ -91.220175899460884, 33.689066669563296 ], [ -91.220317429017555, 33.689138036982747 ], [ -91.220444749181837, 33.689224509451321 ], [ -91.220569830497652, 33.689313911768451 ], [ -91.220700696827379, 33.689396869387259 ], [ -91.220827674606625, 33.689485212884797 ], [ -91.220962307024152, 33.689563388235612 ], [ -91.22108675439668, 33.689655020570129 ], [ -91.221227340165512, 33.689727052760922 ], [ -91.221361690596694, 33.689806576653396 ], [ -91.221491623725711, 33.689891353198327 ], [ -91.221622717224847, 33.689973786169169 ], [ -91.221750978565339, 33.69005882148651 ], [ -91.221878145050084, 33.690146228482938 ], [ -91.222007210529057, 33.69023274264601 ], [ -91.222132961920707, 33.690319884569412 ], [ -91.222263989749138, 33.690402206420757 ], [ -91.222398293601486, 33.690483296439581 ], [ -91.222527930715529, 33.690567826964134 ], [ -91.22266535392319, 33.690642188287583 ], [ -91.222793232531487, 33.690728298129933 ], [ -91.222925962472459, 33.690809782965218 ], [ -91.223055431561306, 33.690893819165304 ], [ -91.223183092542072, 33.690981029186261 ], [ -91.223313409142335, 33.691064262008908 ], [ -91.223446205304612, 33.691145690798315 ], [ -91.223577941432382, 33.691229518068162 ], [ -91.223710326947867, 33.691309356435099 ], [ -91.223838533097151, 33.691395131927699 ], [ -91.223969221032789, 33.691479214259225 ], [ -91.224093944256481, 33.691568257567511 ], [ -91.224221474556913, 33.691655356535279 ], [ -91.224359141710039, 33.691730786151268 ], [ -91.224489872939216, 33.691815829591015 ], [ -91.224619576684347, 33.691899944461916 ], [ -91.224749863186545, 33.691983231846834 ], [ -91.224881266383463, 33.692066428087564 ], [ -91.225011331045735, 33.692150430841437 ], [ -91.225137376075878, 33.692236825507997 ], [ -91.225266483959047, 33.692323692898107 ], [ -91.225400177644573, 33.692402475036545 ], [ -91.225532289856503, 33.69248412645301 ], [ -91.225663064436532, 33.692566776417934 ], [ -91.225797858360281, 33.692647062117743 ], [ -91.225936322730277, 33.692722951196295 ], [ -91.226063063155934, 33.692809669848309 ], [ -91.226190328939865, 33.692896164584894 ], [ -91.226315062451889, 33.692985782527117 ], [ -91.22644773279309, 33.693067208921619 ], [ -91.226575794542569, 33.693154357452308 ], [ -91.226705500103492, 33.693238360974092 ], [ -91.226837198827212, 33.69332108592824 ], [ -91.226973102512517, 33.693397184373481 ], [ -91.227108663700093, 33.693475182065434 ], [ -91.227232598811511, 33.693566893790283 ], [ -91.227364576397562, 33.693647912167272 ], [ -91.227493573669406, 33.693733156030916 ], [ -91.227624742750464, 33.693815416940588 ], [ -91.22774919323686, 33.693905969479957 ], [ -91.227883519541308, 33.693985184258331 ], [ -91.22801694663886, 33.694066384364035 ] ] } },
{ "type": "Feature", "properties": { "station_id": 5, "station_ft": 7350.9, "width_ft": 2640.6, "flag": "ok", "lon": -91.222514, "lat": 33.694596, "survey_id": "LM_13_OZE_20210508_CS_5746_5698", "date": "2021-05-08 00:00:00+00:00", "method": "lines" }, "geometry": { "type": "LineString", "coordinates": [ [ -91.215463964653154, 33.688445546340262 ], [ -91.215571657391848, 33.688548570984004 ], [ -91.215681176667175, 33.688650152579527 ], [ -91.215803403751011, 33.688743866279509 ], [ -91.215929910346929, 33.688831641228546 ], [ -91.216034520567192, 33.688938561563404 ], [ -91.21613619194639, 33.689047261786769 ], [ -91.216242822393014, 33.689152353522772 ], [ -91.216365858519566, 33.689244686857158 ], [ -91.216493584924834, 33.689332755423393 ], [ -91.216615378924061, 33.689425702340806 ], [ -91.216711693062152, 33.68953762745474 ], [ -91.216819017560937, 33.689642961645767 ], [ -91.21694061386664, 33.689735799651672 ], [ -91.217056048665924, 33.689833682669672 ], [ -91.217169176121175, 33.689934138061105 ], [ -91.217273570715562, 33.690038887839577 ], [ -91.217384222936133, 33.690141503790521 ], [ -91.217488448549133, 33.690248975557161 ], [ -91.217609525210491, 33.690342311567548 ], [ -91.217724925331851, 33.690439919203214 ], [ -91.217850665798494, 33.690529539533451 ], [ -91.217964720009334, 33.690627211569229 ], [ -91.218087169691785, 33.690719712320011 ], [ -91.218198722569525, 33.690820260953942 ], [ -91.218311299069526, 33.690921213271658 ], [ -91.218418157682379, 33.691025560320952 ], [ -91.218533138474967, 33.691123747189543 ], [ -91.218662269645222, 33.691210429369868 ], [ -91.218760556174459, 33.691321871660953 ], [ -91.218868184226807, 33.691427420907722 ], [ -91.218974623313912, 33.691532484513566 ], [ -91.219101098987224, 33.691619789313513 ], [ -91.219229293601742, 33.691707988644424 ], [ -91.21933954203449, 33.691809286660508 ], [ -91.219442141244656, 33.691918114431843 ], [ -91.219555791765046, 33.692017711810422 ], [ -91.219661213207175, 33.692122672107487 ], [ -91.21978754010189, 33.692211406253293 ], [ -91.219903251091381, 33.692309917440376 ], [ -91.220010731573325, 33.692413652732213 ], [ -91.220125797581517, 33.692513267357178 ], [ -91.220239142932357, 33.692611877241113 ], [ -91.220358605980266, 33.692707530091951 ], [ -91.22048016115771, 33.692798825794299 ], [ -91.220588395294428, 33.692902198126589 ], [ -91.220689731063672, 33.693012380849687 ], [ -91.220809598799875, 33.693105749346387 ], [ -91.220928117683542, 33.693202177456378 ], [ -91.221046817815193, 33.693297011055826 ], [ -91.221161737941983, 33.693395003787352 ], [ -91.221271116489604, 33.693497598226536 ], [ -91.221383855824499, 33.693597750372341 ], [ -91.221507624960708, 33.693689936104469 ], [ -91.221619671753004, 33.693789818024214 ], [ -91.221710917943, 33.693906529524781 ], [ -91.221835668482896, 33.693998103801611 ], [ -91.221953641029032, 33.694092253826341 ], [ -91.222074870229179, 33.694186628242022 ], [ -91.22219148606834, 33.694283151731987 ], [ -91.222291900785891, 33.69439298178299 ], [ -91.222399400335206, 33.694498034687129 ], [ -91.222513890620931, 33.694595562188915 ], [ -91.222637713695008, 33.694686235315622 ], [ -91.222761770196414, 33.694777345703002 ], [ -91.222873050999169, 33.694879127977586 ], [ -91.22296625594349, 33.694994203362789 ], [ -91.223079625643479, 33.695094541398674 ], [ -91.223204401445514, 33.695185014139021 ], [ -91.223327175436509, 33.695275886144465 ], [ -91.223429130404284, 33.695385045080315 ], [ -91.223551228833031, 33.695477295728693 ], [ -91.223670893770617, 33.695572641779776 ], [ -91.223779190239739, 33.695674966727196 ], [ -91.223904102931016, 33.69576590476926 ], [ -91.223996947497596, 33.695880844897204 ], [ -91.224110180893121, 33.69598049593138 ], [ -91.224229167375597, 33.696076862392964 ], [ -91.224351956479978, 33.696168970202507 ], [ -91.224472577204224, 33.696261120574519 ], [ -91.224576357113563, 33.696368451382924 ], [ -91.224672545083919, 33.696482376925367 ], [ -91.224794620284172, 33.6965752314292 ], [ -91.224908566433442, 33.696673639595026 ], [ -91.225033878494628, 33.696764766511812 ], [ -91.22514349253639, 33.696867053658117 ], [ -91.225256294631876, 33.696966046760231 ], [ -91.225348186111361, 33.69708396069948 ] ] } },
{ "type": "Feature", "properties": { "station_id": 6, "station_ft": 6444.5, "width_ft": 2557.2, "flag": "ok", "lon": -91.220374, "lat": 33.697216, "survey_id": "LM_13_OZE_20210508_CS_5746_5698", "date": "2021-05-08 00:00:00+00:00", "method": "lines" }, "geometry": { "type": "LineString", "coordinates": [ [ -91.214539709043549, 33.69057825945913 ], [ -91.214591456838875, 33.690707542130788 ], [ -91.214687276447904, 33.690819418243727 ], [ -91.214799336651012, 33.690921751490492 ], [ -91.214898200788951, 33.691032395790089 ], [ -91.214992547109802, 33.691144831228108 ], [ -91.215096296208273, 33.691250906455224 ], [ -91.215191595273083, 33.691363224940559 ], [ -91.215291260890908, 33.691471775128548 ], [ -91.215394726764799, 33.691578979089577 ], [ -91.215491595401431, 33.691690406183213 ], [ -91.215583122159288, 33.691803411240528 ], [ -91.215681945575639, 33.691913038187785 ], [ -91.215780755476203, 33.692024589120074 ], [ -91.215883524538825, 33.692131028580022 ], [ -91.215980089989074, 33.692241688387583 ], [ -91.216072454669913, 33.692356143126901 ], [ -91.216164455263424, 33.692470408357934 ], [ -91.21625369769788, 33.692584939358056 ], [ -91.216366450571726, 33.692686992086898 ], [ -91.216473606291856, 33.692791502754801 ], [ -91.216570532814643, 33.692901885414528 ], [ -91.216658721932077, 33.693019419584928 ], [ -91.216763106265702, 33.693126120807619 ], [ -91.216866080560777, 33.693233079054394 ], [ -91.216947323375919, 33.69335272459363 ], [ -91.217044548053224, 33.693463241768121 ], [ -91.217146001245297, 33.693572518693095 ], [ -91.217252418470551, 33.693678545884211 ], [ -91.217361677551722, 33.693779577728804 ], [ -91.217459769188665, 33.693891132385652 ], [ -91.217559240712546, 33.693999435004471 ], [ -91.217658185580561, 33.694110736355931 ], [ -91.217750169332604, 33.694222966495602 ], [ -91.217834412891804, 33.69434335807783 ], [ -91.217929020002558, 33.694454827294628 ], [ -91.218033863682379, 33.694561085031225 ], [ -91.218134172605588, 33.694670754271002 ], [ -91.218226832376885, 33.694784628181978 ], [ -91.21832814067578, 33.694892202039988 ], [ -91.218429673649169, 33.694999362179409 ], [ -91.218523610884162, 33.695112676739846 ], [ -91.218624400433541, 33.69522102310637 ], [ -91.218726705664238, 33.695329579411208 ], [ -91.218823210285336, 33.695439907332876 ], [ -91.21889186360599, 33.695568956857365 ], [ -91.219000237209784, 33.695672934481742 ], [ -91.21911057636909, 33.695776183863828 ], [ -91.219215508287988, 33.695881174999442 ], [ -91.219301636716509, 33.695999051921802 ], [ -91.21939502062186, 33.696112671778479 ], [ -91.219506592264111, 33.696214207966392 ], [ -91.219609257148917, 33.696322375948476 ], [ -91.219709658133908, 33.696431054149016 ], [ -91.219794401911955, 33.696548418626612 ], [ -91.219890101545332, 33.696660125451146 ], [ -91.219998686115019, 33.696765172621717 ], [ -91.220090029160986, 33.696878504541708 ], [ -91.220186492105753, 33.696990838553461 ], [ -91.220283070497644, 33.697101576763821 ], [ -91.220374360016535, 33.6972159258261 ], [ -91.220465054555149, 33.697329977060242 ], [ -91.220572905387712, 33.697433901996312 ], [ -91.22068405377675, 33.697538765133523 ], [ -91.220779307101637, 33.697648386380564 ], [ -91.220872083052839, 33.697763356382879 ], [ -91.220976656828597, 33.697868211481072 ], [ -91.221070656757973, 33.697980589508504 ], [ -91.221167836371464, 33.698092092617273 ], [ -91.221262499240694, 33.698204905696315 ], [ -91.221358952818335, 33.698316138883079 ], [ -91.221453545867718, 33.698428512338758 ], [ -91.221546770261142, 33.698542132523777 ], [ -91.221640875198332, 33.698655031350896 ], [ -91.22174503717703, 33.698761179786835 ], [ -91.221843742637134, 33.698870583305535 ], [ -91.221962347259975, 33.698968053664231 ] ] } },
{ "type": "Feature", "properties": { "station_id": 7, "station_ft": 5451.1, "width_ft": 2458.5, "flag": "ok", "lon": -91.217411, "lat": 33.699186, "survey_id": "LM_13_OZE_20210508_CS_5746_5698", "date": "2021-05-08 00:00:00+00:00", "method": "lines" }, "geometry": { "type": "LineString", "coordinates": [ [ -91.212648450886974, 33.692283691814943 ], [ -91.2127353394458, 33.69240002908878 ], [ -91.21281355310181, 33.692519835120663 ], [ -91.212902785771021, 33.692637117567898 ], [ -91.212980805887327, 33.692757255743111 ], [ -91.213057038027884, 33.69287941171018 ], [ -91.213136895126496, 33.692999206719861 ], [ -91.213219373649025, 33.693118076014997 ], [ -91.213302535953289, 33.693236390416729 ], [ -91.213384399447264, 33.693356143014185 ], [ -91.213472897172736, 33.69347205624647 ], [ -91.213551496985232, 33.69359092588661 ], [ -91.213636938061228, 33.693710075804134 ], [ -91.213710871032518, 33.693832302711762 ], [ -91.213803404829108, 33.693947279940453 ], [ -91.21388402028181, 33.694067096071613 ], [ -91.21394493420415, 33.694195654548317 ], [ -91.214032356151051, 33.69431231701796 ], [ -91.21413282085274, 33.694421603474915 ], [ -91.214212662283856, 33.694542743903973 ], [ -91.21429939947825, 33.694659878973958 ], [ -91.214376900455349, 33.694780348973417 ], [ -91.214459117022059, 33.69489899925923 ], [ -91.214533129211318, 33.695022324092783 ], [ -91.214624646532073, 33.695137445855053 ], [ -91.214705949701539, 33.695256679490278 ], [ -91.214785520593466, 33.695376942408771 ], [ -91.214882621431968, 33.695488258232352 ], [ -91.21496075491379, 33.695609356231323 ], [ -91.215046055198997, 33.695727214141797 ], [ -91.215107991274792, 33.695855764690123 ], [ -91.215196139076298, 33.695972311102828 ], [ -91.215291081514394, 33.696084658972474 ], [ -91.215372709572847, 33.696203312804457 ], [ -91.215446526006559, 33.696326556397288 ], [ -91.215531498173263, 33.696444362194867 ], [ -91.215621604908179, 33.696559437341826 ], [ -91.215690508645167, 33.696684447794162 ], [ -91.215770678585741, 33.696805117769934 ], [ -91.215848711880994, 33.696925775003329 ], [ -91.215935319621636, 33.697042661829272 ], [ -91.216031288225579, 33.69715546968019 ], [ -91.216111703427174, 33.697274296640217 ], [ -91.21619240538439, 33.697395511580886 ], [ -91.21626908770412, 33.697515794109052 ], [ -91.216352045655768, 33.697635756748312 ], [ -91.216434860404377, 33.697754456337258 ], [ -91.216524440876242, 33.697869287507757 ], [ -91.216604143056514, 33.697989136200263 ], [ -91.216696925961458, 33.698102021272661 ], [ -91.216761700131485, 33.698231126721325 ], [ -91.216853120673008, 33.698345752441803 ], [ -91.21694014314474, 33.698461151546759 ], [ -91.21702270337623, 33.698580539535236 ], [ -91.217087985655141, 33.698707882180301 ], [ -91.21717881811513, 33.69882281478003 ], [ -91.217259195442793, 33.698940898303334 ], [ -91.217335827532963, 33.699062417439627 ], [ -91.217410836079651, 33.699185898257696 ], [ -91.217500695539826, 33.699302101580194 ], [ -91.217585179181697, 33.699419771412629 ], [ -91.217682361042037, 33.699531662222547 ], [ -91.217751145940738, 33.699657386319323 ], [ -91.217828467400238, 33.699778679302128 ], [ -91.217909742086377, 33.699897525891487 ], [ -91.217989848455503, 33.700017810693311 ], [ -91.218079373233593, 33.700133191016889 ], [ -91.218148933790161, 33.700257452364447 ], [ -91.21825783784341, 33.700364586751732 ], [ -91.218350242016527, 33.700478572234431 ], [ -91.218405023063085, 33.700610689274448 ], [ -91.218468287590198, 33.700739612516493 ] ] } },
{ "type": "Feature", "properties": { "station_id": 8, "station_ft": 4410.2, "width_ft": 2815.7, "flag": "ok", "lon": -91.213201, "lat": 33.699024, "survey_id": "LM_13_OZE_20210508_CS_5746_5698", "date": "2021-05-08 00:00:00+00:00", "method": "lines" }, "geometry": { "type": "LineString", "coordinates": [ [ -91.210230685047534, 33.693704125872209 ], [ -91.210288647802855, 33.693791925976626 ], [ -91.210338932501031, 33.693923171808727 ], [ -91.210391294781488, 33.694055061922775 ], [ -91.210461761156083, 33.694179404377586 ], [ -91.210530616161776, 33.694303730279856 ], [ -91.210619745894377, 33.694420658059713 ], [ -91.210689494529888, 33.694545527483236 ], [ -91.210756840610046, 33.694670111896698 ], [ -91.210825501871597, 33.694794713975533 ], [ -91.210893445241197, 33.694919871075037 ], [ -91.210968413325688, 33.695043824209037 ], [ -91.211047051656521, 33.695163491252927 ], [ -91.211113328005595, 33.695289484105977 ], [ -91.211169125691228, 33.695419481361668 ], [ -91.211225046779475, 33.695548762758229 ], [ -91.211314769482115, 33.695665548739846 ], [ -91.211392149107951, 33.695787340495947 ], [ -91.211473228034023, 33.695907594857239 ], [ -91.211521259696354, 33.696040037220854 ], [ -91.211591996773379, 33.696164899954795 ], [ -91.211680662657656, 33.696281170245591 ], [ -91.211742318386172, 33.69640837754477 ], [ -91.211794584332097, 33.696540185620535 ], [ -91.211870618622882, 33.696662013660436 ], [ -91.211944403477645, 33.696785782519498 ], [ -91.212016529461351, 33.696908051179634 ], [ -91.212087826664103, 33.69703290871422 ], [ -91.212146608837188, 33.697162004298818 ], [ -91.212200500796385, 33.697291849592567 ], [ -91.212269784339469, 33.697415814345334 ], [ -91.212348806436609, 33.697537181734994 ], [ -91.212431358638497, 33.697656490888349 ], [ -91.212522430354937, 33.697773073382102 ], [ -91.212593573330494, 33.697895458659787 ], [ -91.21264460711248, 33.69802870409805 ], [ -91.212713955178785, 33.69815242108416 ], [ -91.212783642199085, 33.698277096697865 ], [ -91.212863086497123, 33.698397828715699 ], [ -91.21292353424235, 33.698525565968005 ], [ -91.212981424636382, 33.69865403634838 ], [ -91.213051158503831, 33.698779948427322 ], [ -91.213126431329627, 33.698900984945269 ], [ -91.213200605456677, 33.699023842314162 ], [ -91.213266304568975, 33.699150689983782 ], [ -91.213343020189669, 33.699271304058634 ], [ -91.213404465740439, 33.699400077966992 ], [ -91.213474512721447, 33.699524311514857 ], [ -91.213552194202435, 33.699646072587072 ], [ -91.213626581400604, 33.699767170077088 ], [ -91.213684782122499, 33.699896900986602 ], [ -91.213741592034737, 33.70002551570412 ], [ -91.213819840069036, 33.700147959556482 ], [ -91.213894135823764, 33.700269634530748 ], [ -91.213963150600762, 33.700395743200914 ], [ -91.214035146760622, 33.700517599463538 ], [ -91.214108076897176, 33.700640795078414 ], [ -91.214165600127544, 33.700771548444557 ], [ -91.214231078291036, 33.700895814093137 ], [ -91.214303495827622, 33.701020195204947 ], [ -91.214390238439293, 33.701137191149698 ], [ -91.214485045591871, 33.70125187736263 ], [ -91.214540698855302, 33.701382999994451 ], [ -91.214600526749962, 33.701510740746208 ], [ -91.214660653731059, 33.701638809308832 ], [ -91.214735546710713, 33.701760836490486 ], [ -91.21481781815146, 33.701880969949279 ], [ -91.214869138741619, 33.702012673291023 ] ] } },
{ "type": "Feature", "properties": { "station_id": 9, "station_ft": 3403.2, "width_ft": 2664.2, "flag": "ok", "lon": -91.210398, "lat": 33.700984, "survey_id": "LM_13_OZE_20210508_CS_5746_5698", "date": "2021-05-08 00:00:00+00:00", "method": "lines" }, "geometry": { "type": "LineString", "coordinates": [ [ -91.208035440896566, 33.6954165905507 ], [ -91.208092080463345, 33.69554581422603 ], [ -91.208144813396672, 33.695675559599856 ], [ -91.20820325756371, 33.695804439557705 ], [ -91.208255865664114, 33.695934818669151 ], [ -91.20828803853783, 33.69606976563292 ], [ -91.208363500736027, 33.696194100923655 ], [ -91.208403749874051, 33.69632791956964 ], [ -91.208445635581811, 33.696461011653007 ], [ -91.208506232388856, 33.696588063117112 ], [ -91.208578643607424, 33.696713107777903 ], [ -91.208644621831056, 33.696839077010964 ], [ -91.208705497136791, 33.696967582443129 ], [ -91.208760430385567, 33.697096926943736 ], [ -91.208813785900475, 33.697226283497933 ], [ -91.208851841933253, 33.697360913602004 ], [ -91.208910678084521, 33.697489296327433 ], [ -91.208963387312266, 33.697619756411093 ], [ -91.209029825125953, 33.697745502166171 ], [ -91.209093420413637, 33.697873109057454 ], [ -91.20915205541111, 33.698000943113428 ], [ -91.209199554538188, 33.698133006059813 ], [ -91.209247373334392, 33.698264242673496 ], [ -91.209307157749166, 33.69839198645024 ], [ -91.209356657608922, 33.698523458126473 ], [ -91.209407926277535, 33.698654367271757 ], [ -91.209464045172325, 33.698783730946843 ], [ -91.209531819774796, 33.698908284942888 ], [ -91.209589902803984, 33.699036755581709 ], [ -91.209643079890213, 33.699167733120227 ], [ -91.209696303409416, 33.699296787233116 ], [ -91.209748885867867, 33.699427384863142 ], [ -91.20981526079747, 33.699553268524873 ], [ -91.209858898629719, 33.699686869611 ], [ -91.209907904165078, 33.699818151594577 ], [ -91.209960544456038, 33.699948006707807 ], [ -91.210025319001716, 33.700074808585256 ], [ -91.210082414400205, 33.700202955084364 ], [ -91.210137525595613, 33.700333260493196 ], [ -91.21017882917036, 33.700466768016661 ], [ -91.210234983369986, 33.700596186029188 ], [ -91.210306735284888, 33.700720299287397 ], [ -91.210349907289839, 33.70085335440843 ], [ -91.210397788750825, 33.700983847144911 ], [ -91.210452800548154, 33.701113932207058 ], [ -91.210518532430171, 33.701240946074591 ], [ -91.210568256419705, 33.701371618587437 ], [ -91.210620895873745, 33.701501089303129 ], [ -91.210667218013342, 33.701633351969406 ], [ -91.210729407409502, 33.701761132866125 ], [ -91.210786442059899, 33.701889664391963 ], [ -91.210836723857994, 33.702020058734163 ], [ -91.21088913888218, 33.702150079069369 ], [ -91.210955199807188, 33.702276953293428 ], [ -91.211001660083298, 33.702409764791518 ], [ -91.211069609955175, 33.702534921541137 ], [ -91.211123687256858, 33.702663391855609 ], [ -91.211185064863471, 33.702792030249817 ], [ -91.211245288976684, 33.702920401825331 ], [ -91.211275551673268, 33.703051129360681 ], [ -91.211333252099877, 33.703180150827926 ] ] } },
{ "type": "Feature", "properties": { "station_id": 10, "station_ft": 2288.0, "width_ft": 2425.2, "flag": "ok", "lon": -91.205954, "lat": 33.699457, "survey_id": "LM_13_OZE_20210508_CS_5746_5698", "date": "2021-05-08 00:00:00+00:00", "method": "lines" }, "geometry": { "type": "LineString", "coordinates": [ [ -91.205144707566191, 33.696816503428153 ], [ -91.205187439321847, 33.696926507518157 ], [ -91.205218004220782, 33.697062126604237 ], [ -91.20525661106538, 33.697196534898879 ], [ -91.205314423673954, 33.697325036606017 ], [ -91.205354068773005, 33.69745809057315 ], [ -91.205365504662396, 33.697597444638347 ], [ -91.205410179264504, 33.697730463078365 ], [ -91.205479555673534, 33.697858031069288 ], [ -91.205513819559556, 33.697992002900726 ], [ -91.205570779437508, 33.698120564578538 ], [ -91.205587477903393, 33.698260184379791 ], [ -91.2056342789746, 33.698392005733282 ], [ -91.20568136044777, 33.698522314036886 ], [ -91.205728238722202, 33.698655234729181 ], [ -91.20576686504036, 33.698788213675222 ], [ -91.205778169123704, 33.698927458603428 ], [ -91.205829115353893, 33.699059525571549 ], [ -91.205906158879515, 33.699184264068457 ], [ -91.205936029415724, 33.699319392848302 ], [ -91.2059536961915, 33.699457081755185 ], [ -91.205999037883032, 33.699590810167173 ], [ -91.206038606579483, 33.699722600372993 ], [ -91.206082226735546, 33.699855020995024 ], [ -91.20614438434545, 33.69998376651855 ], [ -91.20616111398337, 33.700123028042192 ], [ -91.206201512299927, 33.700255527271516 ], [ -91.206249166050384, 33.70038687528934 ], [ -91.206292067057859, 33.700519686775145 ], [ -91.206330400154783, 33.700652721657342 ], [ -91.206382780803807, 33.700783405101916 ], [ -91.206414634331352, 33.700919398746109 ], [ -91.206453953900294, 33.701052345464241 ], [ -91.206506041390199, 33.701183222051299 ], [ -91.206547107887886, 33.701316623402384 ], [ -91.206581870090787, 33.701450920391309 ], [ -91.206622857974651, 33.701583030301649 ], [ -91.206658281389849, 33.701717515525168 ], [ -91.20670682719755, 33.701849241990615 ], [ -91.20674704231557, 33.701982869260142 ], [ -91.206789024069309, 33.702115713171054 ], [ -91.2068224710696, 33.702249910277246 ], [ -91.206850447482296, 33.702385959130126 ], [ -91.206891678234086, 33.702519276224621 ], [ -91.206948358612905, 33.70264891198596 ], [ -91.206990004816404, 33.702781044131108 ], [ -91.207035399354027, 33.702913150649124 ], [ -91.207099306230447, 33.703042130258133 ], [ -91.207134034037196, 33.703175960266364 ], [ -91.207159096135612, 33.703313238654495 ], [ -91.20720380309362, 33.703445459049568 ], [ -91.207252271891548, 33.703575894731934 ], [ -91.207296923118037, 33.703709187457108 ], [ -91.207338944791161, 33.703842498766889 ], [ -91.207374098511025, 33.703976133634725 ] ] } },
{ "type": "Feature", "properties": { "station_id": 11, "station_ft": 1243.2, "width_ft": 2293.5, "flag": "ok", "lon": -91.202873, "lat": 33.700812, "survey_id": "LM_13_OZE_20210508_CS_5746_5698", "date": "2021-05-08 00:00:00+00:00", "method": "lines" }, "geometry": { "type": "LineString", "coordinates": [ [ -91.202202967260689, 33.697842234691493 ], [ -91.202258600779246, 33.697973473246144 ], [ -91.202279128638722, 33.698108723698724 ], [ -91.202299717647549, 33.698246612640069 ], [ -91.202318150193477, 33.698382646865419 ], [ -91.202376744140409, 33.698514002468904 ], [ -91.202388322192959, 33.698651651841018 ], [ -91.202423496676488, 33.698785123179398 ], [ -91.202448286678333, 33.698922295519722 ], [ -91.202480973394415, 33.699056883362339 ], [ -91.202513530817498, 33.699191582094983 ], [ -91.20255347551408, 33.699325266852263 ], [ -91.202568225374932, 33.699461217831761 ], [ -91.202572753968312, 33.699600702793504 ], [ -91.202657703366995, 33.699727503724276 ], [ -91.202683406843036, 33.699863844617369 ], [ -91.202715370032223, 33.699998382466681 ], [ -91.202757123428825, 33.700132082355267 ], [ -91.202744136344009, 33.700272350519853 ], [ -91.202763698560517, 33.700409366609613 ], [ -91.202795113631879, 33.700544925263543 ], [ -91.202833807940792, 33.700678371659542 ], [ -91.20287303069081, 33.700812116349269 ], [ -91.202901024153292, 33.700947314074128 ], [ -91.20292238123146, 33.701082998475002 ], [ -91.20297668474511, 33.701215729973327 ], [ -91.20299526121461, 33.701352807936424 ], [ -91.203017704462965, 33.701488567608799 ], [ -91.203047903943258, 33.701624051780698 ], [ -91.203084460816939, 33.701757458119424 ], [ -91.203109869308108, 33.701893828894448 ], [ -91.203139044826131, 33.702028826176658 ], [ -91.203171736946388, 33.702163715741428 ], [ -91.203198026753668, 33.702299420325247 ], [ -91.203230257935331, 33.702434149025258 ], [ -91.203250998631333, 33.702570551721074 ], [ -91.20327502175499, 33.702706409279713 ], [ -91.203307969243511, 33.702840472947607 ], [ -91.203362001914769, 33.702972272095451 ], [ -91.203368392651697, 33.703110452760463 ], [ -91.203390480930025, 33.703246736832661 ], [ -91.203441821841665, 33.703378884870489 ], [ -91.203455410348056, 33.703516793934881 ], [ -91.20348491488356, 33.703651678780787 ], [ -91.203521614380364, 33.703786018866921 ], [ -91.203547239841939, 33.703920986012292 ], [ -91.203570051867629, 33.70405731902683 ], [ -91.203607904240201, 33.704191815041675 ], [ -91.203636527097558, 33.704327256007709 ], [ -91.203654024411179, 33.704464643421083 ], [ -91.203668185720517, 33.704600680325726 ], [ -91.203711826245652, 33.704735218457763 ] ] } },
{ "type": "Feature", "properties": { "station_id": 12, "station_ft": 220.1, "width_ft": 2050.0, "flag": "ok", "lon": -91.199371, "lat": 33.700588, "survey_id": "LM_13_OZE_20210508_CS_5746_5698", "date": "2021-05-08 00:00:00+00:00", "method": "lines" }, "geometry": { "type": "LineString", "coordinates": [ [ -91.199097424148178, 33.698716830531545 ], [ -91.199106535611122, 33.698815668266114 ], [ -91.199144121742023, 33.6989507997164 ], [ -91.19916077581135, 33.699086902802676 ], [ -91.199184032886635, 33.699222629626185 ], [ -91.199191956604892, 33.699360249942551 ], [ -91.199206132177125, 33.699498403447862 ], [ -91.199237635860598, 33.699633495438789 ], [ -91.199259480555213, 33.699769259181103 ], [ -91.199256492530523, 33.699907285942956 ], [ -91.199277311910635, 33.700045667839049 ], [ -91.199337247097148, 33.700176658453429 ], [ -91.199349697512076, 33.700313230020612 ], [ -91.199359065015074, 33.700450648141413 ], [ -91.199371224946759, 33.700587716703829 ], [ -91.199388546559618, 33.700724914064743 ], [ -91.199415087604123, 33.700860067815967 ], [ -91.199449291957563, 33.700995470760979 ], [ -91.199443422190711, 33.701134588779681 ], [ -91.199455400463236, 33.701273307580713 ], [ -91.199483386275716, 33.70140825913699 ], [ -91.199517651247902, 33.701543111659554 ], [ -91.199526428392716, 33.701680560924153 ], [ -91.199559568421364, 33.701814762260476 ], [ -91.199575088389381, 33.701952521259265 ], [ -91.199597558781264, 33.702088171403325 ], [ -91.19959841513689, 33.702225923225789 ], [ -91.199615865751113, 33.702362679637453 ], [ -91.199636540478252, 33.702499743411636 ], [ -91.199663154667675, 33.702635529459513 ], [ -91.199673239580306, 33.702772227515176 ], [ -91.199686593322852, 33.702910249602354 ], [ -91.199710238305499, 33.703044983572937 ], [ -91.1997447459771, 33.703181126250463 ], [ -91.199765110114356, 33.703316543170637 ], [ -91.199762467336342, 33.703456106436413 ], [ -91.199782863934857, 33.703591523119258 ], [ -91.199818280407513, 33.70372639447065 ], [ -91.199851095499071, 33.703860762942668 ], [ -91.19987318371372, 33.703997678781413 ], [ -91.199883268342987, 33.70413429474435 ], [ -91.199894905864284, 33.704271613860755 ], [ -91.199914392202686, 33.704407971824523 ], [ -91.199957658574135, 33.704541936052046 ], [ -91.199965758100674, 33.704680544888681 ], [ -91.199991316374295, 33.704815897343892 ] ] } },
{ "type": "Feature", "properties": { "station_id": 13, "station_ft": -795.8, "width_ft": 1914.7, "flag": "ok", "lon": -91.19594, "lat": 33.700566, "survey_id": "LM_13_OZE_20210508_CS_5746_5698", "date": "2021-05-08 00:00:00+00:00", "method": "lines" }, "geometry": { "type": "LineString", "coordinates": [ [ -91.195776029992246, 33.699060399304116 ], [ -91.19580951596943, 33.699196990339864 ], [ -91.195806351615957, 33.699334331305622 ], [ -91.195826258714447, 33.699470933281795 ], [ -91.195855528346101, 33.699606646740627 ], [ -91.195859110450257, 33.699744682596268 ], [ -91.195843072728124, 33.699883459490493 ], [ -91.195882295017597, 33.700018278498554 ], [ -91.195885085473506, 33.700156099885625 ], [ -91.195902532190928, 33.700293103982624 ], [ -91.195927238035878, 33.700429426280579 ], [ -91.195939520831402, 33.700566274385764 ], [ -91.195922465495144, 33.700705223367251 ], [ -91.19594657029117, 33.70084064285787 ], [ -91.195984166182541, 33.700977149202842 ], [ -91.195987245514942, 33.701114171550529 ], [ -91.195984056792511, 33.701252391688449 ], [ -91.195996634520355, 33.701389045672073 ], [ -91.196003274006671, 33.701526978087841 ], [ -91.196005506041885, 33.701664803336705 ], [ -91.196034765231971, 33.701799361845211 ], [ -91.196049685483487, 33.701936823495608 ], [ -91.196061772185033, 33.702073755867204 ], [ -91.196069684975328, 33.702210744431703 ], [ -91.19607852499044, 33.702348440568485 ], [ -91.196099091285618, 33.702485038723346 ], [ -91.196107883921087, 33.702621224133679 ], [ -91.196111265427007, 33.702758876337661 ], [ -91.196129020760168, 33.702897088103661 ], [ -91.196138117829975, 33.703034150416627 ], [ -91.196144092620258, 33.70317137247519 ], [ -91.196164553121363, 33.703307174340686 ], [ -91.196175818603066, 33.703444139451513 ], [ -91.19618495009118, 33.70358128445293 ], [ -91.196196648287057, 33.703718796496716 ], [ -91.196214513324762, 33.703854781458809 ], [ -91.19622185144371, 33.703993477070377 ], [ -91.196238002001948, 33.704128979030926 ], [ -91.196249930384084, 33.704266407404582 ], [ -91.196261162422218, 33.704403234776386 ], [ -91.196264880419847, 33.704541489544141 ], [ -91.19627104966186, 33.704678380224415 ], [ -91.196294311600568, 33.704814876512337 ], [ -91.196318556737197, 33.704950981850466 ], [ -91.196316845540665, 33.705082321548076 ] ] } },
{ "type": "Feature", "properties": { "station_id": 14, "station_ft": -1791.4, "width_ft": 2029.6, "flag": "ok", "lon": -91.192527, "lat": 33.700583, "survey_id": "LM_13_OZE_20210508_CS_5746_5698", "date": "2021-05-08 00:00:00+00:00", "method": "lines" }, "geometry": { "type": "LineString", "coordinates": [ [ -91.192388112176261, 33.69883074662836 ], [ -91.192390220310998, 33.698936888646713 ], [ -91.192431621626667, 33.699073177672112 ], [ -91.192432593065888, 33.699210433942461 ], [ -91.192443037175522, 33.699348010212169 ], [ -91.192452032776842, 33.699485486558096 ], [ -91.192468218340025, 33.699621840918425 ], [ -91.192482179268723, 33.699759336819341 ], [ -91.192480884758893, 33.699896829719648 ], [ -91.19246864070152, 33.700034206728944 ], [ -91.192477377904282, 33.700172150971525 ], [ -91.19250960248192, 33.700307981742213 ], [ -91.192527504176041, 33.700444956147678 ], [ -91.192526839732096, 33.700582994615246 ], [ -91.19251010103612, 33.700721363959346 ], [ -91.192507942767179, 33.700857900859219 ], [ -91.19252489385012, 33.700995156845721 ], [ -91.192547996296355, 33.701132809112387 ], [ -91.192565722832143, 33.701268740680021 ], [ -91.19257366889434, 33.70140638835943 ], [ -91.192565243686275, 33.701544232850374 ], [ -91.192555694181493, 33.701681398153276 ], [ -91.192550849053973, 33.701818915707392 ], [ -91.192560346848651, 33.701957267536173 ], [ -91.19258347542366, 33.702094150542344 ], [ -91.192597099852065, 33.702230825568662 ], [ -91.19260992956012, 33.702366873208447 ], [ -91.192613580688928, 33.702505732706996 ], [ -91.192610345996286, 33.70264312905018 ], [ -91.192600834853806, 33.702780898125297 ], [ -91.192610115500742, 33.702917136329866 ], [ -91.19262184706686, 33.703055224655344 ], [ -91.19262883721413, 33.703192604858884 ], [ -91.192637763472604, 33.703329641612491 ], [ -91.19264935151503, 33.7034664128131 ], [ -91.19265775037772, 33.703603343234676 ], [ -91.19266467704017, 33.703740943850633 ], [ -91.192668997324489, 33.703877544709904 ], [ -91.192678620639853, 33.704015236552323 ], [ -91.192692422652314, 33.704153118404932 ], [ -91.192695431467726, 33.704290169250086 ], [ -91.192701139095348, 33.704427530393914 ], [ -91.192700000231412, 33.704564143068701 ], [ -91.192706900998274, 33.704702374946471 ], [ -91.192713458853049, 33.704839208150439 ], [ -91.19272416284862, 33.704976425429926 ], [ -91.192750216512422, 33.705113040947012 ], [ -91.192764238756538, 33.705249932199294 ], [ -91.192758074630817, 33.705387018888246 ], [ -91.192789790716859, 33.70552439108625 ], [ -91.192785925742271, 33.705661187693373 ], [ -91.19278985982767, 33.705798726129984 ] ] } },
{ "type": "Feature", "properties": { "station_id": 15, "station_ft": -2848.2, "width_ft": 1939.1, "flag": "ok", "lon": -91.189066, "lat": 33.700856, "survey_id": "LM_13_OZE_20210508_CS_5746_5698", "date": "2021-05-08 00:00:00+00:00", "method": "lines" }, "geometry": { "type": "LineString", "coordinates": [ [ -91.188999700422229, 33.699209444665492 ], [ -91.188970846700769, 33.699346661450846 ], [ -91.189000549554365, 33.69948418671126 ], [ -91.189032380985466, 33.699620762277007 ], [ -91.189012960183362, 33.699757666692108 ], [ -91.188998423336955, 33.699896405350344 ], [ -91.189007833288329, 33.700033136209662 ], [ -91.189054565455365, 33.700170351448698 ], [ -91.189043167134471, 33.700307309377891 ], [ -91.189024410973943, 33.700445005273522 ], [ -91.189023115598559, 33.700582965195935 ], [ -91.189047813971897, 33.700719618988586 ], [ -91.18906583451755, 33.700855960200833 ], [ -91.189056952443224, 33.700994742617361 ], [ -91.189061791794103, 33.701131313070348 ], [ -91.18906591614828, 33.701268768416114 ], [ -91.189065147482836, 33.70140675171934 ], [ -91.189082881964993, 33.701544030735541 ], [ -91.189087664873469, 33.701681535604038 ], [ -91.189081351997672, 33.701817469242421 ], [ -91.189085909824357, 33.701955443584637 ], [ -91.189109862438627, 33.702093091531367 ], [ -91.189118590751406, 33.702230651999663 ], [ -91.189116133494437, 33.702367382962798 ], [ -91.189109744568299, 33.702505653111075 ], [ -91.189114230983947, 33.702643050919391 ], [ -91.18912794518269, 33.702779422810671 ], [ -91.189137171981017, 33.702917418878371 ], [ -91.189139869436659, 33.703053455060477 ], [ -91.189125915273223, 33.703191365582654 ], [ -91.189119757148546, 33.703329633213293 ], [ -91.189130420922893, 33.703466658228926 ], [ -91.189152496414408, 33.703603907112004 ], [ -91.189154977552136, 33.703741400830204 ], [ -91.18916317078218, 33.703877947981283 ], [ -91.189159210367137, 33.704015706306471 ], [ -91.189158432393626, 33.704152728528548 ], [ -91.189167787502114, 33.704290476640182 ], [ -91.189185067427914, 33.704428170743981 ], [ -91.189194943273492, 33.704565338227397 ], [ -91.189196359790074, 33.704701521188198 ], [ -91.189183891947934, 33.704840080439979 ], [ -91.189196630331509, 33.704977420117849 ], [ -91.189199176066509, 33.705114776316478 ], [ -91.189207967179541, 33.705251869254816 ], [ -91.189218429105978, 33.705388401550188 ], [ -91.189211409410305, 33.705526043098907 ], [ -91.189205441383621, 33.705663568266573 ], [ -91.189255915454638, 33.707324480489262 ], [ -91.189253274301436, 33.707436123442982 ], [ -91.189276708227197, 33.707574351827596 ], [ -91.189290756448628, 33.707711105343684 ], [ -91.189298431639003, 33.707848315941185 ] ] } },
{ "type": "Feature", "properties": { "station_id": 16, "station_ft": -4022.5, "width_ft": 1791.5, "flag": "ok", "lon": -91.185491, "lat": 33.700933, "survey_id": "LM_13_OZE_20210508_CS_5746_5698", "date": "2021-05-08 00:00:00+00:00", "method": "lines" }, "geometry": { "type": "LineString", "coordinates": [ [ -91.185346643052938, 33.69903359229415 ], [ -91.185369356061258, 33.699149622494097 ], [ -91.18537586850195, 33.699286483673866 ], [ -91.185377686767424, 33.699424010136319 ], [ -91.185399850554944, 33.699560983346011 ], [ -91.18541807032382, 33.699698121693487 ], [ -91.185421325021707, 33.699834621253906 ], [ -91.185440177261796, 33.699972552227173 ], [ -91.185435324891728, 33.700110481710148 ], [ -91.185437434764452, 33.700247594118608 ], [ -91.18545844911624, 33.700384685218495 ], [ -91.185466596924599, 33.700520546049241 ], [ -91.185475351036814, 33.700657942595413 ], [ -91.185479966352119, 33.700795778808228 ], [ -91.185490621778797, 33.700932584317876 ], [ -91.185483242332452, 33.701070861192271 ], [ -91.185500180691648, 33.701208063326554 ], [ -91.185510569235461, 33.701344485690534 ], [ -91.185519319186213, 33.701481442271259 ], [ -91.185540525699452, 33.701617954988933 ], [ -91.185535644088958, 33.701756187572357 ], [ -91.18553361072621, 33.701893272625718 ], [ -91.185554468524373, 33.702031051753707 ], [ -91.185563815409139, 33.702168471216211 ], [ -91.185561774777881, 33.7023048152111 ], [ -91.185554760782622, 33.702443501561206 ], [ -91.185566892393112, 33.702579994812176 ], [ -91.185583243133408, 33.702717502982146 ], [ -91.185590707906428, 33.702854055468002 ], [ -91.185594178684184, 33.702992504483184 ], [ -91.185595098669111, 33.703128910078775 ], [ -91.185619496084797, 33.703265483673611 ], [ -91.185634364468385, 33.703402727065033 ], [ -91.185623894584367, 33.703541107259802 ], [ -91.185626600114048, 33.703678517507086 ], [ -91.185637679576729, 33.70381493593726 ], [ -91.185649399343305, 33.70395294303907 ], [ -91.185661966640225, 33.704090147291019 ], [ -91.185669069291038, 33.704226703140449 ], [ -91.18568439310971, 33.70436339429753 ], [ -91.185691082791067, 33.704501381093081 ], [ -91.185705780813265, 33.704638048609837 ], [ -91.185707967496384, 33.704776204411296 ], [ -91.185710564764335, 33.704912570443106 ], [ -91.185725076909165, 33.70505028416266 ], [ -91.18574125202403, 33.705186639439916 ], [ -91.185734295835601, 33.705324500390958 ], [ -91.185729780964124, 33.705463252384575 ], [ -91.185753750288896, 33.705599745903356 ], [ -91.185772909085287, 33.705735201532541 ], [ -91.185789912059064, 33.705872018092805 ], [ -91.185780442493908, 33.70601184739683 ], [ -91.185791520141009, 33.706148018737416 ], [ -91.185822596864398, 33.706284985192177 ], [ -91.185825719188273, 33.706421293468544 ], [ -91.185829183275587, 33.706558890446729 ], [ -91.185842338370563, 33.706695678538871 ], [ -91.185846269342051, 33.706833904296062 ], [ -91.185851892667031, 33.706970470280723 ], [ -91.185861105876967, 33.707107560548401 ], [ -91.185879847292711, 33.707243952140821 ], [ -91.18586481037309, 33.70738269377177 ], [ -91.185894272892924, 33.707519232247883 ], [ -91.185917283054025, 33.707655073247992 ], [ -91.186026473089399, 33.710066505883475 ], [ -91.186065027884013, 33.710178057299991 ], [ -91.186082495405998, 33.710315117537824 ], [ -91.186059110222359, 33.710454246739481 ], [ -91.186083273331974, 33.710590161720631 ], [ -91.186077246293124, 33.710728896099376 ], [ -91.186113042414775, 33.710864071700357 ], [ -91.186144574525954, 33.71100026576066 ], [ -91.186123098633843, 33.711139600861529 ], [ -91.186111471071385, 33.711277191925348 ], [ -91.186147470336877, 33.711412916063367 ] ] } },
{ "type": "Feature", "properties": { "station_id": 17, "station_ft": -4916.2, "width_ft": 1742.3, "flag": "ok", "lon": -91.182009, "lat": 33.701093, "survey_id": "LM_13_OZE_20210508_CS_5746_5698", "date": "2021-05-08 00:00:00+00:00", "method": "lines" }, "geometry": { "type": "LineString", "coordinates": [ [ -91.181783835329213, 33.699455284718432 ], [ -91.181811145268327, 33.699591179245324 ], [ -91.181847833546925, 33.699724701298159 ], [ -91.181826072431832, 33.699865549848774 ], [ -91.181854951913124, 33.700000554532892 ], [ -91.181885478231337, 33.700135959917738 ], [ -91.18191055725363, 33.700272447642426 ], [ -91.181917987077597, 33.700409467714898 ], [ -91.181947246874287, 33.700546365777257 ], [ -91.181949309959592, 33.700682681606743 ], [ -91.181978502216509, 33.700819387179997 ], [ -91.18198160085781, 33.700957344881886 ], [ -91.182008973103606, 33.701092798925849 ], [ -91.182035428917459, 33.701228837170071 ], [ -91.182060440030199, 33.701364940327039 ], [ -91.182089547469673, 33.701499668368072 ], [ -91.182089396761, 33.701638114493285 ], [ -91.182118706062795, 33.701773391098364 ], [ -91.182123919093783, 33.701912323280951 ], [ -91.182133610480903, 33.702048585759925 ], [ -91.182160920807576, 33.702184371047665 ], [ -91.182193225203221, 33.702319901121527 ], [ -91.182211438136903, 33.702456792934747 ], [ -91.182225082906811, 33.702593798177276 ], [ -91.182236257405634, 33.702730463364119 ], [ -91.182262452562824, 33.702866557403006 ], [ -91.182266971016347, 33.703005027306936 ], [ -91.182291971984057, 33.703140003463872 ], [ -91.182315997983409, 33.703276195333558 ], [ -91.182328066668404, 33.703413486358485 ], [ -91.18234289290298, 33.70355026345856 ], [ -91.182370370734475, 33.703686321590197 ], [ -91.182378718540448, 33.703823006165308 ], [ -91.182394502508629, 33.703960188689024 ], [ -91.18240476661164, 33.704097794122873 ], [ -91.182425532887876, 33.704233404292545 ], [ -91.182454551917985, 33.70436906681892 ], [ -91.182471059091938, 33.704506272296889 ], [ -91.182480889497626, 33.704643193687161 ], [ -91.182511328559684, 33.704779424341588 ], [ -91.182536626300234, 33.704914425410614 ], [ -91.182556971810982, 33.705050752482038 ], [ -91.182551169576897, 33.705189430314412 ], [ -91.182559269279963, 33.705327600549211 ], [ -91.182589104641522, 33.705462625394965 ], [ -91.182639973894211, 33.705596626572614 ], [ -91.182626518447321, 33.705736209008933 ], [ -91.182650868017049, 33.705871711517119 ], [ -91.182656925769294, 33.706009427847661 ], [ -91.182680629929607, 33.706146198797228 ], [ -91.183547010396254, 33.712571821856876 ], [ -91.183562405025597, 33.712672403443733 ], [ -91.18358823857416, 33.712808032413385 ], [ -91.183600375665989, 33.712945102620992 ], [ -91.183618524389729, 33.713081664421082 ], [ -91.183641599804616, 33.71321753234178 ], [ -91.183659001127353, 33.713354979216298 ], [ -91.1836866077102, 33.713490293911917 ], [ -91.183697400150933, 33.71362773037616 ] ] } },
{ "type": "Feature", "properties": { "station_id": 18, "station_ft": -5903.2, "width_ft": 1633.9, "flag": "ok", "lon": -91.178416, "lat": 33.701417, "survey_id": "LM_13_OZE_20210508_CS_5746_5698", "date": "2021-05-08 00:00:00+00:00", "method": "lines" }, "geometry": { "type": "LineString", "coordinates": [ [ -91.178075807066904, 33.699527824770954 ], [ -91.178114405438592, 33.699648803829696 ], [ -91.178136685347184, 33.699785365619803 ], [ -91.178132720539281, 33.699924469924099 ], [ -91.178167635484442, 33.70005866519594 ], [ -91.178200385792309, 33.700193424321668 ], [ -91.178220917342315, 33.700329421026744 ], [ -91.178254754799724, 33.700464365634048 ], [ -91.178271382782228, 33.700601241017004 ], [ -91.178288111668436, 33.700738280693614 ], [ -91.178310458503603, 33.700874896962752 ], [ -91.178328239953743, 33.701012011471533 ], [ -91.178357840299043, 33.701147342040962 ], [ -91.178379878372183, 33.701282696380709 ], [ -91.178415811151496, 33.701416636647842 ], [ -91.178447883134098, 33.70155252728906 ], [ -91.178438723422801, 33.701691585055414 ], [ -91.178479146161408, 33.701827418553137 ], [ -91.178521079153839, 33.701959723727811 ], [ -91.178548447422116, 33.702095399476107 ], [ -91.178556893580009, 33.702232632788075 ], [ -91.178572372635458, 33.702369625939056 ], [ -91.178604442557855, 33.702505241545502 ], [ -91.17861134777776, 33.702642953308541 ], [ -91.178636646540156, 33.702778752271605 ], [ -91.178691039737913, 33.702910780062737 ], [ -91.178711251361705, 33.703047548755649 ], [ -91.178720261482965, 33.703185273141678 ], [ -91.178737839482281, 33.703321646922006 ], [ -91.17876280806685, 33.703457283111355 ], [ -91.17878971586201, 33.703592769881084 ], [ -91.178814883887355, 33.703728596724609 ], [ -91.178844851134457, 33.703864309568623 ], [ -91.178863811227075, 33.704000783846602 ], [ -91.178877419440909, 33.704137982657883 ], [ -91.178910134255332, 33.704272136766974 ], [ -91.178937145287421, 33.704408088893942 ], [ -91.178967280977318, 33.704544212559675 ], [ -91.178983376289409, 33.7046801294006 ], [ -91.179005553889724, 33.704816087542682 ], [ -91.179028651918912, 33.704951956430385 ], [ -91.179062952378658, 33.70508681457558 ], [ -91.179076896300941, 33.705224753040163 ], [ -91.179099893713115, 33.705360347610387 ], [ -91.179129106961241, 33.705496174595339 ], [ -91.179150061568109, 33.705631454058945 ], [ -91.179170467733314, 33.705767671309225 ], [ -91.179194262848242, 33.705904167376339 ], [ -91.179234636061793, 33.706038022778372 ], [ -91.179260430944353, 33.706173928119043 ], [ -91.179275480229819, 33.706310457004562 ], [ -91.179309586686401, 33.706445563406085 ], [ -91.179324611825308, 33.70658291648931 ], [ -91.179355658557384, 33.706717851789016 ], [ -91.179390874201346, 33.706852071518384 ], [ -91.179424480035934, 33.706986467249749 ], [ -91.179407881054388, 33.707127911911954 ], [ -91.179438008283327, 33.707262880521995 ], [ -91.180734702561054, 33.714442380878445 ], [ -91.180756132512641, 33.71457853561634 ], [ -91.180779298544095, 33.714714046427709 ], [ -91.180804414278626, 33.714850560835494 ], [ -91.180832274205642, 33.714985269473203 ], [ -91.180861038533479, 33.715121648833666 ] ] } },
{ "type": "Feature", "properties": { "station_id": 19, "station_ft": -6827.6, "width_ft": 1594.0, "flag": "ok", "lon": -91.174995, "lat": 33.701446, "survey_id": "LM_13_OZE_20210508_CS_5746_5698", "date": "2021-05-08 00:00:00+00:00", "method": "lines" }, "geometry": { "type": "LineString", "coordinates": [ [ -91.174649362759979, 33.700102488644404 ], [ -91.174657627046486, 33.700241977516448 ], [ -91.174711924737736, 33.700371863866174 ], [ -91.174737122237445, 33.700508049400767 ], [ -91.174765601218738, 33.700643690559531 ], [ -91.174805759532731, 33.700776614123875 ], [ -91.174840211545131, 33.700911060546609 ], [ -91.17488535868614, 33.70104318014274 ], [ -91.174922932430064, 33.70117738528262 ], [ -91.174956366851916, 33.701311975634368 ], [ -91.174995350062289, 33.701445787067982 ], [ -91.175020543525903, 33.701581587566871 ], [ -91.175057943322471, 33.701714831847191 ], [ -91.175083634731422, 33.701851013908701 ], [ -91.17512471392989, 33.701983904012558 ], [ -91.17515648033212, 33.70211938469658 ], [ -91.175204784404244, 33.702251345587506 ], [ -91.175260232457461, 33.702380949716229 ], [ -91.175276112353544, 33.702519094615198 ], [ -91.175323889940486, 33.702651004039488 ], [ -91.175355644331972, 33.702785083676297 ], [ -91.175388167270867, 33.702920532073669 ], [ -91.175406401406505, 33.703057259835163 ], [ -91.175435472386852, 33.703192676746866 ], [ -91.175477542161318, 33.703325916968865 ], [ -91.175525981168903, 33.703458095863446 ], [ -91.175566271231318, 33.703590881161212 ], [ -91.175593084214412, 33.703727330400184 ], [ -91.175619697476407, 33.703863533056392 ], [ -91.175658311944233, 33.703996356785126 ], [ -91.175690901657035, 33.704131694620443 ], [ -91.175724666166616, 33.704266145389695 ], [ -91.175774242540427, 33.704396943294114 ], [ -91.175800557819841, 33.704532845894889 ], [ -91.175827822956677, 33.704668467927277 ], [ -91.175866482563322, 33.704802417336012 ], [ -91.175913867065844, 33.704934274150226 ], [ -91.175943959673788, 33.70506976686675 ], [ -91.175970594507305, 33.705204650248731 ], [ -91.176011742569159, 33.705337649484676 ], [ -91.176043679429839, 33.705473403665465 ], [ -91.176084203730241, 33.705606351226805 ], [ -91.176122763883214, 33.705740192115499 ], [ -91.176155236483936, 33.705873552507796 ], [ -91.176186081675908, 33.706008600032362 ], [ -91.176222641766032, 33.706142948592017 ], [ -91.176255101644088, 33.706278397096732 ], [ -91.17629947455589, 33.706411456244055 ], [ -91.176333661686925, 33.706545243940646 ], [ -91.176370946574195, 33.706679752484114 ], [ -91.17640332849561, 33.706813800408945 ], [ -91.1764330226856, 33.70694877275568 ], [ -91.176474408553915, 33.707082209234471 ], [ -91.176510269022501, 33.707215628415398 ], [ -91.176553029144685, 33.707348368474406 ], [ -91.176562310633074, 33.70748732806689 ], [ -91.176600811193865, 33.70762163617875 ], [ -91.176620264616389, 33.707758299412212 ], [ -91.176678265224751, 33.707889424315638 ], [ -91.178571680747027, 33.715086526798736 ], [ -91.178572811011435, 33.715087700133793 ], [ -91.178620407352554, 33.715219994131708 ], [ -91.178661565667966, 33.715353101218334 ], [ -91.178699807886417, 33.715487080239775 ], [ -91.178732856696215, 33.715621397724391 ] ] } },
{ "type": "Feature", "properties": { "station_id": 20, "station_ft": -7880.6, "width_ft": 1641.9, "flag": "ok", "lon": -91.171291, "lat": 33.702087, "survey_id": "LM_13_OZE_20210508_CS_5746_5698", "date": "2021-05-08 00:00:00+00:00", "method": "lines" }, "geometry": { "type": "LineString", "coordinates": [ [ -91.170752138715258, 33.700532818633185 ], [ -91.170757470375449, 33.700641741489946 ], [ -91.170846604793866, 33.700763974298376 ], [ -91.17090567824674, 33.700891906903358 ], [ -91.170947833221561, 33.701024543246589 ], [ -91.170960697524123, 33.701164358232994 ], [ -91.171011743351684, 33.701295011186346 ], [ -91.171051613751018, 33.701429394012919 ], [ -91.171105938408715, 33.701559089743519 ], [ -91.171145658826305, 33.701691550473051 ], [ -91.171186081148292, 33.701825187498706 ], [ -91.171243717711121, 33.701953981651059 ], [ -91.171291041345199, 33.702087242746174 ], [ -91.171329412705035, 33.702219464616732 ], [ -91.171380593737112, 33.702350363502148 ], [ -91.171440632753615, 33.702479333285261 ], [ -91.171474094148877, 33.702613759421396 ], [ -91.171513330459035, 33.702747020285052 ], [ -91.171560056121677, 33.702879597402898 ], [ -91.171607623412342, 33.70301074068125 ], [ -91.171652414005862, 33.703143743812035 ], [ -91.171700968256488, 33.703274962392719 ], [ -91.171747547974874, 33.70340589141987 ], [ -91.17179003719545, 33.703538910108357 ], [ -91.171834917714037, 33.703670895561828 ], [ -91.171881633194914, 33.703802319475379 ], [ -91.171933771968924, 33.703933458615737 ], [ -91.1719707813441, 33.704067530509896 ], [ -91.172010608902255, 33.704200540125164 ], [ -91.172060514496238, 33.704331941395139 ], [ -91.172109428220864, 33.704462717366638 ], [ -91.172160867004948, 33.704592900057357 ], [ -91.172212976202744, 33.704724341286564 ], [ -91.17224423981213, 33.704859057056062 ], [ -91.172277258107641, 33.704995052864234 ], [ -91.172323543858113, 33.70512606656505 ], [ -91.172385522782804, 33.705254720597871 ], [ -91.172457425099466, 33.705379157204099 ], [ -91.172500408596818, 33.70551209018732 ], [ -91.172558313147775, 33.705640908839968 ], [ -91.172591398859069, 33.705776986126423 ], [ -91.172628601090778, 33.705910397402064 ], [ -91.172664102315892, 33.706044589269951 ], [ -91.17270439597246, 33.706178062455216 ], [ -91.172755030560481, 33.706309761362483 ], [ -91.172800559756624, 33.706440587047609 ], [ -91.17283983554664, 33.706574177087205 ], [ -91.172880264539074, 33.706707978357059 ], [ -91.172923903111212, 33.706840356736485 ], [ -91.173000944153344, 33.706965637091713 ], [ -91.173051826558861, 33.707095768120944 ], [ -91.173080301835128, 33.707230942536434 ], [ -91.173116866751272, 33.707366336025288 ], [ -91.173170376742448, 33.707496064154761 ], [ -91.173217270839231, 33.707628447319919 ], [ -91.173261000824823, 33.707760027932743 ], [ -91.173308710485017, 33.707891718504392 ], [ -91.173354586194563, 33.708024163527121 ], [ -91.17340567039416, 33.708154622083754 ], [ -91.17345554895897, 33.708286215792157 ], [ -91.173502531950035, 33.70841744419603 ], [ -91.173552335926445, 33.708548104326191 ], [ -91.173598860209097, 33.708679499893478 ], [ -91.173633771966365, 33.708813806305436 ], [ -91.17367826313496, 33.708945765630673 ], [ -91.173725385665747, 33.709077844975177 ], [ -91.173764662036234, 33.709211104659502 ], [ -91.173818506411635, 33.709341159254123 ], [ -91.173861465220725, 33.709474448839458 ], [ -91.173898472652652, 33.709607750956508 ], [ -91.17394419296248, 33.709740883771033 ], [ -91.17609894914284, 33.715793424178429 ], [ -91.176120944951066, 33.715931004895097 ], [ -91.176173285617637, 33.71606126145695 ], [ -91.176236229161788, 33.716189494612728 ], [ -91.176250128046931, 33.716329686533172 ], [ -91.176285641673971, 33.716464206946881 ] ] } },
{ "type": "Feature", "properties": { "station_id": 21, "station_ft": -8849.0, "width_ft": 1524.0, "flag": "ok", "lon": -91.167857, "lat": 33.703059, "survey_id": "LM_13_OZE_20210508_CS_5746_5698", "date": "2021-05-08 00:00:00+00:00", "method": "lines" }, "geometry": { "type": "LineString", "coordinates": [ [ -91.16729169140477, 33.701915705748554 ], [ -91.167376171024102, 33.702036378492416 ], [ -91.167414790042557, 33.702171073903123 ], [ -91.167470803967319, 33.70229916585555 ], [ -91.167540202582074, 33.702424144386548 ], [ -91.167602160981346, 33.702551620017275 ], [ -91.1676679930072, 33.702678298597249 ], [ -91.167721166005208, 33.702808361534181 ], [ -91.16778302945302, 33.702936111784332 ], [ -91.167856913731313, 33.703059136740087 ], [ -91.167933114853142, 33.70318022201689 ], [ -91.167978698745003, 33.703314292244592 ], [ -91.168010623266454, 33.703450159638628 ], [ -91.168073509059369, 33.703578122801105 ], [ -91.168154179780828, 33.703698957736279 ], [ -91.168217451981789, 33.703826011213529 ], [ -91.168276922266926, 33.703954327322805 ], [ -91.168344317694945, 33.704079263890925 ], [ -91.168393076591755, 33.704211691429883 ], [ -91.168445697181895, 33.704342196810877 ], [ -91.168508019438519, 33.704469531523351 ], [ -91.168586132984402, 33.704591043394274 ], [ -91.168646015279379, 33.704717679571807 ], [ -91.16870242072801, 33.704848407168718 ], [ -91.168755592416233, 33.704978028725925 ], [ -91.168812074268573, 33.705106584737287 ], [ -91.168870342132053, 33.705236199718236 ], [ -91.168934434233435, 33.705362807260663 ], [ -91.168999378978441, 33.705489106967462 ], [ -91.169071271064439, 33.705613079531602 ], [ -91.169141090720885, 33.705736900181002 ], [ -91.16919748161996, 33.705866087714504 ], [ -91.169236896744422, 33.706001079077922 ], [ -91.169279291180686, 33.706134704200565 ], [ -91.169343718896073, 33.706261859195727 ], [ -91.169413414011288, 33.706386312522604 ], [ -91.169486283505861, 33.706509260314284 ], [ -91.169546999798698, 33.706636743245134 ], [ -91.16961310322138, 33.706763748797201 ], [ -91.169678106785128, 33.706889223657363 ], [ -91.169733032928633, 33.707019712793887 ], [ -91.169790389128607, 33.707146585429477 ], [ -91.169845574817202, 33.707276660727295 ], [ -91.169900527159442, 33.707406572587125 ], [ -91.169960236814688, 33.707535243175954 ], [ -91.170026550016686, 33.707659939006916 ], [ -91.170086132154665, 33.707789104457255 ], [ -91.170131008437821, 33.70792067845003 ], [ -91.170191374663162, 33.708049234469783 ], [ -91.1702548120697, 33.708175763627729 ], [ -91.170314028776687, 33.708304327367692 ], [ -91.17037870821818, 33.708430078086934 ], [ -91.170443793859732, 33.708556980941651 ], [ -91.170499111205132, 33.708686862071453 ], [ -91.170562053380735, 33.708813064428405 ], [ -91.170620917095633, 33.708942510336946 ], [ -91.170683469107018, 33.709069155240371 ], [ -91.170741930364443, 33.709197777962359 ], [ -91.170796282750601, 33.709326402364567 ], [ -91.170851301554293, 33.709456093299252 ], [ -91.170920774148598, 33.709580795115585 ], [ -91.170985861477774, 33.709707696734178 ], [ -91.171036715005499, 33.70983832281172 ], [ -91.171095441886933, 33.709967082383827 ], [ -91.171157808643315, 33.710094717305545 ], [ -91.171223641968311, 33.710220487646893 ], [ -91.171296658597711, 33.71034431228982 ], [ -91.171337543452267, 33.710477671827263 ], [ -91.171382924355655, 33.710610202943016 ], [ -91.171459193403138, 33.710733731329611 ], [ -91.171524917717448, 33.710817649920692 ], [ -91.174218112693652, 33.716550051127172 ], [ -91.174280451550374, 33.716677272426125 ], [ -91.174328356024731, 33.716808109042255 ], [ -91.174395422867775, 33.716934446087464 ], [ -91.174460680752034, 33.717060905404459 ] ] } },
{ "type": "Feature", "properties": { "station_id": 22, "station_ft": -9770.4, "width_ft": 1849.3, "flag": "ok", "lon": -91.164147, "lat": 33.703395, "survey_id": "LM_13_OZE_20210508_CS_5746_5698", "date": "2021-05-08 00:00:00+00:00", "method": "lines" }, "geometry": { "type": "LineString", "coordinates": [ [ -91.163357701082063, 33.702214283288534 ], [ -91.163406743716521, 33.70232239169458 ], [ -91.163514536632107, 33.702430076422736 ], [ -91.163618354904486, 33.70254158072764 ], [ -91.163665041056447, 33.702674684124524 ], [ -91.163764656330201, 33.702786656521184 ], [ -91.163842297147099, 33.702907762648849 ], [ -91.16390840947679, 33.703033397352343 ], [ -91.16398632238996, 33.703155270602117 ], [ -91.164069555006989, 33.703273150976038 ], [ -91.16414654748435, 33.703395058255254 ], [ -91.16420267914873, 33.703525486909271 ], [ -91.164267950370217, 33.703652501970936 ], [ -91.164349558004361, 33.703772261150043 ], [ -91.164423698473129, 33.703894874431903 ], [ -91.164501981737814, 33.704014161800103 ], [ -91.164588995512219, 33.704131796367307 ], [ -91.164656944776894, 33.704256869203533 ], [ -91.164719766297139, 33.704385329496006 ], [ -91.164777849031395, 33.704513436671974 ], [ -91.164869369970248, 33.704631342718578 ], [ -91.164945692821306, 33.704751687010081 ], [ -91.165037080871429, 33.704865939703382 ], [ -91.165106876885503, 33.704991439805553 ], [ -91.165178523171321, 33.705114371417196 ], [ -91.165253358436559, 33.70523730855404 ], [ -91.165316729463697, 33.705364637830215 ], [ -91.165376880555371, 33.705492290788321 ], [ -91.165459645092568, 33.705612316361368 ], [ -91.165536574572045, 33.705733976085163 ], [ -91.165603604548977, 33.70585886160098 ], [ -91.165681047548802, 33.70597936283928 ], [ -91.165755846643904, 33.706101750822299 ], [ -91.165823292179255, 33.706228722372792 ], [ -91.165893003214094, 33.706351886556945 ], [ -91.16597219312996, 33.706472678753663 ], [ -91.166053806658169, 33.706592519616279 ], [ -91.166129580285357, 33.706713498821763 ], [ -91.16620261205928, 33.706836612477453 ], [ -91.166282755885092, 33.706957343030055 ], [ -91.166355531262766, 33.707081118274189 ], [ -91.16643301597793, 33.707202250727271 ], [ -91.166510438299866, 33.707323713527558 ], [ -91.166588930606466, 33.707443575059848 ], [ -91.166661206719212, 33.707566611472785 ], [ -91.166722582662558, 33.70769472245739 ], [ -91.166791463624875, 33.707820254732106 ], [ -91.166877179868791, 33.707938968293234 ], [ -91.166957937506197, 33.708058375213113 ], [ -91.167024948336987, 33.708184221995992 ], [ -91.167100427857008, 33.708305175489365 ], [ -91.16716777631386, 33.708431981895565 ], [ -91.16725593091509, 33.708547710704501 ], [ -91.167323628696678, 33.708673113600419 ], [ -91.167402629909247, 33.708794373093937 ], [ -91.167478174973567, 33.708915187951064 ], [ -91.167545950850638, 33.709041909199676 ], [ -91.167618197343657, 33.709164945198367 ], [ -91.167690116881815, 33.709288285389135 ], [ -91.167766851470006, 33.709409531990126 ], [ -91.167834035172433, 33.709536064125665 ], [ -91.167908797209847, 33.709657433949516 ], [ -91.16798315117228, 33.70978075840614 ], [ -91.168060306343619, 33.709901232015255 ], [ -91.168132684834731, 33.710024266791848 ], [ -91.168212505383849, 33.710144998167806 ], [ -91.168282544176506, 33.710270795781987 ], [ -91.168356546000794, 33.710391621385405 ], [ -91.168437703903223, 33.710511133639713 ], [ -91.168512902560806, 33.710633187117963 ], [ -91.16858486845517, 33.710757598404754 ], [ -91.168653463336113, 33.710883571442444 ], [ -91.168732809908974, 33.711002766658311 ], [ -91.168817452438077, 33.711122063037351 ], [ -91.168893591938357, 33.711242680892163 ], [ -91.168967850254063, 33.711366086490656 ], [ -91.16903532676362, 33.711491874824496 ], [ -91.169105875400817, 33.711615828347973 ], [ -91.16918523021927, 33.711735627252061 ], [ -91.169258800864512, 33.711859230250731 ], [ -91.169333440699575, 33.711981039030398 ], [ -91.16941479730454, 33.712100385155502 ], [ -91.169487149643231, 33.712223776266441 ], [ -91.172082273018532, 33.716452757443264 ], [ -91.172134527689366, 33.716584857367096 ], [ -91.172221455678894, 33.716701359732582 ], [ -91.172295356581287, 33.716824189460311 ], [ -91.172356258714856, 33.716952712570212 ], [ -91.172442836402581, 33.717070399118938 ], [ -91.172532715118891, 33.717185920116606 ], [ -91.172580195387653, 33.717320635295302 ] ] } },
{ "type": "Feature", "properties": { "station_id": 23, "station_ft": -10609.3, "width_ft": 1816.4, "flag": "ok", "lon": -91.161351, "lat": 33.705677, "survey_id": "LM_13_OZE_20210508_CS_5746_5698", "date": "2021-05-08 00:00:00+00:00", "method": "lines" }, "geometry": { "type": "LineString", "coordinates": [ [ -91.159985677969829, 33.703961284115188 ], [ -91.160079839749514, 33.704074092982424 ], [ -91.160159191581599, 33.704195629054453 ], [ -91.160259762663102, 33.704304739857967 ], [ -91.160346030917253, 33.704420678453694 ], [ -91.160413216647541, 33.704548974728191 ], [ -91.160509498790489, 33.704659927115991 ], [ -91.160609249456371, 33.704769098108834 ], [ -91.160697798419093, 33.70488609315089 ], [ -91.160781974493972, 33.705003090369267 ], [ -91.160882328336314, 33.705113438162925 ], [ -91.160977202897257, 33.705224839568061 ], [ -91.161065575155959, 33.705340517399279 ], [ -91.161164096679769, 33.70545161923247 ], [ -91.161253590336358, 33.705567645531112 ], [ -91.161351404362861, 33.705676911817562 ], [ -91.161457407993865, 33.705782989217589 ], [ -91.161536271193285, 33.705904720556788 ], [ -91.161619243227776, 33.706022824269837 ], [ -91.161714160820353, 33.706135131780186 ], [ -91.161805216379861, 33.706249196154673 ], [ -91.161901196725438, 33.706362595414895 ], [ -91.161998103457563, 33.706473021272643 ], [ -91.162096313701426, 33.706582338373792 ], [ -91.162181594076301, 33.706700948213637 ], [ -91.162270881933267, 33.706815821084561 ], [ -91.162377578202225, 33.706921865958762 ], [ -91.162464283110168, 33.707038102981791 ], [ -91.162555639626859, 33.70715252267847 ], [ -91.16264726061344, 33.707267159612421 ], [ -91.162737795392346, 33.707381556733942 ], [ -91.162831677444942, 33.707495244301313 ], [ -91.162932801874248, 33.707603030078793 ], [ -91.163018930286682, 33.70772075366289 ], [ -91.163111762666205, 33.707834695990613 ], [ -91.163198104691958, 33.707950576974952 ], [ -91.163282164034342, 33.70806856219869 ], [ -91.163362057938357, 33.70819086237595 ], [ -91.163464885920874, 33.708297839247209 ], [ -91.163571451789593, 33.708403663927392 ], [ -91.163664468235936, 33.708516065576582 ], [ -91.163744738842908, 33.708636493977018 ], [ -91.163844014016092, 33.708746572403328 ], [ -91.163928286470679, 33.708865901787917 ], [ -91.164010608519604, 33.708984200194841 ], [ -91.164108770335375, 33.709094642909854 ], [ -91.164210503947203, 33.709203935440641 ], [ -91.16430554787955, 33.70931497507484 ], [ -91.164391249304828, 33.709432344387125 ], [ -91.164483231816078, 33.709546373384008 ], [ -91.164574098875732, 33.709660601851773 ], [ -91.164669061501328, 33.709773401625426 ], [ -91.164763393459538, 33.709885435615902 ], [ -91.164862810401956, 33.709996281273526 ], [ -91.164951806812809, 33.710110852019085 ], [ -91.165034115800751, 33.710230880823865 ], [ -91.165118740554476, 33.71034905384623 ], [ -91.165213536201179, 33.71046127638683 ], [ -91.165317883706194, 33.7105684613866 ], [ -91.165409890433793, 33.710681390460628 ], [ -91.165499331379351, 33.710797495891143 ], [ -91.165582605499324, 33.710915210654953 ], [ -91.165683950465279, 33.711024613616402 ], [ -91.165779307164968, 33.711137024855908 ], [ -91.165868317933658, 33.711252720878882 ], [ -91.165960097143696, 33.711365733095846 ], [ -91.166060396386683, 33.711475775691589 ], [ -91.166152020606546, 33.711589667844898 ], [ -91.166238413519167, 33.711706646154703 ], [ -91.166328630628811, 33.71182123466248 ], [ -91.166424534319489, 33.71193224062813 ], [ -91.166522022038734, 33.712043701947785 ], [ -91.166608250075413, 33.712160599050598 ], [ -91.16669257989534, 33.71227830499285 ], [ -91.166788630243047, 33.712390765724123 ], [ -91.1668824143687, 33.712503350761679 ], [ -91.166979506909556, 33.71261476027157 ], [ -91.167074531967643, 33.712726430690132 ], [ -91.167168484004634, 33.712839345245115 ], [ -91.167248861243209, 33.712959715493383 ], [ -91.167336793579693, 33.713075830597127 ], [ -91.167439911279487, 33.71318431307872 ], [ -91.167530001811656, 33.713299094448494 ], [ -91.167615705516042, 33.71341593844555 ], [ -91.167709951682355, 33.713528548547352 ], [ -91.167796389293571, 33.713646266494706 ], [ -91.167883405007032, 33.713762717355884 ], [ -91.167994660453914, 33.713865923307395 ], [ -91.168070195593685, 33.713988496712403 ], [ -91.168166014567433, 33.714100407909619 ], [ -91.168260952884353, 33.714213039935352 ], [ -91.168350093293938, 33.714327964132714 ], [ -91.168449474880887, 33.714437597960895 ], [ -91.168532837573579, 33.7145568760508 ], [ -91.168629016004004, 33.714668345367492 ], [ -91.168719369447899, 33.714782766110197 ], [ -91.168815418077457, 33.714894483184636 ], [ -91.168903970887996, 33.715009740910915 ], [ -91.169000578301223, 33.715121289063582 ], [ -91.169083711312467, 33.715240430368652 ], [ -91.169176680333663, 33.715353212014918 ], [ -91.169279216447208, 33.71546227472777 ], [ -91.169367481270072, 33.715578193105834 ], [ -91.169450671194127, 33.715696317680305 ], [ -91.16954672099763, 33.715807951199643 ], [ -91.169634853065546, 33.71592367823628 ], [ -91.169731727285978, 33.716035388966702 ], [ -91.169822895821412, 33.716148897244061 ], [ -91.169915458271589, 33.716263495035349 ], [ -91.170004801253981, 33.716378498635763 ], [ -91.170104879636597, 33.716488319276074 ], [ -91.170194021690534, 33.716602912070286 ], [ -91.17028655142299, 33.716717482741053 ], [ -91.170356075725834, 33.716792829110425 ] ] } },
{ "type": "Feature", "properties": { "station_id": 24, "station_ft": -11675.0, "width_ft": 1954.7, "flag": "ok", "lon": -91.158519, "lat": 33.707538, "survey_id": "LM_13_OZE_20210508_CS_5746_5698", "date": "2021-05-08 00:00:00+00:00", "method": "lines" }, "geometry": { "type": "LineString", "coordinates": [ [ -91.15692896801157, 33.70595987205224 ], [ -91.157029737190996, 33.706069259134679 ], [ -91.157147324142571, 33.70616655193048 ], [ -91.157254424310963, 33.706270785523806 ], [ -91.157353032896353, 33.706381120781941 ], [ -91.157472320625629, 33.706477384925414 ], [ -91.157584841842421, 33.706577734095298 ], [ -91.157680667402559, 33.706689131683504 ], [ -91.157777551726994, 33.706801347075469 ], [ -91.157889554712526, 33.7069023593737 ], [ -91.157996951434868, 33.707006617363675 ], [ -91.158107169150327, 33.707106678484706 ], [ -91.158207461617025, 33.707217469707146 ], [ -91.158314169829382, 33.707321731105701 ], [ -91.158411080203209, 33.707433011762497 ], [ -91.158518548486583, 33.707537735821283 ], [ -91.15862070441645, 33.707643841338822 ], [ -91.158726074506362, 33.707749074196563 ], [ -91.15884224201551, 33.707848765800023 ], [ -91.15895260812708, 33.707950365047722 ], [ -91.159055416485657, 33.708055888816318 ], [ -91.159150797097539, 33.708168552201457 ], [ -91.159253173275005, 33.708276882609454 ], [ -91.159363547783528, 33.708379250468333 ], [ -91.159462513392839, 33.708488592538473 ], [ -91.159576343202374, 33.708587639100287 ], [ -91.159672220689217, 33.708700573721657 ], [ -91.15977109206041, 33.708810246142264 ], [ -91.159892350643815, 33.708905642678332 ], [ -91.159999472773379, 33.709008197600255 ], [ -91.160094009509692, 33.709121717863844 ], [ -91.160194983821057, 33.709231099969351 ], [ -91.16030081283705, 33.70933586133269 ], [ -91.160412495678116, 33.709437257467179 ], [ -91.160512581939216, 33.709546536155777 ], [ -91.160622783758328, 33.709647667929147 ], [ -91.160726624280969, 33.709754090322839 ], [ -91.160827856231151, 33.709862728158789 ], [ -91.160934604327693, 33.709967097822606 ], [ -91.161051049757631, 33.710064367360502 ], [ -91.161146404709285, 33.710177222238357 ], [ -91.161246169024622, 33.710287051525846 ], [ -91.161361671408386, 33.710385344065109 ], [ -91.161465931969147, 33.710490718961402 ], [ -91.161559535547084, 33.710606113282893 ], [ -91.161667446121896, 33.710708110542299 ], [ -91.161774589517037, 33.710812311808176 ], [ -91.161882986028871, 33.71091688864545 ], [ -91.161987347094339, 33.711022372400706 ], [ -91.162089764194093, 33.711130865064611 ], [ -91.162195558097451, 33.711234855018027 ], [ -91.162312742113627, 33.711333327385603 ], [ -91.162417162862212, 33.711438178352374 ], [ -91.162523700383204, 33.711544141092766 ], [ -91.16262024955526, 33.711654375777485 ], [ -91.162719849280904, 33.711763765853043 ], [ -91.162835368009894, 33.711863375864809 ], [ -91.162951026676737, 33.711960345894298 ], [ -91.163054136237506, 33.712068805122549 ], [ -91.163148212094271, 33.712181529028321 ], [ -91.163249450764027, 33.712290247687982 ], [ -91.163360556618002, 33.712392469871546 ], [ -91.163466881366745, 33.71249659306374 ], [ -91.163568315306833, 33.712605007206129 ], [ -91.163671187107269, 33.712712588450884 ], [ -91.163775346135253, 33.712817137046201 ], [ -91.163880549186089, 33.712924207466266 ], [ -91.163989497284362, 33.713027487601416 ], [ -91.164091455775022, 33.71313556868914 ], [ -91.164196137751787, 33.713239757271715 ], [ -91.164310836315636, 33.713339068434493 ], [ -91.164415935597887, 33.713445534115451 ], [ -91.164524091663907, 33.713548325022032 ], [ -91.164622253870021, 33.713658300177507 ], [ -91.164731413914424, 33.713762897218047 ], [ -91.16483681942222, 33.713866887425453 ], [ -91.164938915025772, 33.713975323884888 ], [ -91.165046490466011, 33.714079189302531 ], [ -91.165155404803244, 33.714182138614504 ], [ -91.165259782864226, 33.714288554307835 ], [ -91.165363307030574, 33.714395111799966 ], [ -91.165458204138091, 33.714507169269062 ], [ -91.165572215683, 33.714606621784206 ], [ -91.165681917266653, 33.714709180332434 ] ] } }
]
}
