{
"type": "FeatureCollection",
"name": "LM_23_OSCX_20220328_CS_811_817_SORT_LWRP_INTERP_transects",
"crs": { "type": "name", "properties": { "name": "urn:ogc:def:crs:OGC:1.3:CRS84" } },
"features": [
{ "type": "Feature", "properties": { "station_id": 0, "station_ft": 154.6, "width_ft": 1607.6, "flag": "ok", "lon": -89.748262, "lat": 35.909746, "survey_id": "LM_23_OSCX_20220328_CS_811_817_SORT_LWRP_INTERP", "date": "2022-03-28 00:00:00+00:00", "method": "blob" }, "geometry": { "type": "LineString", "coordinates": [ [ -89.747215324019521, 35.905783243943056 ], [ -89.748354981717739, 35.910097945966257 ] ] } },
{ "type": "Feature", "properties": { "station_id": 1, "station_ft": 471.7, "width_ft": 1345.1, "flag": "ok", "lon": -89.747239, "lat": 35.909993, "survey_id": "LM_23_OSCX_20220328_CS_811_817_SORT_LWRP_INTERP", "date": "2022-03-28 00:00:00+00:00", "method": "blob" }, "geometry": { "type": "LineString", "coordinates": [ [ -89.74586863487076, 35.907044081640322 ], [ -89.747473849320812, 35.910498129035489 ] ] } },
{ "type": "Feature", "properties": { "station_id": 2, "station_ft": 796.7, "width_ft": 1378.0, "flag": "ok", "lon": -89.746213, "lat": 35.910308, "survey_id": "LM_23_OSCX_20220328_CS_811_817_SORT_LWRP_INTERP", "date": "2022-03-28 00:00:00+00:00", "method": "blob" }, "geometry": { "type": "LineString", "coordinates": [ [ -89.744921137754545, 35.907528079186122 ], [ -89.746565470450719, 35.911066382533988 ] ] } },
{ "type": "Feature", "properties": { "station_id": 3, "station_ft": 1139.5, "width_ft": 1410.8, "flag": "ok", "lon": -89.745183, "lat": 35.910727, "survey_id": "LM_23_OSCX_20220328_CS_811_817_SORT_LWRP_INTERP", "date": "2022-03-28 00:00:00+00:00", "method": "blob" }, "geometry": { "type": "LineString", "coordinates": [ [ -89.743142383861851, 35.908046871818847 ], [ -89.74564950195942, 35.911339068822606 ] ] } },
{ "type": "Feature", "properties": { "station_id": 4, "station_ft": 1469.8, "width_ft": 1509.2, "flag": "ok", "lon": -89.74416, "lat": 35.910973, "survey_id": "LM_23_OSCX_20220328_CS_811_817_SORT_LWRP_INTERP", "date": "2022-03-28 00:00:00+00:00", "method": "blob" }, "geometry": { "type": "LineString", "coordinates": [ [ -89.744289220080859, 35.907822956767831 ], [ -89.744119400969467, 35.911963639913182 ] ] } },
{ "type": "Feature", "properties": { "station_id": 5, "station_ft": 1800.1, "width_ft": 1345.1, "flag": "ok", "lon": -89.743137, "lat": 35.91122, "survey_id": "LM_23_OSCX_20220328_CS_811_817_SORT_LWRP_INTERP", "date": "2022-03-28 00:00:00+00:00", "method": "blob" }, "geometry": { "type": "LineString", "coordinates": [ [ -89.741329577294607, 35.908846900446576 ], [ -89.743720027822562, 35.911986006311217 ] ] } },
{ "type": "Feature", "properties": { "station_id": 6, "station_ft": 2160.6, "width_ft": 1345.1, "flag": "ok", "lon": -89.742103, "lat": 35.911742, "survey_id": "LM_23_OSCX_20220328_CS_811_817_SORT_LWRP_INTERP", "date": "2022-03-28 00:00:00+00:00", "method": "blob" }, "geometry": { "type": "LineString", "coordinates": [ [ -89.740236993248288, 35.909291574513539 ], [ -89.742627410842616, 35.912430700432488 ] ] } },
{ "type": "Feature", "properties": { "station_id": 7, "station_ft": 2493.0, "width_ft": 1345.1, "flag": "ok", "lon": -89.741077, "lat": 35.912057, "survey_id": "LM_23_OSCX_20220328_CS_811_817_SORT_LWRP_INTERP", "date": "2022-03-28 00:00:00+00:00", "method": "blob" }, "geometry": { "type": "LineString", "coordinates": [ [ -89.740611351193621, 35.909200007894853 ], [ -89.741207711280651, 35.912860653723676 ] ] } },
{ "type": "Feature", "properties": { "station_id": 8, "station_ft": 2797.1, "width_ft": 1345.1, "flag": "ok", "lon": -89.740059, "lat": 35.912167, "survey_id": "LM_23_OSCX_20220328_CS_811_817_SORT_LWRP_INTERP", "date": "2022-03-28 00:00:00+00:00", "method": "blob" }, "geometry": { "type": "LineString", "coordinates": [ [ -89.739608504764007, 35.909398977867887 ], [ -89.740204818940285, 35.913059626262005 ] ] } },
{ "type": "Feature", "properties": { "station_id": 9, "station_ft": 3129.5, "width_ft": 1509.2, "flag": "ok", "lon": -89.739033, "lat": 35.912482, "survey_id": "LM_23_OSCX_20220328_CS_811_817_SORT_LWRP_INTERP", "date": "2022-03-28 00:00:00+00:00", "method": "blob" }, "geometry": { "type": "LineString", "coordinates": [ [ -89.736876408243873, 35.90964931117734 ], [ -89.739558208410301, 35.913171322571053 ] ] } },
{ "type": "Feature", "properties": { "station_id": 10, "station_ft": 3459.7, "width_ft": 1410.8, "flag": "ok", "lon": -89.73801, "lat": 35.912729, "survey_id": "LM_23_OSCX_20220328_CS_811_817_SORT_LWRP_INTERP", "date": "2022-03-28 00:00:00+00:00", "method": "blob" }, "geometry": { "type": "LineString", "coordinates": [ [ -89.738143576735496, 35.909488574899719 ], [ -89.737984524790875, 35.913359188817431 ] ] } },
{ "type": "Feature", "properties": { "station_id": 11, "station_ft": 3777.4, "width_ft": 1607.6, "flag": "ok", "lon": -89.737007, "lat": 35.912496, "survey_id": "LM_23_OSCX_20220328_CS_811_817_SORT_LWRP_INTERP", "date": "2022-03-28 00:00:00+00:00", "method": "blob" }, "geometry": { "type": "LineString", "coordinates": [ [ -89.739065974782804, 35.909408340538306 ], [ -89.736479130523662, 35.91328744436143 ] ] } },
{ "type": "Feature", "properties": { "station_id": 12, "station_ft": 4097.2, "width_ft": 1312.3, "flag": "ok", "lon": -89.736001, "lat": 35.912331, "survey_id": "LM_23_OSCX_20220328_CS_811_817_SORT_LWRP_INTERP", "date": "2022-03-28 00:00:00+00:00", "method": "blob" }, "geometry": { "type": "LineString", "coordinates": [ [ -89.735579278606465, 35.909741839489243 ], [ -89.736160866331062, 35.913313213898583 ] ] } },
{ "type": "Feature", "properties": { "station_id": 13, "station_ft": 4401.3, "width_ft": 1312.3, "flag": "ok", "lon": -89.734983, "lat": 35.912441, "survey_id": "LM_23_OSCX_20220328_CS_811_817_SORT_LWRP_INTERP", "date": "2022-03-28 00:00:00+00:00", "method": "blob" }, "geometry": { "type": "LineString", "coordinates": [ [ -89.734532801790309, 35.909672912976383 ], [ -89.735114341721527, 35.913244290024387 ] ] } },
{ "type": "Feature", "properties": { "station_id": 14, "station_ft": 4703.4, "width_ft": 1213.9, "flag": "ok", "lon": -89.733969, "lat": 35.912482, "survey_id": "LM_23_OSCX_20220328_CS_811_817_SORT_LWRP_INTERP", "date": "2022-03-28 00:00:00+00:00", "method": "blob" }, "geometry": { "type": "LineString", "coordinates": [ [ -89.734079980388842, 35.90978135765117 ], [ -89.733942951775703, 35.913111872420032 ] ] } },
{ "type": "Feature", "properties": { "station_id": 15, "station_ft": 5005.5, "width_ft": 1279.5, "flag": "ok", "lon": -89.73296, "lat": 35.912386, "survey_id": "LM_23_OSCX_20220328_CS_811_817_SORT_LWRP_INTERP", "date": "2022-03-28 00:00:00+00:00", "method": "blob" }, "geometry": { "type": "LineString", "coordinates": [ [ -89.73359339817091, 35.909825112838206 ], [ -89.732741454417891, 35.913268565983408 ] ] } },
{ "type": "Feature", "properties": { "station_id": 16, "station_ft": 5320.1, "width_ft": 1443.6, "flag": "ok", "lon": -89.731944, "lat": 35.912461, "survey_id": "LM_23_OSCX_20220328_CS_811_817_SORT_LWRP_INTERP", "date": "2022-03-28 00:00:00+00:00", "method": "blob" }, "geometry": { "type": "LineString", "coordinates": [ [ -89.730613269242227, 35.909596478149666 ], [ -89.732335259262328, 35.913303443923255 ] ] } },
{ "type": "Feature", "properties": { "station_id": 17, "station_ft": 5637.2, "width_ft": 1312.3, "flag": "ok", "lon": -89.730929, "lat": 35.912502, "survey_id": "LM_23_OSCX_20220328_CS_811_817_SORT_LWRP_INTERP", "date": "2022-03-28 00:00:00+00:00", "method": "blob" }, "geometry": { "type": "LineString", "coordinates": [ [ -89.731903093959744, 35.909730938222239 ], [ -89.730685803598249, 35.913194728898489 ] ] } },
{ "type": "Feature", "properties": { "station_id": 18, "station_ft": 5946.4, "width_ft": 1246.7, "flag": "ok", "lon": -89.729926, "lat": 35.912269, "survey_id": "LM_23_OSCX_20220328_CS_811_817_SORT_LWRP_INTERP", "date": "2022-03-28 00:00:00+00:00", "method": "blob" }, "geometry": { "type": "LineString", "coordinates": [ [ -89.730838949819514, 35.909670786485599 ], [ -89.729682484482026, 35.912961375597881 ] ] } },
{ "type": "Feature", "properties": { "station_id": 19, "station_ft": 6253.1, "width_ft": 1476.4, "flag": "ok", "lon": -89.728921, "lat": 35.91207, "survey_id": "LM_23_OSCX_20220328_CS_811_817_SORT_LWRP_INTERP", "date": "2022-03-28 00:00:00+00:00", "method": "blob" }, "geometry": { "type": "LineString", "coordinates": [ [ -89.729729637190772, 35.908802724871613 ], [ -89.728746443193714, 35.912775898465938 ] ] } },
{ "type": "Feature", "properties": { "station_id": 20, "station_ft": 6559.8, "width_ft": 1509.2, "flag": "ok", "lon": -89.727917, "lat": 35.91187, "survey_id": "LM_23_OSCX_20220328_CS_811_817_SORT_LWRP_INTERP", "date": "2022-03-28 00:00:00+00:00", "method": "blob" }, "geometry": { "type": "LineString", "coordinates": [ [ -89.729073046883897, 35.90857991602433 ], [ -89.72767303815597, 35.912563234846189 ] ] } },
{ "type": "Feature", "properties": { "station_id": 21, "station_ft": 6882.1, "width_ft": 1542.0, "flag": "ok", "lon": -89.726917, "lat": 35.911534, "survey_id": "LM_23_OSCX_20220328_CS_811_817_SORT_LWRP_INTERP", "date": "2022-03-28 00:00:00+00:00", "method": "blob" }, "geometry": { "type": "LineString", "coordinates": [ [ -89.72892392629042, 35.908526122708913 ], [ -89.726442244162413, 35.912246664260998 ] ] } },
{ "type": "Feature", "properties": { "station_id": 22, "station_ft": 7212.3, "width_ft": 1673.2, "flag": "ok", "lon": -89.725921, "lat": 35.911129, "survey_id": "LM_23_OSCX_20220328_CS_811_817_SORT_LWRP_INTERP", "date": "2022-03-28 00:00:00+00:00", "method": "blob" }, "geometry": { "type": "LineString", "coordinates": [ [ -89.727852505307226, 35.907688392294247 ], [ -89.725507406324851, 35.911866713129619 ] ] } },
{ "type": "Feature", "properties": { "station_id": 23, "station_ft": 7529.4, "width_ft": 1870.1, "flag": "ok", "lon": -89.724921, "lat": 35.910827, "survey_id": "LM_23_OSCX_20220328_CS_811_817_SORT_LWRP_INTERP", "date": "2022-03-28 00:00:00+00:00", "method": "blob" }, "geometry": { "type": "LineString", "coordinates": [ [ -89.726412232676552, 35.906584323498748 ], [ -89.724677307119748, 35.911520127740403 ] ] } },
{ "type": "Feature", "properties": { "station_id": 24, "station_ft": 7846.5, "width_ft": 1837.3, "flag": "ok", "lon": -89.72392, "lat": 35.910525, "survey_id": "LM_23_OSCX_20220328_CS_811_817_SORT_LWRP_INTERP", "date": "2022-03-28 00:00:00+00:00", "method": "blob" }, "geometry": { "type": "LineString", "coordinates": [ [ -89.726173555298388, 35.906510963887783 ], [ -89.723598479912937, 35.911098882327863 ] ] } },
{ "type": "Feature", "properties": { "station_id": 25, "station_ft": 8171.5, "width_ft": 1870.1, "flag": "ok", "lon": -89.722923, "lat": 35.910155, "survey_id": "LM_23_OSCX_20220328_CS_811_817_SORT_LWRP_INTERP", "date": "2022-03-28 00:00:00+00:00", "method": "blob" }, "geometry": { "type": "LineString", "coordinates": [ [ -89.72517599371352, 35.906140397574056 ], [ -89.722554888923526, 35.910810218453769 ] ] } },
{ "type": "Feature", "properties": { "station_id": 26, "station_ft": 8488.7, "width_ft": 1870.1, "flag": "ok", "lon": -89.721922, "lat": 35.909853, "survey_id": "LM_23_OSCX_20220328_CS_811_817_SORT_LWRP_INTERP", "date": "2022-03-28 00:00:00+00:00", "method": "blob" }, "geometry": { "type": "LineString", "coordinates": [ [ -89.723413909778515, 35.905609786581643 ], [ -89.721678827124705, 35.910545539459186 ] ] } },
{ "type": "Feature", "properties": { "station_id": 27, "station_ft": 8823.5, "width_ft": 1870.1, "flag": "ok", "lon": -89.720926, "lat": 35.909448, "survey_id": "LM_23_OSCX_20220328_CS_811_817_SORT_LWRP_INTERP", "date": "2022-03-28 00:00:00+00:00", "method": "blob" }, "geometry": { "type": "LineString", "coordinates": [ [ -89.72408501020368, 35.90586020743406 ], [ -89.720410446640713, 35.910033644444006 ] ] } },
{ "type": "Feature", "properties": { "station_id": 28, "station_ft": 9350.5, "width_ft": 2460.6, "flag": "ok", "lon": -89.719961, "lat": 35.908289, "survey_id": "LM_23_OSCX_20220328_CS_811_817_SORT_LWRP_INTERP", "date": "2022-03-28 00:00:00+00:00", "method": "blob" }, "geometry": { "type": "LineString", "coordinates": [ [ -89.724927607175829, 35.90651344428295 ], [ -89.717325907814612, 35.909230301374748 ] ] } },
{ "type": "Feature", "properties": { "station_id": 29, "station_ft": 10043.7, "width_ft": 3215.2, "flag": "ok", "lon": -89.71902, "lat": 35.906546, "survey_id": "LM_23_OSCX_20220328_CS_811_817_SORT_LWRP_INTERP", "date": "2022-03-28 00:00:00+00:00", "method": "blob" }, "geometry": { "type": "LineString", "coordinates": [ [ -89.723986654280182, 35.904771068296498 ], [ -89.714053857339209, 35.908320924678975 ] ] } },
{ "type": "Feature", "properties": { "station_id": 30, "station_ft": 10703.6, "width_ft": 3215.2, "flag": "ok", "lon": -89.718075, "lat": 35.904907, "survey_id": "LM_23_OSCX_20220328_CS_811_817_SORT_LWRP_INTERP", "date": "2022-03-28 00:00:00+00:00", "method": "blob" }, "geometry": { "type": "LineString", "coordinates": [ [ -89.722921800483135, 35.902924649082912 ], [ -89.713228544744268, 35.906888290080708 ] ] } },
{ "type": "Feature", "properties": { "station_id": 31, "station_ft": 11287.3, "width_ft": 2854.3, "flag": "ok", "lon": -89.71712, "lat": 35.903507, "survey_id": "LM_23_OSCX_20220328_CS_811_817_SORT_LWRP_INTERP", "date": "2022-03-28 00:00:00+00:00", "method": "blob" }, "geometry": { "type": "LineString", "coordinates": [ [ -89.720696789684354, 35.901705436624539 ], [ -89.712508340792283, 35.905830127977218 ] ] } },
{ "type": "Feature", "properties": { "station_id": 32, "station_ft": 11709.8, "width_ft": 2887.1, "flag": "ok", "lon": -89.716137, "lat": 35.902794, "survey_id": "LM_23_OSCX_20220328_CS_811_817_SORT_LWRP_INTERP", "date": "2022-03-28 00:00:00+00:00", "method": "blob" }, "geometry": { "type": "LineString", "coordinates": [ [ -89.716989540499654, 35.899350207173313 ], [ -89.7150658140621, 35.907119707065469 ] ] } },
{ "type": "Feature", "properties": { "station_id": 33, "station_ft": 12083.0, "width_ft": 2821.5, "flag": "ok", "lon": -89.715147, "lat": 35.902251, "survey_id": "LM_23_OSCX_20220328_CS_811_817_SORT_LWRP_INTERP", "date": "2022-03-28 00:00:00+00:00", "method": "blob" }, "geometry": { "type": "LineString", "coordinates": [ [ -89.718247931367216, 35.90007473485214 ], [ -89.711039321390416, 35.905133865029597 ] ] } },
{ "type": "Feature", "properties": { "station_id": 34, "station_ft": 12471.8, "width_ft": 2854.3, "flag": "ok", "lon": -89.714162, "lat": 35.901572, "survey_id": "LM_23_OSCX_20220328_CS_811_817_SORT_LWRP_INTERP", "date": "2022-03-28 00:00:00+00:00", "method": "blob" }, "geometry": { "type": "LineString", "coordinates": [ [ -89.71616861796754, 35.898564210964537 ], [ -89.71157425114238, 35.905450612102278 ] ] } },
{ "type": "Feature", "properties": { "station_id": 35, "station_ft": 12797.7, "width_ft": 2624.7, "flag": "ok", "lon": -89.713165, "lat": 35.901201, "survey_id": "LM_23_OSCX_20220328_CS_811_817_SORT_LWRP_INTERP", "date": "2022-03-28 00:00:00+00:00", "method": "blob" }, "geometry": { "type": "LineString", "coordinates": [ [ -89.714358616140302, 35.898583953952098 ], [ -89.711276977166975, 35.90533870026313 ] ] } },
{ "type": "Feature", "properties": { "station_id": 36, "station_ft": 13113.9, "width_ft": 2624.7, "flag": "ok", "lon": -89.712164, "lat": 35.900899, "survey_id": "LM_23_OSCX_20220328_CS_811_817_SORT_LWRP_INTERP", "date": "2022-03-28 00:00:00+00:00", "method": "blob" }, "geometry": { "type": "LineString", "coordinates": [ [ -89.713358375781283, 35.898281886303572 ], [ -89.710276667433462, 35.905036603329911 ] ] } },
{ "type": "Feature", "properties": { "station_id": 37, "station_ft": 13439.7, "width_ft": 2854.3, "flag": "ok", "lon": -89.711167, "lat": 35.900529, "survey_id": "LM_23_OSCX_20220328_CS_811_817_SORT_LWRP_INTERP", "date": "2022-03-28 00:00:00+00:00", "method": "blob" }, "geometry": { "type": "LineString", "coordinates": [ [ -89.713173575106765, 35.897520849753171 ], [ -89.708579024943816, 35.904407126606031 ] ] } },
{ "type": "Feature", "properties": { "station_id": 38, "station_ft": 13794.9, "width_ft": 2919.9, "flag": "ok", "lon": -89.710177, "lat": 35.899987, "survey_id": "LM_23_OSCX_20220328_CS_811_817_SORT_LWRP_INTERP", "date": "2022-03-28 00:00:00+00:00", "method": "blob" }, "geometry": { "type": "LineString", "coordinates": [ [ -89.713020280402276, 35.897108723248721 ], [ -89.706847054681674, 35.903355546469378 ] ] } },
{ "type": "Feature", "properties": { "station_id": 39, "station_ft": 14140.5, "width_ft": 2985.6, "flag": "ok", "lon": -89.709183, "lat": 35.899513, "survey_id": "LM_23_OSCX_20220328_CS_811_817_SORT_LWRP_INTERP", "date": "2022-03-28 00:00:00+00:00", "method": "blob" }, "geometry": { "type": "LineString", "coordinates": [ [ -89.710801306738531, 35.895966740973009 ], [ -89.707295697669807, 35.903650142800963 ] ] } },
{ "type": "Feature", "properties": { "station_id": 40, "station_ft": 14466.3, "width_ft": 2690.3, "flag": "ok", "lon": -89.708186, "lat": 35.899142, "survey_id": "LM_23_OSCX_20220328_CS_811_817_SORT_LWRP_INTERP", "date": "2022-03-28 00:00:00+00:00", "method": "blob" }, "geometry": { "type": "LineString", "coordinates": [ [ -89.710192821034639, 35.896134471980751 ], [ -89.705862197293769, 35.9026248765948 ] ] } },
{ "type": "Feature", "properties": { "station_id": 41, "station_ft": 14796.5, "width_ft": 2723.1, "flag": "ok", "lon": -89.70719, "lat": 35.898737, "survey_id": "LM_23_OSCX_20220328_CS_811_817_SORT_LWRP_INTERP", "date": "2022-03-28 00:00:00+00:00", "method": "blob" }, "geometry": { "type": "LineString", "coordinates": [ [ -89.709075777713082, 35.895378512517347 ], [ -89.705258224124123, 35.902177853935875 ] ] } },
{ "type": "Feature", "properties": { "station_id": 42, "station_ft": 15139.3, "width_ft": 2427.8, "flag": "ok", "lon": -89.706197, "lat": 35.898264, "survey_id": "LM_23_OSCX_20220328_CS_811_817_SORT_LWRP_INTERP", "date": "2022-03-28 00:00:00+00:00", "method": "blob" }, "geometry": { "type": "LineString", "coordinates": [ [ -89.708840218825969, 35.895262029347514 ], [ -89.704069357636428, 35.900679529373669 ] ] } },
{ "type": "Feature", "properties": { "station_id": 43, "station_ft": 15523.1, "width_ft": 2329.4, "flag": "ok", "lon": -89.705212, "lat": 35.897584, "survey_id": "LM_23_OSCX_20220328_CS_811_817_SORT_LWRP_INTERP", "date": "2022-03-28 00:00:00+00:00", "method": "blob" }, "geometry": { "type": "LineString", "coordinates": [ [ -89.708235076798204, 35.895076557185291 ], [ -89.702732178165192, 35.89964182122069 ] ] } },
{ "type": "Feature", "properties": { "station_id": 44, "station_ft": 15906.8, "width_ft": 2132.5, "flag": "ok", "lon": -89.704228, "lat": 35.896905, "survey_id": "LM_23_OSCX_20220328_CS_811_817_SORT_LWRP_INTERP", "date": "2022-03-28 00:00:00+00:00", "method": "blob" }, "geometry": { "type": "LineString", "coordinates": [ [ -89.706355417113315, 35.894489000076057 ], [ -89.70216473372038, 35.899247535092798 ] ] } },
{ "type": "Feature", "properties": { "station_id": 45, "station_ft": 16249.6, "width_ft": 2034.1, "flag": "ok", "lon": -89.703235, "lat": 35.896431, "survey_id": "LM_23_OSCX_20220328_CS_811_817_SORT_LWRP_INTERP", "date": "2022-03-28 00:00:00+00:00", "method": "blob" }, "geometry": { "type": "LineString", "coordinates": [ [ -89.704614711959238, 35.893973717762016 ], [ -89.70176289115571, 35.899052641719905 ] ] } },
{ "type": "Feature", "properties": { "station_id": 46, "station_ft": 16579.8, "width_ft": 1771.7, "flag": "ok", "lon": -89.702239, "lat": 35.896026, "survey_id": "LM_23_OSCX_20220328_CS_811_817_SORT_LWRP_INTERP", "date": "2022-03-28 00:00:00+00:00", "method": "blob" }, "geometry": { "type": "LineString", "coordinates": [ [ -89.703770559524358, 35.893730911930533 ], [ -89.700918531147849, 35.898004938220737 ] ] } },
{ "type": "Feature", "properties": { "station_id": 47, "station_ft": 16951.0, "width_ft": 1706.0, "flag": "ok", "lon": -89.701252, "lat": 35.895415, "survey_id": "LM_23_OSCX_20220328_CS_811_817_SORT_LWRP_INTERP", "date": "2022-03-28 00:00:00+00:00", "method": "blob" }, "geometry": { "type": "LineString", "coordinates": [ [ -89.703499263162769, 35.893550791732757 ], [ -89.69946892900883, 35.896894228724364 ] ] } },
{ "type": "Feature", "properties": { "station_id": 48, "station_ft": 17317.0, "width_ft": 1738.8, "flag": "ok", "lon": -89.700263, "lat": 35.894839, "survey_id": "LM_23_OSCX_20220328_CS_811_817_SORT_LWRP_INTERP", "date": "2022-03-28 00:00:00+00:00", "method": "blob" }, "geometry": { "type": "LineString", "coordinates": [ [ -89.701642796688418, 35.892381375500136 ], [ -89.699204871803431, 35.896722976455074 ] ] } },
{ "type": "Feature", "properties": { "station_id": 49, "station_ft": 17653.2, "width_ft": 1673.2, "flag": "ok", "lon": -89.699268, "lat": 35.8944, "survey_id": "LM_23_OSCX_20220328_CS_811_817_SORT_LWRP_INTERP", "date": "2022-03-28 00:00:00+00:00", "method": "blob" }, "geometry": { "type": "LineString", "coordinates": [ [ -89.701037494091324, 35.892113038725206 ], [ -89.698030044789647, 35.896000066028634 ] ] } },
{ "type": "Feature", "properties": { "station_id": 50, "station_ft": 17994.5, "width_ft": 1640.4, "flag": "ok", "lon": -89.698275, "lat": 35.893926, "survey_id": "LM_23_OSCX_20220328_CS_811_817_SORT_LWRP_INTERP", "date": "2022-03-28 00:00:00+00:00", "method": "blob" }, "geometry": { "type": "LineString", "coordinates": [ [ -89.699807119652874, 35.8916306105167 ], [ -89.697166251086216, 35.895587952333308 ] ] } },
{ "type": "Feature", "properties": { "station_id": 51, "station_ft": 18357.5, "width_ft": 1574.8, "flag": "ok", "lon": -89.697287, "lat": 35.893349, "survey_id": "LM_23_OSCX_20220328_CS_811_817_SORT_LWRP_INTERP", "date": "2022-03-28 00:00:00+00:00", "method": "blob" }, "geometry": { "type": "LineString", "coordinates": [ [ -89.699350085393021, 35.89146774485485 ], [ -89.695812871189574, 35.89469329234305 ] ] } },
{ "type": "Feature", "properties": { "station_id": 52, "station_ft": 18740.2, "width_ft": 1607.6, "flag": "ok", "lon": -89.696302, "lat": 35.89267, "survey_id": "LM_23_OSCX_20220328_CS_811_817_SORT_LWRP_INTERP", "date": "2022-03-28 00:00:00+00:00", "method": "blob" }, "geometry": { "type": "LineString", "coordinates": [ [ -89.698244545405871, 35.890704805896874 ], [ -89.694845614255811, 35.894143679213087 ] ] } },
{ "type": "Feature", "properties": { "station_id": 53, "station_ft": 19108.0, "width_ft": 1443.6, "flag": "ok", "lon": -89.695315, "lat": 35.892059, "survey_id": "LM_23_OSCX_20220328_CS_811_817_SORT_LWRP_INTERP", "date": "2022-03-28 00:00:00+00:00", "method": "blob" }, "geometry": { "type": "LineString", "coordinates": [ [ -89.696733524382068, 35.890448551152936 ], [ -89.693896595216714, 35.893669493671773 ] ] } },
{ "type": "Feature", "properties": { "station_id": 54, "station_ft": 19483.5, "width_ft": 1410.8, "flag": "ok", "lon": -89.694329, "lat": 35.891414, "survey_id": "LM_23_OSCX_20220328_CS_811_817_SORT_LWRP_INTERP", "date": "2022-03-28 00:00:00+00:00", "method": "blob" }, "geometry": { "type": "LineString", "coordinates": [ [ -89.695950498716414, 35.889935529717128 ], [ -89.692781706818309, 35.892824995749237 ] ] } },
{ "type": "Feature", "properties": { "station_id": 55, "station_ft": 19900.0, "width_ft": 1443.6, "flag": "ok", "lon": -89.693351, "lat": 35.890597, "survey_id": "LM_23_OSCX_20220328_CS_811_817_SORT_LWRP_INTERP", "date": "2022-03-28 00:00:00+00:00", "method": "blob" }, "geometry": { "type": "LineString", "coordinates": [ [ -89.695278514682897, 35.889244540187796 ], [ -89.691590340665655, 35.891832277094231 ] ] } },
{ "type": "Feature", "properties": { "station_id": 56, "station_ft": 20525.0, "width_ft": 1771.7, "flag": "ok", "lon": -89.692401, "lat": 35.889095, "survey_id": "LM_23_OSCX_20220328_CS_811_817_SORT_LWRP_INTERP", "date": "2022-03-28 00:00:00+00:00", "method": "blob" }, "geometry": { "type": "LineString", "coordinates": [ [ -89.694378336055763, 35.888513340636194 ], [ -89.688757223839858, 35.890165573204776 ] ] } },
{ "type": "Feature", "properties": { "station_id": 57, "station_ft": 21116.4, "width_ft": 1542.0, "flag": "ok", "lon": -89.691445, "lat": 35.887729, "survey_id": "LM_23_OSCX_20220328_CS_811_817_SORT_LWRP_INTERP", "date": "2022-03-28 00:00:00+00:00", "method": "blob" }, "geometry": { "type": "LineString", "coordinates": [ [ -89.692207826403163, 35.886957397078874 ], [ -89.6889475614866, 35.890255742825623 ] ] } },
{ "type": "Feature", "properties": { "station_id": 58, "station_ft": 21516.0, "width_ft": 1181.1, "flag": "ok", "lon": -89.690463, "lat": 35.886981, "survey_id": "LM_23_OSCX_20220328_CS_811_817_SORT_LWRP_INTERP", "date": "2022-03-28 00:00:00+00:00", "method": "blob" }, "geometry": { "type": "LineString", "coordinates": [ [ -89.691352881741892, 35.886304903381152 ], [ -89.68844171945581, 35.888518507704013 ] ] } },
{ "type": "Feature", "properties": { "station_id": 59, "station_ft": 21949.3, "width_ft": 1148.3, "flag": "ok", "lon": -89.689488, "lat": 35.886096, "survey_id": "LM_23_OSCX_20220328_CS_811_817_SORT_LWRP_INTERP", "date": "2022-03-28 00:00:00+00:00", "method": "blob" }, "geometry": { "type": "LineString", "coordinates": [ [ -89.690409689415063, 35.885449130186274 ], [ -89.687475965364584, 35.887507450251057 ] ] } },
{ "type": "Feature", "properties": { "station_id": 60, "station_ft": 22430.5, "width_ft": 1115.5, "flag": "ok", "lon": -89.688519, "lat": 35.885039, "survey_id": "LM_23_OSCX_20220328_CS_811_817_SORT_LWRP_INTERP", "date": "2022-03-28 00:00:00+00:00", "method": "blob" }, "geometry": { "type": "LineString", "coordinates": [ [ -89.689444404104734, 35.884545174354471 ], [ -89.686298484622966, 35.886225209273043 ] ] } },
{ "type": "Feature", "properties": { "station_id": 61, "station_ft": 22911.8, "width_ft": 1148.3, "flag": "ok", "lon": -89.687551, "lat": 35.883983, "survey_id": "LM_23_OSCX_20220328_CS_811_817_SORT_LWRP_INTERP", "date": "2022-03-28 00:00:00+00:00", "method": "blob" }, "geometry": { "type": "LineString", "coordinates": [ [ -89.688305006147743, 35.8834533000188 ], [ -89.68537130952285, 35.885511570148047 ] ] } },
{ "type": "Feature", "properties": { "station_id": 62, "station_ft": 23336.4, "width_ft": 1148.3, "flag": "ok", "lon": -89.686574, "lat": 35.883132, "survey_id": "LM_23_OSCX_20220328_CS_811_817_SORT_LWRP_INTERP", "date": "2022-03-28 00:00:00+00:00", "method": "blob" }, "geometry": { "type": "LineString", "coordinates": [ [ -89.68719361816423, 35.88261729868784 ], [ -89.684480896097853, 35.88486733568746 ] ] } },
{ "type": "Feature", "properties": { "station_id": 63, "station_ft": 23735.2, "width_ft": 1148.3, "flag": "ok", "lon": -89.685592, "lat": 35.882383, "survey_id": "LM_23_OSCX_20220328_CS_811_817_SORT_LWRP_INTERP", "date": "2022-03-28 00:00:00+00:00", "method": "blob" }, "geometry": { "type": "LineString", "coordinates": [ [ -89.686181773204765, 35.881845960708375 ], [ -89.683602550863114, 35.884197650024547 ] ] } },
{ "type": "Feature", "properties": { "station_id": 64, "station_ft": 24133.9, "width_ft": 1082.7, "flag": "ok", "lon": -89.684611, "lat": 35.881635, "survey_id": "LM_23_OSCX_20220328_CS_811_817_SORT_LWRP_INTERP", "date": "2022-03-28 00:00:00+00:00", "method": "blob" }, "geometry": { "type": "LineString", "coordinates": [ [ -89.68515347056956, 35.881185380771967 ], [ -89.682595763484017, 35.883306802561108 ] ] } },
{ "type": "Feature", "properties": { "station_id": 65, "station_ft": 24511.1, "width_ft": 1115.5, "flag": "ok", "lon": -89.683625, "lat": 35.88099, "survey_id": "LM_23_OSCX_20220328_CS_811_817_SORT_LWRP_INTERP", "date": "2022-03-28 00:00:00+00:00", "method": "blob" }, "geometry": { "type": "LineString", "coordinates": [ [ -89.684097135577517, 35.880380480751711 ], [ -89.682091999504152, 35.882971549902429 ] ] } },
{ "type": "Feature", "properties": { "station_id": 66, "station_ft": 24872.2, "width_ft": 1082.7, "flag": "ok", "lon": -89.682637, "lat": 35.880413, "survey_id": "LM_23_OSCX_20220328_CS_811_817_SORT_LWRP_INTERP", "date": "2022-03-28 00:00:00+00:00", "method": "blob" }, "geometry": { "type": "LineString", "coordinates": [ [ -89.683261208296088, 35.879781931696066 ], [ -89.680972091102603, 35.882097630974734 ] ] } },
{ "type": "Feature", "properties": { "station_id": 67, "station_ft": 25255.0, "width_ft": 1115.5, "flag": "ok", "lon": -89.681653, "lat": 35.879734, "survey_id": "LM_23_OSCX_20220328_CS_811_817_SORT_LWRP_INTERP", "date": "2022-03-28 00:00:00+00:00", "method": "blob" }, "geometry": { "type": "LineString", "coordinates": [ [ -89.682316010920516, 35.879129241309911 ], [ -89.679810469976871, 35.881413659094271 ] ] } },
{ "type": "Feature", "properties": { "station_id": 68, "station_ft": 25662.4, "width_ft": 1148.3, "flag": "ok", "lon": -89.680673, "lat": 35.878952, "survey_id": "LM_23_OSCX_20220328_CS_811_817_SORT_LWRP_INTERP", "date": "2022-03-28 00:00:00+00:00", "method": "blob" }, "geometry": { "type": "LineString", "coordinates": [ [ -89.68140074735031, 35.878398163833729 ], [ -89.678570500841062, 35.880550048210814 ] ] } },
{ "type": "Feature", "properties": { "station_id": 69, "station_ft": 26114.6, "width_ft": 1213.9, "flag": "ok", "lon": -89.6797, "lat": 35.877998, "survey_id": "LM_23_OSCX_20220328_CS_811_817_SORT_LWRP_INTERP", "date": "2022-03-28 00:00:00+00:00", "method": "blob" }, "geometry": { "type": "LineString", "coordinates": [ [ -89.680410039992239, 35.87756689222882 ], [ -89.677127696489066, 35.879558896732114 ] ] } },
{ "type": "Feature", "properties": { "station_id": 70, "station_ft": 26558.2, "width_ft": 1246.7, "flag": "ok", "lon": -89.678726, "lat": 35.877078, "survey_id": "LM_23_OSCX_20220328_CS_811_817_SORT_LWRP_INTERP", "date": "2022-03-28 00:00:00+00:00", "method": "blob" }, "geometry": { "type": "LineString", "coordinates": [ [ -89.679268851829889, 35.876628005360956 ], [ -89.676323612195148, 35.879070705551342 ] ] } },
{ "type": "Feature", "properties": { "station_id": 71, "station_ft": 26949.2, "width_ft": 1312.3, "flag": "ok", "lon": -89.677744, "lat": 35.876364, "survey_id": "LM_23_OSCX_20220328_CS_811_817_SORT_LWRP_INTERP", "date": "2022-03-28 00:00:00+00:00", "method": "blob" }, "geometry": { "type": "LineString", "coordinates": [ [ -89.678229269139081, 35.875872922799893 ], [ -89.675454543293839, 35.878679707235378 ] ] } },
{ "type": "Feature", "properties": { "station_id": 72, "station_ft": 27310.3, "width_ft": 1312.3, "flag": "ok", "lon": -89.676755, "lat": 35.875787, "survey_id": "LM_23_OSCX_20220328_CS_811_817_SORT_LWRP_INTERP", "date": "2022-03-28 00:00:00+00:00", "method": "blob" }, "geometry": { "type": "LineString", "coordinates": [ [ -89.677168200374709, 35.87525398107195 ], [ -89.674809115666861, 35.878302153189878 ] ] } },
{ "type": "Feature", "properties": { "station_id": 73, "station_ft": 27638.6, "width_ft": 1345.1, "flag": "ok", "lon": -89.675758, "lat": 35.875416, "survey_id": "LM_23_OSCX_20220328_CS_811_817_SORT_LWRP_INTERP", "date": "2022-03-28 00:00:00+00:00", "method": "blob" }, "geometry": { "type": "LineString", "coordinates": [ [ -89.676002246670024, 35.87472383919642 ], [ -89.674752742707312, 35.8782735568088 ] ] } },
{ "type": "Feature", "properties": { "station_id": 74, "station_ft": 27943.2, "width_ft": 1443.6, "flag": "ok", "lon": -89.674751, "lat": 35.875286, "survey_id": "LM_23_OSCX_20220328_CS_811_817_SORT_LWRP_INTERP", "date": "2022-03-28 00:00:00+00:00", "method": "blob" }, "geometry": { "type": "LineString", "coordinates": [ [ -89.67479291501823, 35.874295468400852 ], [ -89.674627220521373, 35.878255867039812 ] ] } },
{ "type": "Feature", "properties": { "station_id": 75, "station_ft": 28255.7, "width_ft": 1410.8, "flag": "ok", "lon": -89.673747, "lat": 35.875086, "survey_id": "LM_23_OSCX_20220328_CS_811_817_SORT_LWRP_INTERP", "date": "2022-03-28 00:00:00+00:00", "method": "blob" }, "geometry": { "type": "LineString", "coordinates": [ [ -89.674207531463338, 35.874267010545864 ], [ -89.672228948157525, 35.87778896212771 ] ] } },
{ "type": "Feature", "properties": { "station_id": 76, "station_ft": 28598.5, "width_ft": 1574.8, "flag": "ok", "lon": -89.672755, "lat": 35.874612, "survey_id": "LM_23_OSCX_20220328_CS_811_817_SORT_LWRP_INTERP", "date": "2022-03-28 00:00:00+00:00", "method": "blob" }, "geometry": { "type": "LineString", "coordinates": [ [ -89.673270656647759, 35.874026693485291 ], [ -89.670175521309858, 35.877539826003442 ] ] } },
{ "type": "Feature", "properties": { "station_id": 77, "station_ft": 28929.3, "width_ft": 1476.4, "flag": "ok", "lon": -89.671756, "lat": 35.874276, "survey_id": "LM_23_OSCX_20220328_CS_811_817_SORT_LWRP_INTERP", "date": "2022-03-28 00:00:00+00:00", "method": "blob" }, "geometry": { "type": "LineString", "coordinates": [ [ -89.671860014608683, 35.873559991870863 ], [ -89.671277694994188, 35.877584931923224 ] ] } },
{ "type": "Feature", "properties": { "station_id": 78, "station_ft": 29237.9, "width_ft": 1673.2, "flag": "ok", "lon": -89.670752, "lat": 35.874076, "survey_id": "LM_23_OSCX_20220328_CS_811_817_SORT_LWRP_INTERP", "date": "2022-03-28 00:00:00+00:00", "method": "blob" }, "geometry": { "type": "LineString", "coordinates": [ [ -89.67109936741754, 35.873316241829684 ], [ -89.669133331989244, 35.877621620639644 ] ] } },
{ "type": "Feature", "properties": { "station_id": 79, "station_ft": 29548.1, "width_ft": 1673.2, "flag": "ok", "lon": -89.66975, "lat": 35.873842, "survey_id": "LM_23_OSCX_20220328_CS_811_817_SORT_LWRP_INTERP", "date": "2022-03-28 00:00:00+00:00", "method": "blob" }, "geometry": { "type": "LineString", "coordinates": [ [ -89.669925022401998, 35.873135961597775 ], [ -89.668808039982778, 35.877638203988212 ] ] } },
{ "type": "Feature", "properties": { "station_id": 80, "station_ft": 29850.2, "width_ft": 1673.2, "flag": "ok", "lon": -89.668741, "lat": 35.873746, "survey_id": "LM_23_OSCX_20220328_CS_811_817_SORT_LWRP_INTERP", "date": "2022-03-28 00:00:00+00:00", "method": "blob" }, "geometry": { "type": "LineString", "coordinates": [ [ -89.668771636323157, 35.873025472611545 ], [ -89.668579239934957, 35.877615907201587 ] ] } },
{ "type": "Feature", "properties": { "station_id": 81, "station_ft": 30152.3, "width_ft": 1706.0, "flag": "ok", "lon": -89.667733, "lat": 35.873649, "survey_id": "LM_23_OSCX_20220328_CS_811_817_SORT_LWRP_INTERP", "date": "2022-03-28 00:00:00+00:00", "method": "blob" }, "geometry": { "type": "LineString", "coordinates": [ [ -89.667886420764518, 35.873030924189095 ], [ -89.666747420941405, 35.877621420154192 ] ] } },
{ "type": "Feature", "properties": { "station_id": 82, "station_ft": 30456.4, "width_ft": 1706.0, "flag": "ok", "lon": -89.666722, "lat": 35.873621, "survey_id": "LM_23_OSCX_20220328_CS_811_817_SORT_LWRP_INTERP", "date": "2022-03-28 00:00:00+00:00", "method": "blob" }, "geometry": { "type": "LineString", "coordinates": [ [ -89.666620669927198, 35.872995769272023 ], [ -89.667372493537059, 35.877638782821791 ] ] } },
{ "type": "Feature", "properties": { "station_id": 83, "station_ft": 30759.0, "width_ft": 1837.3, "flag": "ok", "lon": -89.665709, "lat": 35.873627, "survey_id": "LM_23_OSCX_20220328_CS_811_817_SORT_LWRP_INTERP", "date": "2022-03-28 00:00:00+00:00", "method": "blob" }, "geometry": { "type": "LineString", "coordinates": [ [ -89.665799830867513, 35.873000893600839 ], [ -89.665074783560527, 35.878009650333283 ] ] } },
{ "type": "Feature", "properties": { "station_id": 84, "station_ft": 31060.0, "width_ft": 1804.5, "flag": "ok", "lon": -89.664698, "lat": 35.873599, "survey_id": "LM_23_OSCX_20220328_CS_811_817_SORT_LWRP_INTERP", "date": "2022-03-28 00:00:00+00:00", "method": "blob" }, "geometry": { "type": "LineString", "coordinates": [ [ -89.66466545773072, 35.873059170315955 ], [ -89.664963575285412, 35.878006559387309 ] ] } },
{ "type": "Feature", "properties": { "station_id": 85, "station_ft": 31361.1, "width_ft": 1804.5, "flag": "ok", "lon": -89.663684, "lat": 35.873639, "survey_id": "LM_23_OSCX_20220328_CS_811_817_SORT_LWRP_INTERP", "date": "2022-03-28 00:00:00+00:00", "method": "blob" }, "geometry": { "type": "LineString", "coordinates": [ [ -89.66365136001906, 35.873099644784013 ], [ -89.663949414125298, 35.87804703299593 ] ] } }
]
}
