{
"type": "FeatureCollection",
"name": "LM_23_OSCX_20230603_CS_792_788_SORT_LWRP_INTERP_transects",
"crs": { "type": "name", "properties": { "name": "urn:ogc:def:crs:OGC:1.3:CRS84" } },
"features": [
{ "type": "Feature", "properties": { "station_id": 0, "station_ft": 180.3, "width_ft": 1870.1, "flag": "ok", "lon": -89.931154, "lat": 35.728766, "survey_id": "LM_23_OSCX_20230603_CS_792_788_SORT_LWRP_INTERP", "date": "2023-06-03T00:00:00Z", "method": "blob" }, "geometry": { "type": "LineString", "coordinates": [ [ -89.928294090251271, 35.725018776759164 ], [ -89.931621180220034, 35.729377949560877 ] ] } },
{ "type": "Feature", "properties": { "station_id": 1, "station_ft": 534.2, "width_ft": 1870.1, "flag": "ok", "lon": -89.930125, "lat": 35.729255, "survey_id": "LM_23_OSCX_20230603_CS_792_788_SORT_LWRP_INTERP", "date": "2023-06-03T00:00:00Z", "method": "blob" }, "geometry": { "type": "LineString", "coordinates": [ [ -89.927545082914236, 35.725374571344815 ], [ -89.930545978746665, 35.729888424277902 ] ] } },
{ "type": "Feature", "properties": { "station_id": 2, "station_ft": 875.6, "width_ft": 1902.9, "flag": "ok", "lon": -89.929098, "lat": 35.729675, "survey_id": "LM_23_OSCX_20230603_CS_792_788_SORT_LWRP_INTERP", "date": "2023-06-03T00:00:00Z", "method": "blob" }, "geometry": { "type": "LineString", "coordinates": [ [ -89.926830055632792, 35.725667327400302 ], [ -89.929514568476819, 35.730411163240838 ] ] } },
{ "type": "Feature", "properties": { "station_id": 3, "station_ft": 1205.8, "width_ft": 1968.5, "flag": "ok", "lon": -89.928074, "lat": 35.730027, "survey_id": "LM_23_OSCX_20230603_CS_792_788_SORT_LWRP_INTERP", "date": "2023-06-03T00:00:00Z", "method": "blob" }, "geometry": { "type": "LineString", "coordinates": [ [ -89.926149463472541, 35.725901112158958 ], [ -89.928505842021906, 35.730952712164743 ] ] } },
{ "type": "Feature", "properties": { "station_id": 4, "station_ft": 1530.8, "width_ft": 2001.3, "flag": "ok", "lon": -89.927051, "lat": 35.730344, "survey_id": "LM_23_OSCX_20230603_CS_792_788_SORT_LWRP_INTERP", "date": "2023-06-03T00:00:00Z", "method": "blob" }, "geometry": { "type": "LineString", "coordinates": [ [ -89.925126653711516, 35.726218320477678 ], [ -89.927522248284873, 35.731354130905352 ] ] } },
{ "type": "Feature", "properties": { "station_id": 5, "station_ft": 1845.3, "width_ft": 2198.2, "flag": "ok", "lon": -89.926037, "lat": 35.730421, "survey_id": "LM_23_OSCX_20230603_CS_792_788_SORT_LWRP_INTERP", "date": "2023-06-03T00:00:00Z", "method": "blob" }, "geometry": { "type": "LineString", "coordinates": [ [ -89.927094123145039, 35.726092030017874 ], [ -89.925649089443482, 35.732011098907812 ] ] } },
{ "type": "Feature", "properties": { "station_id": 6, "station_ft": 2227.9, "width_ft": 2132.5, "flag": "ok", "lon": -89.925012, "lat": 35.730807, "survey_id": "LM_23_OSCX_20230603_CS_792_788_SORT_LWRP_INTERP", "date": "2023-06-03T00:00:00Z", "method": "blob" }, "geometry": { "type": "LineString", "coordinates": [ [ -89.921014436170609, 35.727830521404137 ], [ -89.926317156553068, 35.731778506329725 ] ] } },
{ "type": "Feature", "properties": { "station_id": 7, "station_ft": 2653.6, "width_ft": 1870.1, "flag": "ok", "lon": -89.92397, "lat": 35.731604, "survey_id": "LM_23_OSCX_20230603_CS_792_788_SORT_LWRP_INTERP", "date": "2023-06-03T00:00:00Z", "method": "blob" }, "geometry": { "type": "LineString", "coordinates": [ [ -89.920637263691049, 35.728126367674889 ], [ -89.92451468358999, 35.732171939329383 ] ] } },
{ "type": "Feature", "properties": { "station_id": 8, "station_ft": 3003.5, "width_ft": 1870.1, "flag": "ok", "lon": -89.922944, "lat": 35.732024, "survey_id": "LM_23_OSCX_20230603_CS_792_788_SORT_LWRP_INTERP", "date": "2023-06-03T00:00:00Z", "method": "blob" }, "geometry": { "type": "LineString", "coordinates": [ [ -89.921819594850135, 35.727798774087873 ], [ -89.923154370697191, 35.732816513593868 ] ] } },
{ "type": "Feature", "properties": { "station_id": 9, "station_ft": 3338.4, "width_ft": 1902.9, "flag": "ok", "lon": -89.921919, "lat": 35.732376, "survey_id": "LM_23_OSCX_20230603_CS_792_788_SORT_LWRP_INTERP", "date": "2023-06-03T00:00:00Z", "method": "blob" }, "geometry": { "type": "LineString", "coordinates": [ [ -89.919059609423059, 35.728628151769001 ], [ -89.922444678256994, 35.733064040798062 ] ] } },
{ "type": "Feature", "properties": { "station_id": 10, "station_ft": 3692.3, "width_ft": 1607.6, "flag": "ok", "lon": -89.92089, "lat": 35.732864, "survey_id": "LM_23_OSCX_20230603_CS_792_788_SORT_LWRP_INTERP", "date": "2023-06-03T00:00:00Z", "method": "blob" }, "geometry": { "type": "LineString", "coordinates": [ [ -89.918731630112802, 35.729617441136469 ], [ -89.921311007224531, 35.733497947073026 ] ] } },
{ "type": "Feature", "properties": { "station_id": 11, "station_ft": 4024.1, "width_ft": 1542.0, "flag": "ok", "lon": -89.919866, "lat": 35.733216, "survey_id": "LM_23_OSCX_20230603_CS_792_788_SORT_LWRP_INTERP", "date": "2023-06-03T00:00:00Z", "method": "blob" }, "geometry": { "type": "LineString", "coordinates": [ [ -89.918600615777592, 35.729763559136181 ], [ -89.920087014499572, 35.733820009812717 ] ] } },
{ "type": "Feature", "properties": { "station_id": 12, "station_ft": 4349.9, "width_ft": 2001.3, "flag": "ok", "lon": -89.918859, "lat": 35.733121, "survey_id": "LM_23_OSCX_20230603_CS_792_788_SORT_LWRP_INTERP", "date": "2023-06-03T00:00:00Z", "method": "blob" }, "geometry": { "type": "LineString", "coordinates": [ [ -89.921430306722257, 35.729237505652762 ], [ -89.918228719103425, 35.734072519004378 ] ] } },
{ "type": "Feature", "properties": { "station_id": 13, "station_ft": 4697.9, "width_ft": 2427.8, "flag": "ok", "lon": -89.917867, "lat": 35.732615, "survey_id": "LM_23_OSCX_20230603_CS_792_788_SORT_LWRP_INTERP", "date": "2023-06-03T00:00:00Z", "method": "blob" }, "geometry": { "type": "LineString", "coordinates": [ [ -89.921010102192426, 35.729021488551993 ], [ -89.916263860603891, 35.734448777056343 ] ] } },
{ "type": "Feature", "properties": { "station_id": 14, "station_ft": 5051.9, "width_ft": 1345.1, "flag": "ok", "lon": -89.916859, "lat": 35.732555, "survey_id": "LM_23_OSCX_20230603_CS_792_788_SORT_LWRP_INTERP", "date": "2023-06-03T00:00:00Z", "method": "blob" }, "geometry": { "type": "LineString", "coordinates": [ [ -89.91570102126731, 35.730812763694196 ], [ -89.91785916050722, 35.734059770121917 ] ] } },
{ "type": "Feature", "properties": { "station_id": 15, "station_ft": 5475.5, "width_ft": 1509.2, "flag": "ok", "lon": -89.915819, "lat": 35.733318, "survey_id": "LM_23_OSCX_20230603_CS_792_788_SORT_LWRP_INTERP", "date": "2023-06-03T00:00:00Z", "method": "blob" }, "geometry": { "type": "LineString", "coordinates": [ [ -89.913231359940156, 35.731629513031884 ], [ -89.917198948633626, 35.734218685743159 ] ] } },
{ "type": "Feature", "properties": { "station_id": 16, "station_ft": 5880.1, "width_ft": 1312.3, "flag": "ok", "lon": -89.914784, "lat": 35.733944, "survey_id": "LM_23_OSCX_20230603_CS_792_788_SORT_LWRP_INTERP", "date": "2023-06-03T00:00:00Z", "method": "blob" }, "geometry": { "type": "LineString", "coordinates": [ [ -89.914034953642314, 35.731126938779681 ], [ -89.914971303465009, 35.734648204486383 ] ] } },
{ "type": "Feature", "properties": { "station_id": 17, "station_ft": 6189.4, "width_ft": 1246.7, "flag": "ok", "lon": -89.913766, "lat": 35.734124, "survey_id": "LM_23_OSCX_20230603_CS_792_788_SORT_LWRP_INTERP", "date": "2023-06-03T00:00:00Z", "method": "blob" }, "geometry": { "type": "LineString", "coordinates": [ [ -89.913110962236559, 35.731658956171621 ], [ -89.914000457903441, 35.735004163672976 ] ] } },
{ "type": "Feature", "properties": { "station_id": 18, "station_ft": 6496.0, "width_ft": 1509.2, "flag": "ok", "lon": -89.912755, "lat": 35.734132, "survey_id": "LM_23_OSCX_20230603_CS_792_788_SORT_LWRP_INTERP", "date": "2023-06-03T00:00:00Z", "method": "blob" }, "geometry": { "type": "LineString", "coordinates": [ [ -89.913402847685902, 35.731481987839089 ], [ -89.912409985552827, 35.735545675587382 ] ] } },
{ "type": "Feature", "properties": { "station_id": 19, "station_ft": 6821.8, "width_ft": 1476.4, "flag": "ok", "lon": -89.911739, "lat": 35.734278, "survey_id": "LM_23_OSCX_20230603_CS_792_788_SORT_LWRP_INTERP", "date": "2023-06-03T00:00:00Z", "method": "blob" }, "geometry": { "type": "LineString", "coordinates": [ [ -89.910212680046925, 35.731981066576417 ], [ -89.91258115616246, 35.735544949637692 ] ] } },
{ "type": "Feature", "properties": { "station_id": 20, "station_ft": 7153.5, "width_ft": 1213.9, "flag": "ok", "lon": -89.910715, "lat": 35.734629, "survey_id": "LM_23_OSCX_20230603_CS_792_788_SORT_LWRP_INTERP", "date": "2023-06-03T00:00:00Z", "method": "blob" }, "geometry": { "type": "LineString", "coordinates": [ [ -89.9097978502449, 35.732126202854317 ], [ -89.910967651499178, 35.7353196489479 ] ] } },
{ "type": "Feature", "properties": { "station_id": 21, "station_ft": 7469.8, "width_ft": 1148.3, "flag": "ok", "lon": -89.909694, "lat": 35.734878, "survey_id": "LM_23_OSCX_20230603_CS_792_788_SORT_LWRP_INTERP", "date": "2023-06-03T00:00:00Z", "method": "blob" }, "geometry": { "type": "LineString", "coordinates": [ [ -89.908809172120584, 35.73246096982156 ], [ -89.909915704304467, 35.735481804753221 ] ] } },
{ "type": "Feature", "properties": { "station_id": 22, "station_ft": 7795.6, "width_ft": 1574.8, "flag": "ok", "lon": -89.908671, "lat": 35.735195, "survey_id": "LM_23_OSCX_20230603_CS_792_788_SORT_LWRP_INTERP", "date": "2023-06-03T00:00:00Z", "method": "blob" }, "geometry": { "type": "LineString", "coordinates": [ [ -89.907052092701448, 35.732331796394597 ], [ -89.909272898032029, 35.736258055919684 ] ] } },
{ "type": "Feature", "properties": { "station_id": 23, "station_ft": 8125.8, "width_ft": 1213.9, "flag": "ok", "lon": -89.907647, "lat": 35.735546, "survey_id": "LM_23_OSCX_20230603_CS_792_788_SORT_LWRP_INTERP", "date": "2023-06-03T00:00:00Z", "method": "blob" }, "geometry": { "type": "LineString", "coordinates": [ [ -89.906626496442669, 35.733356876165374 ], [ -89.908078898282966, 35.736472235438818 ] ] } },
{ "type": "Feature", "properties": { "station_id": 24, "station_ft": 8446.4, "width_ft": 1213.9, "flag": "ok", "lon": -89.906625, "lat": 35.735829, "survey_id": "LM_23_OSCX_20230603_CS_792_788_SORT_LWRP_INTERP", "date": "2023-06-03T00:00:00Z", "method": "blob" }, "geometry": { "type": "LineString", "coordinates": [ [ -89.905803510880915, 35.733584721294015 ], [ -89.906973166442725, 35.736778198745419 ] ] } },
{ "type": "Feature", "properties": { "station_id": 25, "station_ft": 8762.6, "width_ft": 1312.3, "flag": "ok", "lon": -89.905605, "lat": 35.736077, "survey_id": "LM_23_OSCX_20230603_CS_792_788_SORT_LWRP_INTERP", "date": "2023-06-03T00:00:00Z", "method": "blob" }, "geometry": { "type": "LineString", "coordinates": [ [ -89.904656749812233, 35.733487900892115 ], [ -89.905921194311603, 35.736940318165665 ] ] } },
{ "type": "Feature", "properties": { "station_id": 26, "station_ft": 9101.0, "width_ft": 1738.8, "flag": "ok", "lon": -89.904579, "lat": 35.736463, "survey_id": "LM_23_OSCX_20230603_CS_792_788_SORT_LWRP_INTERP", "date": "2023-06-03T00:00:00Z", "method": "blob" }, "geometry": { "type": "LineString", "coordinates": [ [ -89.902012070887963, 35.733097342816968 ], [ -89.905104566829152, 35.737151232811343 ] ] } },
{ "type": "Feature", "properties": { "station_id": 27, "station_ft": 9435.9, "width_ft": 1640.4, "flag": "ok", "lon": -89.903555, "lat": 35.736814, "survey_id": "LM_23_OSCX_20230603_CS_792_788_SORT_LWRP_INTERP", "date": "2023-06-03T00:00:00Z", "method": "blob" }, "geometry": { "type": "LineString", "coordinates": [ [ -89.902549010751883, 35.733028726413764 ], [ -89.903718837564938, 35.737430388381242 ] ] } },
{ "type": "Feature", "properties": { "station_id": 28, "station_ft": 9741.1, "width_ft": 1673.2, "flag": "ok", "lon": -89.90254, "lat": 35.736925, "survey_id": "LM_23_OSCX_20230603_CS_792_788_SORT_LWRP_INTERP", "date": "2023-06-03T00:00:00Z", "method": "blob" }, "geometry": { "type": "LineString", "coordinates": [ [ -89.90229524215718, 35.733057213662669 ], [ -89.902585543792327, 35.737645001472913 ] ] } },
{ "type": "Feature", "properties": { "station_id": 29, "station_ft": 10071.8, "width_ft": 2165.4, "flag": "ok", "lon": -89.90154, "lat": 35.736659, "survey_id": "LM_23_OSCX_20230603_CS_792_788_SORT_LWRP_INTERP", "date": "2023-06-03T00:00:00Z", "method": "blob" }, "geometry": { "type": "LineString", "coordinates": [ [ -89.904362408364022, 35.733432582671711 ], [ -89.900128086378459, 35.738272496293817 ] ] } },
{ "type": "Feature", "properties": { "station_id": 30, "station_ft": 10432.4, "width_ft": 2493.4, "flag": "ok", "lon": -89.900551, "lat": 35.736084, "survey_id": "LM_23_OSCX_20230603_CS_792_788_SORT_LWRP_INTERP", "date": "2023-06-03T00:00:00Z", "method": "blob" }, "geometry": { "type": "LineString", "coordinates": [ [ -89.903117374558235, 35.733151075795 ], [ -89.89824137843668, 35.738724240304919 ] ] } },
{ "type": "Feature", "properties": { "station_id": 31, "station_ft": 10763.2, "width_ft": 2099.7, "flag": "ok", "lon": -89.899553, "lat": 35.73575, "survey_id": "LM_23_OSCX_20230603_CS_792_788_SORT_LWRP_INTERP", "date": "2023-06-03T00:00:00Z", "method": "blob" }, "geometry": { "type": "LineString", "coordinates": [ [ -89.89997088604936, 35.732796634513278 ], [ -89.899161195192249, 35.73852358097416 ] ] } },
{ "type": "Feature", "properties": { "station_id": 32, "station_ft": 11081.4, "width_ft": 2362.2, "flag": "ok", "lon": -89.898553, "lat": 35.735483, "survey_id": "LM_23_OSCX_20230603_CS_792_788_SORT_LWRP_INTERP", "date": "2023-06-03T00:00:00Z", "method": "blob" }, "geometry": { "type": "LineString", "coordinates": [ [ -89.900233222845429, 35.732947353833076 ], [ -89.896452596082668, 35.738653489029161 ] ] } },
{ "type": "Feature", "properties": { "station_id": 33, "station_ft": 11444.4, "width_ft": 2001.3, "flag": "ok", "lon": -89.897538, "lat": 35.735595, "survey_id": "LM_23_OSCX_20230603_CS_792_788_SORT_LWRP_INTERP", "date": "2023-06-03T00:00:00Z", "method": "blob" }, "geometry": { "type": "LineString", "coordinates": [ [ -89.895905870764068, 35.733890857071998 ], [ -89.900054275808273, 35.738221123525065 ] ] } },
{ "type": "Feature", "properties": { "station_id": 34, "station_ft": 11791.7, "width_ft": 1804.5, "flag": "ok", "lon": -89.896512, "lat": 35.73598, "survey_id": "LM_23_OSCX_20230603_CS_792_788_SORT_LWRP_INTERP", "date": "2023-06-03T00:00:00Z", "method": "blob" }, "geometry": { "type": "LineString", "coordinates": [ [ -89.896159383854595, 35.733837549997588 ], [ -89.896968127025232, 35.738747648737132 ] ] } },
{ "type": "Feature", "properties": { "station_id": 35, "station_ft": 12095.9, "width_ft": 1804.5, "flag": "ok", "lon": -89.895497, "lat": 35.736091, "survey_id": "LM_23_OSCX_20230603_CS_792_788_SORT_LWRP_INTERP", "date": "2023-06-03T00:00:00Z", "method": "blob" }, "geometry": { "type": "LineString", "coordinates": [ [ -89.895114961576169, 35.733770132101547 ], [ -89.895923639602501, 35.738680234678853 ] ] } },
{ "type": "Feature", "properties": { "station_id": 36, "station_ft": 12406.0, "width_ft": 1771.7, "flag": "ok", "lon": -89.89448, "lat": 35.736271, "survey_id": "LM_23_OSCX_20230603_CS_792_788_SORT_LWRP_INTERP", "date": "2023-06-03T00:00:00Z", "method": "blob" }, "geometry": { "type": "LineString", "coordinates": [ [ -89.893594760284969, 35.733854241581668 ], [ -89.895301132333003, 35.738515127788581 ] ] } },
{ "type": "Feature", "properties": { "station_id": 37, "station_ft": 12716.2, "width_ft": 1968.5, "flag": "ok", "lon": -89.893467, "lat": 35.736314, "survey_id": "LM_23_OSCX_20230603_CS_792_788_SORT_LWRP_INTERP", "date": "2023-06-03T00:00:00Z", "method": "blob" }, "geometry": { "type": "LineString", "coordinates": [ [ -89.894093697485687, 35.733751753130093 ], [ -89.89279732231428, 35.739051936525733 ] ] } },
{ "type": "Feature", "properties": { "station_id": 38, "station_ft": 13030.8, "width_ft": 2231.0, "flag": "ok", "lon": -89.892467, "lat": 35.736047, "survey_id": "LM_23_OSCX_20230603_CS_792_788_SORT_LWRP_INTERP", "date": "2023-06-03T00:00:00Z", "method": "blob" }, "geometry": { "type": "LineString", "coordinates": [ [ -89.893700696561794, 35.733833102114524 ], [ -89.890592877091677, 35.73940957084708 ] ] } },
{ "type": "Feature", "properties": { "station_id": 39, "station_ft": 13366.9, "width_ft": 2329.4, "flag": "ok", "lon": -89.891473, "lat": 35.73561, "survey_id": "LM_23_OSCX_20230603_CS_792_788_SORT_LWRP_INTERP", "date": "2023-06-03T00:00:00Z", "method": "blob" }, "geometry": { "type": "LineString", "coordinates": [ [ -89.89276364869221, 35.733930361452394 ], [ -89.888598388293772, 35.739349578410682 ] ] } },
{ "type": "Feature", "properties": { "station_id": 40, "station_ft": 13698.7, "width_ft": 2132.5, "flag": "ok", "lon": -89.890478, "lat": 35.735206, "survey_id": "LM_23_OSCX_20230603_CS_792_788_SORT_LWRP_INTERP", "date": "2023-06-03T00:00:00Z", "method": "blob" }, "geometry": { "type": "LineString", "coordinates": [ [ -89.89108991003917, 35.733854028525869 ], [ -89.888604074643723, 35.739346960290149 ] ] } },
{ "type": "Feature", "properties": { "station_id": 41, "station_ft": 14014.9, "width_ft": 1968.5, "flag": "ok", "lon": -89.889479, "lat": 35.734906, "survey_id": "LM_23_OSCX_20230603_CS_792_788_SORT_LWRP_INTERP", "date": "2023-06-03T00:00:00Z", "method": "blob" }, "geometry": { "type": "LineString", "coordinates": [ [ -89.889899698512778, 35.733976032257132 ], [ -89.887605016263265, 35.739046406604004 ] ] } },
{ "type": "Feature", "properties": { "station_id": 42, "station_ft": 14325.1, "width_ft": 1804.5, "flag": "ok", "lon": -89.888472, "lat": 35.734811, "survey_id": "LM_23_OSCX_20230603_CS_792_788_SORT_LWRP_INTERP", "date": "2023-06-03T00:00:00Z", "method": "blob" }, "geometry": { "type": "LineString", "coordinates": [ [ -89.888383837864467, 35.734275219999191 ], [ -89.889192101209233, 35.739185347091812 ] ] } },
{ "type": "Feature", "properties": { "station_id": 43, "station_ft": 14639.7, "width_ft": 1902.9, "flag": "ok", "lon": -89.887453, "lat": 35.735025, "survey_id": "LM_23_OSCX_20230603_CS_792_788_SORT_LWRP_INTERP", "date": "2023-06-03T00:00:00Z", "method": "blob" }, "geometry": { "type": "LineString", "coordinates": [ [ -89.887099873603503, 35.734267000358642 ], [ -89.889375457916458, 35.739150841758686 ] ] } },
{ "type": "Feature", "properties": { "station_id": 44, "station_ft": 14956.8, "width_ft": 1476.4, "flag": "ok", "lon": -89.886441, "lat": 35.735067, "survey_id": "LM_23_OSCX_20230603_CS_792_788_SORT_LWRP_INTERP", "date": "2023-06-03T00:00:00Z", "method": "blob" }, "geometry": { "type": "LineString", "coordinates": [ [ -89.886712255188939, 35.734287459453448 ], [ -89.885353914268279, 35.738186620130215 ] ] } },
{ "type": "Feature", "properties": { "station_id": 45, "station_ft": 15323.6, "width_ft": 2099.7, "flag": "ok", "lon": -89.885419, "lat": 35.73535, "survey_id": "LM_23_OSCX_20230603_CS_792_788_SORT_LWRP_INTERP", "date": "2023-06-03T00:00:00Z", "method": "blob" }, "geometry": { "type": "LineString", "coordinates": [ [ -89.884284909541137, 35.734364585630921 ], [ -89.889123349781983, 35.738568306442787 ] ] } },
{ "type": "Feature", "properties": { "station_id": 46, "station_ft": 15730.9, "width_ft": 2329.4, "flag": "ok", "lon": -89.88438, "lat": 35.736078, "survey_id": "LM_23_OSCX_20230603_CS_792_788_SORT_LWRP_INTERP", "date": "2023-06-03T00:00:00Z", "method": "blob" }, "geometry": { "type": "LineString", "coordinates": [ [ -89.882883915624888, 35.734516411426426 ], [ -89.887711602561154, 35.739557029736702 ] ] } },
{ "type": "Feature", "properties": { "station_id": 47, "station_ft": 16088.7, "width_ft": 2329.4, "flag": "ok", "lon": -89.88335, "lat": 35.736567, "survey_id": "LM_23_OSCX_20230603_CS_792_788_SORT_LWRP_INTERP", "date": "2023-06-03T00:00:00Z", "method": "blob" }, "geometry": { "type": "LineString", "coordinates": [ [ -89.882486965681821, 35.734714131518245 ], [ -89.885272289816484, 35.740692712655502 ] ] } },
{ "type": "Feature", "properties": { "station_id": 48, "station_ft": 16413.7, "width_ft": 2460.6, "flag": "ok", "lon": -89.88234, "lat": 35.73654, "survey_id": "LM_23_OSCX_20230603_CS_792_788_SORT_LWRP_INTERP", "date": "2023-06-03T00:00:00Z", "method": "blob" }, "geometry": { "type": "LineString", "coordinates": [ [ -89.883528777792577, 35.73440839324897 ], [ -89.880100219822594, 35.740558572779726 ] ] } },
{ "type": "Feature", "properties": { "station_id": 49, "station_ft": 16726.2, "width_ft": 2034.1, "flag": "ok", "lon": -89.881337, "lat": 35.736343, "survey_id": "LM_23_OSCX_20230603_CS_792_788_SORT_LWRP_INTERP", "date": "2023-06-03T00:00:00Z", "method": "blob" }, "geometry": { "type": "LineString", "coordinates": [ [ -89.881382940728841, 35.735172387461887 ], [ -89.881165060571945, 35.740754213702765 ] ] } },
{ "type": "Feature", "properties": { "station_id": 50, "station_ft": 17043.9, "width_ft": 2296.6, "flag": "ok", "lon": -89.88032, "lat": 35.736522, "survey_id": "LM_23_OSCX_20230603_CS_792_788_SORT_LWRP_INTERP", "date": "2023-06-03T00:00:00Z", "method": "blob" }, "geometry": { "type": "LineString", "coordinates": [ [ -89.879348532251569, 35.734804439014304 ], [ -89.882585319393826, 35.740530874002161 ] ] } },
{ "type": "Feature", "properties": { "station_id": 51, "station_ft": 17363.7, "width_ft": 2296.6, "flag": "ok", "lon": -89.879304, "lat": 35.736633, "survey_id": "LM_23_OSCX_20230603_CS_792_788_SORT_LWRP_INTERP", "date": "2023-06-03T00:00:00Z", "method": "blob" }, "geometry": { "type": "LineString", "coordinates": [ [ -89.879758504180501, 35.734778375546419 ], [ -89.878244924912423, 35.740961682110537 ] ] } },
{ "type": "Feature", "properties": { "station_id": 52, "station_ft": 17666.3, "width_ft": 2198.2, "flag": "ok", "lon": -89.878299, "lat": 35.736504, "survey_id": "LM_23_OSCX_20230603_CS_792_788_SORT_LWRP_INTERP", "date": "2023-06-03T00:00:00Z", "method": "blob" }, "geometry": { "type": "LineString", "coordinates": [ [ -89.878526923311071, 35.734893607125876 ], [ -89.877677641217929, 35.740888768756662 ] ] } },
{ "type": "Feature", "properties": { "station_id": 53, "station_ft": 17971.4, "width_ft": 2165.4, "flag": "ok", "lon": -89.877294, "lat": 35.736341, "survey_id": "LM_23_OSCX_20230603_CS_792_788_SORT_LWRP_INTERP", "date": "2023-06-03T00:00:00Z", "method": "blob" }, "geometry": { "type": "LineString", "coordinates": [ [ -89.877807733192043, 35.734867845394042 ], [ -89.875814805464003, 35.740586425136165 ] ] } },
{ "type": "Feature", "properties": { "station_id": 54, "station_ft": 18276.0, "width_ft": 2034.1, "flag": "ok", "lon": -89.876289, "lat": 35.736212, "survey_id": "LM_23_OSCX_20230603_CS_792_788_SORT_LWRP_INTERP", "date": "2023-06-03T00:00:00Z", "method": "blob" }, "geometry": { "type": "LineString", "coordinates": [ [ -89.876334509894093, 35.735041301517441 ], [ -89.87611627842972, 35.740623100981423 ] ] } },
{ "type": "Feature", "properties": { "station_id": 55, "station_ft": 18578.1, "width_ft": 1968.5, "flag": "ok", "lon": -89.875282, "lat": 35.736117, "survey_id": "LM_23_OSCX_20230603_CS_792_788_SORT_LWRP_INTERP", "date": "2023-06-03T00:00:00Z", "method": "blob" }, "geometry": { "type": "LineString", "coordinates": [ [ -89.875519625184666, 35.735145179827327 ], [ -89.874222002206281, 35.740445098581446 ] ] } },
{ "type": "Feature", "properties": { "station_id": 56, "station_ft": 19076.8, "width_ft": 2690.3, "flag": "ok", "lon": -89.874241, "lat": 35.73688, "survey_id": "LM_23_OSCX_20230603_CS_792_788_SORT_LWRP_INTERP", "date": "2023-06-03T00:00:00Z", "method": "blob" }, "geometry": { "type": "LineString", "coordinates": [ [ -89.871006436738995, 35.735508412066658 ], [ -89.879044510407454, 35.738915218202045 ] ] } },
{ "type": "Feature", "properties": { "station_id": 57, "station_ft": 19626.9, "width_ft": 2263.8, "flag": "ok", "lon": -89.873183, "lat": 35.738088, "survey_id": "LM_23_OSCX_20230603_CS_792_788_SORT_LWRP_INTERP", "date": "2023-06-03T00:00:00Z", "method": "blob" }, "geometry": { "type": "LineString", "coordinates": [ [ -89.871742800176079, 35.736721947686867 ], [ -89.87671223890537, 35.741435033132909 ] ] } },
{ "type": "Feature", "properties": { "station_id": 58, "station_ft": 20080.9, "width_ft": 2854.3, "flag": "waypoint", "lon": -89.872208, "lat": 35.739031, "survey_id": "LM_23_OSCX_20230603_CS_792_788_SORT_LWRP_INTERP", "date": "2023-06-03T00:00:00Z", "method": "blob" }, "geometry": { "type": "LineString", "coordinates": [ [ -89.868675033619454, 35.737181695465111 ], [ -89.876763464352209, 35.741415424678415 ] ] } },
{ "type": "Feature", "properties": { "station_id": 59, "station_ft": 20653.9, "width_ft": 2198.2, "flag": "waypoint", "lon": -89.870792, "lat": 35.740024, "survey_id": "LM_23_OSCX_20230603_CS_792_788_SORT_LWRP_INTERP", "date": "2023-06-03T00:00:00Z", "method": "blob" }, "geometry": { "type": "LineString", "coordinates": [ [ -89.868930407386941, 35.73715884954543 ], [ -89.872395983475442, 35.742491583054864 ] ] } },
{ "type": "Feature", "properties": { "station_id": 60, "station_ft": 21526.6, "width_ft": 1902.9, "flag": "waypoint", "lon": -89.868013, "lat": 35.740726, "survey_id": "LM_23_OSCX_20230603_CS_792_788_SORT_LWRP_INTERP", "date": "2023-06-03T00:00:00Z", "method": "blob" }, "geometry": { "type": "LineString", "coordinates": [ [ -89.867237273070955, 35.737453489221267 ], [ -89.868454040979756, 35.74258274841074 ] ] } },
{ "type": "Feature", "properties": { "station_id": 61, "station_ft": 22440.1, "width_ft": 1312.3, "flag": "waypoint", "lon": -89.865026, "lat": 35.741307, "survey_id": "LM_23_OSCX_20230603_CS_792_788_SORT_LWRP_INTERP", "date": "2023-06-03T00:00:00Z", "method": "blob" }, "geometry": { "type": "LineString", "coordinates": [ [ -89.864209891893992, 35.739155575271738 ], [ -89.865515220650991, 35.742597787579918 ] ] } },
{ "type": "Feature", "properties": { "station_id": 62, "station_ft": 23150.1, "width_ft": 1181.1, "flag": "waypoint", "lon": -89.862691, "lat": 35.741545, "survey_id": "LM_23_OSCX_20230603_CS_792_788_SORT_LWRP_INTERP", "date": "2023-06-03T00:00:00Z", "method": "blob" }, "geometry": { "type": "LineString", "coordinates": [ [ -89.862841179531273, 35.739477164235765 ], [ -89.862606466975109, 35.74271417516249 ] ] } },
{ "type": "Feature", "properties": { "station_id": 63, "station_ft": 23784.5, "width_ft": 1246.7, "flag": "waypoint", "lon": -89.860596, "lat": 35.74171, "survey_id": "LM_23_OSCX_20230603_CS_792_788_SORT_LWRP_INTERP", "date": "2023-06-03T00:00:00Z", "method": "blob" }, "geometry": { "type": "LineString", "coordinates": [ [ -89.859883553753093, 35.739721630459421 ], [ -89.861060297700874, 35.743007238854148 ] ] } },
{ "type": "Feature", "properties": { "station_id": 64, "station_ft": 24414.3, "width_ft": 1345.1, "flag": "waypoint", "lon": -89.858518, "lat": 35.742011, "survey_id": "LM_23_OSCX_20230603_CS_792_788_SORT_LWRP_INTERP", "date": "2023-06-03T00:00:00Z", "method": "blob" }, "geometry": { "type": "LineString", "coordinates": [ [ -89.858254892191894, 35.739498430314427 ], [ -89.858639732724228, 35.743178100138472 ] ] } },
{ "type": "Feature", "properties": { "station_id": 65, "station_ft": 25043.4, "width_ft": 1509.2, "flag": "waypoint", "lon": -89.856506, "lat": 35.742445, "survey_id": "LM_23_OSCX_20230603_CS_792_788_SORT_LWRP_INTERP", "date": "2023-06-03T00:00:00Z", "method": "blob" }, "geometry": { "type": "LineString", "coordinates": [ [ -89.854670877334996, 35.739466730402384 ], [ -89.856952729086245, 35.743169005991838 ] ] } },
{ "type": "Feature", "properties": { "station_id": 66, "station_ft": 25625.0, "width_ft": 1410.8, "flag": "waypoint", "lon": -89.854667, "lat": 35.742946, "survey_id": "LM_23_OSCX_20230603_CS_792_788_SORT_LWRP_INTERP", "date": "2023-06-03T00:00:00Z", "method": "blob" }, "geometry": { "type": "LineString", "coordinates": [ [ -89.85390055145119, 35.739580647936982 ], [ -89.854767959279627, 35.743388701656563 ] ] } },
{ "type": "Feature", "properties": { "station_id": 67, "station_ft": 26200.6, "width_ft": 1542.0, "flag": "waypoint", "lon": -89.852746, "lat": 35.743124, "survey_id": "LM_23_OSCX_20230603_CS_792_788_SORT_LWRP_INTERP", "date": "2023-06-03T00:00:00Z", "method": "blob" }, "geometry": { "type": "LineString", "coordinates": [ [ -89.852568542565038, 35.739433762247472 ], [ -89.852772039928311, 35.743663958192634 ] ] } },
{ "type": "Feature", "properties": { "station_id": 68, "station_ft": 26964.7, "width_ft": 1771.7, "flag": "waypoint", "lon": -89.850342, "lat": 35.742567, "survey_id": "LM_23_OSCX_20230603_CS_792_788_SORT_LWRP_INTERP", "date": "2023-06-03T00:00:00Z", "method": "blob" }, "geometry": { "type": "LineString", "coordinates": [ [ -89.852250178831525, 35.739416874001243 ], [ -89.84960819653476, 35.743777921455766 ] ] } },
{ "type": "Feature", "properties": { "station_id": 69, "station_ft": 27861.7, "width_ft": 1607.6, "flag": "waypoint", "lon": -89.847545, "lat": 35.742295, "survey_id": "LM_23_OSCX_20230603_CS_792_788_SORT_LWRP_INTERP", "date": "2023-06-03T00:00:00Z", "method": "blob" }, "geometry": { "type": "LineString", "coordinates": [ [ -89.846560240836453, 35.739526854861893 ], [ -89.848067734795961, 35.743765868290474 ] ] } },
{ "type": "Feature", "properties": { "station_id": 70, "station_ft": 28537.2, "width_ft": 1738.8, "flag": "waypoint", "lon": -89.845386, "lat": 35.742348, "survey_id": "LM_23_OSCX_20230603_CS_792_788_SORT_LWRP_INTERP", "date": "2023-06-03T00:00:00Z", "method": "blob" }, "geometry": { "type": "LineString", "coordinates": [ [ -89.846720625118181, 35.739582253436502 ], [ -89.844577494291414, 35.744024894017372 ] ] } },
{ "type": "Feature", "properties": { "station_id": 71, "station_ft": 29226.5, "width_ft": 1837.3, "flag": "waypoint", "lon": -89.843144, "lat": 35.742268, "survey_id": "LM_23_OSCX_20230603_CS_792_788_SORT_LWRP_INTERP", "date": "2023-06-03T00:00:00Z", "method": "blob" }, "geometry": { "type": "LineString", "coordinates": [ [ -89.842611406649056, 35.739509451167315 ], [ -89.843572771891886, 35.744492264872434 ] ] } },
{ "type": "Feature", "properties": { "station_id": 72, "station_ft": 30034.6, "width_ft": 1542.0, "flag": "waypoint", "lon": -89.840444, "lat": 35.742362, "survey_id": "LM_23_OSCX_20230603_CS_792_788_SORT_LWRP_INTERP", "date": "2023-06-03T00:00:00Z", "method": "blob" }, "geometry": { "type": "LineString", "coordinates": [ [ -89.840650333143202, 35.740387204863275 ], [ -89.840210425095293, 35.744605400906082 ] ] } }
]
}
