{
"type": "FeatureCollection",
"name": "UM_SL_PRC_20260818_BD_1_transects",
"crs": { "type": "name", "properties": { "name": "urn:ogc:def:crs:OGC:1.3:CRS84" } },
"features": [
{ "type": "Feature", "properties": { "station_id": 0, "station_ft": 0.0, "width_ft": 1212.2, "flag": "ok", "lon": -90.351228, "lat": 38.210736, "survey_id": "UM_SL_PRC_20260818_BD_1", "date": "2026-08-18 00:00:00+00:00", "method": "blob" }, "geometry": { "type": "LineString", "coordinates": [ [ -90.349292624319375, 38.21150153897198 ], [ -90.353250720842425, 38.209936432265486 ] ] } },
{ "type": "Feature", "properties": { "station_id": 1, "station_ft": 98.4, "width_ft": 1181.3, "flag": "ok", "lon": -90.351381, "lat": 38.210978, "survey_id": "UM_SL_PRC_20260818_BD_1", "date": "2026-08-18 00:00:00+00:00", "method": "blob" }, "geometry": { "type": "LineString", "coordinates": [ [ -90.349442460383415, 38.211801253218702 ], [ -90.353416192528357, 38.210113691533337 ] ] } },
{ "type": "Feature", "properties": { "station_id": 2, "station_ft": 196.9, "width_ft": 1061.6, "flag": "ok", "lon": -90.351568, "lat": 38.211204, "survey_id": "UM_SL_PRC_20260818_BD_1", "date": "2026-08-18 00:00:00+00:00", "method": "blob" }, "geometry": { "type": "LineString", "coordinates": [ [ -90.349761487853186, 38.21215715011077 ], [ -90.35348846592818, 38.210191113087092 ] ] } },
{ "type": "Feature", "properties": { "station_id": 3, "station_ft": 295.3, "width_ft": 1133.6, "flag": "ok", "lon": -90.351759, "lat": 38.211429, "survey_id": "UM_SL_PRC_20260818_BD_1", "date": "2026-08-18 00:00:00+00:00", "method": "blob" }, "geometry": { "type": "LineString", "coordinates": [ [ -90.34991323950986, 38.212402124101196 ], [ -90.353691765861129, 38.210408893328868 ] ] } },
{ "type": "Feature", "properties": { "station_id": 4, "station_ft": 393.7, "width_ft": 1136.8, "flag": "ok", "lon": -90.351949, "lat": 38.211653, "survey_id": "UM_SL_PRC_20260818_BD_1", "date": "2026-08-18 00:00:00+00:00", "method": "blob" }, "geometry": { "type": "LineString", "coordinates": [ [ -90.350064992148532, 38.212647097923224 ], [ -90.353895066989892, 38.210626673255128 ] ] } },
{ "type": "Feature", "properties": { "station_id": 5, "station_ft": 492.1, "width_ft": 1066.1, "flag": "ok", "lon": -90.352139, "lat": 38.211878, "survey_id": "UM_SL_PRC_20260818_BD_1", "date": "2026-08-18 00:00:00+00:00", "method": "blob" }, "geometry": { "type": "LineString", "coordinates": [ [ -90.350231049956548, 38.212884526347104 ], [ -90.354098369314471, 38.210844452865899 ] ] } },
{ "type": "Feature", "properties": { "station_id": 6, "station_ft": 590.6, "width_ft": 1082.4, "flag": "ok", "lon": -90.35233, "lat": 38.212102, "survey_id": "UM_SL_PRC_20260818_BD_1", "date": "2026-08-18 00:00:00+00:00", "method": "blob" }, "geometry": { "type": "LineString", "coordinates": [ [ -90.350406021468487, 38.213117253280842 ], [ -90.354257651350565, 38.211085455634397 ] ] } },
{ "type": "Feature", "properties": { "station_id": 7, "station_ft": 689.0, "width_ft": 1045.3, "flag": "ok", "lon": -90.35252, "lat": 38.212327, "survey_id": "UM_SL_PRC_20260818_BD_1", "date": "2026-08-18 00:00:00+00:00", "method": "blob" }, "geometry": { "type": "LineString", "coordinates": [ [ -90.350580994068139, 38.213349979985964 ], [ -90.35438588135716, 38.211342840189943 ] ] } },
{ "type": "Feature", "properties": { "station_id": 8, "station_ft": 787.4, "width_ft": 1208.7, "flag": "ok", "lon": -90.35271, "lat": 38.212552, "survey_id": "UM_SL_PRC_20260818_BD_1", "date": "2026-08-18 00:00:00+00:00", "method": "blob" }, "geometry": { "type": "LineString", "coordinates": [ [ -90.350755967755504, 38.213582706462397 ], [ -90.354556160581183, 38.211578042116344 ] ] } },
{ "type": "Feature", "properties": { "station_id": 9, "station_ft": 885.8, "width_ft": 1173.0, "flag": "ok", "lon": -90.35283, "lat": 38.2128, "survey_id": "UM_SL_PRC_20260818_BD_1", "date": "2026-08-18 00:00:00+00:00", "method": "blob" }, "geometry": { "type": "LineString", "coordinates": [ [ -90.350483119863128, 38.213219800145417 ], [ -90.354989411556744, 38.21241422614807 ] ] } },
{ "type": "Feature", "properties": { "station_id": 10, "station_ft": 984.3, "width_ft": 1296.9, "flag": "ok", "lon": -90.352949, "lat": 38.213051, "survey_id": "UM_SL_PRC_20260818_BD_1", "date": "2026-08-18 00:00:00+00:00", "method": "blob" }, "geometry": { "type": "LineString", "coordinates": [ [ -90.350987682910187, 38.213890900232144 ], [ -90.354953638377197, 38.212192422838157 ] ] } },
{ "type": "Feature", "properties": { "station_id": 11, "station_ft": 1082.7, "width_ft": 1247.0, "flag": "ok", "lon": -90.353112, "lat": 38.213288, "survey_id": "UM_SL_PRC_20260818_BD_1", "date": "2026-08-18 00:00:00+00:00", "method": "blob" }, "geometry": { "type": "LineString", "coordinates": [ [ -90.351218743416212, 38.214099384999713 ], [ -90.355032136095303, 38.212466244344917 ] ] } },
{ "type": "Feature", "properties": { "station_id": 12, "station_ft": 1181.1, "width_ft": 1268.2, "flag": "ok", "lon": -90.353276, "lat": 38.213526, "survey_id": "UM_SL_PRC_20260818_BD_1", "date": "2026-08-18 00:00:00+00:00", "method": "blob" }, "geometry": { "type": "LineString", "coordinates": [ [ -90.351361318303859, 38.214345762874935 ], [ -90.355239385417789, 38.212684922899925 ] ] } },
{ "type": "Feature", "properties": { "station_id": 13, "station_ft": 1279.5, "width_ft": 1262.8, "flag": "ok", "lon": -90.353439, "lat": 38.213763, "survey_id": "UM_SL_PRC_20260818_BD_1", "date": "2026-08-18 00:00:00+00:00", "method": "blob" }, "geometry": { "type": "LineString", "coordinates": [ [ -90.351506183614333, 38.214591160152118 ], [ -90.355367960940185, 38.212937297015991 ] ] } },
{ "type": "Feature", "properties": { "station_id": 14, "station_ft": 1378.0, "width_ft": 1306.3, "flag": "ok", "lon": -90.353663, "lat": 38.213957, "survey_id": "UM_SL_PRC_20260818_BD_1", "date": "2026-08-18 00:00:00+00:00", "method": "blob" }, "geometry": { "type": "LineString", "coordinates": [ [ -90.352173363962336, 38.21577207235282 ], [ -90.354979423467242, 38.2123522974262 ] ] } },
{ "type": "Feature", "properties": { "station_id": 15, "station_ft": 1476.4, "width_ft": 1145.1, "flag": "ok", "lon": -90.353951, "lat": 38.214103, "survey_id": "UM_SL_PRC_20260818_BD_1", "date": "2026-08-18 00:00:00+00:00", "method": "blob" }, "geometry": { "type": "LineString", "coordinates": [ [ -90.352371145924977, 38.21602823200147 ], [ -90.355172429720369, 38.212614274956429 ] ] } },
{ "type": "Feature", "properties": { "station_id": 16, "station_ft": 1574.8, "width_ft": 1473.1, "flag": "ok", "lon": -90.354238, "lat": 38.21425, "survey_id": "UM_SL_PRC_20260818_BD_1", "date": "2026-08-18 00:00:00+00:00", "method": "blob" }, "geometry": { "type": "LineString", "coordinates": [ [ -90.352563241019737, 38.216291323254239 ], [ -90.355348806248273, 38.212896521897505 ] ] } },
{ "type": "Feature", "properties": { "station_id": 17, "station_ft": 1673.2, "width_ft": 1287.0, "flag": "ok", "lon": -90.354467, "lat": 38.214446, "survey_id": "UM_SL_PRC_20260818_BD_1", "date": "2026-08-18 00:00:00+00:00", "method": "blob" }, "geometry": { "type": "LineString", "coordinates": [ [ -90.352168888279635, 38.215766275595726 ], [ -90.355933584690263, 38.213603086030233 ] ] } },
{ "type": "Feature", "properties": { "station_id": 18, "station_ft": 1771.7, "width_ft": 800.1, "flag": "ok", "lon": -90.354669, "lat": 38.214664, "survey_id": "UM_SL_PRC_20260818_BD_1", "date": "2026-08-18 00:00:00+00:00", "method": "blob" }, "geometry": { "type": "LineString", "coordinates": [ [ -90.352347661125478, 38.215997815492742 ], [ -90.356050350040036, 38.21387025626634 ] ] } },
{ "type": "Feature", "properties": { "station_id": 19, "station_ft": 1870.1, "width_ft": 839.0, "flag": "ok", "lon": -90.35487, "lat": 38.214882, "survey_id": "UM_SL_PRC_20260818_BD_1", "date": "2026-08-18 00:00:00+00:00", "method": "blob" }, "geometry": { "type": "LineString", "coordinates": [ [ -90.352526435078659, 38.216229355150311 ], [ -90.356173651181166, 38.214133671199576 ] ] } },
{ "type": "Feature", "properties": { "station_id": 20, "station_ft": 1968.5, "width_ft": 772.8, "flag": "ok", "lon": -90.355046, "lat": 38.215111, "survey_id": "UM_SL_PRC_20260818_BD_1", "date": "2026-08-18 00:00:00+00:00", "method": "blob" }, "geometry": { "type": "LineString", "coordinates": [ [ -90.352194790675171, 38.215799823512363 ], [ -90.356572832744433, 38.214742396353216 ] ] } },
{ "type": "Feature", "properties": { "station_id": 21, "station_ft": 2066.9, "width_ft": 838.2, "flag": "ok", "lon": -90.355146, "lat": 38.21537, "survey_id": "UM_SL_PRC_20260818_BD_1", "date": "2026-08-18 00:00:00+00:00", "method": "blob" }, "geometry": { "type": "LineString", "coordinates": [ [ -90.352378678114604, 38.216037987365475 ], [ -90.356669749456827, 38.215001564752654 ] ] } },
{ "type": "Feature", "properties": { "station_id": 22, "station_ft": 2165.4, "width_ft": 899.4, "flag": "ok", "lon": -90.355247, "lat": 38.215628, "survey_id": "UM_SL_PRC_20260818_BD_1", "date": "2026-08-18 00:00:00+00:00", "method": "blob" }, "geometry": { "type": "LineString", "coordinates": [ [ -90.352557012070264, 38.216277492463199 ], [ -90.356805246278697, 38.215251414132389 ] ] } },
{ "type": "Feature", "properties": { "station_id": 23, "station_ft": 2263.8, "width_ft": 962.3, "flag": "ok", "lon": -90.355316, "lat": 38.215892, "survey_id": "UM_SL_PRC_20260818_BD_1", "date": "2026-08-18 00:00:00+00:00", "method": "blob" }, "geometry": { "type": "LineString", "coordinates": [ [ -90.352486726751522, 38.216177926927926 ], [ -90.357102721484608, 38.215710656021336 ] ] } },
{ "type": "Feature", "properties": { "station_id": 24, "station_ft": 2362.2, "width_ft": 929.5, "flag": "ok", "lon": -90.355359, "lat": 38.21616, "survey_id": "UM_SL_PRC_20260818_BD_1", "date": "2026-08-18 00:00:00+00:00", "method": "blob" }, "geometry": { "type": "LineString", "coordinates": [ [ -90.352628399340531, 38.216436000808073 ], [ -90.357268319931762, 38.21596630401536 ] ] } },
{ "type": "Feature", "properties": { "station_id": 25, "station_ft": 2460.6, "width_ft": 939.1, "flag": "ok", "lon": -90.355493, "lat": 38.216405, "survey_id": "UM_SL_PRC_20260818_BD_1", "date": "2026-08-18 00:00:00+00:00", "method": "blob" }, "geometry": { "type": "LineString", "coordinates": [ [ -90.353229844799571, 38.217337618663535 ], [ -90.357118695946383, 38.215735317201009 ] ] } },
{ "type": "Feature", "properties": { "station_id": 26, "station_ft": 2559.1, "width_ft": 941.9, "flag": "ok", "lon": -90.355651, "lat": 38.216645, "survey_id": "UM_SL_PRC_20260818_BD_1", "date": "2026-08-18 00:00:00+00:00", "method": "blob" }, "geometry": { "type": "LineString", "coordinates": [ [ -90.353231201472894, 38.217339663275702 ], [ -90.357385276547291, 38.216146858433476 ] ] } },
{ "type": "Feature", "properties": { "station_id": 27, "station_ft": 2657.5, "width_ft": 987.1, "flag": "ok", "lon": -90.355728, "lat": 38.216908, "survey_id": "UM_SL_PRC_20260818_BD_1", "date": "2026-08-18 00:00:00+00:00", "method": "blob" }, "geometry": { "type": "LineString", "coordinates": [ [ -90.353247311253, 38.217363941957608 ], [ -90.357510118611458, 38.216580727796526 ] ] } },
{ "type": "Feature", "properties": { "station_id": 28, "station_ft": 2755.9, "width_ft": 1024.3, "flag": "ok", "lon": -90.355806, "lat": 38.217171, "survey_id": "UM_SL_PRC_20260818_BD_1", "date": "2026-08-18 00:00:00+00:00", "method": "blob" }, "geometry": { "type": "LineString", "coordinates": [ [ -90.353326920321038, 38.217626743949715 ], [ -90.357619469314017, 38.216838065081234 ] ] } },
{ "type": "Feature", "properties": { "station_id": 29, "station_ft": 2854.3, "width_ft": 1055.3, "flag": "ok", "lon": -90.355884, "lat": 38.217434, "survey_id": "UM_SL_PRC_20260818_BD_1", "date": "2026-08-18 00:00:00+00:00", "method": "blob" }, "geometry": { "type": "LineString", "coordinates": [ [ -90.353450142625718, 38.217955857325222 ], [ -90.357720141462565, 38.217040908296745 ] ] } },
{ "type": "Feature", "properties": { "station_id": 30, "station_ft": 2952.8, "width_ft": 996.9, "flag": "ok", "lon": -90.35602, "lat": 38.217682, "survey_id": "UM_SL_PRC_20260818_BD_1", "date": "2026-08-18 00:00:00+00:00", "method": "blob" }, "geometry": { "type": "LineString", "coordinates": [ [ -90.353787864563557, 38.218495924850053 ], [ -90.357732493251817, 38.217057040608395 ] ] } },
{ "type": "Feature", "properties": { "station_id": 31, "station_ft": 3051.2, "width_ft": 1041.7, "flag": "ok", "lon": -90.356164, "lat": 38.217927, "survey_id": "UM_SL_PRC_20260818_BD_1", "date": "2026-08-18 00:00:00+00:00", "method": "blob" }, "geometry": { "type": "LineString", "coordinates": [ [ -90.353982855576518, 38.218722481194888 ], [ -90.357910656030271, 38.217289732915212 ] ] } },
{ "type": "Feature", "properties": { "station_id": 32, "station_ft": 3149.6, "width_ft": 972.0, "flag": "ok", "lon": -90.356308, "lat": 38.218172, "survey_id": "UM_SL_PRC_20260818_BD_1", "date": "2026-08-18 00:00:00+00:00", "method": "blob" }, "geometry": { "type": "LineString", "coordinates": [ [ -90.354110641871756, 38.218973550409913 ], [ -90.358088819917398, 38.217522424984288 ] ] } },
{ "type": "Feature", "properties": { "station_id": 33, "station_ft": 3248.0, "width_ft": 1037.5, "flag": "ok", "lon": -90.356452, "lat": 38.218417, "survey_id": "UM_SL_PRC_20260818_BD_1", "date": "2026-08-18 00:00:00+00:00", "method": "blob" }, "geometry": { "type": "LineString", "coordinates": [ [ -90.354231552866992, 38.219227127554994 ], [ -90.358266984913342, 38.217755116815795 ] ] } },
{ "type": "Feature", "properties": { "station_id": 34, "station_ft": 3346.5, "width_ft": 1244.0, "flag": "ok", "lon": -90.356595, "lat": 38.218663, "survey_id": "UM_SL_PRC_20260818_BD_1", "date": "2026-08-18 00:00:00+00:00", "method": "blob" }, "geometry": { "type": "LineString", "coordinates": [ [ -90.354352464658362, 38.219480704596222 ], [ -90.35844515101796, 38.217987808409553 ] ] } },
{ "type": "Feature", "properties": { "station_id": 35, "station_ft": 3444.9, "width_ft": 1189.6, "flag": "ok", "lon": -90.356787, "lat": 38.218883, "survey_id": "UM_SL_PRC_20260818_BD_1", "date": "2026-08-18 00:00:00+00:00", "method": "blob" }, "geometry": { "type": "LineString", "coordinates": [ [ -90.354820427398835, 38.22020611991038 ], [ -90.358334348495418, 38.217843096370714 ] ] } },
{ "type": "Feature", "properties": { "station_id": 36, "station_ft": 3543.3, "width_ft": 946.5, "flag": "ok", "lon": -90.357009, "lat": 38.219089, "survey_id": "UM_SL_PRC_20260818_BD_1", "date": "2026-08-18 00:00:00+00:00", "method": "blob" }, "geometry": { "type": "LineString", "coordinates": [ [ -90.35497784749171, 38.220455298570251 ], [ -90.358513796611348, 38.218077461671086 ] ] } },
{ "type": "Feature", "properties": { "station_id": 37, "station_ft": 3641.7, "width_ft": 938.7, "flag": "ok", "lon": -90.357232, "lat": 38.219295, "survey_id": "UM_SL_PRC_20260818_BD_1", "date": "2026-08-18 00:00:00+00:00", "method": "blob" }, "geometry": { "type": "LineString", "coordinates": [ [ -90.355043575525826, 38.220639748398781 ], [ -90.358688707969776, 38.218399044813793 ] ] } },
{ "type": "Feature", "properties": { "station_id": 38, "station_ft": 3740.2, "width_ft": 877.0, "flag": "ok", "lon": -90.3574, "lat": 38.219529, "survey_id": "UM_SL_PRC_20260818_BD_1", "date": "2026-08-18 00:00:00+00:00", "method": "blob" }, "geometry": { "type": "LineString", "coordinates": [ [ -90.355011453226425, 38.220549605047154 ], [ -90.358962122627361, 38.218862212377395 ] ] } },
{ "type": "Feature", "properties": { "station_id": 39, "station_ft": 3838.6, "width_ft": 895.9, "flag": "ok", "lon": -90.357563, "lat": 38.219767, "survey_id": "UM_SL_PRC_20260818_BD_1", "date": "2026-08-18 00:00:00+00:00", "method": "blob" }, "geometry": { "type": "LineString", "coordinates": [ [ -90.355139668407773, 38.220802098571568 ], [ -90.359155978723834, 38.219086668793693 ] ] } },
{ "type": "Feature", "properties": { "station_id": 40, "station_ft": 3937.0, "width_ft": 995.0, "flag": "ok", "lon": -90.357727, "lat": 38.220004, "survey_id": "UM_SL_PRC_20260818_BD_1", "date": "2026-08-18 00:00:00+00:00", "method": "blob" }, "geometry": { "type": "LineString", "coordinates": [ [ -90.355288316664542, 38.221045865618407 ], [ -90.359277037201295, 38.219342220476129 ] ] } },
{ "type": "Feature", "properties": { "station_id": 41, "station_ft": 4035.4, "width_ft": 941.0, "flag": "ok", "lon": -90.35789, "lat": 38.220242, "survey_id": "UM_SL_PRC_20260818_BD_1", "date": "2026-08-18 00:00:00+00:00", "method": "blob" }, "geometry": { "type": "LineString", "coordinates": [ [ -90.355436965877999, 38.221289632503876 ], [ -90.359441641249617, 38.219579172201009 ] ] } },
{ "type": "Feature", "properties": { "station_id": 42, "station_ft": 4133.9, "width_ft": 949.4, "flag": "ok", "lon": -90.358032, "lat": 38.220487, "survey_id": "UM_SL_PRC_20260818_BD_1", "date": "2026-08-18 00:00:00+00:00", "method": "blob" }, "geometry": { "type": "LineString", "coordinates": [ [ -90.355341395227455, 38.221132908295509 ], [ -90.359736941269404, 38.2200769199547 ] ] } },
{ "type": "Feature", "properties": { "station_id": 43, "station_ft": 4232.3, "width_ft": 1039.9, "flag": "ok", "lon": -90.358132, "lat": 38.220745, "survey_id": "UM_SL_PRC_20260818_BD_1", "date": "2026-08-18 00:00:00+00:00", "method": "blob" }, "geometry": { "type": "LineString", "coordinates": [ [ -90.355491625535223, 38.22137926735239 ], [ -90.359922109373116, 38.220314882768136 ] ] } },
{ "type": "Feature", "properties": { "station_id": 44, "station_ft": 4330.7, "width_ft": 1065.5, "flag": "ok", "lon": -90.358231, "lat": 38.221004, "survey_id": "UM_SL_PRC_20260818_BD_1", "date": "2026-08-18 00:00:00+00:00", "method": "blob" }, "geometry": { "type": "LineString", "coordinates": [ [ -90.355533279112151, 38.22144757373524 ], [ -90.360093776139678, 38.220697003107446 ] ] } },
{ "type": "Feature", "properties": { "station_id": 45, "station_ft": 4429.1, "width_ft": 1097.6, "flag": "ok", "lon": -90.358246, "lat": 38.221273, "survey_id": "UM_SL_PRC_20260818_BD_1", "date": "2026-08-18 00:00:00+00:00", "method": "blob" }, "geometry": { "type": "LineString", "coordinates": [ [ -90.355463676226336, 38.221333434088912 ], [ -90.360445809132372, 38.221225175417693 ] ] } },
{ "type": "Feature", "properties": { "station_id": 46, "station_ft": 4527.6, "width_ft": 1038.3, "flag": "ok", "lon": -90.358356, "lat": 38.221526, "survey_id": "UM_SL_PRC_20260818_BD_1", "date": "2026-08-18 00:00:00+00:00", "method": "blob" }, "geometry": { "type": "LineString", "coordinates": [ [ -90.35609389133532, 38.222258551243399 ], [ -90.360224381211239, 38.220921261430831 ] ] } },
{ "type": "Feature", "properties": { "station_id": 47, "station_ft": 4626.0, "width_ft": 1053.9, "flag": "ok", "lon": -90.358486, "lat": 38.221776, "survey_id": "UM_SL_PRC_20260818_BD_1", "date": "2026-08-18 00:00:00+00:00", "method": "blob" }, "geometry": { "type": "LineString", "coordinates": [ [ -90.356243441307583, 38.222502201594146 ], [ -90.360411996818939, 38.221152585643949 ] ] } },
{ "type": "Feature", "properties": { "station_id": 48, "station_ft": 4724.4, "width_ft": 1084.2, "flag": "ok", "lon": -90.358616, "lat": 38.222026, "survey_id": "UM_SL_PRC_20260818_BD_1", "date": "2026-08-18 00:00:00+00:00", "method": "blob" }, "geometry": { "type": "LineString", "coordinates": [ [ -90.356371568145377, 38.222752787554171 ], [ -90.360530214517269, 38.221406380009093 ] ] } },
{ "type": "Feature", "properties": { "station_id": 49, "station_ft": 4822.8, "width_ft": 1149.3, "flag": "ok", "lon": -90.358746, "lat": 38.222276, "survey_id": "UM_SL_PRC_20260818_BD_1", "date": "2026-08-18 00:00:00+00:00", "method": "blob" }, "geometry": { "type": "LineString", "coordinates": [ [ -90.356587681571796, 38.222974889119499 ], [ -90.360648432993443, 38.221660174275065 ] ] } },
{ "type": "Feature", "properties": { "station_id": 50, "station_ft": 4921.3, "width_ft": 1062.8, "flag": "ok", "lon": -90.358876, "lat": 38.222526, "survey_id": "UM_SL_PRC_20260818_BD_1", "date": "2026-08-18 00:00:00+00:00", "method": "blob" }, "geometry": { "type": "LineString", "coordinates": [ [ -90.356696321730496, 38.223231783960898 ], [ -90.360766652247477, 38.221913968441918 ] ] } },
{ "type": "Feature", "properties": { "station_id": 51, "station_ft": 5019.7, "width_ft": 1104.8, "flag": "ok", "lon": -90.359006, "lat": 38.222776, "survey_id": "UM_SL_PRC_20260818_BD_1", "date": "2026-08-18 00:00:00+00:00", "method": "blob" }, "geometry": { "type": "LineString", "coordinates": [ [ -90.356791784554304, 38.223492944947772 ], [ -90.360825959987082, 38.222186837395512 ] ] } },
{ "type": "Feature", "properties": { "station_id": 52, "station_ft": 5118.1, "width_ft": 1036.0, "flag": "ok", "lon": -90.359136, "lat": 38.223026, "survey_id": "UM_SL_PRC_20260818_BD_1", "date": "2026-08-18 00:00:00+00:00", "method": "blob" }, "geometry": { "type": "LineString", "coordinates": [ [ -90.356988876581184, 38.223721204889799 ], [ -90.360887744845797, 38.222458904398813 ] ] } },
{ "type": "Feature", "properties": { "station_id": 53, "station_ft": 5216.5, "width_ft": 1015.8, "flag": "ok", "lon": -90.359247, "lat": 38.223281, "survey_id": "UM_SL_PRC_20260818_BD_1", "date": "2026-08-18 00:00:00+00:00", "method": "blob" }, "geometry": { "type": "LineString", "coordinates": [ [ -90.356945529869293, 38.223671609108138 ], [ -90.361136513011203, 38.222959698843468 ] ] } },
{ "type": "Feature", "properties": { "station_id": 54, "station_ft": 5315.0, "width_ft": 874.6, "flag": "ok", "lon": -90.35932, "lat": 38.223545, "survey_id": "UM_SL_PRC_20260818_BD_1", "date": "2026-08-18 00:00:00+00:00", "method": "blob" }, "geometry": { "type": "LineString", "coordinates": [ [ -90.357114619891306, 38.223919279811533 ], [ -90.361194869724415, 38.223226178370794 ] ] } },
{ "type": "Feature", "properties": { "station_id": 55, "station_ft": 5413.4, "width_ft": 1079.3, "flag": "ok", "lon": -90.359392, "lat": 38.223809, "survey_id": "UM_SL_PRC_20260818_BD_1", "date": "2026-08-18 00:00:00+00:00", "method": "blob" }, "geometry": { "type": "LineString", "coordinates": [ [ -90.357225277093747, 38.224176875232033 ], [ -90.361320351656033, 38.223481254256356 ] ] } },
{ "type": "Feature", "properties": { "station_id": 56, "station_ft": 5511.8, "width_ft": 1107.9, "flag": "ok", "lon": -90.359464, "lat": 38.224073, "survey_id": "UM_SL_PRC_20260818_BD_1", "date": "2026-08-18 00:00:00+00:00", "method": "blob" }, "geometry": { "type": "LineString", "coordinates": [ [ -90.357335935030576, 38.224434470566408 ], [ -90.361410763310687, 38.223742288162804 ] ] } },
{ "type": "Feature", "properties": { "station_id": 57, "station_ft": 5610.2, "width_ft": 1123.6, "flag": "ok", "lon": -90.359536, "lat": 38.224337, "survey_id": "UM_SL_PRC_20260818_BD_1", "date": "2026-08-18 00:00:00+00:00", "method": "blob" }, "geometry": { "type": "LineString", "coordinates": [ [ -90.35745530866842, 38.224690585586394 ], [ -90.361459839798755, 38.224010344417913 ] ] } },
{ "type": "Feature", "properties": { "station_id": 58, "station_ft": 5708.7, "width_ft": 1159.4, "flag": "ok", "lon": -90.359632, "lat": 38.224592, "survey_id": "UM_SL_PRC_20260818_BD_1", "date": "2026-08-18 00:00:00+00:00", "method": "blob" }, "geometry": { "type": "LineString", "coordinates": [ [ -90.357761808935138, 38.225847740371186 ], [ -90.361308775408943, 38.223465966965428 ] ] } },
{ "type": "Feature", "properties": { "station_id": 59, "station_ft": 5807.1, "width_ft": 1222.3, "flag": "ok", "lon": -90.359857, "lat": 38.224796, "survey_id": "UM_SL_PRC_20260818_BD_1", "date": "2026-08-18 00:00:00+00:00", "method": "blob" }, "geometry": { "type": "LineString", "coordinates": [ [ -90.357929831501053, 38.226114450061637 ], [ -90.36140914964642, 38.223733474284316 ] ] } },
{ "type": "Feature", "properties": { "station_id": 60, "station_ft": 5905.5, "width_ft": 985.0, "flag": "ok", "lon": -90.360081, "lat": 38.225, "survey_id": "UM_SL_PRC_20260818_BD_1", "date": "2026-08-18 00:00:00+00:00", "method": "blob" }, "geometry": { "type": "LineString", "coordinates": [ [ -90.3580190885381, 38.226411064874803 ], [ -90.361467347396399, 38.224051350841044 ] ] } },
{ "type": "Feature", "properties": { "station_id": 61, "station_ft": 6003.9, "width_ft": 1156.2, "flag": "ok", "lon": -90.36028, "lat": 38.225217, "survey_id": "UM_SL_PRC_20260818_BD_1", "date": "2026-08-18 00:00:00+00:00", "method": "blob" }, "geometry": { "type": "LineString", "coordinates": [ [ -90.357910890125595, 38.226080062628945 ], [ -90.361729835267596, 38.224689060066524 ] ] } },
{ "type": "Feature", "properties": { "station_id": 62, "station_ft": 6102.4, "width_ft": 754.5, "flag": "ok", "lon": -90.360423, "lat": 38.225463, "survey_id": "UM_SL_PRC_20260818_BD_1", "date": "2026-08-18 00:00:00+00:00", "method": "blob" }, "geometry": { "type": "LineString", "coordinates": [ [ -90.357999344928487, 38.226345454027751 ], [ -90.361818514406366, 38.224954371982292 ] ] } },
{ "type": "Feature", "properties": { "station_id": 63, "station_ft": 6200.8, "width_ft": 758.2, "flag": "ok", "lon": -90.360564, "lat": 38.225709, "survey_id": "UM_SL_PRC_20260818_BD_1", "date": "2026-08-18 00:00:00+00:00", "method": "blob" }, "geometry": { "type": "LineString", "coordinates": [ [ -90.358003852580126, 38.226360433610473 ], [ -90.361932747212748, 38.225360209940426 ] ] } },
{ "type": "Feature", "properties": { "station_id": 64, "station_ft": 6299.2, "width_ft": 724.1, "flag": "ok", "lon": -90.360646, "lat": 38.225971, "survey_id": "UM_SL_PRC_20260818_BD_1", "date": "2026-08-18 00:00:00+00:00", "method": "blob" }, "geometry": { "type": "LineString", "coordinates": [ [ -90.358037812230123, 38.226473286287892 ], [ -90.362104123930138, 38.22569018159885 ] ] } },
{ "type": "Feature", "properties": { "station_id": 65, "station_ft": 6397.6, "width_ft": 780.5, "flag": "ok", "lon": -90.360727, "lat": 38.226234, "survey_id": "UM_SL_PRC_20260818_BD_1", "date": "2026-08-18 00:00:00+00:00", "method": "blob" }, "geometry": { "type": "LineString", "coordinates": [ [ -90.358116924085294, 38.226736184811685 ], [ -90.362235443869309, 38.225943025184108 ] ] } },
{ "type": "Feature", "properties": { "station_id": 66, "station_ft": 6496.1, "width_ft": 774.0, "flag": "ok", "lon": -90.360756, "lat": 38.2265, "survey_id": "UM_SL_PRC_20260818_BD_1", "date": "2026-08-18 00:00:00+00:00", "method": "blob" }, "geometry": { "type": "LineString", "coordinates": [ [ -90.358007043775885, 38.226371038415145 ], [ -90.362568696403358, 38.226584662000022 ] ] } },
{ "type": "Feature", "properties": { "station_id": 67, "station_ft": 6594.5, "width_ft": 1113.5, "flag": "ok", "lon": -90.360736, "lat": 38.22677, "survey_id": "UM_SL_PRC_20260818_BD_1", "date": "2026-08-18 00:00:00+00:00", "method": "blob" }, "geometry": { "type": "LineString", "coordinates": [ [ -90.358089660146561, 38.226645583555175 ], [ -90.362652745822274, 38.226859270808141 ] ] } },
{ "type": "Feature", "properties": { "station_id": 68, "station_ft": 6692.9, "width_ft": 1187.1, "flag": "ok", "lon": -90.360715, "lat": 38.227039, "survey_id": "UM_SL_PRC_20260818_BD_1", "date": "2026-08-18 00:00:00+00:00", "method": "blob" }, "geometry": { "type": "LineString", "coordinates": [ [ -90.358172277082133, 38.226920128648153 ], [ -90.36272901174884, 38.227133515200805 ] ] } },
{ "type": "Feature", "properties": { "station_id": 69, "station_ft": 6791.3, "width_ft": 1076.9, "flag": "ok", "lon": -90.360728, "lat": 38.227308, "survey_id": "UM_SL_PRC_20260818_BD_1", "date": "2026-08-18 00:00:00+00:00", "method": "blob" }, "geometry": { "type": "LineString", "coordinates": [ [ -90.358372521365013, 38.227585554268579 ], [ -90.362712413091984, 38.227073828307006 ] ] } },
{ "type": "Feature", "properties": { "station_id": 70, "station_ft": 6889.8, "width_ft": 1112.8, "flag": "ok", "lon": -90.360779, "lat": 38.227575, "survey_id": "UM_SL_PRC_20260818_BD_1", "date": "2026-08-18 00:00:00+00:00", "method": "blob" }, "geometry": { "type": "LineString", "coordinates": [ [ -90.358496325644097, 38.227844158095493 ], [ -90.362802672200786, 38.227336385902952 ] ] } },
{ "type": "Feature", "properties": { "station_id": 71, "station_ft": 6988.2, "width_ft": 1194.3, "flag": "ok", "lon": -90.36083, "lat": 38.227842, "survey_id": "UM_SL_PRC_20260818_BD_1", "date": "2026-08-18 00:00:00+00:00", "method": "blob" }, "geometry": { "type": "LineString", "coordinates": [ [ -90.358620483851112, 38.228102720185539 ], [ -90.362947279680213, 38.227592534083954 ] ] } },
{ "type": "Feature", "properties": { "station_id": 72, "station_ft": 7086.6, "width_ft": 1234.8, "flag": "ok", "lon": -90.36089, "lat": 38.228108, "survey_id": "UM_SL_PRC_20260818_BD_1", "date": "2026-08-18 00:00:00+00:00", "method": "blob" }, "geometry": { "type": "LineString", "coordinates": [ [ -90.358839175550543, 38.22855814577904 ], [ -90.362979228024045, 38.227649125026602 ] ] } },
{ "type": "Feature", "properties": { "station_id": 73, "station_ft": 7185.0, "width_ft": 1240.5, "flag": "ok", "lon": -90.360982, "lat": 38.228368, "survey_id": "UM_SL_PRC_20260818_BD_1", "date": "2026-08-18 00:00:00+00:00", "method": "blob" }, "geometry": { "type": "LineString", "coordinates": [ [ -90.35896101112607, 38.228811865951435 ], [ -90.363120105010807, 38.227898663050432 ] ] } },
{ "type": "Feature", "properties": { "station_id": 74, "station_ft": 7283.5, "width_ft": 1174.8, "flag": "ok", "lon": -90.361074, "lat": 38.228628, "survey_id": "UM_SL_PRC_20260818_BD_1", "date": "2026-08-18 00:00:00+00:00", "method": "blob" }, "geometry": { "type": "LineString", "coordinates": [ [ -90.359032260344193, 38.229076692275704 ], [ -90.363150056960663, 38.228172558979274 ] ] } },
{ "type": "Feature", "properties": { "station_id": 75, "station_ft": 7381.9, "width_ft": 1261.5, "flag": "ok", "lon": -90.361166, "lat": 38.228889, "survey_id": "UM_SL_PRC_20260818_BD_1", "date": "2026-08-18 00:00:00+00:00", "method": "blob" }, "geometry": { "type": "LineString", "coordinates": [ [ -90.359084962143086, 38.229345590684389 ], [ -90.363314593187027, 38.22841690187316 ] ] } },
{ "type": "Feature", "properties": { "station_id": 76, "station_ft": 7480.3, "width_ft": 1155.7, "flag": "ok", "lon": -90.36134, "lat": 38.229118, "survey_id": "UM_SL_PRC_20260818_BD_1", "date": "2026-08-18 00:00:00+00:00", "method": "blob" }, "geometry": { "type": "LineString", "coordinates": [ [ -90.359266631579317, 38.230272502680485 ], [ -90.363151923070163, 38.228109388092228 ] ] } },
{ "type": "Feature", "properties": { "station_id": 77, "station_ft": 7578.7, "width_ft": 1082.3, "flag": "ok", "lon": -90.361505, "lat": 38.229354, "survey_id": "UM_SL_PRC_20260818_BD_1", "date": "2026-08-18 00:00:00+00:00", "method": "blob" }, "geometry": { "type": "LineString", "coordinates": [ [ -90.359248168908252, 38.23017830355338 ], [ -90.363481836916591, 38.228631574001426 ] ] } },
{ "type": "Feature", "properties": { "station_id": 78, "station_ft": 7677.2, "width_ft": 1040.4, "flag": "ok", "lon": -90.361649, "lat": 38.229599, "survey_id": "UM_SL_PRC_20260818_BD_1", "date": "2026-08-18 00:00:00+00:00", "method": "blob" }, "geometry": { "type": "LineString", "coordinates": [ [ -90.359334332321765, 38.23044459587949 ], [ -90.363537669476599, 38.228908950796892 ] ] } },
{ "type": "Feature", "properties": { "station_id": 79, "station_ft": 7775.6, "width_ft": 1112.4, "flag": "ok", "lon": -90.361793, "lat": 38.229844, "survey_id": "UM_SL_PRC_20260818_BD_1", "date": "2026-08-18 00:00:00+00:00", "method": "blob" }, "geometry": { "type": "LineString", "coordinates": [ [ -90.359495474501642, 38.230683497630345 ], [ -90.363644395573289, 38.229167732988302 ] ] } },
{ "type": "Feature", "properties": { "station_id": 80, "station_ft": 7874.0, "width_ft": 1039.7, "flag": "ok", "lon": -90.361937, "lat": 38.230089, "survey_id": "UM_SL_PRC_20260818_BD_1", "date": "2026-08-18 00:00:00+00:00", "method": "blob" }, "geometry": { "type": "LineString", "coordinates": [ [ -90.359542414019728, 38.230964119313192 ], [ -90.363789836107856, 38.229412370452764 ] ] } },
{ "type": "Feature", "properties": { "station_id": 81, "station_ft": 7972.4, "width_ft": 1049.1, "flag": "ok", "lon": -90.362081, "lat": 38.230335, "survey_id": "UM_SL_PRC_20260818_BD_1", "date": "2026-08-18 00:00:00+00:00", "method": "blob" }, "geometry": { "type": "LineString", "coordinates": [ [ -90.359568257515733, 38.23125244770371 ], [ -90.363935277580751, 38.229657007763144 ] ] } },
{ "type": "Feature", "properties": { "station_id": 82, "station_ft": 8070.9, "width_ft": 1006.7, "flag": "ok", "lon": -90.362216, "lat": 38.230583, "survey_id": "UM_SL_PRC_20260818_BD_1", "date": "2026-08-18 00:00:00+00:00", "method": "blob" }, "geometry": { "type": "LineString", "coordinates": [ [ -90.359570578505924, 38.231278342242163 ], [ -90.364039714055167, 38.230102737099457 ] ] } },
{ "type": "Feature", "properties": { "station_id": 83, "station_ft": 8169.3, "width_ft": 881.9, "flag": "ok", "lon": -90.362324, "lat": 38.230839, "survey_id": "UM_SL_PRC_20260818_BD_1", "date": "2026-08-18 00:00:00+00:00", "method": "blob" }, "geometry": { "type": "LineString", "coordinates": [ [ -90.359616270810164, 38.231551148803604 ], [ -90.364078168725783, 38.230377450869618 ] ] } },
{ "type": "Feature", "properties": { "station_id": 84, "station_ft": 8267.7, "width_ft": 1049.1, "flag": "ok", "lon": -90.362432, "lat": 38.231095, "survey_id": "UM_SL_PRC_20260818_BD_1", "date": "2026-08-18 00:00:00+00:00", "method": "blob" }, "geometry": { "type": "LineString", "coordinates": [ [ -90.359704696924879, 38.231812715365052 ], [ -90.364284134428871, 38.230608097099768 ] ] } },
{ "type": "Feature", "properties": { "station_id": 85, "station_ft": 8366.1, "width_ft": 1019.5, "flag": "ok", "lon": -90.362541, "lat": 38.231352, "survey_id": "UM_SL_PRC_20260818_BD_1", "date": "2026-08-18 00:00:00+00:00", "method": "blob" }, "geometry": { "type": "LineString", "coordinates": [ [ -90.359793123623007, 38.232074281872514 ], [ -90.364438309681702, 38.230852368082665 ] ] } },
{ "type": "Feature", "properties": { "station_id": 86, "station_ft": 8464.6, "width_ft": 1117.3, "flag": "ok", "lon": -90.362628, "lat": 38.231611, "survey_id": "UM_SL_PRC_20260818_BD_1", "date": "2026-08-18 00:00:00+00:00", "method": "blob" }, "geometry": { "type": "LineString", "coordinates": [ [ -90.359682615720899, 38.231747398802497 ], [ -90.364689691548165, 38.231515572171482 ] ] } },
{ "type": "Feature", "properties": { "station_id": 87, "station_ft": 8563.0, "width_ft": 1065.3, "flag": "ok", "lon": -90.362648, "lat": 38.231881, "survey_id": "UM_SL_PRC_20260818_BD_1", "date": "2026-08-18 00:00:00+00:00", "method": "blob" }, "geometry": { "type": "LineString", "coordinates": [ [ -90.359772708028075, 38.23201389262352 ], [ -90.364774792930334, 38.231782294842738 ] ] } },
{ "type": "Feature", "properties": { "station_id": 88, "station_ft": 8661.4, "width_ft": 1071.5, "flag": "ok", "lon": -90.362668, "lat": 38.232151, "survey_id": "UM_SL_PRC_20260818_BD_1", "date": "2026-08-18 00:00:00+00:00", "method": "blob" }, "geometry": { "type": "LineString", "coordinates": [ [ -90.359939027721097, 38.232505862855426 ], [ -90.364803562219592, 38.231872462430928 ] ] } },
{ "type": "Feature", "properties": { "station_id": 89, "station_ft": 8759.8, "width_ft": 1035.3, "flag": "ok", "lon": -90.362811, "lat": 38.232394, "survey_id": "UM_SL_PRC_20260818_BD_1", "date": "2026-08-18 00:00:00+00:00", "method": "blob" }, "geometry": { "type": "LineString", "coordinates": [ [ -90.36012811036332, 38.233451370898855 ], [ -90.36472897902398, 38.231638706245469 ] ] } },
{ "type": "Feature", "properties": { "station_id": 90, "station_ft": 8858.3, "width_ft": 1010.3, "flag": "ok", "lon": -90.362964, "lat": 38.232636, "survey_id": "UM_SL_PRC_20260818_BD_1", "date": "2026-08-18 00:00:00+00:00", "method": "blob" }, "geometry": { "type": "LineString", "coordinates": [ [ -90.360204141327657, 38.233723443917818 ], [ -90.36481458526454, 38.231907010374471 ] ] } },
{ "type": "Feature", "properties": { "station_id": 91, "station_ft": 8956.7, "width_ft": 1089.0, "flag": "ok", "lon": -90.363117, "lat": 38.232878, "survey_id": "UM_SL_PRC_20260818_BD_1", "date": "2026-08-18 00:00:00+00:00", "method": "blob" }, "geometry": { "type": "LineString", "coordinates": [ [ -90.360348982608258, 38.233968409146122 ], [ -90.364904240093125, 38.232173719488465 ] ] } },
{ "type": "Feature", "properties": { "station_id": 92, "station_ft": 9055.1, "width_ft": 1196.6, "flag": "ok", "lon": -90.36327, "lat": 38.23312, "survey_id": "UM_SL_PRC_20260818_BD_1", "date": "2026-08-18 00:00:00+00:00", "method": "blob" }, "geometry": { "type": "LineString", "coordinates": [ [ -90.360471785824217, 38.234222056534577 ], [ -90.365066231446477, 38.232411927355358 ] ] } },
{ "type": "Feature", "properties": { "station_id": 93, "station_ft": 9153.5, "width_ft": 1077.6, "flag": "ok", "lon": -90.36334, "lat": 38.233381, "survey_id": "UM_SL_PRC_20260818_BD_1", "date": "2026-08-18 00:00:00+00:00", "method": "blob" }, "geometry": { "type": "LineString", "coordinates": [ [ -90.360176590937016, 38.233676848664395 ], [ -90.365328412556423, 38.233194861723284 ] ] } },
{ "type": "Feature", "properties": { "station_id": 94, "station_ft": 9252.0, "width_ft": 1049.1, "flag": "ok", "lon": -90.363381, "lat": 38.233649, "survey_id": "UM_SL_PRC_20260818_BD_1", "date": "2026-08-18 00:00:00+00:00", "method": "blob" }, "geometry": { "type": "LineString", "coordinates": [ [ -90.360329040070312, 38.233934681099633 ], [ -90.365449947378139, 38.233455582720048 ] ] } },
{ "type": "Feature", "properties": { "station_id": 95, "station_ft": 9350.4, "width_ft": 1099.6, "flag": "ok", "lon": -90.363421, "lat": 38.233918, "survey_id": "UM_SL_PRC_20260818_BD_1", "date": "2026-08-18 00:00:00+00:00", "method": "blob" }, "geometry": { "type": "LineString", "coordinates": [ [ -90.360473785328551, 38.234193234048782 ], [ -90.365540566440018, 38.2337191967965 ] ] } },
{ "type": "Feature", "properties": { "station_id": 96, "station_ft": 9448.8, "width_ft": 1199.7, "flag": "ok", "lon": -90.363437, "lat": 38.234187, "survey_id": "UM_SL_PRC_20260818_BD_1", "date": "2026-08-18 00:00:00+00:00", "method": "blob" }, "geometry": { "type": "LineString", "coordinates": [ [ -90.360470216274663, 38.23424468127876 ], [ -90.365645517311663, 38.234144360334852 ] ] } },
{ "type": "Feature", "properties": { "station_id": 97, "station_ft": 9547.2, "width_ft": 1330.1, "flag": "ok", "lon": -90.363446, "lat": 38.234457, "survey_id": "UM_SL_PRC_20260818_BD_1", "date": "2026-08-18 00:00:00+00:00", "method": "blob" }, "geometry": { "type": "LineString", "coordinates": [ [ -90.360467844719224, 38.234515007098331 ], [ -90.365877070845471, 38.234410147439654 ] ] } },
{ "type": "Feature", "properties": { "station_id": 98, "station_ft": 9645.7, "width_ft": 1300.2, "flag": "ok", "lon": -90.363454, "lat": 38.234727, "survey_id": "UM_SL_PRC_20260818_BD_1", "date": "2026-08-18 00:00:00+00:00", "method": "blob" }, "geometry": { "type": "LineString", "coordinates": [ [ -90.360602876353497, 38.234782672426128 ], [ -90.365920516962504, 38.234679585227376 ] ] } },
{ "type": "Feature", "properties": { "station_id": 99, "station_ft": 9744.1, "width_ft": 1321.6, "flag": "ok", "lon": -90.363463, "lat": 38.234998, "survey_id": "UM_SL_PRC_20260818_BD_1", "date": "2026-08-18 00:00:00+00:00", "method": "blob" }, "geometry": { "type": "LineString", "coordinates": [ [ -90.360649207498909, 38.235052055213337 ], [ -90.365963963343532, 38.234949022999601 ] ] } },
{ "type": "Feature", "properties": { "station_id": 100, "station_ft": 9842.5, "width_ft": 1368.9, "flag": "ok", "lon": -90.363471, "lat": 38.235268, "survey_id": "UM_SL_PRC_20260818_BD_1", "date": "2026-08-18 00:00:00+00:00", "method": "blob" }, "geometry": { "type": "LineString", "coordinates": [ [ -90.36078108157659, 38.235327812240669 ], [ -90.366012393414891, 38.235210777576079 ] ] } },
{ "type": "Feature", "properties": { "station_id": 101, "station_ft": 9940.9, "width_ft": 1368.9, "flag": "ok", "lon": -90.363531, "lat": 38.235533, "survey_id": "UM_SL_PRC_20260818_BD_1", "date": "2026-08-18 00:00:00+00:00", "method": "blob" }, "geometry": { "type": "LineString", "coordinates": [ [ -90.36088370811072, 38.23596542332136 ], [ -90.36599329749653, 38.235130941217903 ] ] } },
{ "type": "Feature", "properties": { "station_id": 102, "station_ft": 10039.4, "width_ft": 1501.9, "flag": "ok", "lon": -90.3636, "lat": 38.235798, "survey_id": "UM_SL_PRC_20260818_BD_1", "date": "2026-08-18 00:00:00+00:00", "method": "blob" }, "geometry": { "type": "LineString", "coordinates": [ [ -90.360970171185684, 38.236227232901861 ], [ -90.36608897084642, 38.235391246177279 ] ] } },
{ "type": "Feature", "properties": { "station_id": 103, "station_ft": 10137.8, "width_ft": 1508.6, "flag": "ok", "lon": -90.36367, "lat": 38.236062, "survey_id": "UM_SL_PRC_20260818_BD_1", "date": "2026-08-18 00:00:00+00:00", "method": "blob" }, "geometry": { "type": "LineString", "coordinates": [ [ -90.361056634830348, 38.236489042430648 ], [ -90.366198467459697, 38.235649293269859 ] ] } },
{ "type": "Feature", "properties": { "station_id": 104, "station_ft": 10236.2, "width_ft": 1481.1, "flag": "ok", "lon": -90.363739, "lat": 38.236327, "survey_id": "UM_SL_PRC_20260818_BD_1", "date": "2026-08-18 00:00:00+00:00", "method": "blob" }, "geometry": { "type": "LineString", "coordinates": [ [ -90.361079647100368, 38.236761213153208 ], [ -90.36630796480064, 38.235907340277997 ] ] } },
{ "type": "Feature", "properties": { "station_id": 105, "station_ft": 10334.6, "width_ft": 1528.9, "flag": "ok", "lon": -90.363809, "lat": 38.236591, "survey_id": "UM_SL_PRC_20260818_BD_1", "date": "2026-08-18 00:00:00+00:00", "method": "blob" }, "geometry": { "type": "LineString", "coordinates": [ [ -90.361206544964375, 38.237016420153253 ], [ -90.366417462869336, 38.236165387201787 ] ] } },
{ "type": "Feature", "properties": { "station_id": 106, "station_ft": 10433.1, "width_ft": 1530.4, "flag": "ok", "lon": -90.363878, "lat": 38.236856, "survey_id": "UM_SL_PRC_20260818_BD_1", "date": "2026-08-18 00:00:00+00:00", "method": "blob" }, "geometry": { "type": "LineString", "coordinates": [ [ -90.361310805812238, 38.237275323647573 ], [ -90.366526961665741, 38.236423434041207 ] ] } },
{ "type": "Feature", "properties": { "station_id": 107, "station_ft": 10531.5, "width_ft": 1488.2, "flag": "ok", "lon": -90.363948, "lat": 38.237121, "survey_id": "UM_SL_PRC_20260818_BD_1", "date": "2026-08-18 00:00:00+00:00", "method": "blob" }, "geometry": { "type": "LineString", "coordinates": [ [ -90.36135738940429, 38.237543645474517 ], [ -90.366604449349737, 38.236686709674558 ] ] } }
]
}
