{
"type": "FeatureCollection",
"name": "LM_06_MBV_20160805_CS_MB_4387_4392_depth",
"crs": { "type": "name", "properties": { "name": "urn:ogc:def:crs:EPSG::26915" } },
"features": [
{ "type": "Feature", "properties": { "depth_bin": "50-55" }, "geometry": { "type": "Polygon", "coordinates": [ [ [ 694456.876147442613728, 3580092.502438664902002 ], [ 694433.377409637556411, 3580122.947059461846948 ], [ 694441.650449458393268, 3580157.650048484560102 ], [ 694473.68140373704955, 3580180.875317113939673 ], [ 694498.392545535345562, 3580182.626682219095528 ], [ 694520.573552287183702, 3580172.905904279556125 ], [ 694536.566808339906856, 3580144.420480120927095 ], [ 694527.717790751019493, 3580113.600418138317764 ], [ 694491.914338490576483, 3580089.615535491146147 ], [ 694456.876147442613728, 3580092.502438664902002 ] ] ] } },
{ "type": "Feature", "properties": { "depth_bin": "55-60" }, "geometry": { "type": "MultiPolygon", "coordinates": [ [ [ [ 694445.890983742894605, 3580094.330738621763885 ], [ 694429.675793318776414, 3580113.22868131287396 ], [ 694424.876737334183417, 3580135.131840192247182 ], [ 694445.367864858475514, 3580175.345940056722611 ], [ 694501.064680529525504, 3580191.279169864486903 ], [ 694527.113540325895883, 3580185.452737553045154 ], [ 694544.288219736306928, 3580172.387595889624208 ], [ 694554.850649380474351, 3580137.034551631193608 ], [ 694537.447608042624779, 3580106.911622101441026 ], [ 694487.346833170973696, 3580085.114376553799957 ], [ 694445.890983742894605, 3580094.330738621763885 ] ] ], [ [ [ 694846.822318030986935, 3580836.676122839096934 ], [ 694809.803965910803527, 3580847.398848650511354 ], [ 694793.749161802348681, 3580869.046246052253991 ], [ 694796.749924657633528, 3580899.513502615503967 ], [ 694820.415388141409494, 3580918.93524657189846 ], [ 694901.688739305012859, 3580914.283150122035295 ], [ 694945.087175759719685, 3580885.974872410297394 ], [ 694970.987226377590559, 3580903.725710086524487 ], [ 695007.212339102989063, 3580893.528100738301873 ], [ 695040.036171262501739, 3580900.483372541610152 ], [ 695066.161511554382741, 3580883.191050658002496 ], [ 695087.686987721826881, 3580884.89998890273273 ], [ 695105.259106207755394, 3580876.588995820842683 ], [ 695118.160988270421512, 3580857.279964776709676 ], [ 695118.857699731132016, 3580835.163423071615398 ], [ 695126.814168514451012, 3580831.308400730602443 ], [ 695154.60696866735816, 3580834.54120600502938 ], [ 695178.848133978084661, 3580851.635243006981909 ], [ 695205.045866959262639, 3580853.430739913135767 ], [ 695230.936751268454827, 3580840.222507684025913 ], [ 695287.664808233967051, 3580841.767703332006931 ], [ 695335.922896831179969, 3580827.637310630176216 ], [ 695373.114464075071737, 3580789.628562979865819 ], [ 695392.839256304432638, 3580799.890625814907253 ], [ 695417.473859900492243, 3580797.652355263475329 ], [ 695440.604558099061251, 3580775.058001795783639 ], [ 695452.670856250100769, 3580728.780820123851299 ], [ 695437.197106757783331, 3580692.734964323695749 ], [ 695414.080301503883675, 3580678.87928447406739 ], [ 695367.278785531758331, 3580689.495639411266893 ], [ 695335.277105150395073, 3580678.156760653480887 ], [ 695271.809877126477659, 3580695.79719240218401 ], [ 695238.185566064785235, 3580687.082904907874763 ], [ 695180.892229811637662, 3580711.229814329650253 ], [ 695135.410089393844828, 3580746.617033580783755 ], [ 695107.143667930271477, 3580730.026231368537992 ], [ 695080.22494354553055, 3580731.348663497250527 ], [ 695009.230214029317722, 3580787.406071399338543 ], [ 694954.440730747999623, 3580769.576293962076306 ], [ 694931.329780572792515, 3580771.852523877751082 ], [ 694906.538865149836056, 3580797.362137810327113 ], [ 694873.30693093908485, 3580805.659957792144269 ], [ 694846.822318030986935, 3580836.676122839096934 ] ] ] ] } },
{ "type": "Feature", "properties": { "depth_bin": "60-65" }, "geometry": { "type": "MultiPolygon", "coordinates": [ [ [ [ 694094.896021332708187, 3579240.143337628338486 ], [ 694097.858839279273525, 3579272.134235928300768 ], [ 694124.533641339046881, 3579293.15551147935912 ], [ 694156.524539671838284, 3579290.192693554796278 ], [ 694175.946283627999946, 3579266.527230071369559 ], [ 694172.983465697499923, 3579234.536331729497761 ], [ 694146.308663594420068, 3579213.515056190546602 ], [ 694114.31776528886985, 3579216.477874144911766 ], [ 694094.896021332708187, 3579240.143337628338486 ] ] ], [ [ [ 694410.953321201493964, 3579902.000481237191707 ], [ 694407.143070426420309, 3579944.101561487652361 ], [ 694441.476926658651792, 3579973.394124213140458 ], [ 694491.326324858004227, 3579969.593676032498479 ], [ 694520.542985926498659, 3579938.307107754051685 ], [ 694517.542223071213812, 3579907.83985119080171 ], [ 694492.391066011972725, 3579886.856511013582349 ], [ 694439.531684509827755, 3579882.020492790266871 ], [ 694410.953321201493964, 3579902.000481237191707 ] ] ], [ [ [ 694444.443245430826209, 3580091.245495960116386 ], [ 694425.599180723889731, 3580109.70992592163384 ], [ 694418.820011946139857, 3580133.456379888579249 ], [ 694424.801132732070982, 3580163.015715242829174 ], [ 694442.31234779022634, 3580182.103426984045655 ], [ 694479.396446468657814, 3580196.263679653871804 ], [ 694523.079437676351517, 3580199.160328931640834 ], [ 694566.320114027941599, 3580174.299004318192601 ], [ 694574.082060014363378, 3580133.645018067676574 ], [ 694554.102074126014486, 3580105.066649056505412 ], [ 694492.031627417192794, 3580080.657301387283951 ], [ 694466.594525184016675, 3580080.891700827516615 ], [ 694444.443245430826209, 3580091.245495960116386 ] ] ], [ [ [ 694778.181718689971603, 3580770.381133795715868 ], [ 694763.449346710345708, 3580788.332580992951989 ], [ 694761.09719744650647, 3580814.490826656576246 ], [ 694798.692069926648401, 3580905.927738518454134 ], [ 694820.339467328623869, 3580921.982542627025396 ], [ 694874.575144343776628, 3580926.291472150944173 ], [ 694959.423994059907272, 3580910.087725266348571 ], [ 695041.445940384990536, 3580905.09228259138763 ], [ 695069.143221913138404, 3580888.376438305247575 ], [ 695108.866353739984334, 3580891.526035252492875 ], [ 695178.464497582055628, 3580860.617387094069272 ], [ 695217.193643512786366, 3580856.585798455402255 ], [ 695239.561352175544016, 3580843.873779954854399 ], [ 695296.080732732778415, 3580842.829257030971348 ], [ 695368.581904435064644, 3580818.013964302837849 ], [ 695430.883728399523534, 3580817.220306213479489 ], [ 695516.499462764710188, 3580791.718333168420941 ], [ 695561.538191900704987, 3580802.852774227969348 ], [ 695646.634053911082447, 3580780.866728452499956 ], [ 695697.176920415600762, 3580776.591846978291869 ], [ 695739.216623611282557, 3580757.034100304357708 ], [ 695750.970311478711665, 3580727.22617271123454 ], [ 695741.890729613252915, 3580701.850441344548017 ], [ 695669.178204676019959, 3580617.257419740315527 ], [ 695608.554771831375547, 3580616.060385074466467 ], [ 695582.284601340303198, 3580597.692039695568383 ], [ 695533.304248458007351, 3580597.422231132164598 ], [ 695490.630386228789575, 3580614.225558774080127 ], [ 695468.095662479172461, 3580609.809397984761745 ], [ 695404.214906689478084, 3580628.254023072309792 ], [ 695377.671959631028585, 3580627.573259629309177 ], [ 695356.312172188656405, 3580643.240266599226743 ], [ 695327.856012706179172, 3580645.272384416311979 ], [ 695294.327747343573719, 3580636.645147669129074 ], [ 695269.724212368368171, 3580652.505450489465147 ], [ 695221.573372930753976, 3580667.288527545984834 ], [ 695189.801033815834671, 3580643.429873187094927 ], [ 695163.141551462118514, 3580639.475312544498593 ], [ 695130.067210917710327, 3580658.072277973871678 ], [ 695107.210641172714531, 3580682.927639097906649 ], [ 695041.445037071360275, 3580696.841413624584675 ], [ 695003.638914180803113, 3580716.538775828201324 ], [ 694988.732615988817997, 3580734.976314225234091 ], [ 694949.038267052848823, 3580727.141874290071428 ], [ 694925.892814739258029, 3580741.03618022846058 ], [ 694897.693598740384914, 3580739.10812067007646 ], [ 694878.737167172250338, 3580751.620969161391258 ], [ 694810.465847189421766, 3580752.180908625014126 ], [ 694778.181718689971603, 3580770.381133795715868 ] ] ] ] } },
{ "type": "Feature", "properties": { "depth_bin": "65-70" }, "geometry": { "type": "MultiPolygon", "coordinates": [ [ [ [ 694092.48626610240899, 3579221.7239800831303 ], [ 694083.276631770655513, 3579259.292720819823444 ], [ 694106.228020610520616, 3579290.994238786865026 ], [ 694156.636049438617192, 3579302.720890993252397 ], [ 694189.059377185883932, 3579283.688559320289642 ], [ 694192.831663958611898, 3579243.111128807067871 ], [ 694161.680735478643328, 3579211.029510860331357 ], [ 694122.588254895992577, 3579201.781829270999879 ], [ 694092.48626610240899, 3579221.7239800831303 ] ] ], [ [ [ 694411.508705951273441, 3579889.730587390717119 ], [ 694400.561565982643515, 3579910.211245757527649 ], [ 694401.173802016535774, 3579943.339046258479357 ], [ 694433.134139799047261, 3579975.005127041600645 ], [ 694488.964262395282276, 3579978.572283835615963 ], [ 694519.572826121002436, 3579966.428598687518388 ], [ 694538.989987427950837, 3579944.020070404745638 ], [ 694539.103841423522681, 3579908.834460540208966 ], [ 694516.008254922693595, 3579884.101375065278262 ], [ 694442.0807233909145, 3579873.788340850267559 ], [ 694411.508705951273441, 3579889.730587390717119 ] ] ], [ [ [ 694435.678154470515437, 3580094.34338127495721 ], [ 694419.048134020762518, 3580111.439361380413175 ], [ 694414.479642274207436, 3580135.739561071619391 ], [ 694423.847816255874932, 3580163.259459082502872 ], [ 694448.179203392588533, 3580191.397209169808775 ], [ 694491.28197766863741, 3580208.756467879284173 ], [ 694526.511303195147775, 3580210.208224491681904 ], [ 694555.607355823740363, 3580204.457697725389153 ], [ 694579.767245550057851, 3580185.30620380025357 ], [ 694587.870775563875213, 3580130.939307403285056 ], [ 694563.357806343352422, 3580100.723432821687311 ], [ 694496.716421674238518, 3580076.200225963722914 ], [ 694464.386302057886496, 3580078.83616215037182 ], [ 694435.678154470515437, 3580094.34338127495721 ] ] ], [ [ [ 694756.246182562899776, 3580731.087537844199687 ], [ 694744.666732629062608, 3580746.700618683826178 ], [ 694742.390502713387832, 3580769.811568859498948 ], [ 694792.778792797820643, 3580877.036480956245214 ], [ 694800.992475856561214, 3580910.604308591224253 ], [ 694825.594968700548634, 3580926.021596916951239 ], [ 694917.161484987591393, 3580930.401665237732232 ], [ 694976.265742197399959, 3580914.649611325468868 ], [ 695048.988267123233527, 3580908.329484031070024 ], [ 695075.528678439557552, 3580894.587274696677923 ], [ 695114.121858149534091, 3580893.657498809974641 ], [ 695245.974398620892316, 3580846.969859378878027 ], [ 695289.910203943378292, 3580845.724722614977509 ], [ 695349.67195171979256, 3580829.526692884974182 ], [ 695396.9077369653387, 3580834.669033783022314 ], [ 695419.894166173762642, 3580820.957201732322574 ], [ 695478.588360588531941, 3580808.672072255052626 ], [ 695566.03323778079357, 3580806.013962348923087 ], [ 695713.93723880732432, 3580777.009400691837072 ], [ 695743.67371527873911, 3580761.718946832697839 ], [ 695755.389444031286985, 3580733.434675585012883 ], [ 695748.648228523437865, 3580711.211866264231503 ], [ 695634.345623411121778, 3580551.284556454978883 ], [ 695601.901549923233688, 3580536.622330155223608 ], [ 695564.312008723034523, 3580540.74674419965595 ], [ 695507.944398717489094, 3580564.788277707062662 ], [ 695451.975769139826298, 3580557.281037340406328 ], [ 695418.156068058335222, 3580561.975301600061357 ], [ 695361.115638615796342, 3580587.873063020408154 ], [ 695327.767538697924465, 3580586.580249121878296 ], [ 695307.143723364803009, 3580602.489318787120283 ], [ 695257.33713322004769, 3580591.510169368702918 ], [ 695228.712797036860138, 3580614.319504384882748 ], [ 695142.417772507527843, 3580614.565375873818994 ], [ 695117.098441983107477, 3580631.390817266423255 ], [ 695099.211057423730381, 3580620.057480385527015 ], [ 695079.796057452913374, 3580619.103682598564774 ], [ 695059.315399086102843, 3580630.0508225671947 ], [ 695040.126178472070023, 3580660.27130802674219 ], [ 694997.148315701051615, 3580678.854670776985586 ], [ 694979.460537597420625, 3580684.84238459309563 ], [ 694953.822731114225462, 3580671.986628729850054 ], [ 694924.464704905170947, 3580673.168648426886648 ], [ 694868.759083379642107, 3580701.826523373369128 ], [ 694839.144272473524325, 3580702.583691684529185 ], [ 694756.246182562899776, 3580731.087537844199687 ] ] ], [ [ [ 695009.610205347649753, 3579979.736420679837465 ], [ 694996.882592870621011, 3580013.033067863434553 ], [ 695012.761996248271316, 3580043.118052861653268 ], [ 695046.629363688756712, 3580052.118880515452474 ], [ 695078.275951256859116, 3580034.753779103979468 ], [ 695086.586944338399917, 3580001.57443485641852 ], [ 695068.274170468794182, 3579973.772822428494692 ], [ 695037.454103317460977, 3579964.84789932705462 ], [ 695009.610205347649753, 3579979.736420679837465 ] ] ] ] } },
{ "type": "Feature", "properties": { "depth_bin": "70-75" }, "geometry": { "type": "MultiPolygon", "coordinates": [ [ [ [ 694095.975084994570352, 3579214.100831700023264 ], [ 694081.259036076837219, 3579236.754547841381282 ], [ 694080.191403625998646, 3579260.740472635254264 ], [ 694100.755481458967552, 3579301.441030341666192 ], [ 694118.706928656552918, 3579316.173402321524918 ], [ 694153.281807070830837, 3579316.161918445955962 ], [ 694202.466069650719874, 3579288.86021043267101 ], [ 694213.567286884062923, 3579323.909390014130622 ], [ 694245.772243744693696, 3579335.432507833465934 ], [ 694288.246835456578992, 3579327.014056429732591 ], [ 694307.907735600951128, 3579305.558845425024629 ], [ 694307.907735600951128, 3579274.94417083542794 ], [ 694281.764853121363558, 3579250.135204992257059 ], [ 694245.704271076014265, 3579248.585101324599236 ], [ 694211.860751508269459, 3579269.223719153553247 ], [ 694202.033320998307317, 3579233.422184445429593 ], [ 694164.44631024741102, 3579207.639482278376818 ], [ 694126.547071733162738, 3579198.158567994367331 ], [ 694095.975084994570352, 3579214.100831700023264 ] ] ], [ [ [ 694429.894990651751868, 3579872.15697384160012 ], [ 694402.404790404369123, 3579887.97923553455621 ], [ 694390.881672584917396, 3579912.342821169178933 ], [ 694397.887349334661849, 3579948.444786807987839 ], [ 694417.076800528797321, 3579971.081021653488278 ], [ 694457.17024661344476, 3579986.840691183693707 ], [ 694488.051971973385662, 3579985.696564072743058 ], [ 694524.067858500871807, 3579969.589743048883975 ], [ 694542.911816253676079, 3579951.125299205537885 ], [ 694550.635796033078805, 3579911.99495728733018 ], [ 694529.208063621423207, 3579880.331351308617741 ], [ 694469.843328741029836, 3579869.710772251710296 ], [ 694429.894990651751868, 3579872.15697384160012 ] ] ], [ [ [ 694424.592975211679004, 3580098.925717178266495 ], [ 694413.069857392227277, 3580123.289302812889218 ], [ 694417.255943491356447, 3580150.173501957207918 ], [ 694454.186692145070992, 3580205.224719650577754 ], [ 694472.771155314869247, 3580219.927366850432009 ], [ 694513.90465062984731, 3580226.664692177437246 ], [ 694562.19738693756517, 3580221.282260212115943 ], [ 694591.388055588235147, 3580206.686376809608191 ], [ 694610.88936307549011, 3580179.073898667003959 ], [ 694614.121108450111933, 3580144.609318487811834 ], [ 694603.761660853400826, 3580118.856801134068519 ], [ 694573.855488971224986, 3580092.952364227734506 ], [ 694538.813524887082167, 3580081.811685990542173 ], [ 694544.704720514477231, 3580046.801239262335002 ], [ 694515.753721721237525, 3580016.734699589200318 ], [ 694493.478408736060373, 3580013.806586758699268 ], [ 694472.023362982668914, 3580022.6935576912947 ], [ 694455.044488026062027, 3580048.781747876666486 ], [ 694458.434573582024314, 3580077.455525869969279 ], [ 694424.592975211679004, 3580098.925717178266495 ] ] ], [ [ [ 694721.742238553822972, 3580699.546716815326363 ], [ 694722.723041077959351, 3580740.178267598152161 ], [ 694761.202991170808673, 3580819.616298220586032 ], [ 694784.336076662060805, 3580837.232709635049105 ], [ 694803.751076632877812, 3580838.186507422011346 ], [ 694822.762460556812584, 3580828.571040185168386 ], [ 694869.457839162088931, 3580832.200532332528383 ], [ 694898.377299989224412, 3580809.071493006777018 ], [ 694927.678460222668946, 3580807.071540949866176 ], [ 694955.963861660682596, 3580815.20869165379554 ], [ 694997.170531594310887, 3580795.961202035658062 ], [ 695025.289560523699038, 3580804.93070801300928 ], [ 695005.75073893123772, 3580813.533433942589909 ], [ 694989.370282669551671, 3580835.157245463691652 ], [ 694927.257323005818762, 3580838.746729 ], [ 694906.534740619594231, 3580847.090468076057732 ], [ 694839.421782926772721, 3580843.329476542305201 ], [ 694800.101836632355116, 3580866.091024420689791 ], [ 694794.09124943590723, 3580897.641094661317766 ], [ 694812.547578389989212, 3580926.181522856466472 ], [ 694915.44803348951973, 3580937.98194880830124 ], [ 694973.573784197447821, 3580918.989621528424323 ], [ 695002.101502080098726, 3580921.555419511627406 ], [ 695025.081057176692411, 3580911.72690130956471 ], [ 695054.205910288379528, 3580911.98459910415113 ], [ 695075.096716939820908, 3580899.199953267350793 ], [ 695114.007977474480867, 3580898.228450558613986 ], [ 695205.772229405120015, 3580864.386098952032626 ], [ 695401.749272211105563, 3580852.232959468849003 ], [ 695426.169714498100802, 3580840.647110000252724 ], [ 695465.358470649458468, 3580840.948187332600355 ], [ 695482.930589135386981, 3580832.637194250710309 ], [ 695498.040187146048993, 3580812.915457917377353 ], [ 695648.994503028341569, 3580813.506501824595034 ], [ 695739.022029689629562, 3580771.302488420158625 ], [ 695756.799220368848182, 3580738.04370392812416 ], [ 695750.095964064472355, 3580714.297238207887858 ], [ 695729.173124946537428, 3580696.441535118035972 ], [ 695673.825395801686682, 3580701.674324699211866 ], [ 695686.588852460379712, 3580676.186561468988657 ], [ 695678.474264869582839, 3580613.681082039140165 ], [ 695600.44017956033349, 3580504.701776649802923 ], [ 695569.51976142579224, 3580490.077508016489446 ], [ 695490.440031298086978, 3580512.222115026786923 ], [ 695459.701930879498832, 3580508.76816957257688 ], [ 695441.48941365419887, 3580494.125404315069318 ], [ 695418.378463478991762, 3580491.849174399394542 ], [ 695363.305593165219761, 3580517.8954605050385 ], [ 695321.933289752341807, 3580514.778675423935056 ], [ 695298.189944241661578, 3580543.208735583815724 ], [ 695271.802052790648304, 3580550.362387995235622 ], [ 695257.592216721270233, 3580563.156092421617359 ], [ 695187.547829782008193, 3580549.459201644174755 ], [ 695166.092784028616734, 3580558.346172576770186 ], [ 695141.152743463637307, 3580587.627674302551895 ], [ 695100.501635253196582, 3580568.253263731021434 ], [ 695073.582910868455656, 3580569.575695859733969 ], [ 695041.788048801710829, 3580609.468631811439991 ], [ 695028.266479971003719, 3580594.07721278257668 ], [ 695006.043670650222339, 3580587.335997274611145 ], [ 694980.667939283652231, 3580596.41557914018631 ], [ 694966.734467316768132, 3580620.056816250085831 ], [ 694940.792603681446053, 3580610.198877334129065 ], [ 694898.557368635083549, 3580611.539339363574982 ], [ 694863.667786624515429, 3580637.967810003552586 ], [ 694823.128321195254102, 3580653.55433801561594 ], [ 694796.582435663673095, 3580646.24573869863525 ], [ 694773.805880577419885, 3580650.77627719193697 ], [ 694745.790038725128397, 3580669.502534116618335 ], [ 694721.742238553822972, 3580699.546716815326363 ] ], [ [ 695153.810779042192735, 3580781.206415890716016 ], [ 695119.647572274552658, 3580782.884746617637575 ], [ 695086.935924398596399, 3580813.531947504263371 ], [ 695029.795390753890388, 3580804.519243821967393 ], [ 695052.242752227233723, 3580793.280371005646884 ], [ 695063.529209980857559, 3580770.5122179412283 ], [ 695160.563861929345876, 3580735.546791640575975 ], [ 695177.630747114541009, 3580709.698706004302949 ], [ 695185.0020118431421, 3580708.95821486460045 ], [ 695205.037611375213601, 3580730.548644074238837 ], [ 695229.337818225263618, 3580735.117141284514219 ], [ 695272.224449059576727, 3580728.365810367278755 ], [ 695322.551997734117322, 3580703.976897251326591 ], [ 695393.887818998424336, 3580711.100980516523123 ], [ 695470.656856050249189, 3580673.025945331435651 ], [ 695504.388220046646893, 3580681.837259950116277 ], [ 695534.207558659487404, 3580659.086485758423805 ], [ 695560.954049284453504, 3580654.173269914463162 ], [ 695587.102268611546606, 3580658.015747672412544 ], [ 695603.89060157246422, 3580670.781924542505294 ], [ 695611.99902315705549, 3580694.450726600363851 ], [ 695629.583566319430247, 3580709.009565895423293 ], [ 695548.781344765215181, 3580725.883689336013049 ], [ 695363.358309230883606, 3580742.037816950120032 ], [ 695280.639659318956546, 3580766.678189146798104 ], [ 695211.90906598570291, 3580762.658244036138058 ], [ 695183.252931803930551, 3580782.767930743750185 ], [ 695153.810779042192735, 3580781.206415890716016 ] ] ], [ [ [ 695000.497753798495978, 3579982.242718235589564 ], [ 694987.355836451053619, 3580001.119777286425233 ], [ 694984.465676401858218, 3580021.871450193226337 ], [ 694993.352647334220819, 3580043.326495946850628 ], [ 695008.965728174196556, 3580054.905945880804211 ], [ 695037.947963748360053, 3580059.815985355060548 ], [ 695069.518615379463881, 3580052.492277639452368 ], [ 695101.070967683685012, 3580025.102861918974668 ], [ 695101.222776454291306, 3579988.393585815094411 ], [ 695079.574932448449545, 3579966.74574180925265 ], [ 695030.637732188333757, 3579960.777022433467209 ], [ 695000.497753798495978, 3579982.242718235589564 ] ] ] ] } },
{ "type": "Feature", "properties": { "depth_bin": "75-80" }, "geometry": { "type": "MultiPolygon", "coordinates": [ [ [ [ 694091.05137095565442, 3579214.24185235844925 ], [ 694072.816900450037792, 3579225.720891072414815 ], [ 694061.869760481407866, 3579246.201549439225346 ], [ 694072.071806723368354, 3579290.054579650517553 ], [ 694112.745916860643774, 3579335.369676874950528 ], [ 694153.449343953747302, 3579344.078340866137296 ], [ 694168.294168502441607, 3579363.460386815015227 ], [ 694188.914221869898029, 3579374.331696889828891 ], [ 694300.17148112389259, 3579367.349543496035039 ], [ 694334.030646441853605, 3579375.072660914156586 ], [ 694377.816575023229234, 3579353.060923656448722 ], [ 694392.54894700285513, 3579335.109476459212601 ], [ 694395.401154769351706, 3579315.881453551352024 ], [ 694387.975110875559039, 3579294.775803349446505 ], [ 694333.94827502570115, 3579236.18891186080873 ], [ 694308.663623435073532, 3579231.661280127242208 ], [ 694245.537616559653543, 3579241.677515169139951 ], [ 694222.916280233883299, 3579236.940435327589512 ], [ 694191.3706180335721, 3579206.720048073679209 ], [ 694137.511715903878212, 3579195.187176542822272 ], [ 694115.236309563275427, 3579197.963492333889008 ], [ 694091.05137095565442, 3579214.24185235844925 ] ] ], [ [ [ 694421.965278790681623, 3579870.568605387583375 ], [ 694395.311563920346089, 3579886.202988615725189 ], [ 694386.231982054887339, 3579911.578719982411712 ], [ 694390.382981306756847, 3579943.684096745681018 ], [ 694417.179794410825707, 3579977.328320706263185 ], [ 694420.709640797111206, 3580011.521540594752878 ], [ 694438.130617860238999, 3580032.386456992011517 ], [ 694435.244635119452141, 3580086.837497642729431 ], [ 694416.152657704427838, 3580105.268876584712416 ], [ 694412.160143867717125, 3580133.452003516722471 ], [ 694426.015823717229068, 3580156.568808770272881 ], [ 694453.61697587207891, 3580165.651867783162743 ], [ 694451.248616570723243, 3580197.668816240970045 ], [ 694476.282287105452269, 3580236.267027371563017 ], [ 694495.591318149818107, 3580249.168909434229136 ], [ 694541.297343199956231, 3580254.694829050451517 ], [ 694613.283852005843073, 3580250.194320930168033 ], [ 694698.043486170354299, 3580209.343142023775727 ], [ 694712.667754803784192, 3580178.422723889350891 ], [ 694700.989979783538729, 3580148.614805987104774 ], [ 694670.723825860302895, 3580121.283368143253028 ], [ 694566.795617715921253, 3580079.265777694992721 ], [ 694570.682694561430253, 3580044.399144955910742 ], [ 694540.695790987578221, 3580004.548365079332143 ], [ 694538.768883929820731, 3579964.286649695131928 ], [ 694560.201939990511164, 3579930.041546973865479 ], [ 694550.01903153269086, 3579891.565307150129229 ], [ 694516.464317064266652, 3579868.302095172461122 ], [ 694421.965278790681623, 3579870.568605387583375 ] ] ], [ [ [ 694642.791255770018324, 3580419.728595554362983 ], [ 694619.326491005020216, 3580425.861522097606212 ], [ 694604.923575985943899, 3580438.91556335054338 ], [ 694600.999440519604832, 3580485.58758761966601 ], [ 694724.97170830774121, 3580744.008485992904752 ], [ 694750.902527252677828, 3580769.136877522338182 ], [ 694791.83171063743066, 3580785.396756176836789 ], [ 694812.583381262957118, 3580782.582507522311062 ], [ 694865.365151497418992, 3580748.975710535887629 ], [ 694909.795105175115168, 3580732.417768531944603 ], [ 694940.154408194357529, 3580732.484221938066185 ], [ 694961.87147669296246, 3580748.655265248846263 ], [ 695006.31146726757288, 3580753.757637463510036 ], [ 695111.573837667470798, 3580676.157163789495826 ], [ 695146.827381851384416, 3580681.225174106191844 ], [ 695188.839428517501801, 3580670.773029896896333 ], [ 695224.571759929764085, 3580681.637396021280438 ], [ 695242.873883637366816, 3580675.088791446294636 ], [ 695259.242459358181804, 3580656.229335596784949 ], [ 695281.79148582695052, 3580667.533016939181834 ], [ 695301.206485797767527, 3580666.579219152219594 ], [ 695364.077696449123323, 3580644.567033782135695 ], [ 695397.659288352006115, 3580602.78152396902442 ], [ 695441.727627273881808, 3580620.25513789569959 ], [ 695569.516626124386676, 3580606.180894384160638 ], [ 695591.164023526362143, 3580590.126090275589377 ], [ 695612.146714531932957, 3580543.216138501651585 ], [ 695606.282307335291989, 3580512.783350803889334 ], [ 695552.113811619114131, 3580441.681006443686783 ], [ 695502.583012442220934, 3580425.260369453579187 ], [ 695449.69003322487697, 3580385.033169770613313 ], [ 695419.350504571688361, 3580372.086301626171917 ], [ 695393.526642279583029, 3580376.540927963797003 ], [ 695377.105661178706214, 3580392.961909064557403 ], [ 695373.151100536575541, 3580419.621391418389976 ], [ 695390.222575076739304, 3580449.063965166453272 ], [ 695371.343015445396304, 3580468.285486315842718 ], [ 695344.639068318298087, 3580440.351052791811526 ], [ 695317.942145890556276, 3580428.997964238282293 ], [ 695317.98814930615481, 3580401.475164689123631 ], [ 695305.086267243488692, 3580382.166133644990623 ], [ 695278.524059125455096, 3580367.532795180100948 ], [ 695253.889456703560427, 3580369.771069093141705 ], [ 695233.919943424174562, 3580387.870380920823663 ], [ 695229.965382782043889, 3580414.529863274656236 ], [ 695251.312396371038631, 3580445.941780035383999 ], [ 695270.091254571569152, 3580456.46264125360176 ], [ 695254.795826934743673, 3580466.494941663462669 ], [ 695218.764654885977507, 3580438.26508955610916 ], [ 695188.149980296846479, 3580438.26508955610916 ], [ 695163.495542317512445, 3580460.821483674924821 ], [ 695159.084433160955086, 3580491.521305506583303 ], [ 695084.54037624783814, 3580526.503832610789686 ], [ 695064.810028375359252, 3580521.77702205022797 ], [ 695018.772171627148055, 3580485.594222771935165 ], [ 694991.442023742827587, 3580474.246827487368137 ], [ 694959.165973705821671, 3580482.167253720574081 ], [ 694939.528855963726528, 3580509.991075397934765 ], [ 694901.321135843521915, 3580473.111034911125898 ], [ 694862.465599760296755, 3580465.826257397420704 ], [ 694853.540396157302894, 3580437.30808430723846 ], [ 694830.423590903403237, 3580423.452404457610101 ], [ 694794.335706775309518, 3580434.399544426240027 ], [ 694783.325325814075768, 3580470.061092413030565 ], [ 694768.908396010869183, 3580467.101848325226456 ], [ 694726.700848420499824, 3580422.957810353953391 ], [ 694699.782124035758898, 3580421.635378225240856 ], [ 694677.147644832497463, 3580439.337028827052563 ], [ 694661.647125243092887, 3580424.451744980644435 ], [ 694642.791255770018324, 3580419.728595554362983 ] ], [ [ 694826.315333928912878, 3580502.502274479717016 ], [ 694825.923723747837357, 3580505.142295876983553 ], [ 694823.416650438681245, 3580502.644677667878568 ], [ 694826.315333928912878, 3580502.502274479717016 ] ] ], [ [ [ 694799.338854470173828, 3580877.653361577540636 ], [ 694800.722073328564875, 3580918.360839814879 ], [ 694820.143817284726538, 3580942.02630329830572 ], [ 694858.769252457655966, 3580948.766591859515756 ], [ 694895.304902411648072, 3580939.322793272789568 ], [ 694922.264174352167174, 3580943.959854373708367 ], [ 694957.664952991879545, 3580926.818855962716043 ], [ 695004.270977419568226, 3580928.559729125816375 ], [ 695028.626092969905585, 3580916.681076975539327 ], [ 695058.662979234941304, 3580916.669430377427489 ], [ 695078.079579711891711, 3580903.88614571467042 ], [ 695119.988699106383137, 3580902.951243465300649 ], [ 695206.986132652731612, 3580873.080294969491661 ], [ 695389.229244965943508, 3580859.815167212393135 ], [ 695438.051237971405499, 3580863.809572154190391 ], [ 695514.704866817919537, 3580843.122456442099065 ], [ 695726.928918469464406, 3580806.30050558084622 ], [ 695752.384090080973692, 3580789.291903685312718 ], [ 695763.84529876022134, 3580749.54937905119732 ], [ 695746.569188803667203, 3580711.321048304904252 ], [ 695709.831221986212768, 3580698.160396443679929 ], [ 695567.740372139262035, 3580729.423411202151328 ], [ 695462.661712373141199, 3580733.839515838772058 ], [ 695381.417266045464203, 3580769.060101341456175 ], [ 695342.088382157613523, 3580775.628807827830315 ], [ 695288.813512022607028, 3580768.475293159484863 ], [ 695262.831470423261635, 3580781.546821009833366 ], [ 695162.468839565757662, 3580788.869353003799915 ], [ 695136.432911531068385, 3580806.846888454630971 ], [ 695093.674319056677632, 3580818.218175493646413 ], [ 695050.596817643498071, 3580812.000325704924762 ], [ 695022.887554490938783, 3580831.692924979142845 ], [ 694989.521055963006802, 3580838.706563270185143 ], [ 694964.588943766080774, 3580837.300341414287686 ], [ 694912.066555075347424, 3580850.385244638193399 ], [ 694839.231980682816356, 3580850.947717391420156 ], [ 694814.071226449799724, 3580859.701914380304515 ], [ 694799.338854470173828, 3580877.653361577540636 ] ] ], [ [ [ 694987.295999730238691, 3579990.899574113544077 ], [ 694972.130693386192434, 3580012.09240388777107 ], [ 694972.054788671783172, 3580038.36247780174017 ], [ 694984.95667073444929, 3580057.671508845873177 ], [ 695007.749157258775085, 3580069.8273707292974 ], [ 695043.050728110247292, 3580073.374177998397499 ], [ 695085.100247479276732, 3580063.662769537884742 ], [ 695107.370893686776981, 3580049.124971725512296 ], [ 695120.525396345299669, 3580027.956940610893071 ], [ 695119.506582049070857, 3579988.84901182865724 ], [ 695089.705692690564319, 3579961.19392764987424 ], [ 695026.905862198909745, 3579958.683519943617284 ], [ 694987.295999730238691, 3579990.899574113544077 ] ] ], [ [ [ 695031.146393067669123, 3580346.746604637708515 ], [ 695018.092351814499125, 3580361.149519656784832 ], [ 695013.331246669637039, 3580381.529039338231087 ], [ 695031.17327200435102, 3580422.369010462425649 ], [ 695080.348013167153113, 3580460.40851919632405 ], [ 695117.335131623898633, 3580453.051323901396245 ], [ 695131.959400257328525, 3580422.130905766971409 ], [ 695119.984344125026837, 3580390.584560049232095 ], [ 695072.225071861525066, 3580344.728538556024432 ], [ 695049.448516775271855, 3580340.198000062722713 ], [ 695031.146393067669123, 3580346.746604637708515 ] ] ] ] } },
{ "type": "Feature", "properties": { "depth_bin": "80-85" }, "geometry": { "type": "MultiPolygon", "coordinates": [ [ [ [ 694039.310498161707073, 3579214.301244440488517 ], [ 694032.569282653857954, 3579236.524053761269897 ], [ 694037.216542559093796, 3579258.427205568179488 ], [ 694112.285730886273086, 3579350.354288497474045 ], [ 694138.747767870780081, 3579368.508560187183321 ], [ 694228.794829208753072, 3579396.188687856309116 ], [ 694352.981857422622852, 3579395.67266371101141 ], [ 694410.716481559327804, 3579411.486491948366165 ], [ 694453.687916914001107, 3579394.569637692067772 ], [ 694471.704654527944513, 3579403.283610061742365 ], [ 694492.643399465363473, 3579402.367760790511966 ], [ 694536.077182076522149, 3579368.560358689632267 ], [ 694543.043648603372276, 3579321.380580586381257 ], [ 694565.210450263344683, 3579300.679240286815912 ], [ 694571.759054838097654, 3579282.377116579096764 ], [ 694568.906847071601078, 3579263.149093671236187 ], [ 694555.841596893500537, 3579245.974419636186212 ], [ 694507.074770385865122, 3579231.83349935291335 ], [ 694482.774570084759034, 3579236.326092689298093 ], [ 694461.279792430112138, 3579253.499761471524835 ], [ 694410.933169375406578, 3579235.537528061773628 ], [ 694243.827754959813319, 3579229.042559499852359 ], [ 694190.83578657801263, 3579200.902579098008573 ], [ 694091.04280125675723, 3579189.361186547204852 ], [ 694063.044984010630287, 3579193.856665402650833 ], [ 694039.310498161707073, 3579214.301244440488517 ] ] ], [ [ [ 694405.928370535024442, 3579873.216629499103874 ], [ 694387.945793920429423, 3579891.123303804080933 ], [ 694383.146742140525021, 3579913.026461978442967 ], [ 694387.347147938795388, 3579947.568417058326304 ], [ 694403.201631042757072, 3579972.848255736753345 ], [ 694423.993656495586038, 3580048.940989709924906 ], [ 694424.748207494500093, 3580090.013646032195538 ], [ 694411.704156623221934, 3580109.428116650786251 ], [ 694413.026588752050884, 3580136.346841035876423 ], [ 694443.663848577765748, 3580161.832512695807964 ], [ 694463.078848548582755, 3580160.878714908845723 ], [ 694487.171459942939691, 3580147.727868087589741 ], [ 694564.096741428598762, 3580164.88671182654798 ], [ 694487.012963073560968, 3580167.958166060503572 ], [ 694467.314095770940185, 3580190.937115498352796 ], [ 694465.991663642111234, 3580217.855839883442968 ], [ 694520.131978739635088, 3580312.064380259718746 ], [ 694560.548026856617071, 3580331.059129545930773 ], [ 694549.651978824520484, 3580351.483416647650301 ], [ 694551.776386902900413, 3580380.688950143288821 ], [ 694704.13305606530048, 3580700.533151520881802 ], [ 694720.554037166177295, 3580716.954132621642202 ], [ 694740.933553838869557, 3580721.715240546967834 ], [ 694763.156363159650937, 3580714.974025039002299 ], [ 694782.649469148484059, 3580689.518217088654637 ], [ 694785.493453245609999, 3580661.337044928688556 ], [ 694824.875830020755529, 3580656.347291676327586 ], [ 694846.30348326463718, 3580635.165001921355724 ], [ 694889.452119223424233, 3580656.899907918646932 ], [ 694926.315275523927994, 3580658.961094688158482 ], [ 694955.502439873176627, 3580645.69296647189185 ], [ 694970.33064053079579, 3580624.328850576188415 ], [ 695035.448515873868018, 3580649.773300162050873 ], [ 695097.43234217853751, 3580622.025945255532861 ], [ 695159.580521663185209, 3580623.521429787389934 ], [ 695182.847879392211325, 3580596.991619370412081 ], [ 695259.112280777189881, 3580613.218185694888234 ], [ 695276.684399263118394, 3580604.907192612998188 ], [ 695320.055444207857363, 3580559.301427487283945 ], [ 695363.78810123144649, 3580566.477032060269266 ], [ 695399.131346306181513, 3580561.820611991453916 ], [ 695428.191241522901691, 3580538.457259735092521 ], [ 695447.897345404373482, 3580548.178276736754924 ], [ 695484.873685280676, 3580547.1860206364654 ], [ 695506.633064416237175, 3580534.828029713127762 ], [ 695550.617991502629593, 3580532.639266951475292 ], [ 695575.348253326723352, 3580507.035551914013922 ], [ 695575.348253326723352, 3580469.323812968097627 ], [ 695494.740831466042437, 3580357.923272192012519 ], [ 695447.721690478269011, 3580339.065468685701489 ], [ 695423.786567469011061, 3580338.404680447652936 ], [ 695401.425828911713324, 3580306.325930153485388 ], [ 695377.062243277439848, 3580294.802812334150076 ], [ 695357.834220369695686, 3580297.655020100530237 ], [ 695339.882773172110319, 3580312.387392080388963 ], [ 695333.334168597357348, 3580330.68951578810811 ], [ 695336.336924665607512, 3580357.881270349491388 ], [ 695301.197933130315505, 3580345.315277656540275 ], [ 695273.829116411856376, 3580315.411240973509848 ], [ 695232.133218543836847, 3580241.148470418993384 ], [ 695215.704755012062378, 3580194.816552977077663 ], [ 695197.753307814477012, 3580180.084180997218937 ], [ 695160.223161199130118, 3580183.780577805824578 ], [ 695142.445970519911498, 3580217.039362297859043 ], [ 695165.011532391770743, 3580309.973800040315837 ], [ 695191.397717937361449, 3580365.471136019565165 ], [ 695164.062654573703185, 3580346.584964422974735 ], [ 695146.633841818198562, 3580313.70024200482294 ], [ 695124.68906132876873, 3580302.535920035094023 ], [ 695122.998903504572809, 3580277.085238917265087 ], [ 695101.067235426278785, 3580246.293011697474867 ], [ 695118.139329831348732, 3580142.623486261814833 ], [ 695106.894896379089914, 3580120.404509286861867 ], [ 695087.690522136748768, 3580107.540074026677758 ], [ 695114.624444554792717, 3580102.5130849853158 ], [ 695154.135689225280657, 3580077.391964055132121 ], [ 695173.520287238992751, 3580051.842271253466606 ], [ 695179.918897448340431, 3580026.929749884642661 ], [ 695165.345628343289718, 3579990.951318532694131 ], [ 695118.319235766655765, 3579963.202369626611471 ], [ 695097.365353377885185, 3579955.472721343394369 ], [ 695063.125333569478244, 3579962.367794717196375 ], [ 695029.26589043776039, 3579954.644469814375043 ], [ 694969.115168219199404, 3579971.097409136593342 ], [ 694943.13194022490643, 3580001.542808623984456 ], [ 694940.817758029792458, 3580026.177408384624869 ], [ 694958.700002545840107, 3580074.273521876893938 ], [ 695053.894650945207104, 3580110.215865544043481 ], [ 695029.956167739583179, 3580129.705997380428016 ], [ 695005.578823405667208, 3580204.693401047028601 ], [ 695016.443632196518593, 3580163.120702967047691 ], [ 695007.683751292992383, 3580132.425056388135999 ], [ 694955.071752907242626, 3580090.251522132661194 ], [ 694925.963426981936209, 3580076.699628185480833 ], [ 694885.939766186987981, 3580077.616023399401456 ], [ 694851.948539493256249, 3580105.951960596721619 ], [ 694807.004690694389865, 3580078.310216975398362 ], [ 694766.86859247344546, 3580089.668016832321882 ], [ 694746.020734673482366, 3580078.31573472218588 ], [ 694699.52057422848884, 3580079.693399648647755 ], [ 694669.331875005387701, 3580073.803305313922465 ], [ 694648.199412221438251, 3580058.44281016336754 ], [ 694609.675305553944781, 3580054.536959958728403 ], [ 694618.6809884570539, 3580030.596781422384083 ], [ 694614.226354518090375, 3580004.772934741340578 ], [ 694590.376905720564537, 3579980.54396368842572 ], [ 694560.16988517541904, 3579974.032858120743185 ], [ 694554.252412855857983, 3579957.937287406530231 ], [ 694568.091152073116973, 3579938.646567266434431 ], [ 694571.2498246319592, 3579918.768293866422027 ], [ 694552.206424896721728, 3579881.639440635219216 ], [ 694514.2188908533426, 3579863.193032982293516 ], [ 694439.261141226976179, 3579864.57057121861726 ], [ 694405.928370535024442, 3579873.216629499103874 ] ], [ [ 694979.73224562429823, 3580278.73361993348226 ], [ 694971.147235575364903, 3580238.202320541720837 ], [ 695001.368391238152981, 3580215.895235428120941 ], [ 695004.314645287115127, 3580267.856680000200868 ], [ 694985.667133023380302, 3580283.679898375179619 ], [ 694979.73224562429823, 3580278.73361993348226 ] ] ], [ [ [ 694584.593488787184469, 3579296.657810535281897 ], [ 694593.480459719547071, 3579325.954227515030652 ], [ 694620.480192240909673, 3579340.385885215364397 ], [ 694655.765665572253056, 3579334.064955848269165 ], [ 694673.350245318375528, 3579304.726856969296932 ], [ 694664.463274386012927, 3579275.430439989548177 ], [ 694637.463541864650324, 3579260.998782289214432 ], [ 694602.178068533306941, 3579267.319711656309664 ], [ 694584.593488787184469, 3579296.657810535281897 ] ] ], [ [ [ 694812.201102960854769, 3580880.026790220290422 ], [ 694800.677985141403042, 3580904.390375854913145 ], [ 694808.028153162566014, 3580936.384843499399722 ], [ 694827.997666441951878, 3580954.48415532708168 ], [ 694859.376914080581628, 3580959.163697291631252 ], [ 694898.133546800236218, 3580944.96397737134248 ], [ 694934.449901117477566, 3580945.591258391272277 ], [ 694955.80958596477285, 3580932.383159053046256 ], [ 695005.680745425401255, 3580933.168638404458761 ], [ 695028.216607466922142, 3580920.218114119488746 ], [ 695053.21767368260771, 3580922.156217880081385 ], [ 695076.923219590098597, 3580911.493905446026474 ], [ 695281.442503754165955, 3580870.649010199587792 ], [ 695434.890048108645715, 3580868.30471325898543 ], [ 695728.186858146917075, 3580817.004060059785843 ], [ 695760.932687529828399, 3580803.313283711671829 ], [ 695772.455805349280126, 3580771.108326850924641 ], [ 695748.016926744021475, 3580714.406320384703577 ], [ 695709.717344295349903, 3580702.73136555403471 ], [ 695685.177026576246135, 3580713.066074320115149 ], [ 695672.709625740186311, 3580731.160811682697386 ], [ 695612.653011078829877, 3580748.829381437506527 ], [ 695524.946696991566569, 3580759.842045268043876 ], [ 695498.698077111155726, 3580756.081808103248477 ], [ 695458.514974888996221, 3580773.95673352945596 ], [ 695393.821035075234249, 3580781.492480846121907 ], [ 695191.342395500629209, 3580792.637897825334221 ], [ 695096.611390240606852, 3580821.549373340327293 ], [ 695049.570622345781885, 3580823.695595173630863 ], [ 695030.172679592506029, 3580836.458294489886612 ], [ 694909.006903012166731, 3580857.271514320746064 ], [ 694886.389259742340073, 3580855.17179243825376 ], [ 694812.201102960854769, 3580880.026790220290422 ] ] ] ] } },
{ "type": "Feature", "properties": { "depth_bin": "85-90" }, "geometry": { "type": "MultiPolygon", "coordinates": [ [ [ [ 694006.767899357713759, 3579177.786617323756218 ], [ 693992.035527378087863, 3579195.738064520992339 ], [ 693989.759297462413087, 3579218.849014696665108 ], [ 694036.496724863303825, 3579310.512817136012018 ], [ 694065.328138468787074, 3579329.363441430032253 ], [ 694080.036576640675776, 3579356.688609444070607 ], [ 694125.488195532001555, 3579389.457282911986113 ], [ 694148.653695386950858, 3579396.762694399803877 ], [ 694233.024243488092907, 3579410.01530984044075 ], [ 694347.747847623657435, 3579414.78080136096105 ], [ 694394.113341551739722, 3579430.797687154728919 ], [ 694450.034393185633235, 3579425.785457882098854 ], [ 694525.451192469918169, 3579457.032572508323938 ], [ 694564.518775947857648, 3579439.288252407684922 ], [ 694592.97999554220587, 3579438.517733890097588 ], [ 694617.613252262817696, 3579419.34792274562642 ], [ 694651.372052346472628, 3579420.152298486791551 ], [ 694673.075299703283235, 3579400.203324034344405 ], [ 694690.419884449918754, 3579417.248095866292715 ], [ 694715.465298191993497, 3579421.442080970387906 ], [ 694742.155363139230758, 3579440.510977926198393 ], [ 694765.266313314437866, 3579438.234748010523617 ], [ 694785.962964372592978, 3579420.041941080242395 ], [ 694823.621063263388351, 3579428.429843924939632 ], [ 694862.727116824593395, 3579404.225227436516434 ], [ 694875.273797502974048, 3579380.735218585468829 ], [ 694868.879079596023075, 3579329.621370796114206 ], [ 694850.07667279872112, 3579304.652916888240725 ], [ 694829.596014431910589, 3579293.705776919610798 ], [ 694675.828188352752477, 3579266.678097160067409 ], [ 694654.485849394695833, 3579255.137997999321669 ], [ 694567.944800341618247, 3579236.398600188549608 ], [ 694500.144739503972232, 3579230.041352914180607 ], [ 694476.174697993439622, 3579238.078404129948467 ], [ 694403.542618745123036, 3579226.205936735961586 ], [ 694312.774034465663135, 3579223.850452064536512 ], [ 694282.975610332330689, 3579229.483924763277173 ], [ 694250.003616335103288, 3579224.056860201526433 ], [ 694191.712873239768669, 3579195.491691527422518 ], [ 694118.199990445747972, 3579192.372875728644431 ], [ 694040.605587224476039, 3579168.380456069950014 ], [ 694006.767899357713759, 3579177.786617323756218 ] ], [ [ 694173.436484551872127, 3579287.370925786439329 ], [ 694162.691433939267881, 3579280.047828132752329 ], [ 694201.192499240161851, 3579297.613664551172405 ], [ 694205.611607625265606, 3579306.773696834221482 ], [ 694173.436484551872127, 3579287.370925786439329 ] ], [ [ 694297.309930401155725, 3579312.612861311994493 ], [ 694309.684473187197, 3579311.958107913378626 ], [ 694318.03512920520734, 3579309.281309181358665 ], [ 694289.942413473152556, 3579312.398545082192868 ], [ 694297.309930401155725, 3579312.612861311994493 ] ] ], [ [ [ 694393.490631197579205, 3579878.609662191011012 ], [ 694380.981895758653991, 3579900.576013749931008 ], [ 694382.656229307758622, 3579944.372745784465224 ], [ 694415.478183832834475, 3580047.713963326998055 ], [ 694418.285015277797356, 3580093.765599809121341 ], [ 694410.212334136711434, 3580123.436544789001346 ], [ 694424.643991837045178, 3580150.436277310363948 ], [ 694455.464053387986496, 3580159.361201386898756 ], [ 694492.580317499814555, 3580135.858245208859444 ], [ 694587.209830435109325, 3580136.18526710011065 ], [ 694613.627956022042781, 3580162.158098288346082 ], [ 694705.855068502016366, 3580167.194942741189152 ], [ 694750.263079896220006, 3580185.381315430160612 ], [ 694782.662505002343096, 3580187.548922311048955 ], [ 694786.942242057528347, 3580207.910594783723354 ], [ 694763.043876440962777, 3580221.701054913457483 ], [ 694738.632141509908251, 3580255.68597680144012 ], [ 694708.780477189691737, 3580258.911912738811225 ], [ 694687.368126024957746, 3580249.587632522918284 ], [ 694661.253627888625488, 3580216.717197630554438 ], [ 694631.957210908876732, 3580207.830226697959006 ], [ 694558.819740392733365, 3580223.107762441039085 ], [ 694514.37433838902507, 3580272.067925537005067 ], [ 694515.544951560441405, 3580305.081231930293143 ], [ 694580.084367103292607, 3580440.053734127897769 ], [ 694598.035814300877973, 3580454.786106107756495 ], [ 694622.814887078362517, 3580456.644493063446134 ], [ 694676.541941931121983, 3580525.283212111797184 ], [ 694698.445105056627654, 3580530.082274905405939 ], [ 694720.667914377409033, 3580523.341059397440404 ], [ 694735.400286357034929, 3580505.389612200204283 ], [ 694738.054474171483889, 3580484.82664720993489 ], [ 694772.162977608502842, 3580475.836818443145603 ], [ 694789.038162325858139, 3580450.914278062991798 ], [ 694823.795911739929579, 3580464.468553965445608 ], [ 694838.407735809218138, 3580496.639771979302168 ], [ 694874.431076398701407, 3580513.104698892217129 ], [ 694895.218810684629716, 3580538.73357964027673 ], [ 694912.790929170558229, 3580547.044572722166777 ], [ 694942.817351371981204, 3580541.07194599788636 ], [ 694959.669393380405381, 3580516.241796490736306 ], [ 695006.176243239897303, 3580514.392417146358639 ], [ 695028.547949522850104, 3580497.129176676273346 ], [ 695083.933438920881599, 3580531.488299021031708 ], [ 695117.78632350335829, 3580524.165956262964755 ], [ 695159.803100207122043, 3580527.563862426672131 ], [ 695189.141199086094275, 3580509.979282680433244 ], [ 695195.882414593943395, 3580487.756473359651864 ], [ 695190.60731369710993, 3580464.878242724109441 ], [ 695203.871103230630979, 3580459.253908488899469 ], [ 695231.032179122674279, 3580482.686332024633884 ], [ 695273.241376478457823, 3580493.994697229471058 ], [ 695305.446333339088596, 3580482.471579410135746 ], [ 695317.154814331559464, 3580454.039776616264135 ], [ 695342.950124884024262, 3580479.441309669055045 ], [ 695386.518642408656888, 3580484.424472522456199 ], [ 695429.494717534282245, 3580468.450625957921147 ], [ 695447.915125000290573, 3580435.867707659490407 ], [ 695483.758104020729661, 3580437.862794593442231 ], [ 695509.02313358290121, 3580415.431698271539062 ], [ 695513.784238947089761, 3580395.052174627315253 ], [ 695507.613347188802436, 3580373.111040913965553 ], [ 695256.441822510561906, 3579967.141327230259776 ], [ 695240.553207666263916, 3579952.525682050734758 ], [ 695206.536624301457778, 3579944.375706287566572 ], [ 695106.473900550976396, 3579948.271940289530903 ], [ 695068.335343764978461, 3579962.666607631836087 ], [ 695041.141997081809677, 3579947.973891454748809 ], [ 695008.343561338144355, 3579958.686343628913164 ], [ 694960.013428283971734, 3579952.246788536198437 ], [ 694842.773045991780236, 3579974.392786373849958 ], [ 694701.534693847643211, 3580014.135822389740497 ], [ 694735.845994494040497, 3579978.799841338768601 ], [ 694747.193249736446887, 3579951.46969045791775 ], [ 694740.644645161693916, 3579925.326195524074137 ], [ 694713.665170707507059, 3579905.795173324178904 ], [ 694678.664278881624341, 3579897.686044632922858 ], [ 694582.069031103514135, 3579910.542650362011045 ], [ 694561.500101844896562, 3579875.772566221654415 ], [ 694517.380034506088123, 3579858.697999599389732 ], [ 694430.84523150708992, 3579863.50905123539269 ], [ 694393.490631197579205, 3579878.609662191011012 ] ] ], [ [ [ 694803.459653921076097, 3580915.131936541758478 ], [ 694816.392537538893521, 3580951.945798581000417 ], [ 694853.16843888477888, 3580963.582798802759498 ], [ 694902.642098160809837, 3580949.256683499086648 ], [ 694938.944926469353959, 3580948.752438220661134 ], [ 694960.616541046067141, 3580935.990968072786927 ], [ 694999.472265478689224, 3580937.587744812946767 ], [ 695030.08276998763904, 3580923.846011415589601 ], [ 695057.712702929740772, 3580925.317399407271296 ], [ 695285.165130967157893, 3580875.51781686488539 ], [ 695434.814128059544601, 3580871.352020631544292 ], [ 695667.408059320994653, 3580831.679812104441226 ], [ 695746.242975979112089, 3580826.601614682003856 ], [ 695769.359781233011745, 3580812.745934832375497 ], [ 695778.246752165374346, 3580783.449517852626741 ], [ 695757.986188080278225, 3580745.632250871509314 ], [ 695723.468517725123093, 3580736.324911560397595 ], [ 695429.245254221605137, 3580785.922255791723728 ], [ 695271.483935722033493, 3580790.91261879960075 ], [ 694912.179877687944099, 3580864.353622691705823 ], [ 694879.306324910139665, 3580865.191558157559484 ], [ 694821.044233667198569, 3580885.793837662786245 ], [ 694803.459653921076097, 3580915.131936541758478 ] ] ] ] } },
{ "type": "Feature", "properties": { "depth_bin": "90-95" }, "geometry": { "type": "MultiPolygon", "coordinates": [ [ [ [ 693989.102079310803674, 3579191.091253327205777 ], [ 693992.22816184128169, 3579228.339686043560505 ], [ 694008.649142942158505, 3579244.760667144320905 ], [ 694034.182648057583719, 3579249.824013917706907 ], [ 694027.087678730487823, 3579272.977706292644143 ], [ 694034.24807869666256, 3579306.682572632096708 ], [ 694072.880301841185428, 3579380.025517031084746 ], [ 694092.317444602493197, 3579396.31947638373822 ], [ 694237.29160285985563, 3579422.318289821967483 ], [ 694332.830198519863188, 3579429.041738039813936 ], [ 694355.494300276041031, 3579446.792810885235667 ], [ 694436.649751753895544, 3579459.305336171295494 ], [ 694452.189059522352181, 3579479.512017817702144 ], [ 694482.456179548869841, 3579491.118738086894155 ], [ 694519.8733064616099, 3579484.755320315714926 ], [ 694533.97279351472389, 3579501.368644763249904 ], [ 694555.284261596389115, 3579509.516789092216641 ], [ 694597.943790843011811, 3579499.432529954705387 ], [ 694636.498700924799778, 3579522.692175894975662 ], [ 694682.858237117994577, 3579534.115044602192938 ], [ 694705.940782264689915, 3579547.855404500383884 ], [ 694735.625732022454031, 3579542.492722225375473 ], [ 694769.929712606943212, 3579557.646289595402777 ], [ 694796.693432555883192, 3579548.377724677789956 ], [ 694824.255012657959014, 3579574.630842925049365 ], [ 694900.870202612946741, 3579587.950850429944694 ], [ 694925.617993506370112, 3579603.638325814157724 ], [ 694955.324774342123419, 3579599.759661165531725 ], [ 694976.585231130709872, 3579575.294996052514762 ], [ 694979.437438897206448, 3579556.066973144654185 ], [ 694970.550467964843847, 3579534.611927391029894 ], [ 694887.29426541691646, 3579463.239745547063649 ], [ 694869.732122709625401, 3579433.008147623389959 ], [ 694879.930297911982052, 3579400.471115078311414 ], [ 694871.575613153749146, 3579329.970143259502947 ], [ 694863.264620072208345, 3579312.39802477369085 ], [ 694837.213576159439981, 3579291.411062186118215 ], [ 694675.748823704780079, 3579261.08516593882814 ], [ 694585.616430750931613, 3579234.268793107941747 ], [ 694506.391100852400996, 3579224.098552471958101 ], [ 694478.300335456151515, 3579232.855825989507139 ], [ 694394.51458870084025, 3579221.407333759125322 ], [ 694306.177679123473354, 3579222.427137247752398 ], [ 694282.865915767964907, 3579208.433981645386666 ], [ 694244.820618684985675, 3579212.554667416960001 ], [ 694196.397634146502241, 3579191.034598992671818 ], [ 694119.831806265749037, 3579188.845050229225308 ], [ 694048.299680493888445, 3579165.522896626964211 ], [ 694012.3115085051395, 3579167.95771302934736 ], [ 693989.102079310803674, 3579191.091253327205777 ] ], [ [ 694422.12295993627049, 3579341.141532098408788 ], [ 694408.652523629483767, 3579351.327423478476703 ], [ 694362.947006331407465, 3579325.818002474028617 ], [ 694333.089351541944779, 3579332.796715368982404 ], [ 694251.926366907660849, 3579332.121686690486968 ], [ 694169.825040449504741, 3579317.892751147504896 ], [ 694158.819942536414601, 3579290.325899912510067 ], [ 694143.320458807516843, 3579274.976851985324174 ], [ 694179.601227914215997, 3579276.152220712509006 ], [ 694200.365471573080868, 3579286.415574262384325 ], [ 694215.369581823819317, 3579309.747521405108273 ], [ 694236.824627577210777, 3579318.634492337703705 ], [ 694269.362129542743787, 3579307.856634481344372 ], [ 694331.790616893675178, 3579304.30488662282005 ], [ 694363.476950852083974, 3579314.16572941141203 ], [ 694396.432686041342095, 3579305.741147335153073 ], [ 694454.473624812206253, 3579315.92522557778284 ], [ 694422.12295993627049, 3579341.141532098408788 ] ] ], [ [ [ 694393.389833555091172, 3579874.37396873254329 ], [ 694379.534153705579229, 3579897.4907739860937 ], [ 694379.722794940229505, 3579939.725909953936934 ], [ 694410.240742306225002, 3580050.164990030694753 ], [ 694409.340573686291464, 3580124.234229811001569 ], [ 694420.28771365492139, 3580144.714888177812099 ], [ 694444.651299289194867, 3580156.238005997147411 ], [ 694465.402966756839305, 3580153.423751345835626 ], [ 694483.064693760010414, 3580140.295766807626933 ], [ 694497.900774493115023, 3580105.342474844772369 ], [ 694494.196067845798098, 3580035.605722126550972 ], [ 694470.906963050947525, 3579943.212952012196183 ], [ 694484.220070784678683, 3579978.808352616615593 ], [ 694509.547777082421817, 3579994.909431552514434 ], [ 694612.005454875528812, 3579987.237427519168705 ], [ 694604.536063671228476, 3580005.893868524115533 ], [ 694560.424723707488738, 3580025.527830688748509 ], [ 694514.574142099358141, 3580068.622197712305933 ], [ 694516.214519992237911, 3580104.309050010051578 ], [ 694547.570684953010641, 3580125.260569604113698 ], [ 694614.336095903301612, 3580118.432666691485792 ], [ 694911.023962796200067, 3580041.351166937034577 ], [ 694974.578057418460958, 3580032.318778164684772 ], [ 694993.880940427887253, 3580048.431721107568592 ], [ 695020.03919034881983, 3580050.78385547734797 ], [ 695049.889561413554475, 3580030.922531525138766 ], [ 695074.727989530656487, 3579996.349709868896753 ], [ 695099.658301365096122, 3580025.148369225673378 ], [ 695192.591641577193514, 3580039.835956184659153 ], [ 695242.434447689214721, 3580019.499713218770921 ], [ 695260.019027435337193, 3579990.161614339798689 ], [ 695257.204771689837798, 3579969.4099395792 ], [ 695237.393289897707291, 3579936.174814038909972 ], [ 695206.569491074187681, 3579917.028630835935473 ], [ 695098.172502553090453, 3579949.676401260308921 ], [ 695075.069702485227026, 3579975.549260668922216 ], [ 695059.125838494743221, 3579931.734454737510532 ], [ 695033.670666883233935, 3579914.72585284197703 ], [ 695007.011184529517777, 3579918.680413484573364 ], [ 694988.673985414905474, 3579939.314777192659676 ], [ 694930.907204851740971, 3579931.41179436026141 ], [ 694815.025765366968699, 3579946.53555794339627 ], [ 694805.388648591469973, 3579943.869888206012547 ], [ 694792.538551114150323, 3579900.86152628948912 ], [ 694749.392937702825293, 3579881.726878557354212 ], [ 694699.615311226225458, 3579878.678468313533813 ], [ 694605.69903037766926, 3579890.899239888414741 ], [ 694553.107160182902589, 3579863.681072501465678 ], [ 694510.52591165562626, 3579853.858550996985286 ], [ 694483.863071245490573, 3579861.908350524492562 ], [ 694424.788607206661254, 3579861.833502435591072 ], [ 694393.389833555091172, 3579874.37396873254329 ] ] ], [ [ [ 694844.94331097882241, 3580884.288918255828321 ], [ 694815.242077992414124, 3580899.847404920496047 ], [ 694806.279185400693677, 3580932.191118206828833 ], [ 694820.710843101027422, 3580959.190850728191435 ], [ 694851.530908239306882, 3580968.115782505366951 ], [ 694907.043909694999456, 3580952.795156457927078 ], [ 694938.831041841185652, 3580953.323484959546477 ], [ 694972.888070961227641, 3580937.699579480104148 ], [ 695002.481603972846642, 3580939.187315550167114 ], [ 695030.508783665020019, 3580927.187197826337069 ], [ 695059.122471503214911, 3580929.926310176495463 ], [ 695077.878116922220215, 3580920.542630809359252 ], [ 695285.05124971549958, 3580880.088773763272911 ], [ 695437.747555272653699, 3580875.998901850078255 ], [ 695661.161595592391677, 3580837.622596712782979 ], [ 695741.520167438313365, 3580832.582361845765263 ], [ 695770.769558731350116, 3580817.354864335618913 ], [ 695779.656529663712718, 3580788.058447355870157 ], [ 695769.321821546298452, 3580763.518128692638129 ], [ 695750.012790501932614, 3580750.616246629972011 ], [ 695655.098655628156848, 3580753.207188680302352 ], [ 695433.208275538519956, 3580791.621459756046534 ], [ 695268.972820552997291, 3580797.62116558291018 ], [ 694936.593850608915091, 3580859.471791042480618 ], [ 694844.94331097882241, 3580884.288918255828321 ] ] ], [ [ [ 695204.641958031454124, 3580110.990354883484542 ], [ 695183.27838268049527, 3580172.966888919938356 ], [ 695186.869194602128118, 3580247.274875796400011 ], [ 695203.87779649742879, 3580272.73004740756005 ], [ 695234.496953229187056, 3580278.554201860912144 ], [ 695230.370822539436631, 3580310.047731854952872 ], [ 695241.893940358888358, 3580334.411317489575595 ], [ 695262.374598725698888, 3580345.358457458205521 ], [ 695288.968004594673403, 3580341.43514866521582 ], [ 695334.480396177619696, 3580361.35529207251966 ], [ 695369.563313406775706, 3580346.866639126092196 ], [ 695400.946873476961628, 3580360.056762737687677 ], [ 695436.887467573396862, 3580347.007158965338022 ], [ 695451.840279313502833, 3580311.180530114565045 ], [ 695434.469746609451249, 3580258.925855929963291 ], [ 695419.969905846635811, 3580235.131528947502375 ], [ 695396.148055540863425, 3580220.504630687180907 ], [ 695385.97008850122802, 3580176.456364224199206 ], [ 695299.812351953238249, 3580040.038655330892652 ], [ 695275.448766318964772, 3580028.515537511557341 ], [ 695246.152349339216016, 3580037.402508444152772 ], [ 695204.641958031454124, 3580110.990354883484542 ] ] ] ] } },
{ "type": "Feature", "properties": { "depth_bin": "95-100" }, "geometry": { "type": "MultiPolygon", "coordinates": [ [ [ [ 693989.37060260400176, 3579182.933854536153376 ], [ 693985.378097545122728, 3579211.116977611556649 ], [ 694000.719473691075109, 3579235.795368023216724 ], [ 694072.109381938003935, 3579256.791243021376431 ], [ 694104.228663290385157, 3579282.83669721474871 ], [ 694125.167304806294851, 3579281.920844247564673 ], [ 694143.022487449343316, 3579270.623036706354469 ], [ 694185.21143760997802, 3579272.02447114046663 ], [ 694202.300741761224344, 3579279.721187411807477 ], [ 694217.045005166670308, 3579303.690895538777113 ], [ 694238.500050920061767, 3579312.577866471372545 ], [ 694340.689181158551946, 3579299.944081057328731 ], [ 694363.590786257875152, 3579309.594797587022185 ], [ 694391.080258780624717, 3579302.640908856876194 ], [ 694450.068904465413652, 3579307.236794354394078 ], [ 694483.57955014007166, 3579327.82892178138718 ], [ 694506.356105226324871, 3579323.298383288085461 ], [ 694521.138109412626363, 3579309.611869969870895 ], [ 694576.336324695614167, 3579313.390762130264193 ], [ 694598.187544170417823, 3579322.949565383605659 ], [ 694574.958769406075589, 3579358.140760394278914 ], [ 694573.232246918953024, 3579383.44626564020291 ], [ 694553.436652417178266, 3579390.634403515607119 ], [ 694524.378558517317288, 3579366.907964861486107 ], [ 694414.496375230606645, 3579378.554236903320998 ], [ 694364.775044134585187, 3579347.687047879211605 ], [ 694266.821282975259237, 3579346.213933983817697 ], [ 694096.887723759864457, 3579315.486067702062428 ], [ 694073.770918505964801, 3579329.341747551690787 ], [ 694064.8839475736022, 3579358.638164531439543 ], [ 694087.433688599965535, 3579407.830524813849479 ], [ 694106.870831230422482, 3579424.12448455998674 ], [ 694204.672074923757464, 3579429.207740247715265 ], [ 694330.786483149393462, 3579447.592287982348353 ], [ 694392.820839547435753, 3579490.639873504173011 ], [ 694427.301287494949065, 3579501.941905566956848 ], [ 694609.611519307596609, 3579539.382360471412539 ], [ 694666.671704624663107, 3579562.788931132294238 ], [ 694762.890794032486156, 3579587.388602359686047 ], [ 694802.916143881855533, 3579590.239226737525314 ], [ 694950.761069414322264, 3579634.756431137211621 ], [ 694978.944201233214699, 3579630.839818789158016 ], [ 694997.043513060547411, 3579610.870305510237813 ], [ 695000.313151206471957, 3579574.882138365413994 ], [ 694993.764546631718986, 3579556.580014657694846 ], [ 694887.456188161741011, 3579459.64737395523116 ], [ 694879.503880863077939, 3579398.039564744569361 ], [ 694856.280562129803002, 3579371.628619320690632 ], [ 694869.022275350638665, 3579352.394493989180773 ], [ 694869.212004513945431, 3579321.553478304296732 ], [ 694857.511438908870332, 3579298.533404584042728 ], [ 694841.898358068894595, 3579286.953954650089145 ], [ 694760.154976263991557, 3579274.858050643000752 ], [ 694696.04131783102639, 3579259.386145815718919 ], [ 694662.407644916791469, 3579243.138552059419453 ], [ 694590.263358921045437, 3579231.335339223500341 ], [ 694545.637126762419939, 3579231.19037411827594 ], [ 694508.028581308200955, 3579219.565561749972403 ], [ 694480.60709677147679, 3579226.658505451399833 ], [ 694395.278670691419393, 3579216.757625322323292 ], [ 694312.124585516401567, 3579219.278930837288499 ], [ 694283.017697696341202, 3579202.339309364091605 ], [ 694244.841618908452801, 3579205.672219995874912 ], [ 694194.987825949327089, 3579186.425727537367493 ], [ 694116.714783638599329, 3579183.843901802320033 ], [ 694040.795309405657463, 3579160.762251891661435 ], [ 694010.901701015769504, 3579163.348846381995827 ], [ 693989.37060260400176, 3579182.933854536153376 ] ], [ [ 694754.684604378184304, 3579382.421419646590948 ], [ 694705.16079457080923, 3579358.734242838341743 ], [ 694685.932771663065068, 3579361.586450604721904 ], [ 694668.633652260410599, 3579375.439260372426361 ], [ 694663.117986825993285, 3579341.997210161294788 ], [ 694795.789864631835371, 3579364.267519012093544 ], [ 694807.748945264378563, 3579376.00037193717435 ], [ 694782.37825376202818, 3579371.524881687480956 ], [ 694754.684604378184304, 3579382.421419646590948 ] ] ], [ [ [ 694390.380396096967161, 3579872.77441972726956 ], [ 694376.524716247455217, 3579895.89122498081997 ], [ 694376.903214512043633, 3579930.508141436614096 ], [ 694389.294402411207557, 3580010.915050542447716 ], [ 694405.564907757099718, 3580054.439798150677234 ], [ 694407.930788417579606, 3580119.625343079678714 ], [ 694418.877928386209533, 3580140.106001446489245 ], [ 694439.358586753020063, 3580151.053141415119171 ], [ 694474.061575546278618, 3580142.780101405456662 ], [ 694491.730287565267645, 3580108.238052104134113 ], [ 694488.139441873761825, 3580033.930267855525017 ], [ 694462.78926384751685, 3579938.759365546982735 ], [ 694501.428921370767057, 3579940.953320162836462 ], [ 694510.349750772002153, 3579970.311656984966248 ], [ 694537.349483293364756, 3579984.743314685299993 ], [ 694638.562028846237808, 3579964.471276144962758 ], [ 694714.919626540504396, 3579958.055268535390496 ], [ 694710.853496604016982, 3579989.13792708562687 ], [ 694719.079202346852981, 3580029.625788538251072 ], [ 694732.144347544177435, 3580046.800469072535634 ], [ 694758.094431338249706, 3580058.848591729998589 ], [ 694782.394733935827389, 3580054.356007981114089 ], [ 694800.120809486252256, 3580037.996961421798915 ], [ 694946.504121339181438, 3580019.517024328932166 ], [ 694971.853701999410987, 3580022.749677605461329 ], [ 694993.994797044666484, 3580043.860771524719894 ], [ 695018.629397086566314, 3580046.174953625537455 ], [ 695051.115914701367728, 3580023.405089603736997 ], [ 695065.901028090971522, 3579990.748279274441302 ], [ 695064.182619112776592, 3579940.82222693786025 ], [ 695043.860477897687815, 3579906.871774622704834 ], [ 695021.637668576906435, 3579900.130559114739299 ], [ 694999.213118584943004, 3579907.021395701449364 ], [ 694960.230975426151417, 3579891.073001857846975 ], [ 694865.035007343743928, 3579897.469523475505412 ], [ 694836.635667321970686, 3579884.675782925449312 ], [ 694834.569528090767562, 3579850.178845940157771 ], [ 694807.096290397457778, 3579829.803304196801037 ], [ 694753.360581538989209, 3579837.415107808075845 ], [ 694731.019186864374205, 3579861.001296081580222 ], [ 694669.430377261363901, 3579870.031515975017101 ], [ 694626.209433267940767, 3579861.313777110073715 ], [ 694581.010890381643549, 3579867.102461182046682 ], [ 694532.080382716958411, 3579853.445056224707514 ], [ 694467.977705278201029, 3579848.224988179747015 ], [ 694390.380396096967161, 3579872.77441972726956 ] ] ], [ [ [ 694812.219489454291761, 3580951.735207406803966 ], [ 694830.126157832331955, 3580969.71779757598415 ], [ 694854.42636110552121, 3580974.286296971607953 ], [ 694959.715926229255274, 3580946.677514243405312 ], [ 695059.008589856792241, 3580934.497260458767414 ], [ 695077.766388179268688, 3580925.226288661826402 ], [ 695290.929899386130273, 3580883.281039188615978 ], [ 695434.586367565556429, 3580880.493942732457072 ], [ 695662.571371041587554, 3580842.231524073053151 ], [ 695738.32101532118395, 3580838.601068451534957 ], [ 695772.217295869369991, 3580820.440137296915054 ], [ 695780.528288950910792, 3580787.260793049354106 ], [ 695765.186912232893519, 3580762.582371438853443 ], [ 695735.240211112541147, 3580753.388910364825279 ], [ 695648.852193390834145, 3580759.149972956627607 ], [ 695424.054554589791223, 3580797.495193763170391 ], [ 695259.679067082470283, 3580803.48801380302757 ], [ 694954.877640662365593, 3580859.927318083588034 ], [ 694837.522483710199594, 3580890.068740853574127 ], [ 694810.61708047427237, 3580914.524704310111701 ], [ 694812.219489454291761, 3580951.735207406803966 ] ] ] ] } },
{ "type": "Feature", "properties": { "depth_bin": "100-105" }, "geometry": { "type": "MultiPolygon", "coordinates": [ [ [ [ 693987.922850680653937, 3579179.84862871048972 ], [ 693984.884143437375315, 3579211.83952598227188 ], [ 694004.305887393536977, 3579235.5049894656986 ], [ 694076.92040728230495, 3579255.196201262064278 ], [ 694104.456334442715161, 3579273.694747999310493 ], [ 694188.226065815309994, 3579268.508801977150142 ], [ 694234.768904012977146, 3579305.907317565754056 ], [ 694335.027630883269012, 3579296.762558592483401 ], [ 694369.186896163504571, 3579303.730777798686177 ], [ 694450.271154670976102, 3579301.160273399669677 ], [ 694483.845166942686774, 3579317.163406264502555 ], [ 694518.525221993681043, 3579306.234783452004194 ], [ 694572.277633287245408, 3579308.848542316816747 ], [ 694616.900828125071712, 3579327.620736461132765 ], [ 694643.629377597826533, 3579325.150662314146757 ], [ 694827.051651260466315, 3579371.448606160003692 ], [ 694853.195146194426343, 3579364.90000158501789 ], [ 694870.203748089727014, 3579339.44482997385785 ], [ 694866.745281354873441, 3579302.583096902351826 ], [ 694848.645969527540728, 3579282.613583623431623 ], [ 694762.646250153426081, 3579271.66054487740621 ], [ 694706.934117423254065, 3579257.778945655096322 ], [ 694673.912228087312542, 3579239.516913543920964 ], [ 694552.203487990889698, 3579227.406516284216195 ], [ 694513.548802257166244, 3579216.748827156145126 ], [ 694482.935098712099716, 3579222.721759347245097 ], [ 694393.868861413677223, 3579212.148747745435685 ], [ 694318.879209090722725, 3579214.871035266201943 ], [ 694280.084245992125943, 3579197.692490556742996 ], [ 694246.15162137162406, 3579202.041242165956646 ], [ 694195.101659878273495, 3579181.854800783563405 ], [ 694116.882588990731165, 3579180.180617928039283 ], [ 694048.489402548060752, 3579157.904692083597183 ], [ 694009.453949047485366, 3579160.263620540499687 ], [ 693987.922850680653937, 3579179.84862871048972 ] ] ], [ [ [ 694112.090423049172387, 3579348.929636006243527 ], [ 694090.443025647196919, 3579364.984440114814788 ], [ 694083.625917757977732, 3579390.254532678518444 ], [ 694091.016885177697986, 3579424.422811001073569 ], [ 694114.682348661473952, 3579443.844554957468063 ], [ 694230.042843220056966, 3579451.183925265911967 ], [ 694337.783471803064458, 3579474.714438384398818 ], [ 694380.182053156546317, 3579496.194615349173546 ], [ 694628.597504895995371, 3579557.142694049980491 ], [ 694948.516397293889895, 3579663.667922134511173 ], [ 694978.223178539075889, 3579659.789258626289666 ], [ 694997.644922495237552, 3579636.123795142862946 ], [ 694997.005564757855609, 3579581.779280391987413 ], [ 694981.057941702427343, 3579554.899760272353888 ], [ 694959.890005713677965, 3579541.745274837128818 ], [ 694747.584527127444744, 3579493.882737225387245 ], [ 694641.136156961671077, 3579453.668449047021568 ], [ 694617.495749462163076, 3579455.551005154382437 ], [ 694520.292953770840541, 3579432.32140990300104 ], [ 694466.177926405565813, 3579409.005956309381872 ], [ 694397.459515906870365, 3579396.527650375850499 ], [ 694355.063984161126427, 3579370.314126532524824 ], [ 694205.366383295855485, 3579347.811478837393224 ], [ 694112.090423049172387, 3579348.929636006243527 ] ] ], [ [ [ 694375.000492880935781, 3579869.1527847237885 ], [ 694375.113810683251359, 3579941.135697519406676 ], [ 694406.521003028959967, 3580115.01645643170923 ], [ 694417.468142997589894, 3580135.49711479851976 ], [ 694437.948801364400424, 3580146.444254767149687 ], [ 694471.128145611612126, 3580138.13326168525964 ], [ 694487.121400867239572, 3580109.647837648168206 ], [ 694483.530555816134438, 3580035.340055156499147 ], [ 694457.535338120069355, 3579937.086450030561537 ], [ 694497.534696994931437, 3579939.343058884609491 ], [ 694519.20936623995658, 3579932.125696549657732 ], [ 694575.701304964954033, 3579949.203362803440541 ], [ 694619.323811832582578, 3579941.123111513443291 ], [ 694665.634482727502473, 3579949.918839564081281 ], [ 694758.183300325530581, 3579942.781163594685495 ], [ 694850.727286114473827, 3579978.348444376140833 ], [ 694947.86818849039264, 3579988.727407313883305 ], [ 694965.702890027780086, 3579999.252702685073018 ], [ 694981.131719578406774, 3580030.618911886587739 ], [ 695005.49530521268025, 3580042.142029705923051 ], [ 695037.700262073311023, 3580030.618911886587739 ], [ 695058.244826159323566, 3579992.082169432658702 ], [ 695060.035262264194898, 3579931.600972017273307 ], [ 695047.809423662838526, 3579896.386890617199242 ], [ 695022.801620468380861, 3579879.490348676685244 ], [ 695007.468709954991937, 3579844.192062878981233 ], [ 694962.092511043301784, 3579834.065237278584391 ], [ 694955.506262304843403, 3579807.18570945924148 ], [ 694928.565392113756388, 3579788.615508010145277 ], [ 694723.612089417292736, 3579832.210459166672081 ], [ 694660.55864324211143, 3579860.663916452322155 ], [ 694597.536325993947685, 3579860.954642923548818 ], [ 694475.097484226920642, 3579842.3989218166098 ], [ 694413.278106310172006, 3579840.764171814080328 ], [ 694391.055296989390627, 3579847.505387322045863 ], [ 694375.000492880935781, 3579869.1527847237885 ] ] ], [ [ [ 694838.283595508779399, 3580896.076000188942999 ], [ 694813.667215821915306, 3580917.108725707512349 ], [ 694809.674694256857038, 3580945.291856239084154 ], [ 694827.797630778397433, 3580980.711730030365288 ], [ 694860.141344216885045, 3580989.674623060505837 ], [ 694912.935242575476877, 3580962.30371380597353 ], [ 694938.641237992676906, 3580960.941729551181197 ], [ 694961.151767557486892, 3580949.77354592923075 ], [ 695058.894708082778379, 3580939.068210734520108 ], [ 695081.594856453244574, 3580928.307404302991927 ], [ 695294.003369246958755, 3580887.934794213157147 ], [ 695432.948833452304825, 3580885.026943605393171 ], [ 695682.340937898959965, 3580844.248657624237239 ], [ 695745.863378469482996, 3580841.838180590420961 ], [ 695773.627073171199299, 3580825.049066950567067 ], [ 695782.552003892487846, 3580794.228993337601423 ], [ 695771.028886073036119, 3580769.8654077029787 ], [ 695749.06253085564822, 3580757.356651335023344 ], [ 695650.261969797546044, 3580763.758900122251362 ], [ 695422.276981466799043, 3580802.021314772777259 ], [ 695273.353976817219518, 3580805.353307129815221 ], [ 695014.489875497878529, 3580853.789534997195005 ], [ 694992.035116991726682, 3580863.923672910314053 ], [ 694936.366086853318848, 3580868.613685541320592 ], [ 694838.283595508779399, 3580896.076000188942999 ] ] ] ] } },
{ "type": "Feature", "properties": { "depth_bin": "105-110" }, "geometry": { "type": "MultiPolygon", "coordinates": [ [ [ [ 694022.89995714253746, 3579155.675670425407588 ], [ 693998.005499273887835, 3579162.322543573565781 ], [ 693981.95069516543299, 3579183.969940975308418 ], [ 693983.27312729426194, 3579210.888665360398591 ], [ 693999.491195604205132, 3579230.401697600260377 ], [ 694077.395419810549356, 3579250.679928290192038 ], [ 694106.055865431786515, 3579270.685409620869905 ], [ 694144.102749483194202, 3579261.940720363985747 ], [ 694196.499094721046276, 3579266.888380194082856 ], [ 694236.44432691950351, 3579299.850691502913833 ], [ 694278.64148392516654, 3579301.185569577850401 ], [ 694300.216248874552548, 3579292.190091490745544 ], [ 694372.310074199107476, 3579300.759379936847836 ], [ 694397.654029465164058, 3579293.500067200046033 ], [ 694457.965269392007031, 3579298.302709012757987 ], [ 694485.482647586031817, 3579312.630416198633611 ], [ 694519.854778221226297, 3579300.435219066683203 ], [ 694575.172410912928171, 3579305.795416116248816 ], [ 694618.500365142012015, 3579324.611389037687331 ], [ 694649.602336813812144, 3579317.841080461163074 ], [ 694675.410985358641483, 3579334.317290791776031 ], [ 694827.165488542173989, 3579366.877661248203367 ], [ 694853.308983476134017, 3579360.329056673217565 ], [ 694870.317585371434689, 3579334.873885062057525 ], [ 694866.783226999687031, 3579301.059448605868965 ], [ 694848.683915172354318, 3579281.089935326948762 ], [ 694770.390847741742618, 3579268.820934517774731 ], [ 694667.931476859608665, 3579234.794192433357239 ], [ 694633.691118483198807, 3579236.442192352376878 ], [ 694515.110392558970489, 3579215.263126871082932 ], [ 694484.130205943947658, 3579219.95481874095276 ], [ 694396.341795203508809, 3579209.256025386042893 ], [ 694322.040329936542548, 3579210.375994690693915 ], [ 694286.254707859479822, 3579194.796983488369733 ], [ 694242.706608562497422, 3579198.411197880282998 ], [ 694189.120824800920673, 3579177.13209322700277 ], [ 694115.380863236146979, 3579176.187749215401709 ], [ 694061.514175534015521, 3579158.708336194977164 ], [ 694022.89995714253746, 3579155.675670425407588 ] ] ], [ [ [ 694090.978938819491304, 3579388.234713696874678 ], [ 694087.560765083413571, 3579435.46202828688547 ], [ 694097.554107265197672, 3579452.134912444278598 ], [ 694117.236428166623227, 3579463.727791825775057 ], [ 694210.351257559610531, 3579473.283156632445753 ], [ 694445.048530903062783, 3579520.56180045614019 ], [ 694588.470023757312447, 3579557.521561402827501 ], [ 694937.737005871953443, 3579667.973230171948671 ], [ 694974.522851972840726, 3579667.562187190633267 ], [ 694997.493128107511438, 3579642.218392980284989 ], [ 694996.284541791304946, 3579610.728720218874514 ], [ 694974.636697785463184, 3579589.080876213032752 ], [ 694679.190903811715543, 3579487.491715512238443 ], [ 694464.997534574242309, 3579435.404726563952863 ], [ 694370.415817197295837, 3579397.47344097495079 ], [ 694246.771276634535752, 3579372.190854861866683 ], [ 694161.37554366979748, 3579364.916068270802498 ], [ 694116.205990310525522, 3579367.327274449169636 ], [ 694090.978938819491304, 3579388.234713696874678 ] ] ], [ [ [ 694378.040265915100463, 3579876.787142543587834 ], [ 694372.180376361124218, 3579936.488861965481192 ], [ 694399.965462090796791, 3580072.164546322077513 ], [ 694410.912602059426717, 3580092.645204688888043 ], [ 694431.393260426237248, 3580103.59234465751797 ], [ 694461.419682627660222, 3580097.619717933237553 ], [ 694478.428284522960894, 3580072.164546322077513 ], [ 694477.435977828456089, 3580035.188245472963899 ], [ 694462.149227283895016, 3579993.537181247957051 ], [ 694458.637134773656726, 3579926.911076556425542 ], [ 694482.113051929394715, 3579937.62965856352821 ], [ 694521.560286385472864, 3579928.01897129509598 ], [ 694587.206836220924743, 3579941.771934082265943 ], [ 694672.868222212418914, 3579939.136506876908243 ], [ 694745.999363693757914, 3579908.816421001218259 ], [ 694825.863969514844939, 3579891.525060368236154 ], [ 694834.843616396188736, 3579918.935015068389475 ], [ 694864.74238525016699, 3579935.149854513350874 ], [ 694905.151294201146811, 3579943.687908109743148 ], [ 694953.191608790424652, 3579931.189264646731317 ], [ 694972.61261797498446, 3580011.547378475312144 ], [ 694994.260461980826221, 3580033.195222481153905 ], [ 695017.37141215603333, 3580035.471452396828681 ], [ 695034.943530641961843, 3580027.160459314938635 ], [ 695053.787732200231403, 3579987.397363773081452 ], [ 695052.372256947448477, 3579906.197085989173502 ], [ 695028.145801835460588, 3579876.043583815451711 ], [ 695016.949632029165514, 3579821.637901674024761 ], [ 695000.988986002397723, 3579798.292721238452941 ], [ 694957.894233506405726, 3579774.099973899312317 ], [ 694700.795232370961457, 3579830.117546954657882 ], [ 694634.770412842161022, 3579855.447803916409612 ], [ 694420.938741839723662, 3579832.770405520219356 ], [ 694400.458083472913131, 3579843.717545488849282 ], [ 694378.040265915100463, 3579876.787142543587834 ] ] ], [ [ [ 694839.057420093566179, 3580914.536929587833583 ], [ 694817.703868011711165, 3580936.045583879575133 ], [ 694816.30551372829359, 3580966.011604721192271 ], [ 694833.846004970488138, 3580989.22061145817861 ], [ 694861.513148153782822, 3580995.807177141308784 ], [ 694970.030307813431136, 3580952.647678303066641 ], [ 695061.828126385109499, 3580943.715082320384681 ], [ 695086.399921628995799, 3580931.566168300341815 ], [ 695293.889487638371065, 3580892.505751356482506 ], [ 695432.834952885401435, 3580889.597904600668699 ], [ 695656.248986678314395, 3580851.221619706600904 ], [ 695739.616912839002907, 3580847.780967420432717 ], [ 695775.036850356613286, 3580829.657996681518853 ], [ 695783.999740939936601, 3580797.314266409724951 ], [ 695769.568083239602856, 3580770.314533888362348 ], [ 695742.668695234460756, 3580761.19699221290648 ], [ 695670.03153653210029, 3580765.776033773552626 ], [ 695420.639448387781158, 3580806.554315424524248 ], [ 695281.693980488576926, 3580809.46216662414372 ], [ 695039.83310909953434, 3580859.578864671755582 ], [ 694934.72855570865795, 3580873.146672068629414 ], [ 694882.735225979820825, 3580886.511328271124512 ], [ 694839.057420093566179, 3580914.536929587833583 ] ] ] ] } },
{ "type": "Feature", "properties": { "depth_bin": "110-115" }, "geometry": { "type": "MultiPolygon", "coordinates": [ [ [ [ 694027.994094528141432, 3579178.953942127060145 ], [ 694022.021467804210261, 3579208.98036432871595 ], [ 694042.397009547217749, 3579236.453602021560073 ], [ 694076.870978537132032, 3579246.114555389154702 ], [ 694106.131754814530723, 3579267.638126504141837 ], [ 694128.594037931412458, 3579266.760218072682619 ], [ 694149.033611939288676, 3579253.085470070131123 ], [ 694183.013983106357045, 3579257.405024609528482 ], [ 694207.204363674973138, 3579266.087059486657381 ], [ 694217.601146293105558, 3579284.370568149723113 ], [ 694238.081804659916088, 3579295.317708118353039 ], [ 694274.146444784710184, 3579298.024448474403471 ], [ 694302.350878535886295, 3579287.437928286381066 ], [ 694369.338676276383922, 3579297.636201955378056 ], [ 694398.189724150579423, 3579290.650975299999118 ], [ 694447.642027200083248, 3579293.54789529228583 ], [ 694489.631003929069266, 3579303.68115656869486 ], [ 694547.919328212155961, 3579296.127567625138909 ], [ 694615.604853522381745, 3579318.440913005732 ], [ 694650.291980834212154, 3579313.331688908860087 ], [ 694674.001174607430585, 3579329.708404559642076 ], [ 694705.213626594049856, 3579330.224688928108662 ], [ 694799.355082670459524, 3579355.607873269822448 ], [ 694827.778110081213526, 3579346.604182657320052 ], [ 694841.63378993072547, 3579323.487377403769642 ], [ 694839.357560015050694, 3579300.376427228096873 ], [ 694821.258248187717982, 3579280.406913949176669 ], [ 694664.884183483198285, 3579234.718302020337433 ], [ 694636.272602303302847, 3579239.842905671335757 ], [ 694593.462431422201917, 3579225.316645544953644 ], [ 694557.995174920419231, 3579226.765965282451361 ], [ 694516.634037866257131, 3579215.301071872934699 ], [ 694488.843658807338215, 3579223.071088958997279 ], [ 694394.818151028011926, 3579209.218080463353544 ], [ 694245.220533305080608, 3579204.707565719727427 ], [ 694195.215493678930216, 3579177.283874025568366 ], [ 694115.570094136754051, 3579175.536929058842361 ], [ 694066.697205707896501, 3579161.407306791748852 ], [ 694045.945541725726798, 3579164.221570147201419 ], [ 694027.994094528141432, 3579178.953942127060145 ] ] ], [ [ [ 694147.240382440038957, 3579387.047248480841517 ], [ 694115.712686533574015, 3579387.134615939576179 ], [ 694092.047223049798049, 3579406.556359895970672 ], [ 694089.046460194513202, 3579437.023616459220648 ], [ 694108.468204150674865, 3579460.689079942647368 ], [ 694138.93546071392484, 3579463.689842798281461 ], [ 694167.209895719424821, 3579442.858299254439771 ], [ 694168.888226445880719, 3579408.695092486683279 ], [ 694147.240382440038957, 3579387.047248480841517 ] ] ], [ [ [ 694242.294153197086416, 3579418.915806276258081 ], [ 694234.936957902391441, 3579455.902924733236432 ], [ 694261.603184241452254, 3579482.569151072297245 ], [ 694444.598886071238667, 3579522.028314961586148 ], [ 694552.660143371904269, 3579553.66466706758365 ], [ 694578.803638305864297, 3579547.116062492597848 ], [ 694594.858442414319143, 3579525.468665090855211 ], [ 694591.933574431575835, 3579491.95411716401577 ], [ 694568.268110947799869, 3579472.532373207621276 ], [ 694367.600429431302473, 3579417.888703604228795 ], [ 694340.831895209965296, 3579419.854574963916093 ], [ 694320.557114055962302, 3579409.094031224027276 ], [ 694270.85547548357863, 3579402.998452281579375 ], [ 694242.294153197086416, 3579418.915806276258081 ] ] ], [ [ [ 694464.735477721435018, 3579829.94410529313609 ], [ 694412.614123154664412, 3579838.894835470244288 ], [ 694369.974148526322097, 3579887.322662661317736 ], [ 694381.7515192120336, 3579988.593059381004423 ], [ 694408.417745551094413, 3580015.259285720065236 ], [ 694435.336469935835339, 3580013.936853591352701 ], [ 694455.305983215221204, 3579995.837541763670743 ], [ 694460.029132641269825, 3579976.981672290712595 ], [ 694452.178110412904061, 3579924.186852163169533 ], [ 694459.674642356578261, 3579913.35967635596171 ], [ 694607.166038993746042, 3579936.170714167878032 ], [ 694647.079984133946709, 3579933.92039637779817 ], [ 694684.520531289628707, 3579925.618772400543094 ], [ 694714.777843833202496, 3579909.158520340453833 ], [ 694865.754038162413053, 3579879.235192564316094 ], [ 694940.057488947175443, 3579856.063979251310229 ], [ 694977.465299446252175, 3580007.864971778355539 ], [ 694996.774330490618013, 3580020.766853841021657 ], [ 695017.712980325799435, 3580021.758603583090007 ], [ 695038.193638692609966, 3580010.811463614460081 ], [ 695049.748582700151019, 3579992.652881524525583 ], [ 695021.62296757590957, 3579813.220555854029953 ], [ 694990.499643667368218, 3579781.869529308751225 ], [ 694940.801308755413629, 3579772.538374228402972 ], [ 694628.827630122075789, 3579849.201414450071752 ], [ 694551.599285639356822, 3579848.799307481385767 ], [ 694464.735477721435018, 3579829.94410529313609 ] ] ], [ [ [ 694668.984417544794269, 3579521.433968550525606 ], [ 694654.360148911364377, 3579552.354386684950441 ], [ 694668.984417544794269, 3579583.274804819375277 ], [ 694709.482775770360604, 3579597.304806455038488 ], [ 694740.403193904901855, 3579582.680537821725011 ], [ 694749.290164837264456, 3579553.384120841976255 ], [ 694734.858507136930712, 3579526.384388320613652 ], [ 694698.280834524543025, 3579512.546997617930174 ], [ 694668.984417544794269, 3579521.433968550525606 ] ] ], [ [ [ 694858.763187526026741, 3579596.406504024751484 ], [ 694857.084856799570844, 3579630.569710792507976 ], [ 694878.732700805412605, 3579652.217554798349738 ], [ 694959.139617398148403, 3579673.654304803349078 ], [ 694981.362426718929783, 3579666.913089295383543 ], [ 694996.094798698555678, 3579648.961642098147422 ], [ 694996.132747346535325, 3579616.823318052571267 ], [ 694974.484903340693563, 3579595.175474046729505 ], [ 694894.040038099978119, 3579575.262373497709632 ], [ 694871.817228779196739, 3579582.003589005675167 ], [ 694858.763187526026741, 3579596.406504024751484 ] ] ], [ [ [ 694864.883659253828228, 3580907.257544684223831 ], [ 694846.968286497634836, 3580935.929809919558465 ], [ 694846.968286497634836, 3580959.152584100142121 ], [ 694863.023090606089681, 3580980.799981501884758 ], [ 694889.166585540049709, 3580987.348586076870561 ], [ 694962.588524848921224, 3580957.199171305634081 ], [ 695061.790165719343349, 3580945.238732437603176 ], [ 695298.422484161448665, 3580894.143284411169589 ], [ 695429.711725139874034, 3580892.569291447289288 ], [ 695663.829305458115414, 3580852.93507502740249 ], [ 695744.149922599666752, 3580849.418503625784069 ], [ 695776.484687276766635, 3580832.743272330146283 ], [ 695785.409618071164005, 3580801.92319869203493 ], [ 695770.97796037083026, 3580774.923466170672327 ], [ 695741.031159117235802, 3580765.730002251919359 ], [ 695643.939587584347464, 3580772.748995285481215 ], [ 695423.132645034696907, 3580810.24943642411381 ], [ 695281.580099885351956, 3580814.033123557455838 ], [ 695061.723126815981232, 3580854.966314648278058 ], [ 695042.98162724787835, 3580864.337172963190824 ], [ 694937.661969172535464, 3580877.793640749994665 ], [ 694888.753899018396623, 3580889.710468905977905 ], [ 694864.883659253828228, 3580907.257544684223831 ] ] ] ] } }
]
}
