{
"type": "FeatureCollection",
"name": "LM_06_MBV_20150808_CS_MB_4412_4417_depth",
"crs": { "type": "name", "properties": { "name": "urn:ogc:def:crs:EPSG::26915" } },
"features": [
{ "type": "Feature", "properties": { "depth_bin": "30-35" }, "geometry": { "type": "Polygon", "coordinates": [ [ [ 691096.438001985196024, 3580717.437349098734558 ], [ 691075.957343618385494, 3580706.490209130104631 ], [ 691049.297861264669336, 3580710.444769772700965 ], [ 691032.876880163792521, 3580726.865750873461366 ], [ 691026.326450253836811, 3580757.872562230098993 ], [ 691033.06766576168593, 3580780.095371550880373 ], [ 691066.231743190553971, 3580817.350404568947852 ], [ 691094.516014438006096, 3580829.066133321262896 ], [ 691125.436432572547346, 3580814.441864687949419 ], [ 691134.819684767280705, 3580776.877230922225863 ], [ 691120.839894529548474, 3580739.228398136328906 ], [ 691096.438001985196024, 3580717.437349098734558 ] ] ] } },
{ "type": "Feature", "properties": { "depth_bin": "35-40" }, "geometry": { "type": "Polygon", "coordinates": [ [ [ 691021.498450162005611, 3580678.790711263660342 ], [ 691012.61147922964301, 3580700.245757017284632 ], [ 691013.375925470958464, 3580738.597434733528644 ], [ 691037.116665069013834, 3580820.450377085711807 ], [ 691038.100647166138515, 3580851.150053038261831 ], [ 691063.444441376370378, 3580874.120329172816128 ], [ 691101.066413636435755, 3580871.539999356493354 ], [ 691148.992489046882838, 3580832.793275544885546 ], [ 691156.076755229267292, 3580765.224459509365261 ], [ 691132.63168701028917, 3580719.657364321406931 ], [ 691077.688902478199452, 3580670.983574220910668 ], [ 691048.498182683368213, 3580664.359053563326597 ], [ 691021.498450162005611, 3580678.790711263660342 ] ] ] } },
{ "type": "Feature", "properties": { "depth_bin": "40-45" }, "geometry": { "type": "Polygon", "coordinates": [ [ [ 691033.148020595195703, 3580642.719589167740196 ], [ 691004.189566276734695, 3580670.898764526471496 ], [ 690995.696990644792095, 3580702.225289475172758 ], [ 691018.490133504848927, 3580790.864906988106668 ], [ 691019.317844985285774, 3580834.631354976911098 ], [ 691011.632250234251842, 3580858.12751230224967 ], [ 691016.440239409101196, 3580887.375677505508065 ], [ 691041.849966050358489, 3580918.088818050455302 ], [ 691080.0447432405781, 3580919.802229108754545 ], [ 691109.092144229216501, 3580896.195976158138365 ], [ 691154.552638673456386, 3580884.826846179552376 ], [ 691185.134019573917612, 3580858.249950559344143 ], [ 691241.504858343279921, 3580864.366964707616717 ], [ 691276.595754922484048, 3580834.815904919058084 ], [ 691282.005056403111666, 3580801.745271469000727 ], [ 691317.681000637938268, 3580812.319050881545991 ], [ 691346.83256905770395, 3580788.394976960029453 ], [ 691346.436320985085331, 3580708.073716645594686 ], [ 691313.066448674420826, 3580671.798911736346781 ], [ 691281.157371534733102, 3580672.411118548829108 ], [ 691227.512662272551097, 3580651.666983126662672 ], [ 691204.289888092200272, 3580651.666983126662672 ], [ 691177.463322849944234, 3580675.583653007168323 ], [ 691173.628888439852744, 3580714.448762239422649 ], [ 691098.157697145710699, 3580669.316458554938436 ], [ 691076.452901917858981, 3580644.625666757579893 ], [ 691033.148020595195703, 3580642.719589167740196 ] ] ] } },
{ "type": "Feature", "properties": { "depth_bin": "45-50" }, "geometry": { "type": "MultiPolygon", "coordinates": [ [ [ [ 690943.345001224312, 3580675.394002808723599 ], [ 690930.029744754079729, 3580706.687539313454181 ], [ 690947.719998851534911, 3580811.694942262023687 ], [ 690964.971383698051795, 3580834.059542557224631 ], [ 690985.085900219040923, 3580908.220143363811076 ], [ 691006.821122615830973, 3580937.835101836360991 ], [ 691027.301780982641503, 3580948.782241804990917 ], [ 691251.950232767732814, 3580891.827098025009036 ], [ 691306.494973354972899, 3580837.254853964783251 ], [ 691329.649527943576686, 3580832.780386400874704 ], [ 691360.826086690183729, 3580809.55946723325178 ], [ 691375.086170648224652, 3580778.489321006927639 ], [ 691373.481804508133791, 3580723.993215715978295 ], [ 691338.763713368680328, 3580659.442878960631788 ], [ 691300.2268522225786, 3580636.414050195831805 ], [ 691236.706253474229015, 3580626.116208301857114 ], [ 691212.502880673622712, 3580610.795461713802069 ], [ 691193.087880702805705, 3580611.74925950076431 ], [ 691157.820714653236791, 3580628.772557405289263 ], [ 691095.563463149243034, 3580590.152201655786484 ], [ 691069.405287619563751, 3580587.800057103857398 ], [ 691047.363059272058308, 3580600.232852401677519 ], [ 691035.326731186476536, 3580623.81956421630457 ], [ 690999.96114608971402, 3580646.508356012869626 ], [ 690974.55946288688574, 3580650.649493534583598 ], [ 690943.345001224312, 3580675.394002808723599 ] ], [ [ 691097.589135716669261, 3580801.492160617839545 ], [ 691097.60864898818545, 3580799.593077644240111 ], [ 691097.784502020454966, 3580793.760682963300496 ], [ 691102.059903993853368, 3580802.08567563071847 ], [ 691097.589135716669261, 3580801.492160617839545 ] ] ], [ [ [ 691125.414870934328064, 3580414.065723026636988 ], [ 691129.179654406267218, 3580448.343272997066379 ], [ 691156.652892099577002, 3580468.718814740423113 ], [ 691195.82099569006823, 3580462.973920846823603 ], [ 691217.59021567273885, 3580430.014547395519912 ], [ 691210.169888569856994, 3580396.90284253610298 ], [ 691183.229058691533282, 3580378.332671639043838 ], [ 691145.546613168669865, 3580385.639135129284114 ], [ 691125.414870934328064, 3580414.065723026636988 ] ] ], [ [ [ 691254.807922313339077, 3580395.162732677534223 ], [ 691259.826751250424422, 3580428.99692908860743 ], [ 691289.164850129396655, 3580446.581508834846318 ], [ 691332.14411857991945, 3580437.403185061179101 ], [ 691351.290268481825478, 3580406.579426526557654 ], [ 691342.44125278654974, 3580375.759394633583724 ], [ 691313.955860579269938, 3580359.766166804358363 ], [ 691278.91437633021269, 3580367.040290682110935 ], [ 691254.807922313339077, 3580395.162732677534223 ] ] ], [ [ [ 691434.191899089724757, 3580646.809700780082494 ], [ 691401.012554842513055, 3580655.120693861972541 ], [ 691386.58089714217931, 3580682.120426383335143 ], [ 691392.179555304697715, 3580723.21833088202402 ], [ 691423.535720265470445, 3580744.16985047608614 ], [ 691454.355753206415102, 3580735.320837653242052 ], [ 691468.787410906748846, 3580708.321105131879449 ], [ 691461.665136783034541, 3580667.185242523439229 ], [ 691434.191899089724757, 3580646.809700780082494 ] ] ] ] } },
{ "type": "Feature", "properties": { "depth_bin": "50-55" }, "geometry": { "type": "MultiPolygon", "coordinates": [ [ [ [ 690916.950152748613618, 3580432.483063170220703 ], [ 690916.570596330566332, 3580470.941952777095139 ], [ 690941.880975555162877, 3580538.101846472825855 ], [ 690946.01197450584732, 3580569.861149384174496 ], [ 690959.404959850362502, 3580587.76307018334046 ], [ 690942.330035667866468, 3580645.135213553905487 ], [ 690945.394424912752584, 3580801.754762082826346 ], [ 690975.545769977616146, 3580856.427108026575297 ], [ 690999.33218194055371, 3580938.608737875241786 ], [ 691010.911631874390878, 3580954.221818714868277 ], [ 691048.43840135098435, 3580965.128696260973811 ], [ 691101.285928149358369, 3580947.751316565554589 ], [ 691148.799031574744731, 3580950.371768685057759 ], [ 691245.134540788945742, 3580920.624026509467512 ], [ 691322.910785328946076, 3580861.813884644303471 ], [ 691378.084955312428065, 3580845.349599596112967 ], [ 691405.177826887229457, 3580849.563923741225153 ], [ 691428.294632141129114, 3580835.708243891596794 ], [ 691437.181603073491715, 3580814.253198137972504 ], [ 691434.969468579045497, 3580772.816364888101816 ], [ 691420.685596497147344, 3580744.177402242086828 ], [ 691451.308521300554276, 3580735.244921433273703 ], [ 691465.74017900088802, 3580708.2451889119111 ], [ 691459.178763569216244, 3580649.899938893504441 ], [ 691446.276881506550126, 3580630.590907849371433 ], [ 691424.209830766543746, 3580619.118809944018722 ], [ 691401.098880591336638, 3580621.395039859693497 ], [ 691381.585859864717349, 3580637.613070009741932 ], [ 691373.350105627323501, 3580664.58604511199519 ], [ 691342.792887206422165, 3580616.605639681220055 ], [ 691310.854144602781162, 3580606.668187291827053 ], [ 691279.802617007750086, 3580609.085949450265616 ], [ 691264.210007700137794, 3580588.730299981310964 ], [ 691236.952701750560664, 3580578.723098606336862 ], [ 691182.793898202478886, 3580571.367065825965255 ], [ 691116.531532357563265, 3580574.237443162128329 ], [ 691091.39079264132306, 3580549.36007495271042 ], [ 691069.16798332054168, 3580542.618859444744885 ], [ 691046.9451739997603, 3580549.36007495271042 ], [ 691025.675228720647283, 3580570.923983891960233 ], [ 691070.242747479933314, 3580521.341556581668556 ], [ 691109.806381839327514, 3580492.208002518862486 ], [ 691116.585553176351823, 3580468.461580509785563 ], [ 691107.505971310893074, 3580443.08584914309904 ], [ 691058.790830385987647, 3580413.911532712168992 ], [ 691018.569412979995832, 3580405.767331396695226 ], [ 690984.777578002307564, 3580412.472523054573685 ], [ 690943.616379087674432, 3580405.81683683115989 ], [ 690916.950152748613618, 3580432.483063170220703 ] ], [ [ 691132.991566397366114, 3580830.921452396083623 ], [ 691085.65376022120472, 3580841.812461259774864 ], [ 691087.432942589279264, 3580770.256210021208972 ], [ 691069.446738291415386, 3580710.773481261450797 ], [ 691110.865923035191372, 3580709.375681739300489 ], [ 691122.158627568860538, 3580753.348319305106997 ], [ 691156.138240512926131, 3580778.474038431886584 ], [ 691158.233385606785305, 3580802.307919739745557 ], [ 691171.25266445800662, 3580819.849754497874528 ], [ 691132.991566397366114, 3580830.921452396083623 ] ], [ [ 691255.979656010866165, 3580744.182600893545896 ], [ 691253.343415368231945, 3580720.669064032379538 ], [ 691282.616191220353357, 3580730.073341961484402 ], [ 691288.023195006302558, 3580738.720094675198197 ], [ 691255.979656010866165, 3580744.182600893545896 ] ] ], [ [ [ 691112.30304466211237, 3580412.27689569350332 ], [ 691113.943419932154939, 3580447.963715837337077 ], [ 691131.197017564089037, 3580470.883338450919837 ], [ 691151.778407394187525, 3580480.79385614162311 ], [ 691209.099939893116243, 3580469.980338473804295 ], [ 691232.057518166839145, 3580451.203224750235677 ], [ 691240.368511248379946, 3580433.631106264423579 ], [ 691240.634201480657794, 3580407.358483433257788 ], [ 691232.323208399116993, 3580389.786364947445691 ], [ 691215.80168413836509, 3580375.200538225006312 ], [ 691191.112814195454121, 3580367.857152535114437 ], [ 691144.608399646240287, 3580372.841908340342343 ], [ 691126.335531171760522, 3580387.162046853452921 ], [ 691112.30304466211237, 3580412.27689569350332 ] ] ], [ [ [ 691253.984140460612252, 3580384.318620130885392 ], [ 691243.037000491982326, 3580404.799278497695923 ], [ 691243.990798278828152, 3580424.214278468862176 ], [ 691253.984140460612252, 3580440.887162626255304 ], [ 691274.464798827422783, 3580451.83430259488523 ], [ 691347.931050462881103, 3580447.76337124966085 ], [ 691371.31402823200915, 3580430.279237205162644 ], [ 691379.625021313549951, 3580412.707118719350547 ], [ 691371.31402823200915, 3580379.527774471789598 ], [ 691333.264713490149006, 3580353.103621601127088 ], [ 691285.699914120137691, 3580357.819796360563487 ], [ 691253.984140460612252, 3580384.318620130885392 ] ] ] ] } },
{ "type": "Feature", "properties": { "depth_bin": "55-60" }, "geometry": { "type": "Polygon", "coordinates": [ [ [ 690936.523718870361336, 3580402.723153499420732 ], [ 690917.101974914199673, 3580426.388616982847452 ], [ 690914.964909236878157, 3580466.2984743793495 ], [ 690929.396566937211901, 3580493.298206900712103 ], [ 690961.162636697408743, 3580502.082801615819335 ], [ 690946.622171811759472, 3580517.376644673757255 ], [ 690941.861065934179351, 3580537.756125929299742 ], [ 690948.311913101701066, 3580623.453824716620147 ], [ 690962.078530820203014, 3580653.152168528176844 ], [ 690997.967056417372078, 3580684.787236166186631 ], [ 691022.325671176775359, 3580693.011283076368272 ], [ 691045.10222626302857, 3580688.480744583066553 ], [ 691085.903032490168698, 3580656.880943512544036 ], [ 691127.864529779762961, 3580663.474715554155409 ], [ 691161.430229089339264, 3580678.182068801950663 ], [ 691198.682840746245347, 3580668.840590636711568 ], [ 691245.309787034522742, 3580704.185457655228674 ], [ 691290.975144663825631, 3580693.574935734737664 ], [ 691309.830346361151896, 3580749.517245402093977 ], [ 691309.011821217951365, 3580769.460518129635602 ], [ 691255.672004130319692, 3580797.857900593895465 ], [ 691209.519437595386989, 3580843.407843840774149 ], [ 691145.935158581938595, 3580857.158438980113715 ], [ 691103.90016885206569, 3580855.457681541796774 ], [ 691012.435244104475714, 3580892.418942549731582 ], [ 690996.211443003849126, 3580926.348625027108938 ], [ 691013.490277436212637, 3580976.115311164874583 ], [ 691064.25338218070101, 3580995.439720770809799 ], [ 691089.76283248863183, 3580994.637764671351761 ], [ 691162.383012598962523, 3580964.69361210661009 ], [ 691272.553686035913415, 3580939.734010469634086 ], [ 691293.004895156132989, 3580926.406693160533905 ], [ 691359.056470062932931, 3580919.130809148773551 ], [ 691435.602567016845569, 3580867.831296630669385 ], [ 691445.59590919862967, 3580851.158412473276258 ], [ 691451.086755437077954, 3580810.674144483637065 ], [ 691438.358796631917357, 3580739.608153418637812 ], [ 691459.645715363207273, 3580708.093356480356306 ], [ 691459.336754017043859, 3580651.458219122607261 ], [ 691451.416364029515535, 3580627.023674276657403 ], [ 691410.629168093437329, 3580586.27974872244522 ], [ 691376.764394205994904, 3580579.042010547127575 ], [ 691324.564049233566038, 3580537.989099733065814 ], [ 691301.787494147312827, 3580533.458561239764094 ], [ 691280.084328003693372, 3580542.570415385533124 ], [ 691242.28080289112404, 3580514.530025498475879 ], [ 691189.662279904237948, 3580511.087581743951887 ], [ 691172.105301814735867, 3580503.021164565812796 ], [ 691169.574015919701196, 3580486.200845956336707 ], [ 691246.461830601328984, 3580488.862006679177284 ], [ 691316.091717752278782, 3580468.633936256170273 ], [ 691362.138926101615652, 3580464.777520089875907 ], [ 691383.567579893628135, 3580453.929820494260639 ], [ 691399.744762754300609, 3580436.555585503112525 ], [ 691406.219259711448103, 3580408.595978866796941 ], [ 691378.806407467694953, 3580337.232868968043476 ], [ 691362.133523310418241, 3580327.239526786375791 ], [ 691339.671292791725136, 3580326.209819199983031 ], [ 691285.379780896590091, 3580353.454217991326004 ], [ 691270.920066254446283, 3580325.883373299147934 ], [ 691237.090761229512282, 3580315.358923714607954 ], [ 691146.381627847556956, 3580352.119636766146868 ], [ 691103.665692338487133, 3580396.735618234146386 ], [ 691076.461601493647322, 3580377.762246388942003 ], [ 691055.05981411295943, 3580374.565606446471065 ], [ 690994.489794183406048, 3580398.120823312085122 ], [ 690966.846840893384069, 3580392.47772339079529 ], [ 690936.523718870361336, 3580402.723153499420732 ] ] ] } },
{ "type": "Feature", "properties": { "depth_bin": "60-65" }, "geometry": { "type": "MultiPolygon", "coordinates": [ [ [ [ 691007.376316268229857, 3580376.454661228694022 ], [ 690927.285094479448162, 3580402.097675073891878 ], [ 690915.417543849442154, 3580436.476392522454262 ], [ 690927.133272601990029, 3580464.760663770139217 ], [ 690943.806156759266742, 3580474.754005951806903 ], [ 690988.861090351827443, 3580480.358637366443872 ], [ 691052.665988703956828, 3580459.065413868520409 ], [ 691079.986660019028932, 3580483.024146453943104 ], [ 691062.836872971965931, 3580527.915639078244567 ], [ 691068.21631415898446, 3580564.668855829630047 ], [ 691089.728477497585118, 3580605.53630909556523 ], [ 691120.548507513129152, 3580614.461236857809126 ], [ 691153.569521438563243, 3580597.687128202989697 ], [ 691178.986437932355329, 3580612.584048957098275 ], [ 691227.048352541984059, 3580614.360751209314913 ], [ 691272.114834881504066, 3580649.338883364573121 ], [ 691314.472251664963551, 3580657.680090462323278 ], [ 691343.481655879528262, 3580705.560981427319348 ], [ 691339.581745257717557, 3580740.626084418967366 ], [ 691349.916414849925786, 3580765.166319593787193 ], [ 691380.836832984467037, 3580779.79058822710067 ], [ 691410.682678173528984, 3580766.589202389586717 ], [ 691433.825396643369459, 3580723.481483630370349 ], [ 691443.379395623458549, 3580680.027441672049463 ], [ 691423.503352718893439, 3580648.575965621042997 ], [ 691429.775320741697215, 3580614.132189289666712 ], [ 691409.892311591538601, 3580552.010640268679708 ], [ 691384.563913803198375, 3580517.496100714895874 ], [ 691401.466432570130564, 3580492.46620975015685 ], [ 691411.096309462445788, 3580445.96483235899359 ], [ 691403.022619660478085, 3580399.38310327893123 ], [ 691386.901242861407809, 3580380.599118632264435 ], [ 691388.989523970405571, 3580346.28767667664215 ], [ 691373.167404166422784, 3580318.797666557598859 ], [ 691352.686745799612254, 3580307.850526588968933 ], [ 691330.500044831307605, 3580309.796054850332439 ], [ 691265.735202244133689, 3580295.401350750587881 ], [ 691186.267827076255344, 3580335.966839891858399 ], [ 691130.480753020849079, 3580346.330298363231122 ], [ 691102.286445645615458, 3580371.056330299936235 ], [ 691062.146013544755988, 3580361.311391197610646 ], [ 691007.376316268229857, 3580376.454661228694022 ] ] ], [ [ [ 691010.816170205245726, 3580923.978920822497457 ], [ 690997.130500199156813, 3580954.46175639051944 ], [ 691005.204160600434989, 3581008.884805812966079 ], [ 691024.789123926660977, 3581030.415892141405493 ], [ 691051.448606280377135, 3581034.370452784001827 ], [ 691101.019904917455278, 3581012.146443394944072 ], [ 691152.003398688626476, 3581005.335826740600169 ], [ 691172.236880980897695, 3580991.834047377575189 ], [ 691216.260989229660481, 3580996.264875650871545 ], [ 691324.511921987286769, 3580959.433291615452617 ], [ 691383.2425743623171, 3580930.42771000880748 ], [ 691426.558990585617721, 3580920.570407609455287 ], [ 691445.980734541779384, 3580896.904944126028568 ], [ 691447.959444521344267, 3580836.352219139691442 ], [ 691431.284289482166059, 3580804.017800694331527 ], [ 691396.581329515436664, 3580795.668848275672644 ], [ 691351.583456803346053, 3580818.005160334985703 ], [ 691319.79301122459583, 3580818.148717063944787 ], [ 691258.507153541664593, 3580837.379834854975343 ], [ 691220.6922123352997, 3580863.474374009296298 ], [ 691108.247452856041491, 3580898.86179425008595 ], [ 691042.503901474759914, 3580903.762659647967666 ], [ 691010.816170205245726, 3580923.978920822497457 ] ] ] ] } },
{ "type": "Feature", "properties": { "depth_bin": "65-70" }, "geometry": { "type": "MultiPolygon", "coordinates": [ [ [ [ 691014.825816098833457, 3580363.711736221797764 ], [ 690927.550782213453203, 3580391.43239419721067 ], [ 690915.607321160845459, 3580428.85833476902917 ], [ 690927.323049913393334, 3580457.142606016714126 ], [ 690943.995934070670046, 3580467.135948198381811 ], [ 690970.193287991569377, 3580468.931411837227643 ], [ 691061.188987328554504, 3580442.828995418269187 ], [ 691111.94820022652857, 3580504.221395425032824 ], [ 691128.135588184464723, 3580549.251459259074181 ], [ 691155.135320705827326, 3580563.683116959407926 ], [ 691194.747537357499823, 3580556.522871230728924 ], [ 691263.366134819807485, 3580500.04518882278353 ], [ 691259.497228548396379, 3580528.24117665598169 ], [ 691266.04583312314935, 3580546.543300363700837 ], [ 691348.697263321140781, 3580620.345906006637961 ], [ 691382.531459732097574, 3580625.364734943956137 ], [ 691408.90153138700407, 3580603.329339877702296 ], [ 691415.488092892803252, 3580575.662229455541819 ], [ 691402.185744610382244, 3580511.718896842096001 ], [ 691404.008356313686818, 3580458.689851785078645 ], [ 691393.061216345056891, 3580438.209193418268114 ], [ 691372.580557978246361, 3580427.262053449638188 ], [ 691341.737078917212784, 3580426.882492439821362 ], [ 691271.794272539787926, 3580470.555177504196763 ], [ 691269.998461861396208, 3580461.586805434897542 ], [ 691315.527903427253477, 3580433.04778320947662 ], [ 691335.26491888531018, 3580403.866168112494051 ], [ 691380.197938211495057, 3580364.414192040450871 ], [ 691382.89456624223385, 3580327.051448387559503 ], [ 691364.476212887675501, 3580296.987476519774646 ], [ 691338.631922374130227, 3580287.201868833508343 ], [ 691268.934249677928165, 3580289.382801549974829 ], [ 691183.296204338315874, 3580332.843747666571289 ], [ 691085.376888604136184, 3580355.972825914621353 ], [ 691014.825816098833457, 3580363.711736221797764 ] ], [ [ 691213.098855119431391, 3580430.432643889449537 ], [ 691202.831774440826848, 3580421.023948038462549 ], [ 691193.510998129379004, 3580416.013681445736438 ], [ 691215.948008408420719, 3580409.634860319085419 ], [ 691213.098855119431391, 3580430.432643889449537 ] ] ], [ [ [ 691045.885506814345717, 3580934.425213546957821 ], [ 691012.706162567134015, 3580942.736206628847867 ], [ 690998.274504866800271, 3580969.73593915021047 ], [ 690998.540198578033596, 3581031.587143325712532 ], [ 691011.567336236825213, 3581050.285509550943971 ], [ 691033.022381990216672, 3581059.172480483539402 ], [ 691152.359631637227722, 3581035.83355233585462 ], [ 691232.185605690232478, 3581030.202047786675394 ], [ 691337.522321244585328, 3580977.302123948466033 ], [ 691364.97107499698177, 3580988.260583784431219 ], [ 691395.288557445979677, 3580974.870375549420714 ], [ 691424.767045443761162, 3580974.127693493384868 ], [ 691446.414889449602924, 3580952.479849487543106 ], [ 691453.073534412425943, 3580902.855331690516323 ], [ 691435.842028625775129, 3580849.176496120169759 ], [ 691401.00092487805523, 3580834.744838419836015 ], [ 691283.497664799448103, 3580874.591905112843961 ], [ 691207.113441325258464, 3580910.993137224111706 ], [ 691172.121800298453309, 3580903.746100192889571 ], [ 691062.108482223004103, 3580941.735613928642124 ], [ 691045.885506814345717, 3580934.425213546957821 ] ] ] ] } },
{ "type": "Feature", "properties": { "depth_bin": "70-75" }, "geometry": { "type": "MultiPolygon", "coordinates": [ [ [ [ 691020.738259264267981, 3580356.036682725418359 ], [ 690952.069458623183891, 3580372.48705896968022 ], [ 690929.226217515999451, 3580385.375803276430815 ], [ 690916.141532841138542, 3580411.225045186001807 ], [ 690924.952590659842826, 3580443.568785254843533 ], [ 690944.261621704208665, 3580456.470667317509651 ], [ 690967.411752369604073, 3580458.190219590906054 ], [ 691065.923345784773119, 3580435.280885612592101 ], [ 691103.46823298803065, 3580482.389041327871382 ], [ 691140.382716057356447, 3580491.465790623333305 ], [ 691158.684839764959179, 3580484.917186048347503 ], [ 691173.417211744585074, 3580466.965738851111382 ], [ 691168.959489147178829, 3580415.814936187583953 ], [ 691218.142692080466077, 3580404.449795861728489 ], [ 691222.956359080388211, 3580440.274917707778513 ], [ 691252.294457959360443, 3580457.859497454017401 ], [ 691274.569709675270133, 3580455.083200445398688 ], [ 691312.48884702147916, 3580430.815305429510772 ], [ 691329.497448916779831, 3580405.360133818350732 ], [ 691322.490312709705904, 3580372.364045695867389 ], [ 691367.667089492431842, 3580359.64306392846629 ], [ 691379.24653942626901, 3580344.029983088839799 ], [ 691382.212613273528405, 3580320.231014552060515 ], [ 691369.431561446399428, 3580285.164167962502688 ], [ 691335.70298938464839, 3580273.603095737751573 ], [ 691246.194379992899485, 3580291.27948610810563 ], [ 691189.248234783532098, 3580327.607106843963265 ], [ 691103.017284093424678, 3580340.133876856882125 ], [ 691081.1461965496419, 3580352.411563648842275 ], [ 691020.738259264267981, 3580356.036682725418359 ] ] ], [ [ [ 690989.554201858933084, 3581013.560365913901478 ], [ 690983.005597284180112, 3581031.862489621620625 ], [ 690987.077727372176014, 3581063.317370398901403 ], [ 691001.81009935180191, 3581081.268817596137524 ], [ 691020.112223059404641, 3581087.817422171123326 ], [ 691298.122640409972519, 3581046.614578772801906 ], [ 691446.235387720284052, 3580998.235985555220395 ], [ 691466.974921153741889, 3580972.13162210630253 ], [ 691465.526813972974196, 3580926.739230871666223 ], [ 691447.070516716106795, 3580898.198867210187018 ], [ 691411.623909677262418, 3580877.021353978663683 ], [ 691388.51295950205531, 3580874.745124062988907 ], [ 691310.353326876531355, 3580898.129510254133493 ], [ 691224.373562440625392, 3580948.265710804611444 ], [ 691147.217158419778571, 3580952.584320841822773 ], [ 691031.46419046074152, 3580979.715712251607329 ], [ 690989.554201858933084, 3581013.560365913901478 ] ] ] ] } },
{ "type": "Feature", "properties": { "depth_bin": "75-80" }, "geometry": { "type": "MultiPolygon", "coordinates": [ [ [ [ 691001.242645347374491, 3580356.941896973177791 ], [ 690950.048940974054858, 3580367.752999768592417 ], [ 690932.097493776469491, 3580382.485371748451144 ], [ 690926.011001386679709, 3580417.082628893665969 ], [ 690943.01960328198038, 3580442.537800504826009 ], [ 690990.531617921893485, 3580448.094166702125221 ], [ 691041.087619143654592, 3580432.854575868230313 ], [ 691092.343440043507144, 3580433.187589878216386 ], [ 691214.266698295949027, 3580403.160351619124413 ], [ 691278.427228837739676, 3580364.26704757893458 ], [ 691352.271220528520644, 3580353.106363161467016 ], [ 691376.462095173308626, 3580330.780693472828716 ], [ 691381.106496779830195, 3580303.433292753994465 ], [ 691372.219525847467594, 3580281.978247000370175 ], [ 691356.606445007491857, 3580270.398797066416591 ], [ 691303.745027846773155, 3580271.282438438385725 ], [ 691243.223060143995099, 3580288.156348192598671 ], [ 691175.059315538965166, 3580324.627825345378369 ], [ 691001.242645347374491, 3580356.941896973177791 ] ] ], [ [ [ 691001.772138066357002, 3581016.274860699195415 ], [ 690984.76353617105633, 3581041.730032310355455 ], [ 690991.347745914943516, 3581085.225170467980206 ], [ 691019.546081834007055, 3581106.284510906785727 ], [ 691051.875952985603362, 3581106.708152935374528 ], [ 691295.87776283104904, 3581075.525394904892892 ], [ 691426.867060436285101, 3581048.773585395887494 ], [ 691453.161227214499377, 3581029.785432622767985 ], [ 691471.058438100852072, 3580976.482577686663717 ], [ 691465.614528492325917, 3580946.736513637937605 ], [ 691454.035078558488749, 3580931.123432798311114 ], [ 691409.502503121038899, 3580921.856856497470289 ], [ 691320.244344328413717, 3580958.999525990337133 ], [ 691039.273384930682369, 3581001.729982103221118 ], [ 691001.772138066357002, 3581016.274860699195415 ] ] ] ] } },
{ "type": "Feature", "properties": { "depth_bin": "80-85" }, "geometry": { "type": "MultiPolygon", "coordinates": [ [ [ [ 691005.109975522616878, 3580351.850466710980982 ], [ 690955.382368372869678, 3580361.897687849588692 ], [ 690932.988158862921409, 3580376.24727123323828 ], [ 690924.063232752610929, 3580407.067299847491086 ], [ 690938.494890452944674, 3580434.067032368853688 ], [ 690981.503812728798948, 3580443.295599995646626 ], [ 691215.904276711400598, 3580398.627467249054462 ], [ 691273.793688459671102, 3580361.738661616109312 ], [ 691361.998301830841228, 3580340.574808510020375 ], [ 691376.730673810467124, 3580322.623361312784255 ], [ 691379.158721008570865, 3580293.417950343340635 ], [ 691368.211581039940938, 3580272.937291976530105 ], [ 691351.538696882664226, 3580262.943949794862419 ], [ 691286.225375859532505, 3580268.469594881404191 ], [ 691191.461858506314456, 3580312.453877073712647 ], [ 691005.109975522616878, 3580351.850466710980982 ] ] ], [ [ [ 690989.786169865634292, 3581048.999182139523327 ], [ 690984.911174463806674, 3581073.949499976355582 ], [ 690990.930166589096189, 3581101.985003584530205 ], [ 691007.351147689973004, 3581118.405984685290605 ], [ 691032.301465679658577, 3581123.280980554874986 ], [ 691261.423623116337694, 3581098.771326758433133 ], [ 691289.749855353264138, 3581105.012085652444512 ], [ 691354.018500387202948, 3581090.114336949773133 ], [ 691445.040515168569982, 3581085.340068421792239 ], [ 691468.157320422469638, 3581071.48438857216388 ], [ 691477.236902287928388, 3581046.108657205477357 ], [ 691456.803441303782165, 3580986.909583460539579 ], [ 691415.331595306284726, 3580967.448740400839597 ], [ 691276.5151596525684, 3580997.583611217327416 ], [ 691017.259407558944076, 3581028.623640396166593 ], [ 690989.786169865634292, 3581048.999182139523327 ] ] ] ] } },
{ "type": "Feature", "properties": { "depth_bin": "85-90" }, "geometry": { "type": "MultiPolygon", "coordinates": [ [ [ [ 691017.994672892615199, 3580343.771875235252082 ], [ 690934.176604434615001, 3580370.253552937880158 ], [ 690922.460875682067126, 3580398.537824185565114 ], [ 690935.662260914919898, 3580428.383662212174386 ], [ 690960.025846549193375, 3580439.906780031509697 ], [ 690996.92970689444337, 3580436.057092391420156 ], [ 691090.374695894424804, 3580412.738562418613583 ], [ 691130.965234369388781, 3580412.80588664393872 ], [ 691152.010694070952013, 3580401.235584432259202 ], [ 691211.561063751461916, 3580389.371917074546218 ], [ 691291.79151598259341, 3580349.87407360970974 ], [ 691358.82113355002366, 3580334.97479859739542 ], [ 691375.242114650900476, 3580318.55381749663502 ], [ 691379.810607414110564, 3580294.253647209145129 ], [ 691370.923636481747963, 3580272.798601455520838 ], [ 691355.310555641772225, 3580261.219151521567255 ], [ 691308.581552907708101, 3580260.730997005477548 ], [ 691260.400320945307612, 3580271.813987299334258 ], [ 691193.061381112318486, 3580309.444604197517037 ], [ 691092.769399731303565, 3580323.108347287401557 ], [ 691017.994672892615199, 3580343.771875235252082 ] ] ], [ [ [ 690995.248637412325479, 3581059.277014845982194 ], [ 690986.361666479962878, 3581080.732060599606484 ], [ 690989.02406594727654, 3581107.578143997117877 ], [ 691002.089166281628422, 3581124.752798644360155 ], [ 691023.544212035019882, 3581133.639769576955587 ], [ 691144.376145555870607, 3581123.006132371723652 ], [ 691209.952392175095156, 3581125.892393663991243 ], [ 691238.869721502647735, 3581116.674707213882357 ], [ 691270.023598618223332, 3581127.679397774394602 ], [ 691335.619594133459032, 3581115.847220633644611 ], [ 691428.019520309055224, 3581123.702849609777331 ], [ 691463.263132650521584, 3581112.110304424539208 ], [ 691477.694790350855328, 3581085.110571903176606 ], [ 691471.027998239616863, 3581025.691207937896252 ], [ 691432.167637494043447, 3580999.979034057818353 ], [ 691285.460091036977246, 3581022.086384144611657 ], [ 691254.635270306025632, 3581018.619543673004955 ], [ 691023.809943658066913, 3581043.359706656076014 ], [ 690995.248637412325479, 3581059.277014845982194 ] ] ] ] } },
{ "type": "Feature", "properties": { "depth_bin": "90-95" }, "geometry": { "type": "MultiPolygon", "coordinates": [ [ [ [ 691014.761889576097019, 3580340.398488337174058 ], [ 690932.766858177725226, 3580365.644762966781855 ], [ 690921.051129425177351, 3580393.92903421446681 ], [ 690934.214559570304118, 3580425.29848380992189 ], [ 690967.94312805950176, 3580436.859556756448001 ], [ 691119.531321282032877, 3580399.605763440951705 ], [ 691213.160587075981312, 3580386.362644041422755 ], [ 691292.393740924773738, 3580345.494749142788351 ], [ 691357.373426881735213, 3580331.889613948762417 ], [ 691373.794407982612029, 3580315.468632848002017 ], [ 691378.36290071636904, 3580291.168462572619319 ], [ 691369.475929784006439, 3580269.713416818995029 ], [ 691353.862848944030702, 3580258.133966885041445 ], [ 691304.08661667665001, 3580257.569904368370771 ], [ 691258.952615033951588, 3580268.728803790174425 ], [ 691181.631719204597175, 3580309.528910990338773 ], [ 691092.845309352851473, 3580320.061121421400458 ], [ 691014.761889576097019, 3580340.398488337174058 ] ] ], [ [ [ 690992.150085356552154, 3581076.500123144127429 ], [ 690987.505661624367349, 3581103.847514557652175 ], [ 690996.39263255672995, 3581125.302560311276466 ], [ 691015.701663601095788, 3581138.204442373942584 ], [ 691047.082147495355457, 3581141.943946768064052 ], [ 691318.980302386567928, 3581133.493034970480949 ], [ 691355.61676942743361, 3581144.962685433216393 ], [ 691418.308398567140102, 3581146.329315912909806 ], [ 691460.620213160058483, 3581129.230045444797724 ], [ 691474.802107701543719, 3581082.637576424051076 ], [ 691465.722525836084969, 3581057.261845057364553 ], [ 691444.927840515039861, 3581042.798385376110673 ], [ 691335.918850002111867, 3581034.075506110209972 ], [ 691049.521643373533152, 3581051.623118394520134 ], [ 691012.119598635938019, 3581058.40081131644547 ], [ 690992.150085356552154, 3581076.500123144127429 ] ] ] ] } },
{ "type": "Feature", "properties": { "depth_bin": "95-100" }, "geometry": { "type": "MultiPolygon", "coordinates": [ [ [ [ 690997.84986465703696, 3580339.038591268472373 ], [ 690944.334045755444095, 3580352.365063028410077 ], [ 690926.382598557858728, 3580367.097435008268803 ], [ 690920.409971833927557, 3580397.123857209924608 ], [ 690938.866275195265189, 3580425.664207099936903 ], [ 690981.119545822730288, 3580430.416862786747515 ], [ 691118.951825251802802, 3580396.477930186316371 ], [ 691213.236496465164237, 3580383.315416266210377 ], [ 691288.14643141569104, 3580343.136409820057452 ], [ 691355.925720166880637, 3580328.804429351352155 ], [ 691372.346701267757453, 3580312.383448250591755 ], [ 691376.915193972061388, 3580288.083277989178896 ], [ 691354.478013408835977, 3580255.165543662849814 ], [ 691304.238433561520651, 3580251.475444764364511 ], [ 691237.508049346739426, 3580272.768283985555172 ], [ 691177.557699992205016, 3580303.006334450561553 ], [ 691089.91194783768151, 3580315.414373114705086 ], [ 690997.84986465703696, 3580339.038591268472373 ] ] ], [ [ [ 691062.170682431664318, 3581061.75834997324273 ], [ 691027.166011588997208, 3581066.398492348380387 ], [ 691005.518167583155446, 3581088.046336354222149 ], [ 691005.40428210911341, 3581123.231847691815346 ], [ 691027.052126114955172, 3581144.879691697657108 ], [ 691316.099306909483857, 3581147.83066794835031 ], [ 691430.805829403689131, 3581160.652050995733589 ], [ 691456.181560770259239, 3581151.572469130158424 ], [ 691470.037240619771183, 3581128.455663876608014 ], [ 691461.510887348442338, 3581078.546311102807522 ], [ 691445.622318287729286, 3581063.930692127905786 ], [ 691423.942712745047174, 3581058.186782893259078 ], [ 691146.382909351843409, 3581053.746176871471107 ], [ 691062.170682431664318, 3581061.75834997324273 ] ] ] ] } },
{ "type": "Feature", "properties": { "depth_bin": "100-105" }, "geometry": { "type": "MultiPolygon", "coordinates": [ [ [ [ 690996.385802899370901, 3580334.863005196675658 ], [ 690944.447910853778012, 3580347.794228233397007 ], [ 690926.496463656192645, 3580362.526600213255733 ], [ 690920.447926881257445, 3580395.600245612673461 ], [ 690937.456528776558116, 3580421.055417223833501 ], [ 690978.148232516134158, 3580427.29372924240306 ], [ 691107.487889802199788, 3580393.34211919689551 ], [ 691201.123495145584457, 3580379.96455129981041 ], [ 691284.385481546167284, 3580339.791463973000646 ], [ 691354.515967590734363, 3580324.195629652123898 ], [ 691370.936948691611178, 3580307.774648551363498 ], [ 691375.467487184563652, 3580284.998093465343118 ], [ 691353.068260755389929, 3580250.556744032073766 ], [ 691308.923140850733034, 3580247.018462508451194 ], [ 691147.468989437445998, 3580302.22839095396921 ], [ 691102.328679802594706, 3580306.576335507445037 ], [ 690996.385802899370901, 3580334.863005196675658 ] ] ], [ [ [ 691018.469382444047369, 3581078.565666371490806 ], [ 691005.567500381381251, 3581097.874697415623814 ], [ 691005.377690896391869, 3581128.715532895643264 ], [ 691018.279572959057987, 3581148.024563939776272 ], [ 691039.734618712449446, 3581156.911534872371703 ], [ 691262.129286278155632, 3581156.509361030068249 ], [ 691428.252427950152196, 3581175.543850381858647 ], [ 691460.347979466896504, 3581159.639695701655 ], [ 691471.871097286348231, 3581135.276110067032278 ], [ 691464.216461925883777, 3581092.334778031799942 ], [ 691430.345477345981635, 3581073.11269648373127 ], [ 691165.924150049453601, 3581064.904973342549056 ], [ 691039.924428197438829, 3581069.678695438895375 ], [ 691018.469382444047369, 3581078.565666371490806 ] ] ] ] } },
{ "type": "Feature", "properties": { "depth_bin": "105-110" }, "geometry": { "type": "MultiPolygon", "coordinates": [ [ [ [ 691015.790166582912207, 3580323.763923943042755 ], [ 690928.537618695758283, 3580351.818393550813198 ], [ 690916.821889943210408, 3580380.102664798498154 ], [ 690929.947365308878943, 3580412.99572577001527 ], [ 690962.152322169509716, 3580424.518843589350581 ], [ 691169.127609058865346, 3580379.167503864038736 ], [ 691282.93777630769182, 3580336.70628035441041 ], [ 691353.106214894913137, 3580319.586830030195415 ], [ 691369.527195995789953, 3580303.165848929435015 ], [ 691374.057734488742426, 3580280.389293843414634 ], [ 691354.987493723398075, 3580249.489625698886812 ], [ 691321.225923290941864, 3580242.751250548753887 ], [ 691015.790166582912207, 3580323.763923943042755 ] ] ], [ [ [ 691010.358555401791818, 3581096.405048717744648 ], [ 691005.339726464706473, 3581130.239245128817856 ], [ 691013.178007997223176, 3581150.068264965433627 ], [ 691030.59018556762021, 3581164.721842601895332 ], [ 691169.223774659214541, 3581169.090948355384171 ], [ 691201.090642877388746, 3581193.993022902403027 ], [ 691233.629059475264512, 3581186.916267174296081 ], [ 691260.99666209355928, 3581190.523090193513781 ], [ 691282.905797859304585, 3581177.999868290964514 ], [ 691343.588457764592022, 3581185.596474544145167 ], [ 691370.060314545407891, 3581204.301313168369234 ], [ 691435.111260874080472, 3581206.20597949065268 ], [ 691461.213179291342385, 3581194.38566655991599 ], [ 691478.192015921929851, 3581168.297554234974086 ], [ 691477.390067674103193, 3581142.78809033986181 ], [ 691460.310017323121428, 3581104.594769125338644 ], [ 691404.900082977488637, 3581088.203653065487742 ], [ 691115.379082146682777, 3581074.31752104125917 ], [ 691035.813727013301104, 3581079.396446822211146 ], [ 691010.358555401791818, 3581096.405048717744648 ] ] ] ] } },
{ "type": "Feature", "properties": { "depth_bin": "110-115" }, "geometry": { "type": "MultiPolygon", "coordinates": [ [ [ [ 691021.458923933561891, 3580315.795269399415702 ], [ 690927.165826879907399, 3580345.685992347542197 ], [ 690915.450098127359524, 3580373.970263595227152 ], [ 690928.575573656242341, 3580406.863324471749365 ], [ 690966.187069364939816, 3580417.848419392481446 ], [ 691230.755443432601169, 3580353.260539264418185 ], [ 691351.658507984597236, 3580316.50164562696591 ], [ 691368.079489085474052, 3580300.08066452620551 ], [ 691372.647981673129834, 3580275.780494305770844 ], [ 691356.768616988672875, 3580245.695577449165285 ], [ 691327.472200008924119, 3580236.808606516569853 ], [ 691267.712814040714875, 3580247.713244481477886 ], [ 691205.211209794739261, 3580273.630717322230339 ], [ 691132.723580101621337, 3580280.939996000844985 ], [ 691021.458923933561891, 3580315.795269399415702 ] ] ], [ [ [ 691018.114559199195355, 3581101.084796681068838 ], [ 691006.515517253079452, 3581136.336978104896843 ], [ 691022.243014512234367, 3581172.516346466727555 ], [ 691043.698060265625827, 3581181.403317399322987 ], [ 691102.994643072132021, 3581181.414993098471314 ], [ 691135.309425953659229, 3581203.025933659635484 ], [ 691173.016443011001684, 3581192.011366296093911 ], [ 691198.651340868906118, 3581203.558833991643041 ], [ 691226.264455308322795, 3581197.522345667239279 ], [ 691372.11592390818987, 3581217.02835162775591 ], [ 691445.548897441825829, 3581215.613415291067213 ], [ 691469.912483076099306, 3581204.090297471731901 ], [ 691480.859623044729233, 3581183.609639104921371 ], [ 691478.723871701164171, 3581150.444132666569203 ], [ 691465.821989638498053, 3581131.135101622436196 ], [ 691444.366943885106593, 3581122.248130689840764 ], [ 691409.403276624041609, 3581124.356088133528829 ], [ 691381.628166969167069, 3581104.393988317809999 ], [ 691189.770596685586497, 3581086.843056279700249 ], [ 691050.134168470045552, 3581088.227876758668572 ], [ 691018.114559199195355, 3581101.084796681068838 ] ] ] ] } },
{ "type": "Feature", "properties": { "depth_bin": "115-120" }, "geometry": { "type": "MultiPolygon", "coordinates": [ [ [ [ 691026.148319885018282, 3580311.715438018552959 ], [ 690930.150276549509726, 3580340.002622338011861 ], [ 690915.718618849175982, 3580367.002354859374464 ], [ 690924.567634895560332, 3580397.822383400518447 ], [ 690947.684440149459988, 3580411.678063250146806 ], [ 690984.660184071399271, 3580410.68582007009536 ], [ 691155.924192732665688, 3580357.161378032062203 ], [ 691227.784124114201404, 3580350.137402405496687 ], [ 691290.913128769956529, 3580323.934669080190361 ], [ 691348.725139978691004, 3580311.854892099741846 ], [ 691366.707690248382278, 3580293.948249932844192 ], [ 691371.238228741334751, 3580271.171694846823812 ], [ 691352.167990403831936, 3580240.271926840301603 ], [ 691316.882805063971318, 3580233.495598101057112 ], [ 691210.940747124608606, 3580267.17390608927235 ], [ 691132.837443316588178, 3580276.369155942928046 ], [ 691026.148319885018282, 3580311.715438018552959 ] ] ], [ [ [ 691022.205052340752445, 3581112.199122489895672 ], [ 691002.936822240124457, 3581149.750254193786532 ], [ 691005.751067721401341, 3581170.501889345236123 ], [ 691017.330517655238509, 3581186.114970184862614 ], [ 691037.911898354999721, 3581196.02550012525171 ], [ 691074.640183866838925, 3581196.588050878606737 ], [ 691160.83122500043828, 3581218.907528668642044 ], [ 691192.950589967658743, 3581211.382669798564166 ], [ 691272.278746588970535, 3581220.73396259220317 ], [ 691446.88269798445981, 3581223.269557895604521 ], [ 691471.246283618733287, 3581211.746440076269209 ], [ 691482.193423587363213, 3581191.265781709458679 ], [ 691474.849033754668199, 3581155.106832904275507 ], [ 691449.393862143158913, 3581138.098231008742005 ], [ 691254.23434966057539, 3581122.005580720026046 ], [ 691181.084690328338183, 3581103.491717015393078 ], [ 691046.74528487760108, 3581101.864463595207781 ], [ 691022.205052340752445, 3581112.199122489895672 ] ] ] ] } },
{ "type": "Feature", "properties": { "depth_bin": "120-125" }, "geometry": { "type": "MultiPolygon", "coordinates": [ [ [ [ 691021.952808889793232, 3580307.280992559157312 ], [ 690925.831989688333124, 3580338.029979698825628 ], [ 690914.040351235424168, 3580369.361474043224007 ], [ 690925.756079987972043, 3580397.645745290908962 ], [ 690946.236738354782574, 3580408.592885259538889 ], [ 690974.032856960431673, 3580408.896524200681597 ], [ 691096.03193357901182, 3580375.822064438369125 ], [ 691166.347115197451785, 3580344.532666788436472 ], [ 691232.506783643737435, 3580344.156809216830879 ], [ 691348.839004577719606, 3580307.283946794923395 ], [ 691365.259985678596422, 3580290.862965694162995 ], [ 691369.828478178940713, 3580266.562795495148748 ], [ 691352.243898432818241, 3580237.224696616176516 ], [ 691318.482328118639998, 3580230.486322048585862 ], [ 691223.489941679523326, 3580248.136186488438398 ], [ 691202.052658784203231, 3580263.9076839806512 ], [ 691171.193562067463063, 3580266.652722207829356 ], [ 691150.165461287484504, 3580277.825984770897776 ], [ 691103.812883415143006, 3580278.695248935837299 ], [ 691069.587727237143554, 3580298.035918118432164 ], [ 691021.952808889793232, 3580307.280992559157312 ] ] ], [ [ [ 691009.409502230351791, 3581134.495354973245412 ], [ 690997.641898882226087, 3581174.88772369781509 ], [ 691006.721480747684836, 3581200.263455064501613 ], [ 691026.030511792050675, 3581213.165337127167732 ], [ 691058.366525190533139, 3581212.338475489988923 ], [ 691086.744048295193352, 3581228.212703867349774 ], [ 691113.088775697513483, 3581221.514855122193694 ], [ 691160.751032782369293, 3581230.151598198339343 ], [ 691432.904315752442926, 3581233.593202918767929 ], [ 691469.671546421363018, 3581222.038629719987512 ], [ 691484.103204121696763, 3581195.038897198624909 ], [ 691473.84446786751505, 3581159.610053472220898 ], [ 691446.844735346152447, 3581145.178395771887153 ], [ 691270.297061296529137, 3581140.710384239908308 ], [ 691177.863911706954241, 3581131.713831163477153 ], [ 691118.924941411823966, 3581115.56905697286129 ], [ 691034.864673841861077, 3581117.48675307771191 ], [ 691009.409502230351791, 3581134.495354973245412 ] ] ] ] } },
{ "type": "Feature", "properties": { "depth_bin": "125-130" }, "geometry": { "type": "MultiPolygon", "coordinates": [ [ [ [ 690997.88636801764369, 3580308.072345555759966 ], [ 690943.493625295348465, 3580324.901999403256923 ], [ 690924.757411677855998, 3580339.452762877102941 ], [ 690915.870440745493397, 3580368.749179856851697 ], [ 690930.302098445827141, 3580395.7489123782143 ], [ 690950.883482768433169, 3580405.659526675008237 ], [ 690980.967033559572883, 3580403.643639123532921 ], [ 691102.240248536108993, 3580371.403044268023223 ], [ 691145.270109233795665, 3580343.771474918816239 ], [ 691156.793227053247392, 3580319.407889284193516 ], [ 691147.906256120884791, 3580290.11147230444476 ], [ 691116.37363875634037, 3580274.042338396422565 ], [ 691091.051163754309528, 3580276.74272868828848 ], [ 691056.920362993027084, 3580298.793314963113517 ], [ 690997.88636801764369, 3580308.072345555759966 ] ] ], [ [ [ 690996.159047609893605, 3581177.023524312768131 ], [ 690998.973292835755274, 3581197.775159396696836 ], [ 691015.331678019603714, 3581221.82180176442489 ], [ 691049.223395325709134, 3581239.569220358505845 ], [ 691101.899781752144918, 3581240.591419012285769 ], [ 691127.85232955974061, 3581232.103785660583526 ], [ 691221.42993920983281, 3581242.335404366720468 ], [ 691241.779810998006724, 3581236.716784413903952 ], [ 691438.884991107974201, 3581238.315904123242944 ], [ 691472.428235374507494, 3581225.496946922503412 ], [ 691484.143964127055369, 3581197.212675674818456 ], [ 691477.516636836342514, 3581170.419018289074302 ], [ 691452.061465224833228, 3581153.4104163935408 ], [ 691157.283707174472511, 3581148.566444164142013 ], [ 691091.044359328690916, 3581133.169187876395881 ], [ 691025.381785998702981, 3581138.00846735201776 ], [ 691006.683518262463622, 3581151.035604522563517 ], [ 690996.159047609893605, 3581177.023524312768131 ] ] ], [ [ [ 691211.354905242566019, 3580253.117061293683946 ], [ 691196.622533262940124, 3580271.068508490920067 ], [ 691194.308349207043648, 3580295.703072863165289 ], [ 691205.255489175673574, 3580316.18373122997582 ], [ 691229.619074809947051, 3580327.706849049311131 ], [ 691271.891668419120833, 3580324.842727784998715 ], [ 691343.842765294713899, 3580305.877093310467899 ], [ 691359.455846134689637, 3580294.297643376514316 ], [ 691368.342817067052238, 3580272.842597622890025 ], [ 691359.493800112744793, 3580242.022565543651581 ], [ 691332.494067591382191, 3580227.590907843317837 ], [ 691211.354905242566019, 3580253.117061293683946 ] ] ] ] } },
{ "type": "Feature", "properties": { "depth_bin": "130-135" }, "geometry": { "type": "MultiPolygon", "coordinates": [ [ [ [ 690967.315946155111305, 3580318.290801723022014 ], [ 690936.510409229900688, 3580329.4890605378896 ], [ 690922.078751529566944, 3580356.488793059252203 ], [ 690930.965722461929545, 3580385.785210039000958 ], [ 690957.965454983292148, 3580400.216867739334702 ], [ 691102.926927622989751, 3580368.481090232264251 ], [ 691118.540008462965488, 3580356.901640298310667 ], [ 691127.42697939532809, 3580335.446594544686377 ], [ 691118.540008462965488, 3580306.150177564937621 ], [ 691091.540275941602886, 3580291.718519864603877 ], [ 690967.315946155111305, 3580318.290801723022014 ] ] ], [ [ [ 691266.344228015164845, 3581159.36795849353075 ], [ 691243.932635370641947, 3581170.376224424224347 ], [ 691215.373446404351853, 3581160.659939433913678 ], [ 691189.997715037781745, 3581169.739521299488842 ], [ 691175.566057337448001, 3581196.739253820851445 ], [ 691184.453028269810602, 3581226.035670800600201 ], [ 691212.938411902287044, 3581242.028905129991472 ], [ 691247.796884590527043, 3581230.938552559819072 ], [ 691267.902509051258676, 3581238.824724453501403 ], [ 691399.232918934314512, 3581238.852485356386751 ], [ 691420.687964687705971, 3581229.965514423791319 ], [ 691433.589846750372089, 3581210.656483379658312 ], [ 691430.589083895087242, 3581180.189226816408336 ], [ 691406.923620411311276, 3581160.767482860013843 ], [ 691266.344228015164845, 3581159.36795849353075 ] ] ] ] } }
]
}
