{
"type": "FeatureCollection",
"name": "LM_15_CVB_20170417_CS_MB_59775_59825_depth",
"crs": { "type": "name", "properties": { "name": "urn:ogc:def:crs:EPSG::26915" } },
"features": [
{ "type": "Feature", "properties": { "depth_bin": "145-150" }, "geometry": { "type": "MultiPolygon", "coordinates": [ [ [ [ 678709.204165146336891, 3758210.920252839569002 ], [ 678696.045046880259179, 3758232.084304459858686 ], [ 678693.92651068395935, 3758258.930348718073219 ], [ 678708.550779317389242, 3758289.850766852498055 ], [ 678744.737439978634939, 3758299.764455743599683 ], [ 678786.373525224160403, 3758277.243361046537757 ], [ 678800.419653923483565, 3758236.751815001480281 ], [ 678782.827683025738224, 3758202.705235331319273 ], [ 678748.960868302150629, 3758193.699419993907213 ], [ 678709.204165146336891, 3758210.920252839569002 ] ] ], [ [ [ 678989.818861565436237, 3758076.823494880925864 ], [ 678975.431294399430044, 3758106.825554940383881 ], [ 678985.604051162023097, 3758145.30239576799795 ], [ 679012.6037836833857, 3758159.734053468331695 ], [ 679046.51021957944613, 3758149.442455528769642 ], [ 679066.657941850717179, 3758118.866765740327537 ], [ 679058.545017171069048, 3758078.070079201832414 ], [ 679041.448081515729427, 3758064.927547175437212 ], [ 679021.570238980348222, 3758061.763884987682104 ], [ 678989.818861565436237, 3758076.823494880925864 ] ] ] ] } },
{ "type": "Feature", "properties": { "depth_bin": "150-155" }, "geometry": { "type": "MultiPolygon", "coordinates": [ [ [ [ 678641.967496466590092, 3758262.914341430645436 ], [ 678624.532981364522129, 3758292.837173877749592 ], [ 678633.38033691921737, 3758323.657055920921266 ], [ 678688.67470193549525, 3758371.270295246504247 ], [ 678729.766601281822659, 3758376.071833863388747 ], [ 678749.075632326188497, 3758363.169951800722629 ], [ 678761.560899080242962, 3758339.548832855187356 ], [ 678761.089796191663481, 3758306.330869069788605 ], [ 678785.015940989833325, 3758295.988750914577395 ], [ 678805.885387526708655, 3758274.166581007186323 ], [ 678812.606635568081401, 3758217.879633568692952 ], [ 678783.700854156748392, 3758186.283513543661684 ], [ 678730.883209145977162, 3758184.287631461396813 ], [ 678709.235811744001694, 3758200.342435569968075 ], [ 678689.879992186324671, 3758241.693949804175645 ], [ 678641.967496466590092, 3758262.914341430645436 ] ] ], [ [ [ 678985.86669383989647, 3758065.664203931111842 ], [ 678974.343576020444743, 3758090.027789565734565 ], [ 678976.558369679609314, 3758143.234197387006134 ], [ 679003.19154210772831, 3758165.782105692662299 ], [ 679038.268817605916411, 3758161.376716058235615 ], [ 679073.60175033879932, 3758123.561235377565026 ], [ 679070.637632968486287, 3758080.217603735625744 ], [ 679034.182038631290197, 3758053.51050656940788 ], [ 679004.102659889264032, 3758054.187006951775402 ], [ 678985.86669383989647, 3758065.664203931111842 ] ] ] ] } },
{ "type": "Feature", "properties": { "depth_bin": "155-160" }, "geometry": { "type": "MultiPolygon", "coordinates": [ [ [ [ 678661.072702243924141, 3758238.075553059577942 ], [ 678623.095057616126724, 3758282.020311587490141 ], [ 678623.055442267679609, 3758306.766550805419683 ], [ 678634.532634129864164, 3758325.002515367232263 ], [ 678662.086280228220858, 3758336.682350807823241 ], [ 678680.730149875045754, 3758365.840797130018473 ], [ 678731.6901387241669, 3758405.691254404373467 ], [ 678767.71004200167954, 3758406.129984385799617 ], [ 678805.577541846898384, 3758378.287774722557515 ], [ 678820.378977448912337, 3758352.592941360082477 ], [ 678820.245764667866752, 3758306.293089968152344 ], [ 678833.026974534615874, 3758288.049735774751753 ], [ 678836.269871515221894, 3758265.124967074487358 ], [ 678823.432317853439599, 3758216.024067730177194 ], [ 678807.421380091807805, 3758192.184796895831823 ], [ 678781.726445968612097, 3758177.383265883661807 ], [ 678737.254377613309771, 3758173.781729286536574 ], [ 678708.195691266679205, 3758191.075583368074149 ], [ 678692.429231532849371, 3758220.821084938477725 ], [ 678661.072702243924141, 3758238.075553059577942 ] ] ], [ [ [ 678980.381677899276838, 3758060.876175152603537 ], [ 678972.070684817736037, 3758078.448293638415635 ], [ 678970.192910379497334, 3758128.909118964336812 ], [ 678979.272492244956084, 3758154.284850331023335 ], [ 678996.369427501107566, 3758167.427382449619472 ], [ 679016.247169781010598, 3758170.591042829211801 ], [ 679053.969203847111203, 3758155.734500885475427 ], [ 679071.230753444484435, 3758138.133663869928569 ], [ 679083.693391440436244, 3758108.638236352242529 ], [ 679074.017384129925631, 3758069.325404069852084 ], [ 679025.887060175416991, 3758046.721811849158257 ], [ 678999.690708943642676, 3758047.974293089937419 ], [ 678980.381677899276838, 3758060.876175152603537 ] ] ] ] } },
{ "type": "Feature", "properties": { "depth_bin": "160-165" }, "geometry": { "type": "MultiPolygon", "coordinates": [ [ [ [ 678676.684433761402033, 3758217.736431286204606 ], [ 678641.133629025192931, 3758239.732946482487023 ], [ 678618.564277904690243, 3758280.378000572323799 ], [ 678618.564277904690243, 3758303.600774752907455 ], [ 678630.04146975511685, 3758321.836739244870842 ], [ 678650.522128121927381, 3758332.783879213500768 ], [ 678671.460593107272871, 3758331.869696766603738 ], [ 678707.073482076288201, 3758314.250115419272333 ], [ 678720.023873347323388, 3758320.48499485803768 ], [ 678722.098027564119548, 3758328.591942867729813 ], [ 678705.75204703269992, 3758353.555680982302874 ], [ 678706.507762127439491, 3758380.58810990024358 ], [ 678747.906960468040779, 3758424.237507324665785 ], [ 678774.050455402000807, 3758430.786111899651587 ], [ 678830.053405980230309, 3758412.324645172804594 ], [ 678897.667056699283421, 3758363.820153461769223 ], [ 678921.035055437940173, 3758284.975408203434199 ], [ 678918.222462927689776, 3758264.22391822328791 ], [ 678903.49009094806388, 3758246.27247102605179 ], [ 678835.507851669448428, 3758214.00382879562676 ], [ 678802.682223393465392, 3758180.74056311417371 ], [ 678756.031454904470593, 3758164.713853403925896 ], [ 678723.754481979296543, 3758172.627465688623488 ], [ 678687.344094648491591, 3758215.07709328038618 ], [ 678676.684433761402033, 3758217.736431286204606 ] ] ], [ [ [ 678981.57358341908548, 3758054.881085191387683 ], [ 678968.487383846426383, 3758080.728525657206774 ], [ 678965.933958058943972, 3758128.140558186452836 ], [ 678973.273749823914841, 3758152.295779398176819 ], [ 679002.953858659719117, 3758174.92291570501402 ], [ 679041.078071010299027, 3758170.596754202619195 ], [ 679070.707804566947743, 3758148.884372869040817 ], [ 679085.749885427649133, 3758125.401613580528647 ], [ 679086.070386880892329, 3758072.99639645498246 ], [ 679065.197840370936319, 3758051.886168824508786 ], [ 679032.97537813463714, 3758041.283142917789519 ], [ 679005.943036133539863, 3758042.038873548619449 ], [ 678981.57358341908548, 3758054.881085191387683 ] ] ] ] } },
{ "type": "Feature", "properties": { "depth_bin": "165-170" }, "geometry": { "type": "MultiPolygon", "coordinates": [ [ [ [ 678658.860779415117577, 3758216.093878986313939 ], [ 678637.262389019015245, 3758237.998557012993842 ], [ 678612.15604329877533, 3758249.558164295274764 ], [ 678601.208903330145404, 3758270.038822662085295 ], [ 678607.181530054076575, 3758300.0652448637411 ], [ 678636.502172191743739, 3758325.703157932963222 ], [ 678675.737376125296578, 3758325.74277324276045 ], [ 678712.12297337106429, 3758293.281559230294079 ], [ 678744.225945647223853, 3758283.3607516605407 ], [ 678763.411341471015476, 3758250.965678056702018 ], [ 678802.972849685698748, 3758289.93866552086547 ], [ 678806.005618341383524, 3758313.528735848609358 ], [ 678746.475585588719696, 3758352.480590752791613 ], [ 678727.354581225896254, 3758383.93187010101974 ], [ 678736.241552158258855, 3758413.228287080768496 ], [ 678785.42576070013456, 3758449.774490654002875 ], [ 678826.930131148314103, 3758450.249888175632805 ], [ 678893.137948153656907, 3758412.060609037056565 ], [ 678922.121679933043197, 3758406.850186924915761 ], [ 678996.961995909572579, 3758346.676444121170789 ], [ 679021.102420595590957, 3758313.601955138146877 ], [ 679018.220504102529958, 3758278.564294543582946 ], [ 678979.600500877364539, 3758234.858412397094071 ], [ 678973.844068391947076, 3758203.96889441460371 ], [ 678952.196670989971608, 3758187.914090306032449 ], [ 678928.973896809620783, 3758187.914090306032449 ], [ 678908.421784545877017, 3758200.325417710468173 ], [ 678855.98621157661546, 3758190.180521351285279 ], [ 678827.077942958450876, 3758192.783393297810107 ], [ 678782.692380737047642, 3758166.438740493264049 ], [ 678745.261995453271084, 3758160.06422674562782 ], [ 678722.349859718815424, 3758168.017453680746257 ], [ 678687.729773236555047, 3758202.665365417953581 ], [ 678658.860779415117577, 3758216.093878986313939 ] ] ], [ [ [ 678980.129342005820945, 3758051.794535165652633 ], [ 678967.009836404002272, 3758071.435128988698125 ], [ 678957.329512804280967, 3758117.702044873964041 ], [ 678962.058469820884056, 3758163.744245613925159 ], [ 678990.369972289539874, 3758189.840686293784529 ], [ 679034.086461965925992, 3758187.430540781002492 ], [ 679089.39353572728578, 3758143.179435228463262 ], [ 679100.789842881727964, 3758114.331871602218598 ], [ 679098.294157984899357, 3758081.392629763577133 ], [ 679080.937741309287958, 3758053.433344819117337 ], [ 679039.227805604692549, 3758035.347725255414844 ], [ 679010.67189492227044, 3758036.063840182963759 ], [ 678980.129342005820945, 3758051.794535165652633 ] ] ] ] } },
{ "type": "Feature", "properties": { "depth_bin": "170-175" }, "geometry": { "type": "Polygon", "coordinates": [ [ [ 678695.706649213796481, 3758189.61136003723368 ], [ 678608.075661926297471, 3758249.380159321706742 ], [ 678598.996080060838722, 3758274.755890688393265 ], [ 678605.697680399753153, 3758298.502164841629565 ], [ 678638.60646998824086, 3758324.294943413697183 ], [ 678665.525194372981787, 3758325.617375542409718 ], [ 678699.312731059850194, 3758302.348615368362516 ], [ 678709.307714882772416, 3758285.669177412055433 ], [ 678742.860939845093526, 3758277.227274438831955 ], [ 678760.413370111142285, 3758243.879447263199836 ], [ 678809.509327188134193, 3758285.754823978524655 ], [ 678832.732101368485019, 3758285.754823978524655 ], [ 678851.763844451983459, 3758273.399737970903516 ], [ 678885.650687023997307, 3758284.090850489214063 ], [ 678896.9744773209095, 3758291.319029007107019 ], [ 678875.70980030298233, 3758316.703950060997158 ], [ 678779.66205220844131, 3758367.69267789227888 ], [ 678759.287197429104708, 3758386.108286079019308 ], [ 678752.738592854351737, 3758404.410409786738455 ], [ 678759.247580995666794, 3758432.077370948623866 ], [ 678800.43912275985349, 3758470.220074446406215 ], [ 678826.26261082093697, 3758474.829846296925098 ], [ 678868.469904937315732, 3758466.103484474588186 ], [ 678911.303406036924571, 3758438.352274266537279 ], [ 678976.728913422557525, 3758417.417176336515695 ], [ 679073.42086521408055, 3758347.047428032848984 ], [ 679110.694826700142585, 3758280.024934623390436 ], [ 679113.547034466639161, 3758260.796911715529859 ], [ 679064.386127791949548, 3758182.831123839132488 ], [ 679106.487831733305939, 3758146.302608942147344 ], [ 679117.249418003018945, 3758092.379044148139656 ], [ 679103.121744364965707, 3758063.984186462126672 ], [ 679081.029823931516148, 3758043.556861652061343 ], [ 679045.480135727673769, 3758029.412204580847174 ], [ 679019.169017072883435, 3758030.658379779662937 ], [ 678986.629647446214221, 3758040.152324213180691 ], [ 678970.208666345337406, 3758056.573305313941091 ], [ 678951.077184765716083, 3758123.637461943551898 ], [ 678954.432119882316329, 3758149.261661573778838 ], [ 678874.173139276448637, 3758181.00722731417045 ], [ 678839.174442078568973, 3758165.826326374895871 ], [ 678804.155425276840106, 3758170.119400251191109 ], [ 678738.411365430103615, 3758157.514043946284801 ], [ 678695.706649213796481, 3758189.61136003723368 ] ] ] } },
{ "type": "Feature", "properties": { "depth_bin": "175-180" }, "geometry": { "type": "MultiPolygon", "coordinates": [ [ [ [ 678711.836843822849914, 3758168.30272608064115 ], [ 678602.729981088312343, 3758250.930386240128428 ], [ 678596.757354364381172, 3758280.956808441784233 ], [ 678615.249805916333571, 3758307.975060017313808 ], [ 678637.472615237114951, 3758314.716275525279343 ], [ 678677.736223857384175, 3758307.500808401964605 ], [ 678704.306689583347179, 3758276.795037970412523 ], [ 678740.051697963383049, 3758268.007251388859004 ], [ 678758.618462715530768, 3758240.094811014365405 ], [ 678795.788185352110304, 3758257.287381669040769 ], [ 678831.640309408423491, 3758249.333108661696315 ], [ 678873.513007003581151, 3758265.972119048237801 ], [ 678954.728896260261536, 3758238.101164241321385 ], [ 678986.353978313389234, 3758262.829810995608568 ], [ 678952.060541234561242, 3758310.646490621380508 ], [ 678910.910517191747203, 3758343.700631661340594 ], [ 678789.546844747615978, 3758396.286620946601033 ], [ 678775.075570435146801, 3758432.651191129349172 ], [ 678785.406774540548213, 3758457.192786394618452 ], [ 678846.0918032071786, 3758511.430870425421745 ], [ 678886.211369330063462, 3758519.688331313431263 ], [ 678920.680568710784428, 3758574.350534803699702 ], [ 678938.252687196712941, 3758582.661527885589749 ], [ 678960.012706822017208, 3758580.868668649811298 ], [ 678964.515088714542799, 3758606.369433984160423 ], [ 678981.835457884473726, 3758626.249414189253002 ], [ 679003.290503637865186, 3758635.136385121848434 ], [ 679029.433998571825214, 3758628.587780546862632 ], [ 679045.729456931469031, 3758609.152483348734677 ], [ 679047.091507234727032, 3758580.710290762595832 ], [ 679032.765469257486984, 3758554.777743148617446 ], [ 679011.470889860182069, 3758543.709869400132447 ], [ 679006.259773768251762, 3758513.482369183562696 ], [ 678982.813497747178189, 3758491.191035913303494 ], [ 678982.297541611013003, 3758480.636751604266465 ], [ 679010.689336035749875, 3758471.70533941546455 ], [ 679025.349713953910396, 3758439.332849450409412 ], [ 679080.803421305376105, 3758411.919912101700902 ], [ 679097.063337256317027, 3758389.453662324231118 ], [ 679132.646300184656866, 3758390.650024286471307 ], [ 679153.126958551467396, 3758379.702884317841381 ], [ 679174.264971610857174, 3758331.022111793980002 ], [ 679195.296126680215821, 3758309.665939932689071 ], [ 679207.78278899169527, 3758261.26612548250705 ], [ 679199.471795910154469, 3758228.086781234946102 ], [ 679125.889328304096125, 3758161.536603600718081 ], [ 679144.80662718648091, 3758125.271309134550393 ], [ 679123.7814517255174, 3758066.089004381094128 ], [ 679103.8027299256064, 3758047.198003315366805 ], [ 679058.587174747604877, 3758024.509807747323066 ], [ 678994.872650176403113, 3758026.977627442218363 ], [ 678965.721081756637432, 3758050.901701363734901 ], [ 678942.015604121959768, 3758120.352842519059777 ], [ 678943.74522954155691, 3758145.204498272389174 ], [ 678895.071324895718135, 3758158.225196664687246 ], [ 678865.853729705675505, 3758154.052976665552706 ], [ 678806.424702691379935, 3758165.090890184044838 ], [ 678740.850055756047368, 3758153.851519986987114 ], [ 678711.836843822849914, 3758168.30272608064115 ] ] ], [ [ [ 679697.868272167630494, 3758446.492621001787484 ], [ 679697.868272167630494, 3758477.107295591384172 ], [ 679724.007306860177778, 3758501.920940831303596 ], [ 679756.145456440164708, 3758501.960557947400957 ], [ 679780.879867584560998, 3758478.868473154492676 ], [ 679780.919484682381153, 3758446.730323537252843 ], [ 679759.271640676539391, 3758425.082479531411082 ], [ 679723.212066377862357, 3758423.522344867233187 ], [ 679697.868272167630494, 3758446.492621001787484 ] ] ], [ [ [ 679772.98982908250764, 3758502.566674493718892 ], [ 679744.635083350818604, 3758526.440090975258499 ], [ 679742.956752624362707, 3758560.603297743014991 ], [ 679773.54735942534171, 3758590.106226114090532 ], [ 679810.255935836350545, 3758590.264697888400406 ], [ 679838.001298391260207, 3758566.269573571160436 ], [ 679847.419208915554918, 3758539.265338612254709 ], [ 679844.606618923135102, 3758518.51384009886533 ], [ 679815.455050503369421, 3758494.589766177348793 ], [ 679772.98982908250764, 3758502.566674493718892 ] ] ] ] } },
{ "type": "Feature", "properties": { "depth_bin": "180-185" }, "geometry": { "type": "MultiPolygon", "coordinates": [ [ [ [ 678726.033715124358423, 3758153.811660997569561 ], [ 678635.142591504962184, 3758224.111483926419169 ], [ 678610.215250538662076, 3758228.303384704049677 ], [ 678594.602169698686339, 3758239.88283463800326 ], [ 678586.291176617145538, 3758273.062178885564208 ], [ 678609.089569415547885, 3758304.033998548053205 ], [ 678634.465300782117993, 3758313.11358041362837 ], [ 678671.259607033804059, 3758304.529513873625547 ], [ 678690.409631237271242, 3758292.970134130679071 ], [ 678701.358096314128488, 3758273.686937056016177 ], [ 678737.163226105156355, 3758261.834159686695784 ], [ 678758.996006920351647, 3758235.530877170618623 ], [ 678796.782641065074131, 3758251.690164867788553 ], [ 678834.336038006236777, 3758240.826635248959064 ], [ 678869.14058224321343, 3758258.235837374813855 ], [ 678907.458484321832657, 3758249.691372804809362 ], [ 678965.779301463393494, 3758222.558188158553094 ], [ 679016.250730243744329, 3758223.736663130577654 ], [ 679052.062151509220712, 3758232.200281008612365 ], [ 679081.583678177557886, 3758260.768929733894765 ], [ 679065.592157165170647, 3758282.040867840871215 ], [ 678993.986886049620807, 3758338.548633945174515 ], [ 678975.699353483738378, 3758343.243862769566476 ], [ 678933.673422515857965, 3758373.495760921854526 ], [ 678888.174598657409661, 3758384.932290871161968 ], [ 678872.946520718745887, 3758396.086955563165247 ], [ 678840.08887251035776, 3758399.172940284479409 ], [ 678809.306938535301015, 3758425.356792721431702 ], [ 678800.995945453760214, 3758442.9289112072438 ], [ 678801.91012640541885, 3758463.867377842776477 ], [ 678814.871168229961768, 3758483.666429066099226 ], [ 678854.135132055729628, 3758515.826919973827899 ], [ 678886.810816902783699, 3758519.116951785050333 ], [ 678902.85429439030122, 3758559.130470997653902 ], [ 678955.591479663038626, 3758596.947554307989776 ], [ 678992.447348088026047, 3758634.879747144412249 ], [ 679010.749471795628779, 3758641.428351719398052 ], [ 679033.343209487851709, 3758636.984279413707554 ], [ 679046.453119323356077, 3758665.006380959413946 ], [ 679074.737390570808202, 3758676.72210971172899 ], [ 679100.11312193737831, 3758667.642527846153826 ], [ 679116.097214014618658, 3758645.300269771367311 ], [ 679140.310074907843955, 3758650.691696835216135 ], [ 679161.26899843045976, 3758642.172675225883722 ], [ 679187.616969079361297, 3758648.872929326724261 ], [ 679214.174447164055891, 3758634.929224203340709 ], [ 679243.535688186530024, 3758640.503156672231853 ], [ 679265.579435143969022, 3758628.072164682671428 ], [ 679277.266674645361491, 3758600.367805463727564 ], [ 679298.602488178294152, 3758589.293815209064633 ], [ 679309.667625567875803, 3758568.017682844772935 ], [ 679337.964952423353679, 3758550.587487044278532 ], [ 679343.142251757439226, 3758510.659406828694046 ], [ 679314.99217203608714, 3758482.430091979913414 ], [ 679252.721803460852243, 3758487.984352974686772 ], [ 679233.567957984865643, 3758497.728939835913479 ], [ 679185.384023092803545, 3758479.254378472454846 ], [ 679137.011965634068474, 3758484.5823501101695 ], [ 679160.210740900482051, 3758460.165039361920208 ], [ 679198.888810673262924, 3758437.299462314229459 ], [ 679210.494431679835543, 3758411.256485725753009 ], [ 679247.106790230609477, 3758400.44071976095438 ], [ 679258.851914606289938, 3758370.424934548325837 ], [ 679295.03292595257517, 3758356.02387476619333 ], [ 679315.742243764456362, 3758318.813970435410738 ], [ 679341.870104439323768, 3758298.775428091641515 ], [ 679347.306327486410737, 3758252.4970803107135 ], [ 679341.33701221330557, 3758222.937298689503223 ], [ 679321.02934592787642, 3758197.917553307954222 ], [ 679279.962447313009761, 3758178.26382623007521 ], [ 679256.064338605152443, 3758157.466345239896327 ], [ 679228.232876658556052, 3758151.058667155448347 ], [ 679207.344965017400682, 3758114.162821611389518 ], [ 679119.314716656459495, 3758036.929754055570811 ], [ 679061.031728221685626, 3758017.620588238816708 ], [ 679025.653375007095747, 3758022.639751157723367 ], [ 678988.295232243253849, 3758017.187921172939241 ], [ 678961.348743407987058, 3758043.165520506445318 ], [ 678957.93506001168862, 3758073.152528914157301 ], [ 678937.564041635254398, 3758115.663596968632191 ], [ 678938.242225539404899, 3758139.936178694944829 ], [ 678919.990870003472082, 3758149.084412882104516 ], [ 678807.541844346560538, 3758159.405363814439625 ], [ 678751.896816276246682, 3758147.836885428521782 ], [ 678726.033715124358423, 3758153.811660997569561 ] ], [ [ 679033.598675932502374, 3758118.682738717179745 ], [ 679038.52823898056522, 3758104.073984088376164 ], [ 679052.881545792450197, 3758110.168413209263235 ], [ 679036.475842358893715, 3758123.195766938850284 ], [ 679033.598675932502374, 3758118.682738717179745 ] ] ], [ [ [ 679682.017529189935885, 3758413.522560433950275 ], [ 679677.486990696983412, 3758436.299115519970655 ], [ 679690.65272379363887, 3758491.790200880728662 ], [ 679679.799328606924973, 3758515.414861459285021 ], [ 679690.090021984651685, 3758549.733190425671637 ], [ 679684.506599966320209, 3758576.736422441434115 ], [ 679704.913302674889565, 3758608.465052064042538 ], [ 679744.146928392467089, 3758618.457992718555033 ], [ 679775.804423200781457, 3758598.848126251250505 ], [ 679830.975313090835698, 3758590.697544109076262 ], [ 679881.031189083470963, 3758567.923589067067951 ], [ 679888.467620060779154, 3758527.889518620446324 ], [ 679852.101329896016978, 3758472.906659500673413 ], [ 679826.72559852944687, 3758463.827077635098249 ], [ 679791.338574903318658, 3758470.769487207289785 ], [ 679777.57964112283662, 3758426.103576234076172 ], [ 679733.555524841300212, 3758391.17271985579282 ], [ 679703.589850825723261, 3758392.415918414015323 ], [ 679682.017529189935885, 3758413.522560433950275 ] ] ], [ [ [ 679601.845950045739301, 3758448.025961541570723 ], [ 679598.80557006644085, 3758480.016692142933607 ], [ 679616.304613927728496, 3758504.750654776580632 ], [ 679647.854510186589323, 3758510.762898661661893 ], [ 679673.309681798098609, 3758493.754296766128391 ], [ 679679.28230852202978, 3758463.727874564472586 ], [ 679660.869083986617625, 3758433.662663641385734 ], [ 679629.319187739049084, 3758427.650419798213989 ], [ 679601.845950045739301, 3758448.025961541570723 ] ] ] ] } },
{ "type": "Feature", "properties": { "depth_bin": "185-190" }, "geometry": { "type": "Polygon", "coordinates": [ [ [ 678910.581423921394162, 3758138.744325859937817 ], [ 678810.532985435333103, 3758154.150666386354715 ], [ 678755.062591083697043, 3758143.34571652347222 ], [ 678729.740704744006507, 3758146.039466955699027 ], [ 678634.545331090921536, 3758219.882925433572382 ], [ 678611.175242391764186, 3758216.032981210388243 ], [ 678589.720196638372727, 3758224.919952142983675 ], [ 678575.864516788860783, 3758248.036757396534085 ], [ 678578.140746704535559, 3758271.147707572206855 ], [ 678606.30709287780337, 3758300.120045381598175 ], [ 678636.981366988271475, 3758308.310960002243519 ], [ 678681.380471958778799, 3758294.818387222010642 ], [ 678701.361696117091924, 3758269.185616361908615 ], [ 678732.605682796682231, 3758259.562514775432646 ], [ 678757.376092394930311, 3758230.875059577636421 ], [ 678809.432098788325675, 3758242.668210391886532 ], [ 678868.979950203560293, 3758229.22037520352751 ], [ 678931.705899754306301, 3758230.602707170881331 ], [ 678962.156860256567597, 3758218.748113413341343 ], [ 678988.464584262343124, 3758218.152852625586092 ], [ 679013.808378472574987, 3758195.182576491031796 ], [ 679033.888764635659754, 3758102.980594412889332 ], [ 679050.386933112982661, 3758098.981518948916346 ], [ 679079.342135026585311, 3758108.818430807441473 ], [ 679101.818093226756901, 3758137.891467018052936 ], [ 679094.087690831627697, 3758171.767672365996987 ], [ 679100.828906339476816, 3758193.990481686778367 ], [ 679159.789492475916632, 3758224.984508337453008 ], [ 679168.382727697491646, 3758252.002157559618354 ], [ 679165.20081683807075, 3758280.892603022046387 ], [ 679136.723245301516727, 3758302.835781320929527 ], [ 679116.053883777116425, 3758331.172334548551589 ], [ 679040.541241849539801, 3758356.798171801958233 ], [ 679012.368124653818086, 3758357.67177500622347 ], [ 678996.755043813842349, 3758369.251224940177053 ], [ 678987.896569187869318, 3758390.51416420051828 ], [ 678963.354875461896881, 3758390.042247241362929 ], [ 678937.343000728054903, 3758407.415226119104773 ], [ 678916.209982615546323, 3758442.092406020965427 ], [ 678906.803557483479381, 3758526.02225543698296 ], [ 678921.110899382620119, 3758573.534721905365586 ], [ 679029.648889279458672, 3758658.76562891760841 ], [ 679050.594925855170004, 3758685.17596346186474 ], [ 679083.66828564775642, 3758691.227827648166567 ], [ 679113.941218649153598, 3758668.09591909032315 ], [ 679144.163086652639322, 3758670.854618904646486 ], [ 679152.585398923838511, 3758690.514923396520317 ], [ 679136.033471277914941, 3758712.391049292404205 ], [ 679130.472585054696538, 3758744.56357856374234 ], [ 679141.419725023326464, 3758765.04423693055287 ], [ 679172.282099844771437, 3758789.425279720220715 ], [ 679235.082609604811296, 3758789.684683778323233 ], [ 679294.109117715503089, 3758772.060595096554607 ], [ 679329.939412901527248, 3758769.861658250447363 ], [ 679356.861142172594555, 3758743.541023202240467 ], [ 679391.439657153445296, 3758750.511809062212706 ], [ 679413.662466474226676, 3758743.770593554247171 ], [ 679431.439657153445296, 3758710.511809062212706 ], [ 679424.698441645596176, 3758688.288999741431326 ], [ 679394.805364946252666, 3758661.026563923340291 ], [ 679409.918803475098684, 3758636.976941258180887 ], [ 679407.137604256859049, 3758586.768503115046769 ], [ 679437.386900317040272, 3758583.371151956729591 ], [ 679458.94313742115628, 3758559.509558213874698 ], [ 679479.759188101394102, 3758570.826746575534344 ], [ 679502.87013827660121, 3758568.550516659859568 ], [ 679518.483219116576947, 3758556.971066725905985 ], [ 679527.715455476776697, 3758536.381560007110238 ], [ 679548.10939029941801, 3758550.406357180792838 ], [ 679571.332164479768835, 3758550.406357180792838 ], [ 679589.56813947390765, 3758538.929159192368388 ], [ 679605.886193232377991, 3758514.667111272923648 ], [ 679609.326474538538605, 3758540.358604847919196 ], [ 679625.632943625445478, 3758559.927231993991882 ], [ 679630.767857323400676, 3758602.22662208834663 ], [ 679612.193621887126938, 3758629.115234896540642 ], [ 679590.573071544989944, 3758627.877767193131149 ], [ 679573.00095305906143, 3758636.188760275021195 ], [ 679557.582180602592416, 3758660.7894201958552 ], [ 679565.893173684133217, 3758693.968764443416148 ], [ 679592.892906205495819, 3758708.400422143749893 ], [ 679618.756027549388818, 3758702.425647946540266 ], [ 679636.991860458627343, 3758682.074583804234862 ], [ 679663.943659626645967, 3758682.397872277069837 ], [ 679708.507424745941535, 3758661.492339781951159 ], [ 679723.124559083837084, 3758645.605568902101368 ], [ 679727.829157643020153, 3758626.372087859082967 ], [ 679865.33886990591418, 3758582.550090961623937 ], [ 679888.549810389406048, 3758559.418288862798363 ], [ 679889.91186038183514, 3758530.97608846751973 ], [ 679846.488163364003412, 3758438.523936045821756 ], [ 679804.944937697146088, 3758413.01688751205802 ], [ 679789.950531857670285, 3758394.333104736637324 ], [ 679769.00243104971014, 3758387.654511642176658 ], [ 679739.340680336463265, 3758347.281786013860255 ], [ 679711.735067920410074, 3758340.690550814848393 ], [ 679669.437805241788737, 3758246.448530380614102 ], [ 679627.080357459723018, 3758216.748000829480588 ], [ 679625.766499530524015, 3758194.813601611182094 ], [ 679605.411106947460212, 3758153.270102061796933 ], [ 679534.142373159527779, 3758112.802399287931621 ], [ 679460.903357971459627, 3758109.775712814182043 ], [ 679383.895602438016795, 3758120.008182824589312 ], [ 679348.516156534082256, 3758098.82864095363766 ], [ 679299.863786199246533, 3758086.304448603186756 ], [ 679277.78432836686261, 3758063.45032476214692 ], [ 679221.937524794600904, 3758049.032443797681481 ], [ 679180.504524792777374, 3758026.155406980775297 ], [ 679116.801870341412723, 3758009.44871344929561 ], [ 679086.010432617855258, 3758015.470626330003142 ], [ 679054.075901831616648, 3758009.546106302645057 ], [ 679031.797351683257148, 3758017.070206231437624 ], [ 679004.714702966040932, 3758006.443564657587558 ], [ 678982.772283887141384, 3758012.610956088639796 ], [ 678963.680124808219261, 3758030.116562521085143 ], [ 678933.604624195024371, 3758129.780316435731947 ], [ 678910.581423921394162, 3758138.744325859937817 ] ], [ [ 679329.345640396000817, 3758648.525502765085548 ], [ 679308.135092900600284, 3758660.201325281988829 ], [ 679283.165217368514277, 3758653.117478362750262 ], [ 679314.034426605212502, 3758642.92929551564157 ], [ 679329.345640396000817, 3758648.525502765085548 ] ] ] } },
{ "type": "Feature", "properties": { "depth_bin": "190-195" }, "geometry": { "type": "Polygon", "coordinates": [ [ [ 678906.664400395820849, 3758121.535779839381576 ], [ 678893.625394170056097, 3758136.198696753010154 ], [ 678814.146559907705523, 3758148.68754217447713 ], [ 678794.752037531347014, 3758141.328759530093521 ], [ 678726.81261604023166, 3758141.389840888325125 ], [ 678692.742928180960007, 3758175.404399992898107 ], [ 678633.119302000734024, 3758215.925500576384366 ], [ 678607.331930100452155, 3758215.085494444705546 ], [ 678589.759811614523642, 3758223.396487526595592 ], [ 678575.904131765011698, 3758246.513292780146003 ], [ 678578.180361680686474, 3758269.624242955818772 ], [ 678605.262101409723982, 3758295.925307454075664 ], [ 678640.186759479925968, 3758302.296231014188379 ], [ 678681.499317028559744, 3758290.247992156073451 ], [ 678697.43088444089517, 3758268.945018246769905 ], [ 678729.677595935761929, 3758254.912888899911195 ], [ 678757.451530462130904, 3758226.344002888537943 ], [ 678809.550942304776981, 3758238.097811231389642 ], [ 678870.784666816121899, 3758223.19687561923638 ], [ 678925.770387442666106, 3758224.350376970134676 ], [ 678986.22501996147912, 3758210.578088842798024 ], [ 679009.475563039071858, 3758185.922823283355683 ], [ 679019.015954947448336, 3758151.842611247673631 ], [ 679015.520820093690418, 3758129.648008371703327 ], [ 679030.535963345319033, 3758100.93069110205397 ], [ 679060.66479352558963, 3758091.265881873201579 ], [ 679100.078304434544407, 3758093.806245087645948 ], [ 679137.875740122748539, 3758119.273804177995771 ], [ 679170.332629807991907, 3758122.642279766965657 ], [ 679213.3776954873465, 3758164.24816851131618 ], [ 679241.896934899035841, 3758176.427326113916934 ], [ 679261.20486792048905, 3758207.385197939816862 ], [ 679334.016570350737311, 3758228.447196383960545 ], [ 679333.629574677092023, 3758257.685886736493558 ], [ 679325.024928206694312, 3758265.915496485773474 ], [ 679296.035388488438912, 3758290.794870835728943 ], [ 679271.696949602337554, 3758292.763630835339427 ], [ 679249.393197245779447, 3758316.244615877512842 ], [ 679222.934581862995401, 3758322.812966858036816 ], [ 679206.463747620931827, 3758346.121249653864652 ], [ 679178.281519747339189, 3758350.036301475949585 ], [ 679159.526786916772835, 3758371.837593745905906 ], [ 679124.326117136864923, 3758373.025241011753678 ], [ 679103.385871906881221, 3758404.305400385055691 ], [ 679077.671137330238707, 3758408.400101121980697 ], [ 679057.673516663722694, 3758430.790352125186473 ], [ 679043.759403307572939, 3758435.713241428602487 ], [ 679015.759299737866968, 3758427.78768204478547 ], [ 678994.304253984475508, 3758436.674652977380902 ], [ 678978.885488798143342, 3758461.275309524033219 ], [ 678986.3343651330797, 3758496.445995313581079 ], [ 678976.738778058672324, 3758522.573134336154908 ], [ 678952.304064580472186, 3758529.205685961060226 ], [ 678934.686174698988907, 3758552.336933352518827 ], [ 678934.646556793479249, 3758577.083175404928625 ], [ 678947.607598893344402, 3758596.882231187075377 ], [ 678988.013477533590049, 3758611.286451799795032 ], [ 679004.27132287598215, 3758645.615337183699012 ], [ 679175.249800132703967, 3758792.551458792760968 ], [ 679223.463472479372285, 3758794.632973658852279 ], [ 679361.22691299021244, 3758766.476404898334295 ], [ 679485.279118279111572, 3758752.452344862744212 ], [ 679605.828939658589661, 3758713.007106329780072 ], [ 679723.620272448868491, 3758656.368456166703254 ], [ 679747.213934171013534, 3758628.284605367574841 ], [ 679787.229721176554449, 3758608.331704273354262 ], [ 679869.830062156077474, 3758585.715896686539054 ], [ 679891.477906161919236, 3758564.068052680697292 ], [ 679894.330113928415813, 3758544.840029772836715 ], [ 679886.337269122130238, 3758523.451336107682437 ], [ 679871.93435410305392, 3758510.397294854745269 ], [ 679849.888265677611344, 3758505.716409375891089 ], [ 679831.57034363062121, 3758425.939960449468344 ], [ 679701.025818007765338, 3758314.602581720799208 ], [ 679677.430921776220202, 3758254.544353721197695 ], [ 679636.449061997816898, 3758218.403995199128985 ], [ 679605.450721377390437, 3758151.746628550812602 ], [ 679568.02656702476088, 3758135.45357973780483 ], [ 679490.339557314058766, 3758038.487087845336646 ], [ 679402.958406902733259, 3758036.739484913647175 ], [ 679253.662720852880739, 3757996.71287092147395 ], [ 679154.038661091472022, 3757984.500348829198629 ], [ 679033.374765907647088, 3758010.738042870536447 ], [ 678997.945146251469851, 3757998.939608208835125 ], [ 678963.169620476197451, 3758019.267073351424187 ], [ 678951.692851757397875, 3758041.3303700434044 ], [ 678950.532283922657371, 3758071.442646708339453 ], [ 678930.257850119844079, 3758110.12690089084208 ], [ 678906.664400395820849, 3758121.535779839381576 ] ] ] } },
{ "type": "Feature", "properties": { "depth_bin": "195-200" }, "geometry": { "type": "MultiPolygon", "coordinates": [ [ [ [ 678709.344513284624554, 3758146.894976552110165 ], [ 678691.640246459166519, 3758172.156311103608459 ], [ 678632.291828137938865, 3758212.65145372832194 ], [ 678602.079921191441827, 3758212.952748060692102 ], [ 678582.770890147075988, 3758225.85463012335822 ], [ 678573.883919214713387, 3758255.151047103106976 ], [ 678589.799426576937549, 3758283.713859180919826 ], [ 678627.854223955306225, 3758299.130456337705255 ], [ 678670.132294932613149, 3758289.255149016156793 ], [ 678694.744266910362057, 3758267.19064458552748 ], [ 678731.38628184935078, 3758249.487976935692132 ], [ 678756.443956961855292, 3758223.023965062107891 ], [ 678812.716718502226286, 3758233.606640946585685 ], [ 678866.253268267028034, 3758220.029122441541404 ], [ 678926.685608530417085, 3758220.648235488217324 ], [ 678952.436153595801443, 3758207.631334623321891 ], [ 678983.296929532196373, 3758205.928356623277068 ], [ 679004.944773538038135, 3758184.280512617435306 ], [ 679012.882369027822278, 3758153.207620408385992 ], [ 679008.982146611902863, 3758128.690312474034727 ], [ 679028.083898013923317, 3758099.18891126383096 ], [ 679071.60608257225249, 3758081.463713442906737 ], [ 679148.608880803221837, 3758066.362255593761802 ], [ 679345.598305883002467, 3758130.474872157908976 ], [ 679395.256971545517445, 3758134.711073368322104 ], [ 679491.506505569093861, 3758126.148417436983436 ], [ 679511.476018848479725, 3758108.049105609301478 ], [ 679516.046170927234925, 3758083.74907790729776 ], [ 679510.543155621853657, 3758057.04837319906801 ], [ 679489.317741296254098, 3758020.711563806515187 ], [ 679459.336967566050589, 3757999.568397261667997 ], [ 679267.038873410667293, 3757951.325557018164545 ], [ 679197.343376161647029, 3757952.291236845310777 ], [ 679034.950681591173634, 3758005.684212364722043 ], [ 679003.508139167446643, 3757994.216205573175102 ], [ 678970.822216980392113, 3758003.153242388740182 ], [ 678952.722905153059401, 3758023.122755667660385 ], [ 678946.153725079027936, 3758068.193346936255693 ], [ 678928.959681748528965, 3758105.091878143139184 ], [ 678897.530701170675457, 3758114.64165599225089 ], [ 678882.463046627119184, 3758133.530155181419104 ], [ 678821.148213586187921, 3758143.307876234408468 ], [ 678801.87996877997648, 3758134.366634605452418 ], [ 678738.397338987910189, 3758130.920304094906896 ], [ 678709.344513284624554, 3758146.894976552110165 ] ] ], [ [ [ 679059.209452247130685, 3758582.688358865212649 ], [ 679033.065957313170657, 3758589.236963440198451 ], [ 679018.333585333544761, 3758607.188410637434572 ], [ 679015.124808301799931, 3758640.127751106396317 ], [ 679024.011779234162532, 3758661.582796860020608 ], [ 679123.435407539946027, 3758750.36744368635118 ], [ 679152.150935788522474, 3758759.39741447661072 ], [ 679169.818178248940967, 3758790.418151560239494 ], [ 679219.463547420222312, 3758797.872524831444025 ], [ 679351.967549143591896, 3758770.809120340272784 ], [ 679478.305540944216773, 3758757.89732125075534 ], [ 679607.273175116861239, 3758716.093672540038824 ], [ 679712.718238768051378, 3758665.231973504181951 ], [ 679793.122290391591378, 3758610.586949984077364 ], [ 679873.299358479795046, 3758587.084518031217158 ], [ 679889.720339580671862, 3758570.663536930456758 ], [ 679894.483106941683218, 3758550.284191422630101 ], [ 679882.767378189135343, 3758521.999920174945146 ], [ 679858.403792554861866, 3758510.476802355609834 ], [ 679763.175469351932406, 3758528.228147608228028 ], [ 679737.647797804907896, 3758540.929879450239241 ], [ 679749.286310857045464, 3758435.877033813390881 ], [ 679723.210720714298077, 3758391.413881197106093 ], [ 679729.780029975459911, 3758373.083840451668948 ], [ 679727.043709118268453, 3758345.324355264659971 ], [ 679708.021188152371906, 3758320.550776629708707 ], [ 679682.373766202712432, 3758313.748882390093058 ], [ 679671.050657716812566, 3758280.195572126656771 ], [ 679642.766386469360441, 3758268.479843374341726 ], [ 679620.543577148579061, 3758275.221058882307261 ], [ 679605.811205168953165, 3758293.172506079543382 ], [ 679607.089997432776727, 3758326.49095974303782 ], [ 679598.530959805473685, 3758354.104934454429895 ], [ 679604.187132531660609, 3758374.517459259834141 ], [ 679575.900240393122658, 3758371.379053919576108 ], [ 679521.479855079902336, 3758392.318325961474329 ], [ 679501.350245785200968, 3758377.213708989322186 ], [ 679478.23929560999386, 3758374.93747907364741 ], [ 679456.195547992712818, 3758387.368475075345486 ], [ 679443.520488232257776, 3758412.727231600787491 ], [ 679372.412353019113652, 3758384.830481726210564 ], [ 679345.493628634372726, 3758386.152913854923099 ], [ 679323.961027205688879, 3758405.736080490518361 ], [ 679301.50561625813134, 3758464.061430380679667 ], [ 679265.781252308283001, 3758454.784941926598549 ], [ 679214.885321144131012, 3758481.638741509988904 ], [ 679204.971622795797884, 3758502.218183362390846 ], [ 679206.906572702107951, 3758524.375319809187204 ], [ 679181.765252155251801, 3758526.723107700701803 ], [ 679160.232650993391871, 3758546.306271526496857 ], [ 679155.702112500439398, 3758569.082826612517238 ], [ 679163.460825032438152, 3758589.016592019237578 ], [ 679145.14988083706703, 3758596.810877396259457 ], [ 679109.180859277490526, 3758587.240904098376632 ], [ 679085.999026255682111, 3758596.888142378535122 ], [ 679059.209452247130685, 3758582.688358865212649 ] ], [ [ 679243.969511079019867, 3758555.04082385962829 ], [ 679243.303787140524946, 3758554.306310682557523 ], [ 679244.683861616998911, 3758554.511025392916054 ], [ 679243.969511079019867, 3758555.04082385962829 ] ] ] ] } },
{ "type": "Feature", "properties": { "depth_bin": "200-205" }, "geometry": { "type": "MultiPolygon", "coordinates": [ [ [ [ 678707.93989023915492, 3758142.284965048078448 ], [ 678688.113412374863401, 3758170.039170041214675 ], [ 678633.00305753655266, 3758208.969999490305781 ], [ 678602.119536125450395, 3758211.429283457808197 ], [ 678582.810505081084557, 3758224.331165520474315 ], [ 678573.923534148721956, 3758253.62758250022307 ], [ 678588.3551918490557, 3758280.627315021585673 ], [ 678620.434975193464197, 3758291.315057755913585 ], [ 678662.514970196643844, 3758289.057074236683547 ], [ 678728.378965599695221, 3758247.88528219377622 ], [ 678756.799121404648758, 3758218.078166089486331 ], [ 678779.789489578804933, 3758216.58509611710906 ], [ 678797.303489064099267, 3758227.506466053426266 ], [ 678818.929427560302429, 3758229.194699299521744 ], [ 678860.238630040199496, 3758216.823731374926865 ], [ 678920.710581857012585, 3758215.91937594814226 ], [ 678945.632215815247037, 3758202.23325809603557 ], [ 678978.805754356784746, 3758202.762578192166984 ], [ 679000.453598362626508, 3758181.114734186325222 ], [ 679008.272351185558364, 3758154.612246135249734 ], [ 679005.997366768424399, 3758127.345871206838638 ], [ 679025.877600383479148, 3758095.906508117448539 ], [ 679191.422190191340633, 3758037.752574363723397 ], [ 679310.414065122138709, 3758049.963613749016076 ], [ 679329.894489315454848, 3758063.286447545979172 ], [ 679396.60382938652765, 3758082.912929638288915 ], [ 679469.882434821571223, 3758078.3264688430354 ], [ 679487.83388201915659, 3758063.594096863176674 ], [ 679494.382486593909562, 3758037.450601929333061 ], [ 679469.450356672634371, 3757988.137210716959089 ], [ 679423.841368422261439, 3757940.389132214244455 ], [ 679402.284850300406106, 3757928.019216051790863 ], [ 679340.320009897346608, 3757914.643333825282753 ], [ 679265.287263943930157, 3757918.994270041119307 ], [ 679167.157038150937296, 3757939.51559137692675 ], [ 679120.252767026075162, 3757966.964017243590206 ], [ 679040.290334620978683, 3757996.980851787142456 ], [ 679000.580041631008498, 3757989.566574910655618 ], [ 678969.41758791229222, 3757998.54322503041476 ], [ 678949.755194983910769, 3758019.996593410614878 ], [ 678942.870910610887222, 3758066.416613071225584 ], [ 678928.255508201778866, 3758100.514900758862495 ], [ 678898.009162172558717, 3758106.450492131523788 ], [ 678867.523878789506853, 3758133.63906423188746 ], [ 678735.429635807755403, 3758127.794144101440907 ], [ 678707.93989023915492, 3758142.284965048078448 ] ] ], [ [ [ 679161.78952310490422, 3758736.539267095737159 ], [ 679155.240918530151248, 3758754.841390803456306 ], [ 679159.771457023103721, 3758777.617945889476687 ], [ 679174.309348429087549, 3758793.583950557745993 ], [ 679195.618792216526344, 3758801.735264580696821 ], [ 679350.52752476814203, 3758773.775692602153867 ], [ 679482.034076288342476, 3758759.990468367468566 ], [ 679607.193936940282583, 3758719.140619704499841 ], [ 679704.902772928588092, 3758672.651252640876919 ], [ 679798.032457185327075, 3758612.704215932171792 ], [ 679876.267074663075618, 3758590.210706038400531 ], [ 679894.366386490408331, 3758570.241192759480327 ], [ 679895.688818619237281, 3758543.322468374390155 ], [ 679881.342696414329112, 3758520.926867264788598 ], [ 679859.887650660937652, 3758512.039896332193166 ], [ 679766.90400740574114, 3758530.321300411131233 ], [ 679704.543853493523784, 3758562.488411277066916 ], [ 679664.495408616494387, 3758600.713791293092072 ], [ 679657.873227793606929, 3758573.916902649682015 ], [ 679627.680823764414527, 3758548.727830425370485 ], [ 679626.389839425799437, 3758522.598722372204065 ], [ 679616.10455014242325, 3758504.184722000733018 ], [ 679596.795519098057412, 3758491.2828399380669 ], [ 679572.214127751300111, 3758490.359472003299743 ], [ 679555.543680767877959, 3758429.433591547887772 ], [ 679531.74346472916659, 3758413.365912617184222 ], [ 679503.950171774136834, 3758413.247059154789895 ], [ 679487.277287616860121, 3758423.24040133645758 ], [ 679476.330147648230195, 3758443.721059703268111 ], [ 679477.16509451076854, 3758467.706478418316692 ], [ 679490.751714982325211, 3758489.68873187713325 ], [ 679482.845821607974358, 3758506.142324143555015 ], [ 679447.078676050994545, 3758490.837119323667139 ], [ 679425.623630297603086, 3758499.724090256262571 ], [ 679410.634204717818648, 3758523.33637329377234 ], [ 679389.307640345301479, 3758518.005862235557288 ], [ 679370.451770872226916, 3758522.72901166183874 ], [ 679352.352459044894204, 3758542.698524940758944 ], [ 679348.911460471455939, 3758573.240579482167959 ], [ 679359.361537610297091, 3758601.165789877064526 ], [ 679358.229557304410264, 3758644.505274819675833 ], [ 679381.624389848788269, 3758677.015068232547492 ], [ 679423.724952069343999, 3758680.830321184359491 ], [ 679440.901123515097424, 3758667.7670180615969 ], [ 679452.77620450721588, 3758644.379314318764955 ], [ 679498.677575576701201, 3758658.569733547512442 ], [ 679497.616695027332753, 3758664.207953493576497 ], [ 679468.823246715241112, 3758676.08743284502998 ], [ 679191.854724198346958, 3758718.126054489053786 ], [ 679161.78952310490422, 3758736.539267095737159 ] ] ] ] } },
{ "type": "Feature", "properties": { "depth_bin": "205-210" }, "geometry": { "type": "MultiPolygon", "coordinates": [ [ [ [ 678707.756918085855432, 3758136.56771368579939 ], [ 678671.630058495909907, 3758177.816928908228874 ], [ 678633.833505335031077, 3758206.724321035668254 ], [ 678602.159151044557802, 3758209.905818857718259 ], [ 678582.850120000191964, 3758222.807700920384377 ], [ 678573.963149067829363, 3758252.104117900133133 ], [ 678588.394806768163107, 3758279.103850421495736 ], [ 678632.662308192579076, 3758290.108512524049729 ], [ 678667.243824708973989, 3758283.082059280481189 ], [ 678725.411266606068239, 3758244.759022135287523 ], [ 678756.080984151107259, 3758211.016306567937136 ], [ 678778.119953320128843, 3758210.115621949546039 ], [ 678817.485189869534224, 3758226.108151969965547 ], [ 678857.311153178685345, 3758213.699545325245708 ], [ 678920.869038956821896, 3758209.825506403110921 ], [ 678946.858090329100378, 3758191.926179938949645 ], [ 678973.028796267462894, 3758190.416378943249583 ], [ 678997.647941189003177, 3758169.38897371198982 ], [ 679004.553126584156416, 3758124.259320951532573 ], [ 679020.300928372656927, 3758092.923393820412457 ], [ 679150.705584269715473, 3758041.061686767265201 ], [ 679194.658575774985366, 3758014.383408864028752 ], [ 679266.255306118633598, 3758002.480365565977991 ], [ 679317.845421340549365, 3758002.888981650117785 ], [ 679424.604598644305952, 3758036.086780723650008 ], [ 679453.942697523278184, 3758018.502200977411121 ], [ 679459.95493696257472, 3757986.952306657098234 ], [ 679441.296543178730644, 3757956.915023089386523 ], [ 679369.917130792629905, 3757882.966967762913555 ], [ 679309.554992145625874, 3757866.583769864402711 ], [ 679259.545761940302327, 3757873.786802139133215 ], [ 679053.232781561207958, 3757986.407578806392848 ], [ 679038.947474020184018, 3757991.581457885913551 ], [ 678995.215113686397672, 3757986.672636468429118 ], [ 678961.519856788916513, 3757998.918984069488943 ], [ 678943.901971637620591, 3758022.050236543640494 ], [ 678938.300936079584062, 3758066.289029281586409 ], [ 678911.992432379629463, 3758096.415682205464691 ], [ 678869.105918858433142, 3758125.57444333890453 ], [ 678737.071946698823012, 3758123.263260939158499 ], [ 678707.756918085855432, 3758136.56771368579939 ] ] ], [ [ [ 679182.708670607418753, 3758724.933074442204088 ], [ 679162.739157328032888, 3758743.032386269886047 ], [ 679158.784596685902216, 3758769.691868623718619 ], [ 679171.215586803737096, 3758791.7356166979298 ], [ 679195.579172438010573, 3758803.258734517265111 ], [ 679476.623590715811588, 3758763.95159157551825 ], [ 679607.114698708173819, 3758722.187566866632551 ], [ 679749.598680385970511, 3758653.995024560950696 ], [ 679800.006913824006915, 3758615.446530287154019 ], [ 679874.664362639654428, 3758593.21804016456008 ], [ 679892.648437786730938, 3758575.313200998585671 ], [ 679896.602998428861611, 3758548.653718644753098 ], [ 679872.678924507345073, 3758519.502150224987417 ], [ 679826.676217017811723, 3758518.15512645477429 ], [ 679755.772514602052979, 3758537.322811638470739 ], [ 679735.094898436916992, 3758556.016162923537195 ], [ 679705.921737712342292, 3758566.469107501674443 ], [ 679685.004342252388597, 3758592.245750898029655 ], [ 679583.536429888918065, 3758641.986567001789808 ], [ 679466.959612903534435, 3758681.144335872493684 ], [ 679334.211323575000279, 3758695.911688502412289 ], [ 679182.708670607418753, 3758724.933074442204088 ] ] ] ] } },
{ "type": "Feature", "properties": { "depth_bin": "210-215" }, "geometry": { "type": "MultiPolygon", "coordinates": [ [ [ [ 678681.763574776588939, 3758152.275779436342418 ], [ 678669.570072959293611, 3758175.706512448377907 ], [ 678633.399537249351852, 3758204.142526198644191 ], [ 678598.542430637171492, 3758208.181321775540709 ], [ 678579.027903952053748, 3758224.397543461527675 ], [ 678573.055277228122577, 3758254.423965663183481 ], [ 678590.063879123423249, 3758279.87913727434352 ], [ 678612.286688444204628, 3758286.620352782309055 ], [ 678658.103035221341997, 3758282.844369891565293 ], [ 678736.432055761339143, 3758231.325134836137295 ], [ 678754.840176346711814, 3758204.620230493601412 ], [ 678794.244032788323238, 3758203.528505926486105 ], [ 678817.578065708046779, 3758214.118491557892412 ], [ 678871.242382207536139, 3758210.736521504353732 ], [ 678916.963924316107295, 3758194.810432619880885 ], [ 678933.104481542599387, 3758178.857310488354415 ], [ 678965.767983687575907, 3758176.507098843809217 ], [ 678996.877138114883564, 3758140.403470693621784 ], [ 679017.605086804949678, 3758084.195201111026108 ], [ 679052.635411159950309, 3758077.902661523781717 ], [ 679270.918056553811766, 3757955.429041201248765 ], [ 679367.812846102169715, 3757958.285554626025259 ], [ 679389.460690108011477, 3757936.637710620183498 ], [ 679390.822734245448373, 3757908.195514737162739 ], [ 679292.03529163938947, 3757788.596641883719712 ], [ 679271.55463327257894, 3757777.649501915089786 ], [ 679252.139633301761933, 3757778.603299702052027 ], [ 679235.46674914448522, 3757788.596641883719712 ], [ 679223.870714180287905, 3757808.276856368873268 ], [ 679227.770391051890329, 3757852.4358543548733 ], [ 679196.744770304881968, 3757862.627791649196297 ], [ 679141.177176151773892, 3757925.687845407985151 ], [ 679067.804830096079968, 3757975.063708852510899 ], [ 679044.030469222343527, 3757985.092882596421987 ], [ 678989.887944042566232, 3757984.162065003532916 ], [ 678956.922692610183731, 3757998.170801343396306 ], [ 678942.09824168344494, 3758021.321996403858066 ], [ 678930.604613136034459, 3758071.282309990376234 ], [ 678907.476741024409421, 3758082.2570831165649 ], [ 678878.224969664821401, 3758117.34887268813327 ], [ 678866.668905393104069, 3758123.964419189374894 ], [ 678727.174384619458579, 3758120.633850727695972 ], [ 678681.763574776588939, 3758152.275779436342418 ] ] ], [ [ [ 679170.063290066202171, 3758739.638703815639019 ], [ 679161.17631913383957, 3758761.093749569263309 ], [ 679164.028526900336146, 3758780.321772477123886 ], [ 679178.760898879962042, 3758798.273219674360007 ], [ 679200.070342703023925, 3758806.424533826764673 ], [ 679494.182236880413257, 3758761.830896522384137 ], [ 679622.468292559264228, 3758718.013337034266442 ], [ 679754.169105083565228, 3758654.113880181219429 ], [ 679801.212649116641842, 3758617.316483831498772 ], [ 679876.108602665946819, 3758596.304610282648355 ], [ 679895.771008581388742, 3758574.851238955743611 ], [ 679897.133058717241511, 3758546.409038496669382 ], [ 679874.162782582570799, 3758521.065244286321104 ], [ 679825.875776537577622, 3758520.711636099033058 ], [ 679758.74022894364316, 3758540.448998519685119 ], [ 679737.964691861183383, 3758563.677849638275802 ], [ 679716.853550842381082, 3758568.325429801829159 ], [ 679672.550564616452903, 3758602.587755457963794 ], [ 679546.166129291756079, 3758657.775783489458263 ], [ 679465.08044143114239, 3758684.642140497919172 ], [ 679325.787622529664077, 3758699.589167721103877 ], [ 679196.266655038460158, 3758724.338793592527509 ], [ 679170.063290066202171, 3758739.638703815639019 ] ] ] ] } },
{ "type": "Feature", "properties": { "depth_bin": "215-220" }, "geometry": { "type": "MultiPolygon", "coordinates": [ [ [ [ 678683.064948249608278, 3758148.121160858310759 ], [ 678668.093728298437782, 3758173.395313504152 ], [ 678579.107133719604462, 3758221.350614281836897 ], [ 678573.094892118824646, 3758252.900501073803753 ], [ 678590.103494014125317, 3758278.355672684963793 ], [ 678636.091744663892314, 3758283.895808625966311 ], [ 678672.513896178570576, 3758273.826018590480089 ], [ 678720.821323378011584, 3758237.354406194295734 ], [ 678752.77572238270659, 3758198.791448590811342 ], [ 678875.137205203063786, 3758203.509771108161658 ], [ 678898.60309002280701, 3758197.381997125223279 ], [ 678988.465283001423813, 3758126.999309727922082 ], [ 679005.520843207486905, 3758103.496999768074602 ], [ 679015.145812141359784, 3758062.56369050219655 ], [ 679038.096357427421026, 3758067.198514707852155 ], [ 679080.150449803913943, 3758057.521121864207089 ], [ 679186.298258306575008, 3757991.480006046127528 ], [ 679239.107205143664032, 3757935.450116896536201 ], [ 679281.761824525659904, 3757932.602952225133777 ], [ 679323.880879146279767, 3757916.679042358417064 ], [ 679347.991749900043942, 3757889.824338417034596 ], [ 679348.031361468951218, 3757857.686192701105028 ], [ 679286.159032431663945, 3757782.834331592079252 ], [ 679268.586913945735432, 3757774.523338510189205 ], [ 679245.475963770528324, 3757776.799568425863981 ], [ 679213.377556682680734, 3757807.933717286214232 ], [ 679196.978449917398393, 3757834.337415541056544 ], [ 679193.93779425311368, 3757856.718827455304563 ], [ 679139.357471371651627, 3757924.429157567210495 ], [ 679060.30847210646607, 3757974.211628461256623 ], [ 678989.96717241150327, 3757981.115028640255332 ], [ 678960.194453439326026, 3757991.262030825018883 ], [ 678943.899000498699024, 3758010.697333155199885 ], [ 678927.799341275589541, 3758062.833660714328289 ], [ 678893.084586666780524, 3758094.070373904891312 ], [ 678862.26301808480639, 3758111.961662361398339 ], [ 678828.447851293487474, 3758117.731932176277041 ], [ 678726.532384208170697, 3758117.096479438710958 ], [ 678683.064948249608278, 3758148.121160858310759 ] ] ], [ [ [ 679214.045313721173443, 3758725.444767525419593 ], [ 679183.291688979137689, 3758733.397980083711445 ], [ 679166.283087083837017, 3758758.853151694871485 ], [ 679172.216093984083273, 3758790.403043885715306 ], [ 679199.155115753877908, 3758808.974735614843667 ], [ 679484.882923801545985, 3758767.687069643288851 ], [ 679580.779836116940714, 3758738.272348413709551 ], [ 679708.733898134552874, 3758683.668624038342386 ], [ 679800.491584688541479, 3758619.508657471742481 ], [ 679879.076318727107719, 3758599.430798509623855 ], [ 679897.175630554440431, 3758579.461285230703652 ], [ 679898.537680733017623, 3758551.019084761850536 ], [ 679874.083546554436907, 3758524.112196436151862 ], [ 679833.453538081026636, 3758522.433202079497278 ], [ 679760.18446794222109, 3758543.535567332059145 ], [ 679737.332714208052494, 3758567.761527942493558 ], [ 679666.093418619362637, 3758609.253952345810831 ], [ 679545.676427367608994, 3758660.802565014455467 ], [ 679462.09759119770024, 3758687.616887805052102 ], [ 679326.435489163850434, 3758701.807475520297885 ], [ 679214.045313721173443, 3758725.444767525419593 ] ] ] ] } },
{ "type": "Feature", "properties": { "depth_bin": "220-225" }, "geometry": { "type": "MultiPolygon", "coordinates": [ [ [ [ 678620.300159873208031, 3758191.583780645392835 ], [ 678588.896948042558506, 3758199.61077218875289 ], [ 678570.285652005579323, 3758228.073258162010461 ], [ 678577.623283996945247, 3758264.233153477311134 ], [ 678603.078455608454533, 3758281.241755372844636 ], [ 678669.506581080262549, 3758272.223323984537274 ], [ 678728.755566339707002, 3758225.364755724091083 ], [ 678751.453466455917805, 3758193.333559818100184 ], [ 678872.169399509439245, 3758200.383606142364442 ], [ 678906.418496251804754, 3758189.962732183746994 ], [ 678985.418347407365218, 3758126.92008249508217 ], [ 679002.513520888751373, 3758101.894304892979562 ], [ 679010.81724392878823, 3758059.144883985165507 ], [ 679089.528940047137439, 3758048.61798575008288 ], [ 679197.061820799019188, 3757979.901102148462087 ], [ 679249.193713929038495, 3757920.471091270912439 ], [ 679295.821464924491011, 3757884.807943016756326 ], [ 679314.734472748124972, 3757841.759693127591163 ], [ 679309.335663671023212, 3757812.013658004347235 ], [ 679276.711062174523249, 3757773.828265218064189 ], [ 679237.475852592498995, 3757773.788654258009046 ], [ 679092.938272298430093, 3757947.690002346877009 ], [ 679055.83024898765143, 3757969.529060267377645 ], [ 678968.752234785584733, 3757983.0347427460365 ], [ 678926.136330457287841, 3758009.566282043699175 ], [ 678911.631754510803148, 3758031.882635541260242 ], [ 678909.308834289200604, 3758068.546883154194802 ], [ 678881.214057028875686, 3758096.491573736071587 ], [ 678863.590994639671408, 3758102.980494186282158 ], [ 678834.451045705238357, 3758099.031377885490656 ], [ 678811.09039697679691, 3758111.235544319730252 ], [ 678719.947958673350513, 3758112.245820441283286 ], [ 678680.557023246539757, 3758140.048441176302731 ], [ 678667.84366857202258, 3758161.868229550309479 ], [ 678620.300159873208031, 3758191.583780645392835 ] ] ], [ [ [ 679186.21976947132498, 3758738.047629768960178 ], [ 679171.487397491699085, 3758755.999076966196299 ], [ 679170.164965362870134, 3758782.917801351286471 ], [ 679184.550797546864487, 3758803.789924886077642 ], [ 679209.013163504889235, 3758814.279605622868985 ], [ 679480.193647827603854, 3758772.138628385495394 ], [ 679605.274269046378322, 3758734.335836209356785 ], [ 679722.946752351592295, 3758682.267624869477004 ], [ 679802.163207739358768, 3758622.435609576757997 ], [ 679878.957464493229054, 3758604.001226768363267 ], [ 679898.659488582983613, 3758581.024379389826208 ], [ 679899.981920711812563, 3758554.105655004736036 ], [ 679877.011644577141851, 3758528.761860794387758 ], [ 679833.334683950408362, 3758527.003629917278886 ], [ 679761.628706896561198, 3758546.62213620217517 ], [ 679677.553840688895434, 3758609.620577285066247 ], [ 679547.852258755592629, 3758664.452248587738723 ], [ 679458.05698727176059, 3758692.284247723408043 ], [ 679312.565770565299317, 3758707.544783362653106 ], [ 679186.21976947132498, 3758738.047629768960178 ] ] ] ] } },
{ "type": "Feature", "properties": { "depth_bin": "225-230" }, "geometry": { "type": "MultiPolygon", "coordinates": [ [ [ [ 678639.58219394122716, 3758170.119257614482194 ], [ 678587.492327713407576, 3758195.000763713382185 ], [ 678571.196876439149491, 3758214.43606073781848 ], [ 678571.117646929109469, 3758248.09766443585977 ], [ 678594.249340717331506, 3758271.308587776497006 ], [ 678648.748988618608564, 3758267.250229427125305 ], [ 678685.373181315953843, 3758242.763708754908293 ], [ 678708.504449092666619, 3758238.173895145766437 ], [ 678751.262532239663415, 3758188.074455210007727 ], [ 678830.544537534937263, 3758192.90870478656143 ], [ 678879.566912348032929, 3758184.831174395047128 ], [ 678916.113895431975834, 3758168.87187536014244 ], [ 678985.537188188638538, 3758122.349679144099355 ], [ 679000.789017268572934, 3758098.119127732235938 ], [ 679008.888629722292535, 3758055.999308482278138 ], [ 679092.7739417408593, 3758041.07986667426303 ], [ 679190.928329468239099, 3757981.266122831963003 ], [ 679249.853483652928844, 3757911.231259883381426 ], [ 679277.381371903466061, 3757890.426487607415766 ], [ 679307.92446136160288, 3757836.268098116852343 ], [ 679304.923698506318033, 3757805.800841553602368 ], [ 679273.743342806468718, 3757770.702102067880332 ], [ 679236.031603860319592, 3757770.702102067880332 ], [ 679186.532218342763372, 3757813.169002425391227 ], [ 679148.558652008417994, 3757872.6814851667732 ], [ 679068.28547979821451, 3757957.720483884215355 ], [ 678974.93055528041441, 3757973.10155967110768 ], [ 678920.517815047991462, 3757991.126217289827764 ], [ 678902.887078282306902, 3758016.41028040042147 ], [ 678898.554761489271186, 3758069.370015492197126 ], [ 678877.830817626789212, 3758091.831919938791543 ], [ 678863.403289873735048, 3758097.794918461702764 ], [ 678820.898301241337322, 3758092.580986049026251 ], [ 678795.803072404116392, 3758104.699938111938536 ], [ 678717.748115908820182, 3758103.147603795863688 ], [ 678676.165151459397748, 3758125.026399947702885 ], [ 678639.58219394122716, 3758170.119257614482194 ] ] ], [ [ [ 679186.173047935124487, 3758746.22756519773975 ], [ 679175.22590796649456, 3758766.708223564550281 ], [ 679177.462517984909937, 3758791.342643811367452 ], [ 679192.009665649035014, 3758810.082004623487592 ], [ 679213.464711402426474, 3758818.968975556083024 ], [ 679342.395107784541324, 3758793.382721506990492 ], [ 679476.948602430638857, 3758779.676851239986718 ], [ 679600.545371352462098, 3758740.310872553382069 ], [ 679719.279363721841946, 3758688.516379470471293 ], [ 679799.741155502735637, 3758627.626741017680615 ], [ 679880.401704357238486, 3758607.087797062471509 ], [ 679900.064110410399735, 3758585.634425799828023 ], [ 679901.426160646369681, 3758557.192225302569568 ], [ 679889.948960451642051, 3758538.956246945075691 ], [ 679869.468302084831521, 3758528.009106976445764 ], [ 679808.681743917171843, 3758537.034070981666446 ], [ 679762.752956699114293, 3758551.80600768327713 ], [ 679678.122740512364544, 3758615.664800243452191 ], [ 679549.979890455142595, 3758669.89454926084727 ], [ 679439.577120950911194, 3758699.426271520089358 ], [ 679261.894936391618103, 3758721.472038469742984 ], [ 679186.173047935124487, 3758746.22756519773975 ] ] ] ] } },
{ "type": "Feature", "properties": { "depth_bin": "230-235" }, "geometry": { "type": "MultiPolygon", "coordinates": [ [ [ [ 678634.100292913382873, 3758167.805849463213235 ], [ 678592.340024242759682, 3758184.455355601850897 ], [ 678569.831870738998987, 3758208.302587831392884 ], [ 678569.713026623474434, 3758243.487656046636403 ], [ 678591.360870629316196, 3758265.135500052478164 ], [ 678623.652223027660511, 3758266.12595370830968 ], [ 678662.404247885104269, 3758252.220206476282328 ], [ 678741.715152085525915, 3758179.791801764629781 ], [ 678809.453590797027573, 3758183.213306905236095 ], [ 678837.613558372249827, 3758172.926182070747018 ], [ 678875.16082869831007, 3758177.29937604162842 ], [ 678919.358899293118156, 3758161.333766777534038 ], [ 678957.544177679694258, 3758128.709137143101543 ], [ 678976.611600470845588, 3758089.867974001914263 ], [ 678977.807674906798638, 3758059.151757535524666 ], [ 678998.740835067466833, 3758049.680965151172131 ], [ 679089.845842026406899, 3758036.430234469939023 ], [ 679146.351489800144918, 3757995.352057735435665 ], [ 679213.272249848698266, 3757923.98791593965143 ], [ 679249.175574560882524, 3757862.539361069444567 ], [ 679286.622787218191661, 3757828.162151030730456 ], [ 679293.364002726040781, 3757805.939341709949076 ], [ 679288.68046422326006, 3757785.560001634992659 ], [ 679257.32429926248733, 3757764.608482040930539 ], [ 679214.145351839368232, 3757781.385659688618034 ], [ 679060.198576200869866, 3757953.049506354611367 ], [ 678996.110270256176591, 3757959.01224973751232 ], [ 678960.63468923594337, 3757942.792887212242931 ], [ 678922.979139283881523, 3757956.755316176917404 ], [ 678903.798174583702348, 3757981.370423792861402 ], [ 678895.731745938886888, 3758061.601197130978107 ], [ 678877.869008356356062, 3758085.012163862586021 ], [ 678865.300542218261398, 3758091.638820613734424 ], [ 678834.120097649050876, 3758084.625357950571924 ], [ 678788.703007040545344, 3758095.669322225730866 ], [ 678751.615033526788466, 3758091.627003768458962 ], [ 678713.256946753012016, 3758099.981830666773021 ], [ 678668.547824475564994, 3758124.828329586423934 ], [ 678634.100292913382873, 3758167.805849463213235 ] ] ], [ [ [ 679287.90095772058703, 3758724.225828505121171 ], [ 679195.056605871766806, 3758748.320408222265542 ], [ 679179.061858112807386, 3758776.803990921005607 ], [ 679187.948829045169987, 3758806.100407900754362 ], [ 679206.56923017767258, 3758819.282567872200161 ], [ 679227.320723231765442, 3758822.174395602196455 ], [ 679375.788178348913789, 3758792.771720725111663 ], [ 679459.152139531448483, 3758790.938375695142895 ], [ 679605.950643191114068, 3758743.394494075328112 ], [ 679724.272132824757136, 3758689.924616858363152 ], [ 679797.088063583127223, 3758633.140800590626895 ], [ 679885.21288402355276, 3758608.156301329378039 ], [ 679901.508450234658085, 3758588.720998762175441 ], [ 679902.870500500430353, 3758560.278798255138099 ], [ 679889.968618437764235, 3758540.969767211005092 ], [ 679868.513572684372775, 3758532.08279627840966 ], [ 679776.292474951944314, 3758551.436841459013522 ], [ 679683.890986163401976, 3758616.993765480350703 ], [ 679572.184069009963423, 3758666.110515075270087 ], [ 679442.666119122528471, 3758706.004318309482187 ], [ 679343.752320079132915, 3758712.252373280469328 ], [ 679287.90095772058703, 3758724.225828505121171 ] ] ] ] } },
{ "type": "Feature", "properties": { "depth_bin": "235-240" }, "geometry": { "type": "MultiPolygon", "coordinates": [ [ [ [ 678629.268193406402133, 3758165.016237961594015 ], [ 678595.984268758795224, 3758171.772937228437513 ], [ 678567.022629521903582, 3758199.082571366336197 ], [ 678568.30840620258823, 3758238.8776477384381 ], [ 678589.956250208429992, 3758260.525491744279861 ], [ 678613.0672003836371, 3758262.801721659954637 ], [ 678654.826538256485946, 3758250.49866852723062 ], [ 678737.922210396267474, 3758175.504634210839868 ], [ 678795.940463471924886, 3758175.239449786953628 ], [ 678832.39468333683908, 3758164.887108143884689 ], [ 678875.319284317083657, 3758171.205508013255894 ], [ 678921.08043816650752, 3758153.755944170057774 ], [ 678950.259651293163188, 3758130.579369298648089 ], [ 678969.155684503493831, 3758094.928938208147883 ], [ 678974.829256807337515, 3758036.36600656202063 ], [ 679071.836286204867065, 3758032.335300304926932 ], [ 679112.537826619227417, 3758013.954216135665774 ], [ 679212.144797013606876, 3757908.713602390605956 ], [ 679246.580591168487445, 3757854.049734137486666 ], [ 679282.840172096970491, 3757828.228520969394594 ], [ 679291.727143029333092, 3757806.773475215770304 ], [ 679287.236215431359597, 3757782.473449538927525 ], [ 679255.880050470586866, 3757761.521929944865406 ], [ 679212.701103390427306, 3757778.299107820726931 ], [ 679070.6368499629898, 3757934.195068792905658 ], [ 679030.809787491685711, 3757934.75200080126524 ], [ 679008.647980535868555, 3757919.247044602874666 ], [ 678985.723302575293928, 3757916.004164531361312 ], [ 678955.101960480445996, 3757921.699793845880777 ], [ 678926.461812293273397, 3757940.076396106276661 ], [ 678897.622106202528812, 3757972.906007705256343 ], [ 678891.5028723255964, 3758059.115091464947909 ], [ 678877.226041259476915, 3758076.736693447455764 ], [ 678862.537115085404366, 3758084.771301906555891 ], [ 678829.668538958998397, 3758079.936116551514715 ], [ 678707.242212091805413, 3758096.776441224385053 ], [ 678671.832439405960031, 3758115.766765379346907 ], [ 678629.268193406402133, 3758165.016237961594015 ] ] ], [ [ [ 679196.298354624770582, 3758754.498460476286709 ], [ 679185.082804217585362, 3758772.27908959845081 ], [ 679185.082804217585362, 3758795.501863779034466 ], [ 679199.468536451691762, 3758816.373984966892749 ], [ 679220.923582205083221, 3758825.260955899488181 ], [ 679387.896710861241445, 3758796.135621811728925 ], [ 679476.631644956767559, 3758791.864630416035652 ], [ 679609.527735386858694, 3758746.642482745461166 ], [ 679710.283529285225086, 3758700.232368634548038 ], [ 679797.650653960765339, 3758637.042529 ], [ 679884.774141851696186, 3758614.824034737423062 ], [ 679904.436548015568405, 3758593.370663508307189 ], [ 679905.758980144397356, 3758566.451939123217016 ], [ 679891.412858281750232, 3758544.056337616872042 ], [ 679869.957812528358772, 3758535.169366684276611 ], [ 679770.04009759076871, 3758557.372369724791497 ], [ 679685.335393699118868, 3758620.080272419378161 ], [ 679572.065212154644541, 3758670.680935248732567 ], [ 679449.924609727459028, 3758711.891380148008466 ], [ 679341.274004945298657, 3758717.438384801149368 ], [ 679237.885747459949926, 3758737.145480659790337 ], [ 679196.298354624770582, 3758754.498460476286709 ] ] ] ] } },
{ "type": "Feature", "properties": { "depth_bin": "240-245" }, "geometry": { "type": "MultiPolygon", "coordinates": [ [ [ [ 678780.725301516824402, 3758084.966717088595033 ], [ 678709.71945209254045, 3758095.210400185082108 ], [ 678662.453963142237626, 3758124.669873308390379 ], [ 678625.384855805197731, 3758164.207524225581437 ], [ 678575.673996771569364, 3758178.819767892826349 ], [ 678561.049728138139471, 3758209.740186027251184 ], [ 678572.978163464111276, 3758242.812569062225521 ], [ 678599.977895985473879, 3758257.244226762559265 ], [ 678646.826458061113954, 3758247.487661140039563 ], [ 678676.838807055959478, 3758228.588256841991097 ], [ 678722.216852651210502, 3758175.930523061659187 ], [ 678770.534756907494739, 3758160.712795863859355 ], [ 678799.264693009317853, 3758164.654413464479148 ], [ 678828.080355176352896, 3758157.379490426275879 ], [ 678873.040907288668677, 3758166.867331748362631 ], [ 678896.506891693570651, 3758160.739559364970773 ], [ 678944.774637550232001, 3758125.791344743221998 ], [ 678962.946564497658983, 3758096.835162624716759 ], [ 678977.264207046478987, 3758002.075065402314067 ], [ 678992.746885800268501, 3757997.628008862957358 ], [ 679023.905153178260662, 3758018.249356287065893 ], [ 679092.877668841625564, 3758013.535616385284811 ], [ 679118.221463051857427, 3757990.565340250730515 ], [ 679118.300690559088252, 3757956.903627737425268 ], [ 679089.149122139322571, 3757932.97955381590873 ], [ 679028.045150092802942, 3757933.47653315635398 ], [ 678986.676276537007652, 3757913.070614779833704 ], [ 678955.220797300687991, 3757917.129389975219965 ], [ 678922.089473648928106, 3757932.340120308101177 ], [ 678896.530789299635217, 3757958.613977255765349 ], [ 678884.446123225847259, 3758065.380453799851239 ], [ 678860.433531683403999, 3758082.710992128588259 ], [ 678836.675771677168086, 3758078.299266457092017 ], [ 678780.725301516824402, 3758084.966717088595033 ] ] ], [ [ [ 679190.487713729846291, 3757804.441418497357517 ], [ 679171.178682685480453, 3757817.343300560023636 ], [ 679113.205626073409803, 3757890.090345669537783 ], [ 679113.205626073409803, 3757920.705020259134471 ], [ 679134.853470079251565, 3757942.352864264976233 ], [ 679157.964420254458673, 3757944.629094180651009 ], [ 679178.445078621269204, 3757933.681954212021083 ], [ 679220.237587995245121, 3757890.629923266824335 ], [ 679241.415998682263307, 3757849.946340651251376 ], [ 679281.395923288655467, 3757825.141968916170299 ], [ 679290.282894221018068, 3757795.845551936421543 ], [ 679275.851236520684324, 3757768.845819415058941 ], [ 679246.554819540935569, 3757759.958848482463509 ], [ 679222.013221784494817, 3757770.290068217087537 ], [ 679190.487713729846291, 3757804.441418497357517 ] ] ], [ [ [ 679199.266055310377851, 3758757.624640483409166 ], [ 679188.050504560931586, 3758775.405269916169345 ], [ 679188.050504560931586, 3758798.628044096753001 ], [ 679202.436236795037985, 3758819.500165341421962 ], [ 679223.891282548429444, 3758828.387136274017394 ], [ 679366.369916480151005, 3758803.198298221454024 ], [ 679488.819424562389031, 3758792.181588362436742 ], [ 679607.885403664433397, 3758751.173284136224538 ], [ 679717.900901990826242, 3758700.430463442578912 ], [ 679798.571438711951487, 3758641.935032695066184 ], [ 679887.741857719607651, 3758617.950223464984447 ], [ 679905.841169546940364, 3758597.980710186064243 ], [ 679907.20321989885997, 3758569.538509638048708 ], [ 679892.817479888326488, 3758548.666384229902178 ], [ 679871.362434134935029, 3758539.779413297306746 ], [ 679768.397767180227675, 3758561.903177405707538 ], [ 679687.115537684992887, 3758622.862392390146852 ], [ 679571.946355158113874, 3758675.251355421263725 ], [ 679454.283598493086174, 3758715.245837922673672 ], [ 679375.626461407286115, 3758717.654804653953761 ], [ 679278.375774881569669, 3758732.572151167783886 ], [ 679228.586443025036715, 3758743.001742445863783 ], [ 679199.266055310377851, 3758757.624640483409166 ] ] ] ] } },
{ "type": "Feature", "properties": { "depth_bin": "245-250" }, "geometry": { "type": "MultiPolygon", "coordinates": [ [ [ [ 678957.506780878640711, 3758011.456983423326164 ], [ 678928.168681999668479, 3757993.872403677087277 ], [ 678893.32757825194858, 3758008.304061377421021 ], [ 678884.440607319585979, 3758029.759107131045312 ], [ 678889.056740148342215, 3758073.643483189400285 ], [ 678847.890005383174866, 3758088.9589185975492 ], [ 678831.835201274720021, 3758110.606315999291837 ], [ 678831.835201274720021, 3758133.829090179875493 ], [ 678844.737083337386139, 3758153.138121224008501 ], [ 678879.439894590643235, 3758161.488728098571301 ], [ 678916.505688623874448, 3758138.848672187887132 ], [ 678925.392659556237049, 3758117.393626434262842 ], [ 678921.70579793676734, 3758096.400876224506646 ], [ 678947.400076916557737, 3758089.830203084740788 ], [ 678963.454881025012583, 3758068.182805682998151 ], [ 678957.506780878640711, 3758011.456983423326164 ] ] ], [ [ [ 679756.104396003531292, 3758572.976289255078882 ], [ 679736.797979750204831, 3758593.314631602261215 ], [ 679732.843419108074158, 3758619.974113956093788 ], [ 679743.790559076704085, 3758640.454772322904319 ], [ 679768.154144710977562, 3758651.97789014223963 ], [ 679882.590612899628468, 3758622.63588825892657 ], [ 679901.290264314622618, 3758609.612198663875461 ], [ 679910.177235246985219, 3758588.15715291025117 ], [ 679901.290264314622618, 3758558.860735930502415 ], [ 679874.290531793260016, 3758544.42907823016867 ], [ 679756.104396003531292, 3758572.976289255078882 ] ] ] ] } }
]
}
